,Company name,"Street, no., building etc, line 1",City,Country,"NACE Rev. 2
Core code (4 digits)","Operating
revenue
(Turnover)
m EUR
2017","Operating
revenue
(Turnover)
m EUR
2016","Operating
revenue
(Turnover)
m EUR
2015","Operating
revenue
(Turnover)
m EUR
2014","Operating
revenue
(Turnover)
m EUR
2013","Operating
revenue
(Turnover)
m EUR
2012","Operating
revenue
(Turnover)
m EUR
2011","Operating
revenue
(Turnover)
m EUR
2010","Operating
revenue
(Turnover)
m EUR
2009","Operating
revenue
(Turnover)
m EUR
2008","Number of employees
2017","Number of employees
2016","Number of employees
2015","Number of employees
2014","Number of employees
2013","Number of employees
2012","Number of employees
2011","Number of employees
2010","Number of employees
2009","Number of employees
2008"
1.,MAGNA INTERNATIONAL INC,"337, MAGNA DRIVE",AURORA,Canada,2932,n.a.,"34,575","31,264","30,180","25,259","23,514","22,237","17,564","12,055","17,032",n.a.,n.a.,n.a.,n.a.,n.a.,n.a.,n.a.,n.a.,n.a.,n.a.
2.,OMV REFINING & MARKETING GMBH,TRABRENNSTRASSE 6-8,WIEN,Austria,4730,n.a.,"4,855","5,578","7,323","8,189",n.a.,"8,169","6,176",n.a.,n.a.,n.a.,"1,100","1,107","1,091","1,088",n.a.,n.a.,n.a.,n.a.,n.a.
3.,SAPPI AUSTRIA PRODUKTIONS- GMBH & CO. KG,BRUCKER STRASSE 21,GRATKORN,Austria,1729,n.a.,n.a.,"4,208","4,011",n.a.,"4,286",n.a.,n.a.,n.a.,n.a.,n.a.,n.a.,n.a.,n.a.,n.a.,n.a.,n.a.,n.a.,n.a.,n.a.
4.,BMW MOTOREN GMBH,HINTERBERGERSTRASSE 2,STEYR,Austria,2910,n.a.,"4,022","3,868","3,710","3,397","3,431","3,606","3,089",n.a.,n.a.,n.a.,"3,059","3,095","2,910","2,725","2,700","2,484",n.a.,n.a.,n.a.
5.,VOESTALPINE STAHL GMBH,VOESTALPINE-STR. 3,LINZ,Austria,2410,n.a.,"3,407","3,260","3,507","3,570","3,533","3,646","3,554","2,472",n.a.,n.a.,"7,100","7,082","7,010","6,879","6,879","6,793","7,059",n.a.,n.a.
6.,EVN AG,EVN PLATZ,MARIA ENZERSDORF,Austria,3511,"2,302","2,125","2,225","2,047","2,173","2,911","2,794","2,806","2,785","2,445","6,840","6,830","6,973","7,314","7,445","7,594","8,250","8,536","8,937","9,342"
7.,MAGNA STEYR FAHRZEUGTECHNIK AG & CO KG,LIEBENAUER HAUPTSTRASSE 317,GRAZ,Austria,2910,n.a.,"2,536",n.a.,"2,853","2,954","2,766",n.a.,"2,212",n.a.,n.a.,n.a.,"3,740",n.a.,"3,600","3,600","5,008","5,008",n.a.,n.a.,n.a.
8.,MAYR-MELNHOF KARTON AG,BRAHMSPLATZ 6,VIENNA,Austria,1712,n.a.,"2,284","2,193","2,101","2,017","1,961","1,968","1,790","1,618","1,742",n.a.,"9,927","9,938","9,399","9,477","8,836","8,882","8,679","8,112","8,240"
9.,AUSTRIAN AIRLINES AG,OFFICE PARK 2,WIEN-FLUGHAFEN,Austria,5110,n.a.,n.a.,"2,179","2,305","2,363","2,421","2,059","2,062",n.a.,n.a.,n.a.,n.a.,n.a.,"2,496","2,400","4,800","4,669","4,898",n.a.,n.a.
10.,LENZING AG,WERKSTRASSE 2,LENZING,Austria,2060,n.a.,"2,180","2,026","1,911","1,979","2,135","2,191","1,806","1,273","1,353",n.a.,"6,218","6,127","6,356","6,675","7,033","6,444","6,143","6,021","5,945"
11.,SANDOZ GMBH,BIOCHEMIESTRASSE 10,KUNDL,Austria,2120,n.a.,"1,677","1,812","1,622","1,523","1,509","1,498","1,416",n.a.,n.a.,n.a.,"4,118","3,780","3,780","3,350","3,218","3,017",n.a.,n.a.,n.a.
12.,WIEN ENERGIE GMBH,THOMAS-KLESTIL-PLATZ 14,WIEN,Austria,3511,n.a.,"1,127","1,176","1,019",999,219,221,34,n.a.,n.a.,n.a.,"2,500","2,500","2,542","2,500","1,350",4,n.a.,n.a.,n.a.
13.,"SALZBURG AG FUER ENERGIE, VERKEHR UND TELEKOMMUNI- KATION",BAYERHAMERSTRASSE 16,SALZBURG,Austria,3510,n.a.,"1,101","1,271","1,329",n.a.,n.a.,"1,521","1,488",n.a.,n.a.,n.a.,"2,022","2,000","2,030",n.a.,n.a.,"1,928",n.a.,n.a.,n.a.
14.,TIROL KLINIKEN GMBH,ANICHSTRASSE 35,INNSBRUCK,Austria,8610,n.a.,779,738,710,688,659,661,n.a.,373,n.a.,n.a.,8,8,8,9,9,9,n.a.,n.a.,n.a.
15.,AGRANA STAERKE GMBH,FRIEDRICH-WILHELM-RAIFFEISEN-P 1,WIEN,Austria,1062,n.a.,740,725,701,532,476,446,n.a.,n.a.,n.a.,n.a.,765,758,739,593,582,554,520,n.a.,n.a.
16.,BRAU UNION OESTERREICH AKTIENGESELLSCHAFT,POSCHACHERSTR. 35,LINZ,Austria,1105,n.a.,729,714,684,676,662,640,597,603,611,n.a.,"2,200","1,970","1,970","2,000","1,974","2,089",n.a.,n.a.,n.a.
17.,GLOCK GESELLSCHAFT M.B.H.,GASTON-GLOCK-PARK 1,FERLACH,Austria,2540,n.a.,713,499,385,n.a.,n.a.,215,n.a.,n.a.,n.a.,n.a.,n.a.,n.a.,n.a.,n.a.,n.a.,n.a.,n.a.,n.a.,n.a.
18.,VOESTALPINE STAHL DONAWITZ GMBH,KERPELYSTR. 199,LEOBEN-DONAWITZ,Austria,6832,n.a.,695,706,759,843,807,n.a.,n.a.,n.a.,n.a.,n.a.,"1,369","1,368","1,368","1,358","1,300","1,294",1,n.a.,n.a.
19.,VOESTALPINE BOEHLER EDELSTAHL GMBH & CO KG,MARIAZELLERSTRASSE 25,KAPFENBERG,Austria,2420,n.a.,n.a.,635,n.a.,n.a.,n.a.,n.a.,109,n.a.,727,n.a.,n.a.,"2,164","2,145","2,145","2,079","2,079","1,964",n.a.,n.a.
20.,BAXTER AKTIENGESELLSCHAFT,INDUSTRIESTRASSE 67,WIEN,Austria,8299,n.a.,672,513,537,514,469,540,420,n.a.,n.a.,n.a.,"3,360",n.a.,"3,440","3,043","2,795","2,600",n.a.,n.a.,n.a.
21.,FRITZ EGGER GMBH & CO. OG,WEIBERNDORF 20,ST. JOHANN IN TIROL,Austria,1621,608,588,555,540,515,523,473,n.a.,n.a.,n.a.,"1,440","1,440","1,385","1,128","1,310","1,284","1,291",n.a.,n.a.,n.a.
22.,MONTANWERKE BRIXLEGG AKTIENGESELLSCHAFT,WERKSTRASSE 1,BRIXLEGG,Austria,2444,n.a.,630,608,570,541,852,834,899,n.a.,n.a.,n.a.,303,303,305,300,300,283,n.a.,n.a.,n.a.
23.,AMAG ROLLING GMBH,LAMPRECHTSHAUSENER STRASSE 61,BRAUNAU AM INN - RANSHOFE,Austria,2442,n.a.,629,608,532,513,510,505,447,n.a.,n.a.,n.a.,"1,021","1,021",922,874,853,817,n.a.,n.a.,n.a.
24.,AMAG CASTING GMBH,LAMPRECHTSHAUSENER STRASSE 61,BRAUNAU AM INN -RANSHOFEN,Austria,2442,n.a.,595,616,489,500,480,467,415,n.a.,n.a.,n.a.,403,312,345,335,331,325,n.a.,n.a.,n.a.
25.,UMDASCH AKTIENGESELLSCHAFT,REICHSSTR. 0 23,AMSTETTEN,Austria,4647,n.a.,n.a.,n.a.,n.a.,n.a.,402,n.a.,n.a.,n.a.,n.a.,n.a.,n.a.,n.a.,n.a.,n.a.,n.a.,n.a.,n.a.,n.a.,n.a.
26.,PORSCHE KONSTRUKTIONEN GMBH & CO KG,LOUISE-PIECH-STRASSE 2,SALZBURG,Austria,4531,n.a.,491,483,460,438,399,388,281,n.a.,n.a.,n.a.,480,469,506,390,397,379,n.a.,n.a.,n.a.
27.,VOESTALPINE SCHIENEN GMBH,KERPELYSTRASSE 199,LEOBEN,Austria,2511,n.a.,454,517,501,504,558,544,539,428,n.a.,n.a.,755,642,617,633,601,547,547,n.a.,n.a.
28.,OMV AUSTRIA EXPLORATION & PRODUCTION GMBH,PROTTESER STRASSE 40,GAENSERNDORF,Austria,0910,n.a.,429,575,789,924,985,981,738,n.a.,n.a.,n.a.,680,700,700,700,710,n.a.,n.a.,n.a.,n.a.
29.,NIKI LUFTFAHRT GMBH,"OFFICE PARK I, TOP B 3",WIEN-FLUGHAFEN,Austria,5110,n.a.,422,501,479,487,504,453,344,n.a.,n.a.,n.a.,820,90,n.a.,86,82,81,n.a.,n.a.,n.a.
30.,AGRANA ZUCKER GMBH,FRIEDRICH-WILHELM-RAIFFEISEN-PLATZ 1,WIEN,Austria,1081,n.a.,419,406,424,649,735,603,404,n.a.,n.a.,n.a.,553,554,619,598,569,556,556,n.a.,n.a.
31.,JUNGBUNZLAUER AUSTRIA AG,OPERNRING 1,WIEN,Austria,2013,n.a.,n.a.,n.a.,352,362,365,336,303,n.a.,n.a.,n.a.,n.a.,n.a.,n.a.,n.a.,n.a.,n.a.,n.a.,n.a.,n.a.
32.,CONSTANTIA TEICH GMBH,MUEHLHOFEN 4,WEINBURG,Austria,2592,n.a.,385,396,383,n.a.,359,352,317,n.a.,n.a.,n.a.,918,900,900,n.a.,785,n.a.,n.a.,n.a.,n.a.
33.,FUNDERMAX GMBH,KLAGENFURTER STRASSE 87-89,ST. VEIT AN DER GLAN,Austria,1621,n.a.,367,365,348,340,328,330,290,n.a.,n.a.,n.a.,925,954,941,949,943,912,n.a.,n.a.,n.a.
34.,BOREALIS AGROLINZ MELAMINE GMBH,ST. PETER-STR. 25,LINZ,Austria,2014,n.a.,365,399,416,425,485,504,399,320,146,n.a.,700,700,737,720,768,778,n.a.,n.a.,n.a.
35.,VEITSCH-RADEX GMBH & CO OG,WIENERBERGSTRASSE 9,WIEN,Austria,2320,n.a.,328,358,402,366,366,373,357,n.a.,n.a.,n.a.,"1,133","1,138","1,160","1,149","1,149","1,106",n.a.,n.a.,n.a.
36.,VOESTALPINE WIRE ROD AUSTRIA GMBH,DRAHTSTRASSE 1,ST. PETER-FREIENSTEIN,Austria,2434,n.a.,322,316,340,399,373,428,404,275,n.a.,n.a.,402,380,320,300,627,626,626,n.a.,n.a.
37.,VOESTALPINE TUBULARS GMBH & CO KG,ALPINESTRASSE 17,KINDBERG-AUMUEHL,Austria,2410,n.a.,315,356,562,573,601,597,509,283,576,n.a.,"1,121","1,129","1,217","1,191","1,122","1,094",984,n.a.,n.a.
38.,VERBUND THERMAL POWER GMBH & CO KG IN LIQU.,WEISSENEGGWEG 1,NEUDORF OB WILDON,Austria,3511,n.a.,319,176,120,305,270,258,n.a.,198,263,n.a.,n.a.,n.a.,n.a.,n.a.,n.a.,n.a.,n.a.,n.a.,n.a.
39.,TRANS AUSTRIA GASLEITUNG GMBH,WIEDNER HAUPTSTRASSE 120,WIEN,Austria,3522,n.a.,318,310,n.a.,323,286,287,272,n.a.,n.a.,n.a.,55,n.a.,n.a.,18,n.a.,n.a.,n.a.,n.a.,n.a.
40.,ESSITY AUSTRIA GMBH,STORCHENGASSE 1,WIEN,Austria,4649,n.a.,300,295,287,279,269,278,259,n.a.,n.a.,n.a.,630,630,628,628,622,640,n.a.,n.a.,n.a.
41.,GANAHL AKTIENGESELLSCHAFT,ROTFARBWEG 5,FRASTANZ,Austria,1712,n.a.,300,293,273,265,254,246,219,185,n.a.,n.a.,n.a.,n.a.,n.a.,n.a.,n.a.,n.a.,n.a.,n.a.,n.a.
42.,MONDI NEUSIEDLER GMBH,THERESIENTHALSTRASSE 50,ULMERFELD-HAUSMENING,Austria,1723,n.a.,294,292,287,306,344,336,349,n.a.,n.a.,n.a.,648,648,760,781,781,772,n.a.,n.a.,n.a.
43.,ZELLSTOFF POELS AKTIENGESELLSCHAFT,DR. LUIGI ANGELI-STRASSE 9,POELS,Austria,4676,n.a.,286,290,266,233,239,245,252,172,200,n.a.,380,416,373,383,359,359,n.a.,n.a.,n.a.
44.,LAAKIRCHEN PAPIER AG,SCHILLERSTRASSE 5,LAAKIRCHEN,Austria,1712,n.a.,284,276,318,339,346,316,319,363,n.a.,n.a.,515,526,550,550,550,550,n.a.,n.a.,n.a.
45.,"LINZ STROM GMBH FUER ENERGIEERZEUGUNG, -HANDEL, -DIENSTLEISTUNGEN UND TELEKOMMUNIKATION",WIENER STR. 151,LINZ,Austria,3511,n.a.,264,375,n.a.,n.a.,475,380,372,n.a.,n.a.,n.a.,230,530,n.a.,n.a.,525,527,n.a.,n.a.,n.a.
46.,SEMPERIT TECHNISCHE PRODUKTE GESELLSCHAFT M.B.H.,MODECENTERSTR. 22,WIEN,Austria,2229,n.a.,274,350,391,397,358,387,346,n.a.,n.a.,n.a.,720,717,660,n.a.,640,680,n.a.,n.a.,n.a.
47.,VOESTALPINE BOEHLER AEROSPACE GMBH & CO KG,MARIAZELLER STRASSE 25,KAPFENBERG,Austria,4672,n.a.,n.a.,249,224,n.a.,n.a.,166,142,n.a.,n.a.,n.a.,n.a.,703,600,n.a.,n.a.,530,500,n.a.,n.a.
48.,WIENERBERGER GMBH,OLDENBURGER ALLEE 26,HANNOVER,Germany,2332,n.a.,264,255,273,296,287,294,257,153,179,n.a.,"1,373","1,412","1,438","1,489","1,539","1,513","1,501",885,982
49.,BOREALIS POLYOLEFINE GMBH,DANUBIASTRASSE 21-25,SCHWECHAT-MANNSWOERTH,Austria,2016,n.a.,249,238,241,238,255,230,263,n.a.,n.a.,n.a.,890,890,900,940,892,867,n.a.,n.a.,n.a.
50.,GAS CONNECT AUSTRIA GMBH,FLORIDSDORFER HAUPTSTRASSE 1,WIEN,Austria,3522,n.a.,242,248,251,331,402,392,272,n.a.,n.a.,n.a.,350,350,352,352,343,343,n.a.,n.a.,n.a.
51.,PATHEON AUSTRIA GMBH & COKG,ST. PETER STRASSE 25,LINZ,Austria,2013,n.a.,225,339,329,414,373,364,324,n.a.,n.a.,n.a.,612,571,960,954,954,947,n.a.,n.a.,n.a.
52.,MONDI FRANTSCHACH GMBH,FRANTSCHACH 5,ST. GERTRAUD,Austria,1712,n.a.,232,232,246,252,241,252,n.a.,n.a.,n.a.,n.a.,450,465,n.a.,n.a.,468,462,n.a.,n.a.,n.a.
53.,NETTINGSDORFER PAPIERFABRIK AG & CO KG,NETTINGSDORFER STR. 40,HAID BEI ANSFELDEN,Austria,4676,n.a.,232,252,n.a.,251,223,n.a.,n.a.,n.a.,n.a.,n.a.,370,358,n.a.,347,349,n.a.,n.a.,n.a.,n.a.
54.,PAPIERFABRIK WATTENS GMBH & CO KG,LUDWIG-LASSL-STRASSE 15,WATTENS,Austria,1729,n.a.,223,248,216,223,237,196,154,n.a.,n.a.,n.a.,443,443,443,440,440,440,n.a.,n.a.,n.a.
55.,SEMPERIT REIFEN GESELLSCHAFT M.B.H.,TRIESTER STRASSE 14,WIENER NEUDORF,Austria,4531,n.a.,208,198,215,233,270,270,267,n.a.,n.a.,n.a.,98,94,100,102,106,n.a.,n.a.,n.a.,n.a.
56.,GETZNER TEXTIL AKTIENGESELLSCHAFT,BLEICHESTRASSE 1,BLUDENZ,Austria,1320,n.a.,206,176,164,132,121,121,106,n.a.,n.a.,n.a.,736,736,694,694,694,666,n.a.,n.a.,n.a.
57.,NORSKE SKOG BRUCK GMBH,FABRIKSGASSE 10,BRUCK,Austria,1712,n.a.,196,210,218,200,219,230,206,207,243,n.a.,451,477,483,500,500,515,n.a.,n.a.,n.a.
58.,STADTWERKE KLAGENFURT AKTIENGESELLSCHAFT,ST. VEITER STRASSE 31,KLAGENFURT,Austria,4939,n.a.,190,n.a.,168,n.a.,n.a.,n.a.,n.a.,n.a.,n.a.,n.a.,n.a.,n.a.,n.a.,n.a.,n.a.,n.a.,n.a.,n.a.,n.a.
59.,ESIM CHEMICALS GMBH,ST. PETER STRASSE 25,LINZ,Austria,2013,n.a.,186,66,n.a.,n.a.,n.a.,n.a.,n.a.,n.a.,n.a.,n.a.,400,400,n.a.,n.a.,n.a.,n.a.,n.a.,n.a.,n.a.
60.,BUNGE AUSTRIA GMBH,INDUSTRIEGELAENDE WEST 3,BRUCK AN DER LEITHA,Austria,1041,n.a.,n.a.,173,167,196,200,194,148,n.a.,n.a.,n.a.,n.a.,75,70,69,70,n.a.,n.a.,n.a.,n.a.
61.,TUPACK VERPACKUNGEN GESELLSCHAFT M.B.H.,WARNECKESTR. 5,WIEN,Austria,2222,n.a.,n.a.,165,151,155,143,132,147,128,153,n.a.,n.a.,930,915,944,973,916,965,949,"1,096"
62.,VETROPACK AUSTRIA GMBH,MANKER STRASSE 49,POECHLARN,Austria,2313,n.a.,177,190,177,177,174,164,157,n.a.,n.a.,n.a.,630,630,630,630,613,609,n.a.,n.a.,n.a.
63.,UPM-KYMMENE AUSTRIA GMBH,FABRIKSPLATZ 1,LAAKIRCHEN,Austria,1712,n.a.,173,183,197,202,239,290,249,n.a.,n.a.,n.a.,450,450,450,450,465,484,n.a.,n.a.,n.a.
64.,STAHL- UND WALZWERK MARIENHUETTE GESELLSCHAFT M.B.H.,SUEDBAHNSTR. 11,GRAZ,Austria,2511,n.a.,n.a.,159,179,183,197,203,178,132,n.a.,n.a.,n.a.,260,251,251,240,240,230,n.a.,n.a.
65.,W. HAMBURGER GMBH,ASPANGER STRASSE 252,PITTEN,Austria,1721,n.a.,171,175,196,231,246,289,n.a.,n.a.,n.a.,n.a.,272,250,250,250,n.a.,352,n.a.,n.a.,n.a.
66.,ENERGIE AG OBEROESTERREICH KRAFTWERKE GMBH,BOEHMERWALDSTR. 3,LINZ POSTFACH,Austria,3511,n.a.,156,180,155,150,230,245,245,n.a.,n.a.,n.a.,220,320,343,343,350,360,n.a.,n.a.,n.a.
67.,BAUMIT GMBH,WOPFING 156,WALDEGG,Austria,2351,n.a.,153,154,158,154,161,164,147,n.a.,n.a.,n.a.,290,290,290,300,305,299,n.a.,n.a.,n.a.
68.,EVN WAERME GMBH,EVN PLATZ 0,MARIA ENZERSDORF,Austria,3511,n.a.,143,149,148,157,138,128,127,n.a.,n.a.,n.a.,110,110,110,110,95,89,n.a.,n.a.,n.a.
69.,ENERGIE KLAGENFURT GMBH,ST. VEITER STRASSE 31,KLAGENFURT,Austria,3511,n.a.,151,140,123,130,128,28,122,n.a.,n.a.,n.a.,349,349,347,354,385,390,n.a.,n.a.,n.a.
70.,AUSTROCEL HALLEIN GMBH,SALZACHTALSTRASSE 88,HALLEIN,Austria,1712,n.a.,149,165,129,110,85,86,88,n.a.,n.a.,n.a.,237,235,232,230,210,201,n.a.,n.a.,n.a.
71.,KELAG WAERME GMBH,ST.MAGDALENER STRASSE 81,VILLACH,Austria,3530,n.a.,148,149,143,156,159,142,142,n.a.,n.a.,n.a.,200,194,202,187,187,198,n.a.,n.a.,n.a.
72.,METADYNEA AUSTRIA GMBH,HAFENSTRASSE 77,KREMS AN DER DONAU,Austria,2014,n.a.,148,173,160,156,157,164,119,n.a.,n.a.,n.a.,175,140,119,119,137,169,n.a.,n.a.,n.a.
73.,BOEHLER BLECHE GMBH & CO KG,BOEHLER-GASSE 1,MUERZZUSCHLAG,Austria,4672,n.a.,n.a.,134,134,n.a.,157,162,128,n.a.,n.a.,n.a.,n.a.,470,455,n.a.,479,474,454,n.a.,n.a.
74.,DR. FRANZ FEURSTEIN GESELLSCHAFT M.B.H.,FABRIKSTR. 20,TRAUN,Austria,1712,n.a.,143,135,121,118,122,119,118,n.a.,n.a.,n.a.,270,266,260,260,260,260,n.a.,n.a.,n.a.
75.,LENZING FIBERS GMBH,INDUSTRIEGELAENDE 1,HEILIGENKREUZ IM LAFNITZTAL,Austria,2060,n.a.,138,121,119,125,149,143,88,n.a.,n.a.,n.a.,220,220,211,n.a.,211,190,n.a.,n.a.,n.a.
76.,STOELZLE - OBERGLAS GMBH,FABRIKSSTR. 11,KOEFLACH,Austria,2313,n.a.,130,129,n.a.,118,n.a.,108,95,n.a.,n.a.,n.a.,397,397,n.a.,400,n.a.,400,n.a.,n.a.,n.a.
77.,BERNEGGER GMBH,GRADAU 15,MOLLN,Austria,2363,n.a.,123,112,116,99,108,104,99,n.a.,n.a.,n.a.,n.a.,n.a.,n.a.,n.a.,n.a.,n.a.,n.a.,n.a.,n.a.
78.,BREITENFELD EDELSTAHL AKTIENGESELLSCHAFT,BREITENFELDSTRASSE 22,ST. BARBARA-MITTERDORF,Austria,2599,n.a.,111,135,n.a.,n.a.,n.a.,n.a.,97,n.a.,n.a.,n.a.,204,195,n.a.,n.a.,n.a.,n.a.,n.a.,n.a.,n.a.
79.,LAFARGE ZEMENTWERKE GMBH,TRABRENNSTRASSE 2A,WIEN,Austria,2351,n.a.,114,118,118,120,121,103,n.a.,n.a.,n.a.,n.a.,260,260,270,270,280,280,n.a.,n.a.,n.a.
80.,AVCON JET AG,"WOHLLEBENGASSE 12- 14 ,3.STOCK",WIEN,Austria,5110,n.a.,95,n.a.,107,95,6,6,3,n.a.,n.a.,n.a.,80,80,73,73,70,17,n.a.,n.a.,n.a.
81.,BRIGL & BERGMEISTER GMBH,PROLEBER STRASSE 10,NIKLASDORF,Austria,1712,n.a.,85,88,87,85,85,86,78,73,n.a.,n.a.,234,223,238,240,237,232,n.a.,n.a.,n.a.
82.,ENERGIE STEIERMARK WAERME GMBH,LEONHARDGUERTEL 10,GRAZ,Austria,3530,n.a.,83,80,72,538,597,583,479,359,527,n.a.,82,82,200,221,235,245,n.a.,n.a.,n.a.
83.,JETALLIANCE FLUGBETRIEBS GMBH,FLUGPLATZ 1,KOTTINGBRUNN,Austria,5110,n.a.,n.a.,n.a.,n.a.,n.a.,64,68,72,n.a.,113,n.a.,n.a.,n.a.,n.a.,n.a.,n.a.,n.a.,n.a.,n.a.,n.a.
84.,KNAUF GESELLSCHAFT M.B.H.,KNAUFSTRASSE 1,WEISSENBACH BEI LIEZEN,Austria,2362,n.a.,77,72,76,72,75,74,74,n.a.,n.a.,n.a.,212,212,215,325,220,230,n.a.,n.a.,n.a.
85.,WELS STROM GMBH,STELZHAMERSTRASSE 27,WELS,Austria,3511,n.a.,76,80,77,82,82,76,65,n.a.,n.a.,n.a.,100,100,94,94,95,95,n.a.,n.a.,n.a.
86.,LENZING PAPIER GMBH,WERKSTRASSE 2,LENZING (OOE),Austria,1712,n.a.,76,73,77,76,74,68,69,n.a.,n.a.,n.a.,158,151,142,140,140,142,n.a.,n.a.,n.a.
87.,VISTAJET LUFTFAHRTUNTERNEHMEN GMBH,AIGNERSTRASSE 4 A,SALZBURG,Austria,7735,n.a.,n.a.,68,n.a.,19,23,28,92,n.a.,n.a.,n.a.,n.a.,90,n.a.,165,186,184,n.a.,n.a.,n.a.
88.,AMAG SERVICE GMBH,LAMPRECHTSHAUSENER STRASSE 61,BRAUNAU AM INN -RANSHOFEN,Austria,6820,n.a.,67,66,57,55,52,54,22,n.a.,n.a.,n.a.,47,42,42,39,38,40,n.a.,n.a.,n.a.
89.,SAINT-GOBAIN RIGIPS AUSTRIA GESMBH,UNTERKAINISCH 24,BAD AUSSEE,Austria,2360,n.a.,65,62,61,62,n.a.,66,64,61,77,n.a.,210,220,210,210,n.a.,234,n.a.,n.a.,n.a.
90.,W&P ZEMENT GMBH,FERDINAND-JERGITSCHSTRASSE 15,KLAGENFURT,Austria,2351,n.a.,64,62,68,68,65,70,104,n.a.,n.a.,n.a.,180,208,189,189,198,200,n.a.,n.a.,n.a.
91.,ZEMENTWERK LEUBE GMBH,GARTENAUER PLATZ 9,ST. LEONHARD,Austria,2351,n.a.,61,60,n.a.,n.a.,66,57,59,n.a.,n.a.,n.a.,176,176,n.a.,n.a.,189,200,n.a.,n.a.,n.a.
92.,INTERNATIONAL JET MANAGEMENT GMBH,FLUGPLATZ 7 -9,DORTMUND,Germany,4614,n.a.,n.a.,49,45,38,39,n.a.,31,24,n.a.,n.a.,n.a.,65,50,41,37,36,34,30,n.a.
93.,ZEMENTWERK HATSCHEK GMBH,HATSCHEKSTRASSE 25,GMUNDEN,Austria,2351,n.a.,44,45,46,42,48,50,45,n.a.,n.a.,n.a.,157,153,153,160,175,174,n.a.,n.a.,n.a.
94.,MJET GMBH,DOROTHEERGASSE 6 -8/R/011,WIEN,Austria,5100,n.a.,43,38,n.a.,n.a.,n.a.,n.a.,n.a.,n.a.,n.a.,n.a.,20,17,n.a.,17,17,10,n.a.,n.a.,n.a.
95.,TONDACH GLEINSTAETTEN AG,GRASCHACH 38,GLEINSTAETTEN,Austria,2332,n.a.,43,42,43,44,51,53,50,n.a.,70,n.a.,234,235,232,289,289,276,n.a.,n.a.,n.a.
96.,GLOBAL JET AUSTRIA GMBH,"WASAGASSE 6 , TOP 8",WIEN,Austria,5100,n.a.,n.a.,39,47,55,35,27,31,n.a.,n.a.,n.a.,n.a.,n.a.,n.a.,3,n.a.,n.a.,n.a.,n.a.,n.a.
97.,CHAMOTTEWAREN- UND THONOEFENFABRIK AUG. RATH JUN. GMBH,HAFNERSTRASSE 3,KRUMMNUSSBAUM,Austria,4673,n.a.,36,37,36,36,38,38,38,n.a.,n.a.,n.a.,138,138,145,154,154,154,n.a.,n.a.,n.a.
98.,PROFIBAUSTOFFE AUSTRIA GMBH,MISTELBACHER STRASSE 80,ERNSTBRUNN,Austria,2364,n.a.,33,33,32,31,31,30,n.a.,n.a.,n.a.,n.a.,82,80,80,80,79,75,n.a.,n.a.,n.a.
99.,YBBSTALER ZELLSTOFF GMBH,THERESIENTHALSTRASSE 50,ULMERFELD-HAUSMENING,Austria,1711,n.a.,29,29,25,25,26,27,28,n.a.,n.a.,n.a.,n.a.,29,30,41,40,40,n.a.,n.a.,n.a.
100.,SAINT-GOBAIN ISOVER AUSTRIA GMBH,PRAGER STRASSE 77,STOCKERAU,Austria,2059,n.a.,28,33,38,40,44,46,45,n.a.,n.a.,n.a.,78,155,171,186,186,n.a.,210,n.a.,n.a.
101.,COGENERATION-KRAFTWERKE MANAGEMENT OBEROESTERREICH GMBH,BOEHMERWALDSTR. 3,LINZ,Austria,3530,n.a.,26,26,30,42,51,54,43,n.a.,n.a.,n.a.,1,1,1,1,2,2,n.a.,n.a.,n.a.
102.,ENERGIE AG OBEROESTERREICH WAERME GMBH,BOEHMERWALDSTR. 3,LINZ POSTFACH,Austria,3530,n.a.,22,22,21,22,20,19,18,n.a.,n.a.,n.a.,34,41,30,30,25,n.a.,n.a.,n.a.,n.a.
103.,WALTHER SPRITZ- UND LACKIERSYSTEME GMBH,KAERNTNER STR. 18 -30,WUPPERTAL,Germany,2829,n.a.,n.a.,23,23,21,23,23,19,16,23,n.a.,n.a.,134,138,135,135,136,123,122,130
104.,FERNWAERME ST. POELTEN GMBH,JULIUS RAAB PROMENADE 49,ST. POELTEN,Austria,3530,n.a.,21,23,24,27,26,24,23,n.a.,n.a.,n.a.,10,6,6,5,3,n.a.,n.a.,n.a.,n.a.
105.,IMERYS CARBONATES AUSTRIA GMBH,BAHNHOFSTRASSE 40,EBENSEE,Austria,2000,n.a.,10,10,25,26,25,46,40,n.a.,n.a.,n.a.,40,40,35,35,n.a.,56,n.a.,n.a.,n.a.
106.,COMELLI-ZIEGEL GESELLSCHAFT M.B.H.,MAXENDORF 43,KIRCHBACH,Austria,2332,n.a.,10,10,n.a.,n.a.,6,6,6,n.a.,n.a.,n.a.,29,29,29,25,25,25,25,n.a.,n.a.
107.,ENERGIE-CONTRACTING STEYR GMBH,SCHOENAUERSTRASSE 5,STEYR,Austria,3530,n.a.,9,9,9,10,10,10,8,n.a.,n.a.,n.a.,20,20,20,21,n.a.,17,n.a.,n.a.,n.a.
108.,W&P KALK GMBH,FERDINAND-JERGITSCH-STRASSE 15,KLAGENFURT AM WOERTHERSEE,Austria,2352,n.a.,9,9,8,9,9,9,n.a.,n.a.,n.a.,n.a.,17,16,17,14,14,25,n.a.,n.a.,n.a.
109.,SENFTENBACHER ZIEGELWERK FLOTZINGER GMBH & CO KG,BRUCK 31,SENFTENBACH,Austria,2332,n.a.,8,9,8,6,n.a.,n.a.,n.a.,n.a.,n.a.,n.a.,30,29,29,30,27,27,n.a.,27,n.a.
110.,STYROMAGNESIT STEIRISCHE MAGNESITINDUSTRIE GMBH,OBERDORF 41,ST. KATHAREIN AN DER LAMING,Austria,0899,n.a.,8,8,8,9,9,6,n.a.,n.a.,n.a.,n.a.,40,40,40,39,41,33,n.a.,n.a.,n.a.
111.,LIAS OESTERREICH GESMBH,FABRIKSTRASSE 11,FEHRING,Austria,2332,n.a.,7,7,n.a.,6,7,6,n.a.,n.a.,n.a.,n.a.,30,26,26,25,35,35,n.a.,n.a.,n.a.
112.,MARTIN PICHLER ZIEGELWERK GMBH.,ZIEGELEISTRASSE 14,ASCHACH AN DER DONAU,Austria,2332,n.a.,6,6,6,n.a.,n.a.,n.a.,5,4,n.a.,n.a.,24,24,22,27,n.a.,27,30,30,n.a.
113.,ZIEGELWERK DANREITER GMBH & CO KG,OTTENBACH 14,TUMELTSHAM,Austria,2332,n.a.,4,4,4,n.a.,n.a.,n.a.,n.a.,n.a.,n.a.,n.a.,25,20,30,n.a.,11,18,18,n.a.,n.a.
114.,SALZBURGER ZIEGELWERK GESELLSCHAFT M.B.H. & CO.,SCHLOSSBERG 5,UTTENDORF (OOE),Austria,2332,n.a.,n.a.,2,n.a.,n.a.,n.a.,n.a.,n.a.,n.a.,n.a.,n.a.,n.a.,2,n.a.,n.a.,n.a.,n.a.,2,n.a.,n.a.
115.,PROXIMA,"UL. MARSHALA GOVOROVA D.37, LIT. A, OFFICE 418A",SAINT-PETERSBURG,Russian Federation,4630,n.a.,2,2,1,2,n.a.,n.a.,n.a.,n.a.,n.a.,n.a.,21,26,17,12,n.a.,n.a.,n.a.,n.a.,n.a.
116.,WEINDL GESELLSCHAFT M.B.H.,WEINZIERLSTR. 2 UND 4,STEYR,Austria,2332,n.a.,1,n.a.,n.a.,n.a.,n.a.,n.a.,n.a.,n.a.,n.a.,n.a.,6,n.a.,n.a.,n.a.,n.a.,9,16,n.a.,n.a.
117.,ZIEGELWERK NEUHOFEN K. F. U. DIPL. ING. H. OBERMAIR GESELLSCHAFT MBH & CO.KG.,DAMBACH 35,NEUHOFEN/KREMS,Austria,0899,1,n.a.,1,1,n.a.,n.a.,1,n.a.,n.a.,n.a.,6,6,6,7,8,8,n.a.,n.a.,n.a.,n.a.
118.,GEORGE TOWN MANAGEMENT LLC,495 S FAIRVIEW AVE,GOLETA,United States of America,8411,1,n.a.,n.a.,n.a.,n.a.,n.a.,n.a.,n.a.,n.a.,n.a.,n.a.,n.a.,n.a.,n.a.,n.a.,n.a.,n.a.,n.a.,n.a.,n.a.
119.,MITTELDICHTE FASERPLATTEN HALLEIN GMBH & CO KG,SOLVAY-HALVIC-STRASSE 46,HALLEIN,Austria,6832,n.a.,1,1,15,66,65,64,53,n.a.,n.a.,n.a.,n.a.,n.a.,20,110,100,100,100,n.a.,n.a.
120.,ZIEGELWERK EBERSCHWANG GESELLSCHAFT M.B.H.,STRASS 11,EBERSCHWANG,Austria,4673,n.a.,0,1,1,1,n.a.,n.a.,n.a.,n.a.,n.a.,n.a.,2,5,12,14,14,14,n.a.,n.a.,n.a.
121.,INGRID FRICK,WALSERSTRASSE 58,RIEZLERN,Austria,9602,n.a.,n.a.,n.a.,0,n.a.,n.a.,n.a.,n.a.,n.a.,n.a.,n.a.,n.a.,n.a.,n.a.,n.a.,n.a.,n.a.,n.a.,n.a.,n.a.
122.,ARTJET LTD.,C/O BERMUDA CORPORATE & TRUST LAW LIMITED,HAMILTON,Bermuda,6420,n.a.,n.a.,n.a.,n.a.,n.a.,n.a.,n.a.,n.a.,n.a.,n.a.,n.a.,n.a.,n.a.,n.a.,n.a.,n.a.,n.a.,n.a.,n.a.,n.a.
123.,MICHAEL STRASSER GMBH & CO KG,LAIM 101,PORT ORANGE,United States of America,,n.a.,n.a.,n.a.,n.a.,n.a.,n.a.,n.a.,n.a.,n.a.,n.a.,n.a.,n.a.,n.a.,n.a.,n.a.,n.a.,n.a.,n.a.,n.a.,n.a.
124.,AIR CHARTER LIMITED,ROOM 322,GATWICK,United Kingdom,,n.a.,n.a.,n.a.,n.a.,n.a.,n.a.,n.a.,n.a.,n.a.,n.a.,n.a.,n.a.,n.a.,n.a.,n.a.,n.a.,n.a.,n.a.,n.a.,n.a.
125.,RAUCH FRUCHTSAEFTE GMBH & CO OG,LANGGASSE 1,RANKWEIL,Austria,1032,n.a.,881,859,809,806,800,723,n.a.,n.a.,n.a.,"1,829","1,829","1,784","1,682","1,561","1,561","1,385",n.a.,n.a.,n.a.
126.,D. SWAROVSKI KG,SWAROVSKISTRASSE 30,WATTENS,Austria,2319,n.a.,"2,600","2,600",n.a.,n.a.,n.a.,n.a.,n.a.,n.a.,n.a.,"4,800","4,800","4,800","5,200","5,200","5,200","5,200",n.a.,n.a.,n.a.
127.,ZIEGELWERK EDER GMBH & CO.KG.,BRUCK 39,BRUCK-WAASEN,Austria,2332,n.a.,20,n.a.,n.a.,20,20,20,n.a.,n.a.,n.a.,60,60,60,60,60,60,60,n.a.,n.a.,n.a.
128.,OEBB-INFRASTRUKTUR AKTIENGESELLSCHAFT,PRATERSTERN 3,WIEN,Austria,7110,n.a.,"2,100","2,027","2,100","2,205","2,101","2,097",n.a.,n.a.,n.a.,"16,000","16,317","16,262","15,537","14,721","14,227","15,747",n.a.,n.a.,n.a.
129.,M. KAINDL KG,KAINDLSTRASSE 2,WALS,Austria,1621,n.a.,284,276,278,277,292,299,n.a.,n.a.,n.a.,548,551,551,569,563,560,590,n.a.,n.a.,n.a.
130.,VITTORIO NICOLOSO,BAHNSTRASSE 50,POTTENBRUNN,Austria,2332,n.a.,n.a.,0,n.a.,n.a.,n.a.,n.a.,n.a.,n.a.,n.a.,n.a.,3,n.a.,n.a.,n.a.,n.a.,n.a.,n.a.,n.a.,n.a.
131.,ZIEGELEI RHOMBERG GESELLSCHAFT M.B.H.,STEINACKERSTRASSE 19,DORNBIRN,Austria,6420,n.a.,n.a.,n.a.,n.a.,n.a.,n.a.,n.a.,n.a.,n.a.,n.a.,n.a.,1,1,1,n.a.,1,1,1,n.a.,n.a.
132.,"ZIEGELEI HILTI, METTAUER GMBH",UDELBERGSTRASSE 30,GOETZIS,Austria,2332,n.a.,n.a.,n.a.,n.a.,n.a.,n.a.,n.a.,n.a.,n.a.,n.a.,n.a.,n.a.,n.a.,n.a.,n.a.,n.a.,n.a.,n.a.,n.a.,n.a.
133.,INTERSKY LUFTFAHRT GMBH,BAHNHOFSTRASSE 10,BREGENZ,Austria,5110,n.a.,n.a.,n.a.,n.a.,n.a.,n.a.,5,26,2,3,n.a.,n.a.,n.a.,n.a.,n.a.,n.a.,n.a.,n.a.,n.a.,n.a.
134.,F.M. HAEMMERLE TEXTIL PRODUKTION UND VERTRIEB GMBH,EISENGASSE 44,DORNBIRN,Austria,1399,n.a.,n.a.,n.a.,n.a.,n.a.,n.a.,n.a.,n.a.,n.a.,n.a.,n.a.,n.a.,n.a.,n.a.,n.a.,n.a.,n.a.,n.a.,n.a.,n.a.
135.,ALTENRHEIN LUFTFAHRT GMBH,"OFFICE PARK 3, TOP 312",WIEN-FLUGHAFEN,Austria,5110,n.a.,n.a.,n.a.,n.a.,n.a.,n.a.,n.a.,n.a.,n.a.,n.a.,n.a.,n.a.,18,n.a.,19,n.a.,n.a.,20,n.a.,n.a.
136.,GASSERKUNERT GMBH,SCHWEIZER STRASSE 96,RANKWEIL,Austria,1330,n.a.,n.a.,n.a.,n.a.,n.a.,n.a.,n.a.,n.a.,n.a.,n.a.,n.a.,n.a.,n.a.,n.a.,n.a.,n.a.,n.a.,n.a.,n.a.,n.a.
137.,OESTERREICHISCHE NOVOPAN HOLZINDUSTRIE OG,TURMGASSE 43,LEOBEN,Austria,6820,n.a.,n.a.,n.a.,n.a.,n.a.,n.a.,0,n.a.,n.a.,n.a.,n.a.,n.a.,n.a.,n.a.,n.a.,n.a.,n.a.,n.a.,n.a.,n.a.
138.,HERBERT PEXIDER GESELLSCHAFT M.B.H.,BUNDESSTRASSE 6,TEUFENBACH,Austria,2342,n.a.,n.a.,n.a.,n.a.,n.a.,n.a.,n.a.,n.a.,n.a.,n.a.,n.a.,n.a.,n.a.,n.a.,n.a.,n.a.,n.a.,n.a.,n.a.,n.a.
139.,TECHNOGLAS PRODUKTIONS- GESELLSCHAFT M.B.H.,ARNSTEINSTR. 22,VOITSBERG,Austria,2319,n.a.,n.a.,n.a.,15,18,20,n.a.,25,n.a.,n.a.,n.a.,130,130,160,197,222,222,n.a.,n.a.,n.a.
140.,LYCOAIR GMBH,GRAZBACHGASSE 87,GRAZ,Austria,8299,n.a.,n.a.,n.a.,n.a.,2,2,0,n.a.,n.a.,n.a.,n.a.,n.a.,2,1,n.a.,2,2,n.a.,n.a.,n.a.
141.,SCHRETTER & CIE GMBH & CO KG,BAHNHOFSTRASSE 27,VILS,Austria,2352,n.a.,n.a.,n.a.,23,21,21,21,21,n.a.,34,n.a.,173,173,173,180,180,178,n.a.,n.a.,n.a.
142.,TYROLEAN JET SERVICE NFG GMBH & CO KG,FUERSTENWEG 180,INNSBRUCK,Austria,3316,n.a.,n.a.,7,6,6,8,6,7,n.a.,n.a.,n.a.,69,63,64,65,65,72,n.a.,n.a.,n.a.
143.,BIOENERGIE KUFSTEIN GMBH,FISCHERGRIES 2,KUFSTEIN,Austria,3511,n.a.,n.a.,n.a.,2,5,5,4,5,3,n.a.,n.a.,n.a.,2,2,2,2,2,n.a.,n.a.,n.a.
144.,CRYSTAL-ENERGY GMBH,SWAROVSKISTRASSE 30,WATTENS,Austria,3530,n.a.,n.a.,1,1,1,1,n.a.,1,n.a.,n.a.,n.a.,2,2,1,2,n.a.,2,n.a.,n.a.,n.a.
145.,STADTWERKE HALL IN TIROL GMBH,AUGASSE 6,HALL IN TIROL,Austria,3511,n.a.,n.a.,34,32,32,34,29,30,n.a.,n.a.,n.a.,49,47,47,n.a.,52,52,n.a.,n.a.,n.a.
146.,"BAUMIT"" BAUSTOFFE GESELLSCHAFT M.B.H.",LINZER STRASSE 8,BAD ISCHL,Austria,2030,n.a.,n.a.,17,17,17,17,16,17,15,15,n.a.,91,91,94,90,90,85,n.a.,n.a.,n.a.
147.,LEITL SPANNTON GESELLSCHAFT M.B.H.,LEITL-STRASSE 1,HINZENBACH,Austria,2332,n.a.,n.a.,10,n.a.,9,9,9,n.a.,n.a.,n.a.,n.a.,70,80,80,78,73,68,n.a.,n.a.,n.a.
148.,WIESNER-HAGER ZENTRALE DIENSTE GESELLSCHAFT M.B.H.,LINZERSTRASSE 22,ALTHEIM (OOE),Austria,3511,n.a.,n.a.,n.a.,n.a.,n.a.,n.a.,3,3,n.a.,n.a.,n.a.,n.a.,n.a.,n.a.,n.a.,15,15,15,25,n.a.
149.,KIRCHDORFER ZEMENTWERK HOFMANN GESELLSCHAFT M.B.H.,HOFMANNSTRASSE 4,KIRCHDORF AN DER KREMS,Austria,2351,n.a.,n.a.,n.a.,23,n.a.,21,20,30,n.a.,n.a.,n.a.,113,113,100,n.a.,100,100,n.a.,n.a.,n.a.
150.,MERCKENS KARTON- UND PAPPENFABRIK GMBH,JOSEFSTAL 10,SCHWERTBERG,Austria,1712,n.a.,n.a.,n.a.,6,6,7,6,5,n.a.,n.a.,n.a.,62,62,61,61,61,68,n.a.,n.a.,n.a.
151.,ZIEGELWERK PICHLER WELS GESELLSCHAFT M.B.H.,EFERDINGERSTR. 175,WELS,Austria,2332,n.a.,n.a.,n.a.,n.a.,n.a.,n.a.,n.a.,4,n.a.,n.a.,n.a.,24,23,23,24,24,23,n.a.,n.a.,n.a.
152.,TKV OBEROESTERREICH GMBH,NR. 63,REGAU,Austria,3822,n.a.,n.a.,10,11,12,3,n.a.,n.a.,n.a.,n.a.,n.a.,n.a.,89,85,84,82,90,n.a.,n.a.,n.a.
153.,FEWOTEL BETRIEBSGESELLSCHAFT M.B.H. & CO. KG,NIKOLAIGASSE 22,VILLACH,Austria,7735,n.a.,n.a.,n.a.,n.a.,n.a.,n.a.,n.a.,n.a.,n.a.,n.a.,n.a.,n.a.,n.a.,n.a.,n.a.,n.a.,n.a.,n.a.,n.a.,n.a.
154.,"ZIEGELWERK BRENNER, F. WIRTH GESELLSCHAFT M.B.H.",SCHOENWEG 39,ST. ANDRAE IM LAVANTTAL,Austria,2332,n.a.,n.a.,n.a.,n.a.,n.a.,n.a.,n.a.,n.a.,n.a.,n.a.,n.a.,33,31,31,31,25,24,n.a.,n.a.,n.a.
155.,STADTWAERME LIENZ PRODUKTIONS- UND VERTRIEBS-GMBH,AGUNTSTR. 54,LIENZ,Austria,3530,n.a.,n.a.,n.a.,n.a.,n.a.,n.a.,n.a.,n.a.,n.a.,n.a.,n.a.,8,n.a.,7,n.a.,7,7,7,n.a.,n.a.
156.,"GLOCK SERVICES GMBH ""GELOESCHT",SCHNEEWEISSHOFWEG 32,TREFFEN AM OSSIACHER SEE,Austria,9609,n.a.,n.a.,n.a.,n.a.,n.a.,n.a.,n.a.,n.a.,n.a.,n.a.,n.a.,n.a.,n.a.,n.a.,n.a.,n.a.,n.a.,n.a.,n.a.,n.a.
157.,AUSTIN JET HOLDING GMBH,PARKRING 12,WIEN,Austria,6420,n.a.,n.a.,n.a.,n.a.,0,0,0,n.a.,n.a.,n.a.,n.a.,n.a.,n.a.,1,n.a.,n.a.,n.a.,n.a.,n.a.,n.a.
158.,PAPPENFABRIK TIMMERSDORF GMBH,ASPERNBRUECKENGASSE 4,WIEN,Austria,1712,n.a.,n.a.,n.a.,n.a.,n.a.,n.a.,n.a.,n.a.,n.a.,n.a.,n.a.,n.a.,n.a.,n.a.,n.a.,n.a.,n.a.,n.a.,n.a.,n.a.
159.,LAUDAMOTION GMBH,CONCORDE BUSINESS PARK 2 /F/10,SCHWECHAT,Austria,5110,n.a.,n.a.,6,6,n.a.,n.a.,n.a.,27,n.a.,n.a.,n.a.,37,38,131,100,50,47,n.a.,n.a.,n.a.
160.,"ATMOSA"" PETROCHEMIE GMBH",DANUBIASTRASSE 21,SCHWECHAT-MANNSWOERTH,Austria,2014,n.a.,n.a.,n.a.,41,49,9,8,9,8,n.a.,n.a.,n.a.,41,41,45,43,n.a.,45,n.a.,n.a.
161.,A-TEC BETEILIGUNGS GMBH,DR.-KARL-LUEGER-RING 12 /1.STOCK,WIEN,Austria,7010,n.a.,n.a.,n.a.,n.a.,n.a.,n.a.,n.a.,n.a.,n.a.,n.a.,n.a.,n.a.,n.a.,n.a.,n.a.,n.a.,n.a.,n.a.,n.a.,n.a.
162.,PROFUEMED GMBH,WECHSEL BUNDESSTRASSE 81,GRIMMENSTEIN,Austria,2120,n.a.,n.a.,n.a.,n.a.,n.a.,n.a.,n.a.,n.a.,n.a.,n.a.,n.a.,70,72,2,n.a.,n.a.,n.a.,n.a.,n.a.,n.a.
163.,KRONO AIR GMBH,KAINDLSTRASSE 2,WALS,Austria,5100,n.a.,n.a.,n.a.,n.a.,1,n.a.,n.a.,n.a.,n.a.,n.a.,n.a.,n.a.,n.a.,2,n.a.,n.a.,n.a.,n.a.,n.a.,n.a.
164.,THE FLYING BULLS GMBH,"WILHELM-SPAZIER-STRASSE, HANGAR- 8",SALZBURG,Austria,5223,n.a.,n.a.,n.a.,n.a.,n.a.,n.a.,n.a.,n.a.,n.a.,n.a.,n.a.,63,63,62,61,57,57,n.a.,n.a.,n.a.
165.,ZIEGELWERK LIZZI GMBH,BROMBERGER STRASSE 3,BAD ERLACH,Austria,2332,n.a.,n.a.,n.a.,3,3,n.a.,n.a.,n.a.,n.a.,n.a.,n.a.,14,16,14,n.a.,n.a.,n.a.,n.a.,16,n.a.
166.,GA IMMOBILIEN GMBH,HERZOGENBURGERSTRASSE 69,ST.POELTEN,Austria,6832,n.a.,n.a.,n.a.,n.a.,n.a.,n.a.,2,3,n.a.,n.a.,n.a.,3,3,3,4,n.a.,n.a.,1,n.a.,n.a.
167.,UIAV GMBH,WEINBERGSTRASSE 17,CHAM,Switzerland,4690,4,5,5,4,4,4,n.a.,n.a.,n.a.,n.a.,1,1,1,1,1,1,n.a.,n.a.,n.a.,n.a.