,Company name,"Street, no., building etc, line 1",City,Country,"NACE Rev. 2
Core code (4 digits)","Operating
revenue
(Turnover)
m EUR
2017","Operating
revenue
(Turnover)
m EUR
2016","Operating
revenue
(Turnover)
m EUR
2015","Operating
revenue
(Turnover)
m EUR
2014","Operating
revenue
(Turnover)
m EUR
2013","Operating
revenue
(Turnover)
m EUR
2012","Operating
revenue
(Turnover)
m EUR
2011","Operating
revenue
(Turnover)
m EUR
2010","Operating
revenue
(Turnover)
m EUR
2009","Operating
revenue
(Turnover)
m EUR
2008","Number of employees
2017","Number of employees
2016","Number of employees
2015","Number of employees
2014","Number of employees
2013","Number of employees
2012","Number of employees
2011","Number of employees
2010","Number of employees
2009","Number of employees
2008"
1.,FORD-WERKE GMBH,HENRY-FORD-STR. 1,KOELN,Germany,2910,n.a.,n.a.,"21,054","18,632","18,369","17,583","19,763","19,470","17,987","20,734",n.a.,n.a.,"24,425","27,496","27,790","27,520","28,336","27,988","28,073","29,151"
2.,EXXONMOBIL PETROLEUM & CHEMICAL,POLDERDIJKWEG,ANTWERPEN,Belgium,1920,n.a.,"20,425","23,775","30,122","30,727","33,148","32,105","25,738","20,111","29,710",n.a.,"2,194","2,174","2,163","2,168","2,186","2,174","2,196","2,176","2,201"
3.,INTERNATIONAL PAPER CO,"6400, POPLAR AVENUE",MEMPHIS,United States of America,1712,n.a.,"19,997","20,543","19,452","17,028","16,562","20,121","18,834","16,220","17,841",n.a.,"55,000","56,000","58,000","69,000","70,000","61,500","59,500","56,100","61,700"
4.,ELECTRABEL,SIMON BOLIVARLAAN 34,BRUSSEL,Belgium,3511,n.a.,"12,351","11,268","13,096","13,140","14,459","15,284","15,661","14,879","15,173",n.a.,"4,771","4,872","5,266","5,477","5,719","5,901","6,111","6,360","7,645"
5.,N.V. UMICORE S.A.,RUE DU MARAIS 31,BRUSSELS,Belgium,0729,n.a.,"11,167","10,505","8,885","9,895","12,611","14,538","9,746","7,028","9,227",n.a.,"10,175","13,730","14,074","10,293","14,438","14,572","14,386","13,720","15,447"
6.,JANSSEN PHARMACEUTICA,TURNHOUTSEWEG 30,BEERSE,Belgium,2120,n.a.,"10,334","6,917","6,285","5,737","5,309","4,563","3,930","3,639","3,610",n.a.,"4,569","4,003","3,822","3,793","3,765","3,665","3,713","3,913","4,082"
7.,AGEAS SA-NV,RUE DU MARQUIS 1,BRUSSELS,Belgium,6500,n.a.,"9,277","9,359","9,258","8,839","9,947","9,421",n.a.,n.a.,n.a.,n.a.,n.a.,n.a.,n.a.,n.a.,n.a.,n.a.,n.a.,n.a.,n.a.
8.,GLAXOSMITHKLINE BIOLOGICALS,RUE DE L'INSTITUT 89,RIXENSART,Belgium,2120,n.a.,"6,322","4,375","3,933","3,814","3,682","3,488","4,814","3,573","2,697",n.a.,"8,387","8,474","8,212","7,697","7,426","7,252","6,696","6,042","5,748"
9.,"HAINAN AIRLINES HOLDING CO., LTD.",HAIHANG BUILDING,HAIKOU,China,5110,n.a.,"5,536","4,969","4,843","3,883","3,373","3,124","2,381","1,530","1,384",n.a.,"11,230","11,781","10,674","10,347","9,476","8,558","7,959","9,894","10,027"
10.,B.A.S.F. ANTWERPEN,SCHELDELAAN 600,ANTWERPEN,Belgium,2014,n.a.,"5,295","5,688","6,605","7,025","7,366","7,158","6,297","4,474","6,500",n.a.,"3,007","2,955","2,952","2,953","2,978","3,164","3,399","3,432","3,468"
11.,VOLVO CAR BELGIUM,JOHN KENNEDYLAAN 25,GENT,Belgium,2910,n.a.,"5,079","5,067","5,181","5,029","5,114","5,242","4,317","3,360","3,048",n.a.,"5,100","5,151","4,714","4,650","4,626","4,348","4,000","4,116","4,480"
12.,SAUDI ARABIAN AIRLINES CORPORATION,SAUDI ARABIAN AIRLINES BUILDING,JEDDAH,Saudi Arabia,5110,n.a.,"3,795",n.a.,n.a.,n.a.,n.a.,n.a.,n.a.,n.a.,n.a.,n.a.,"25,000",n.a.,n.a.,n.a.,n.a.,n.a.,n.a.,n.a.,n.a.
13.,BEKAERT SA/NV,BEKAERTSTRAAT 2,KORTRIJK,Belgium,2434,n.a.,"3,738","3,739","3,245","3,210","3,516","3,355","3,278","2,453","2,673",n.a.,"25,460","23,666","24,127","21,790","22,549","22,413","21,877","18,103","16,971"
14.,CARGILL FRANCE,TOUR WINTHERTUR,PUTEAUX,France,4621,n.a.,"3,023","3,217","3,571","3,838","3,555","3,284",0,0,0,n.a.,933,983,n.a.,"1,007","1,183","1,264",n.a.,n.a.,n.a.
15.,EDF LUMINUS,RUE DU MARQUIS 1,BRUXELLES,Belgium,3511,n.a.,"2,957","3,256","3,208","3,790","3,788","3,674","2,969","2,583","2,594",n.a.,956,940,955,"1,009","1,062","1,071","1,015",940,953
16.,SCR-SIBELCO,PLANTIN EN MORETUSLEI 1A,ANTWERPEN,Belgium,0812,n.a.,"2,776","3,155","2,628","2,997","3,048","2,846","2,536","1,917","2,286",n.a.,"9,378","10,407","10,638","10,463","11,142","10,785","10,565","10,233",n.a.
17.,AGFA GEVAERT NV,SEPTESTRAAT 27,MORTSEL,Belgium,2670,n.a.,"2,572","2,679","2,660","2,967","3,156","3,289","3,284","3,064","3,483",n.a.,"10,042","10,241","10,506","11,047","11,408","11,728","11,766","11,169","12,152"
18.,APERAM STAINLESS BELGIUM,SWINNENWIJERWEG 5,GENK,Belgium,2410,n.a.,"2,253","2,372","2,268","2,026","2,178","2,408","2,442","1,492","2,985",n.a.,"1,825","1,823","1,811","1,848","1,930","1,987","2,026","2,040","2,185"
19.,AURUBIS BELGIUM,RUE DU MARAIS 31,BRUXELLES,Belgium,2444,n.a.,"1,937","2,295","2,279","2,554","2,836","3,112","2,394","1,693",8,n.a.,551,526,518,502,473,460,439,467,13
20.,INBEV BELGIUM,BOULEVARD INDUSTRIEL 21,BRUXELLES,Belgium,1105,n.a.,"1,813","1,351","1,309","1,253","1,258","1,145","1,091","1,145","1,147",n.a.,"2,723","2,593","2,532","2,510","2,414","2,497","2,495","2,544","2,715"
21.,TESSENDERLO GROUP NV,TROONSTRAAT 130,BRUSSELS,Belgium,2013,n.a.,"1,592","1,601","1,439","1,790","2,130","2,131","2,522","2,107","2,765",n.a.,"4,530","4,672","4,789","5,774","7,130","7,457","8,262","8,317","8,237"
22.,ATLAS COPCO AIRPOWER,BOOMSESTEENWEG 957,WILRIJK,Belgium,2813,n.a.,"1,578","1,617","1,554","1,566","1,664","1,587","1,354","1,076","1,556",n.a.,"2,483","2,500","2,571","2,619","2,741","2,655","2,462","2,472","2,807"
23.,SINGAPORE AIRLINES CARGO PTE LTD,AIRLINE HOUSE,SINGAPORE,Singapore,8110,n.a.,n.a.,n.a.,"1,521","1,303","1,526",n.a.,n.a.,n.a.,n.a.,n.a.,n.a.,n.a.,n.a.,n.a.,n.a.,n.a.,n.a.,n.a.,n.a.
24.,AUDI BRUSSELS,BD 2E ARMEE BRITANNIQUE 201,BRUXELLES,Belgium,2910,n.a.,"1,480","1,656","1,564","1,626","1,680",n.a.,n.a.,n.a.,n.a.,n.a.,"2,437","2,428","2,443","2,525","2,402",n.a.,n.a.,n.a.,n.a.
25.,CNH INDUSTRIAL BELGIUM,LEON CLAEYSSTRAAT 3A,ZEDELGEM,Belgium,2830,n.a.,"1,310","1,257","1,467","1,115","1,032",970,656,775,"1,138",n.a.,"3,105","3,188","3,495","2,494","2,513","2,319","2,081","2,290","2,398"
26.,BRUSSELS AIRLINES,JAARGETIJDENLAAN 100-102 B.30,BRUSSEL,Belgium,5110,n.a.,"1,271","1,276","1,193","1,138","1,113","1,036",930,849,"1,011",n.a.,"2,534","2,427","2,395","2,393","2,479","2,418","2,228","2,164","2,026"
27.,BANQUE NATIONALE DE BELGIQUE SA,BOULEVARD DE BERLAIMONT 5,BRUSSELS,Belgium,6411,n.a.,"1,204","1,122","1,274","1,440","1,849","1,354",n.a.,n.a.,n.a.,n.a.,n.a.,n.a.,n.a.,n.a.,n.a.,n.a.,n.a.,n.a.,n.a.
28.,NLMK BELGIUM HOLDINGS,RUE DES RIVAUX 2,LA LOUVIERE,Belgium,6420,n.a.,"1,109","1,163","1,181",751,n.a.,n.a.,n.a.,n.a.,n.a.,n.a.,"1,866","2,018","2,143","2,317",n.a.,n.a.,n.a.,n.a.,n.a.
29.,UNILIN,OOIGEMSTRAAT 3,WIELSBEKE,Belgium,1621,n.a.,"1,006",892,845,676,662,644,585,525,686,n.a.,"1,962","1,695","2,000","1,372","1,376","1,382","1,341","1,418","1,560"
30.,TEREOS STARCH & SWEETENERS BELGIUM,BURCHTSTRAAT 10,AALST,Belgium,1062,n.a.,973,977,998,"1,118",572,"1,032",799,948,531,n.a.,382,383,378,377,370,368,369,364,370
31.,COVESTRO,SCHELDELAAN 420,ANTWERPEN,Belgium,2013,n.a.,950,"1,037",n.a.,n.a.,n.a.,n.a.,n.a.,n.a.,n.a.,n.a.,795,791,n.a.,n.a.,n.a.,n.a.,n.a.,n.a.,n.a.
32.,METALLO BELGIUM,NIEUWE DREEF 33,BEERSE,Belgium,2444,n.a.,856,885,985,"1,035","1,005",953,841,523,658,n.a.,406,394,385,384,371,332,320,324,317
33.,ASL AIRLINES BELGIUM,RUE DE L'AEROPORT 101,GRACE-HOLLOGNE,Belgium,5110,n.a.,835,876,867,665,675,569,471,273,203,n.a.,405,428,426,430,486,465,462,547,554
34.,CATERPILLAR-BELGIUM,AVENUE DES ETATS-UNIS 1,GOSSELIES,Belgium,2892,741,n.a.,293,382,292,333,371,311,281,428,"1,554",n.a.,"1,712","2,213","2,925","3,454","3,683","3,325","3,472","4,347"
35.,SAFRAN AERO BOOSTERS,ROUTE DE LIERS 121,MILMORT,Belgium,3030,n.a.,755,745,676,564,521,387,331,337,366,n.a.,"1,433","1,388","1,327","1,270","1,224","1,198","1,183","1,201","1,323"
36.,KALITTA AIR LLC,818 WILLOW RUN AIRPORT,YPSILANTI,United States of America,5110,625,n.a.,n.a.,n.a.,n.a.,n.a.,n.a.,n.a.,n.a.,n.a.,750,n.a.,n.a.,n.a.,n.a.,n.a.,n.a.,n.a.,n.a.,n.a.
37.,PRAYON,RUE JOSEPH WAUTERS 144,ENGIS,Belgium,2013,n.a.,677,727,698,832,870,836,704,574,990,n.a.,n.a.,"1,097","1,085","1,516","1,518",n.a.,"1,495","1,473","1,455"
38.,AGC GLASS EUROPE,AVENUE JEAN MONNET 4,LOUVAIN-LA-NEUVE,Belgium,2311,n.a.,662,663,687,699,797,811,818,679,913,n.a.,"1,955","1,938","1,996","2,163","2,240","2,325","2,269","2,169","2,089"
39.,LANXESS,SCHELDELAAN 420,ANTWERPEN,Belgium,4675,n.a.,643,710,669,703,750,730,653,433,757,n.a.,855,842,887,916,922,930,930,929,970
40.,INOVYN MANUFACTURING BELGIUM,OLYMPIADENLAAN 20,BRUSSEL,Belgium,2016,n.a.,641,611,571,585,541,564,551,384,475,n.a.,558,565,560,558,581,614,625,640,654
41.,PICANOL NV,STEVERLYNCKLAAN 15,IEPER,Belgium,2894,n.a.,640,529,418,560,462,477,396,250,285,n.a.,"2,113","1,997","1,936","1,997","1,899","2,036","2,008","2,112","2,170"
42.,TOTAL RAFFINADERIJ ANTWERPEN,SCHELDELAAN 16,ANTWERPEN,Belgium,1920,n.a.,635,694,721,711,719,673,573,608,687,n.a.,"1,252","1,236","1,171","1,102","1,054","1,045","1,040","1,043","1,028"
43.,OLEON,ASSENEDESTRAAT 2,ERTVELDE,Belgium,2014,n.a.,630,637,629,609,631,575,492,373,545,n.a.,929,903,876,706,676,641,593,576,547
44.,BELGOMILK,FABRIEKSTRAAT 141,KALLO (BEVEREN),Belgium,1051,n.a.,628,581,577,587,480,489,440,362,420,n.a.,788,813,624,596,567,533,501,478,467
45.,CARGILL,MUISBROEKLAAN 506,ANTWERPEN,Belgium,1041,n.a.,n.a.,n.a.,n.a.,n.a.,n.a.,n.a.,n.a.,n.a.,n.a.,n.a.,n.a.,n.a.,n.a.,n.a.,n.a.,n.a.,n.a.,n.a.,n.a.
46.,VYNOVA BELGIUM,HEILIG-HARTLAAN 21,TESSENDERLO,Belgium,2014,n.a.,586,586,633,668,696,672,456,275,395,n.a.,497,517,571,594,588,622,188,195,212
47.,PURATOS,INDUSTRIALAAN 25,GROOT-BIJGAARDEN,Belgium,1089,n.a.,573,534,494,466,439,418,388,357,350,n.a.,"1,114","1,055","1,044","1,069",836,776,755,681,501
48.,FLUXYS BELGIUM,AVENUE DES ARTS 31,BRUSSELS,Belgium,3522,n.a.,570,605,613,641,653,721,669,696,613,n.a.,933,981,"1,026","1,078","1,091","1,068","1,090","1,154","1,080"
49.,FRIESLANDCAMPINA BELGIUM,VENECOLAAN 17,AALTER,Belgium,1051,n.a.,556,525,601,540,515,354,330,349,425,n.a.,722,787,790,849,835,633,626,643,638
50.,TUI AIRLINES BELGIUM,LUCHTHAVEN BRUSSEL NAT. 40P B.1,ZAVENTEM,Belgium,5110,n.a.,525,485,477,466,411,337,283,278,286,n.a.,853,817,714,691,587,512,483,483,416
51.,ALERIS ALUMINUM DUFFEL,ADOLF STOCLETLAAN 87,DUFFEL,Belgium,2442,n.a.,552,546,480,467,451,508,437,346,637,n.a.,953,921,970,928,933,913,912,"1,156","1,469"
52.,CIMENTERIES CBR CEMENTBEDRIJVEN,BOULEVARD DE FRANCE 3 - 5,BRAINE-L'ALLEUD,Belgium,2351,n.a.,543,452,382,282,299,306,276,289,321,n.a.,"1,431",949,587,624,669,666,663,656,632
53.,BRUSSELS AIRPORT COMPANY,BOULEVARD AUGUSTE REYERS 80,BRUXELLES,Belgium,6420,n.a.,536,520,495,438,421,404,371,374,624,n.a.,784,775,751,773,770,749,763,762,781
54.,INEOS,NIEUWE WEG 1,ZWIJNDRECHT,Belgium,2014,n.a.,523,592,614,720,842,595,506,392,575,n.a.,492,474,478,486,478,459,441,437,449
55.,EUROCHEM ANTWERPEN,SCHELDELAAN 600,ANTWERPEN,Belgium,2015,n.a.,510,689,627,609,509,0,n.a.,n.a.,n.a.,n.a.,376,366,360,351,251,n.a.,n.a.,n.a.,n.a.
56.,EVONIK ANTWERPEN,TIJSMANSTUNNEL-WEST,LILLO,Belgium,2020,n.a.,493,599,680,600,576,555,527,440,503,n.a.,"1,033","1,023","1,040","1,031","1,023","1,007",985,984,998
57.,BALTA INDUSTRIES,WAKKENSTEENWEG 2,SINT-BAAFS-VIJVE,Belgium,1393,n.a.,488,467,442,391,415,442,451,401,430,n.a.,"2,122","2,145","2,186","2,302","2,459","2,613","2,643","2,631","2,717"
58.,ALPRO,VLAMINGSTRAAT 28,WEVELGEM,Belgium,1041,n.a.,464,425,352,287,258,238,228,207,195,n.a.,811,714,588,539,503,477,461,454,452
59.,RAFFINERIE TIRLEMONTOISE - TIENSE SUIKERRAFFINADERIJ,AVENUE DE TERVUEREN 192,BRUXELLES,Belgium,1081,n.a.,437,465,516,632,722,707,557,555,437,n.a.,525,528,580,583,585,585,570,451,503
60.,NUON BELGIUM,MEDIALAAN 34,VILVOORDE,Belgium,3511,n.a.,n.a.,n.a.,n.a.,n.a.,345,746,637,538,511,n.a.,n.a.,n.a.,n.a.,n.a.,150,149,152,149,143
61.,FN HERSTAL,VOIE DE LIEGE 33,HERSTAL,Belgium,2540,n.a.,411,335,325,282,258,187,214,226,241,n.a.,"1,389","1,320","1,277","1,232","1,173","1,108","1,168","1,198","1,226"
62.,TAMINCO,PANTSERSCHIPSTRAAT 207,GENT,Belgium,2059,n.a.,410,439,434,422,424,439,387,307,329,n.a.,402,388,382,378,360,339,326,322,323
63.,FRIESLANDCAMPINA PROFESSIONAL,GROTE BAAN 34,MELDERT (LIMB.),Belgium,1051,n.a.,407,424,462,375,335,332,284,227,229,n.a.,436,431,441,441,450,438,399,366,345
64.,LUTOSA,Z.I. DU VIEUX-PONT 5,LEUZE-EN-HAINAUT,Belgium,1031,376,342,296,322,n.a.,377,459,349,191,203,819,741,690,515,n.a.,518,493,476,458,441
65.,INDUSTEEL BELGIUM,RUE DE CHATELET 266,MARCHIENNE-AU-PONT,Belgium,2410,n.a.,366,429,402,437,495,549,411,409,838,n.a.,931,906,908,911,805,800,789,847,906
66.,AJINOMOTO OMNICHEM,COOPPALLAAN 91,WETTEREN,Belgium,2110,n.a.,318,306,263,253,276,256,225,229,211,n.a.,688,620,666,667,704,671,671,668,668
67.,KANEKA BELGIUM,NIJVERHEIDSSTRAAT 16,OEVEL,Belgium,2016,n.a.,307,297,303,284,281,285,270,220,250,n.a.,280,271,267,263,261,262,254,247,246
68.,SAINT-GOBAIN CONSTRUCTION PRODUCTS BELGIUM,SINT-JANSWEG 9,KALLO (KIELDRECHT),Belgium,2369,n.a.,308,139,134,138,144,141,135,131,111,n.a.,394,231,230,226,224,222,221,234,230
69.,YARA TERTRE,RUE DE LA CARBO 10,TERTRE,Belgium,2015,n.a.,306,378,375,412,418,421,314,229,381,n.a.,268,262,254,252,244,245,244,242,313
70.,KABELWERK EUPEN,MALMEDYER STRASSE 9,EUPEN,Belgium,2732,n.a.,304,323,310,319,341,363,335,297,381,n.a.,931,931,900,899,861,857,961,952,972
71.,BURGO ARDENNES,RUE DE LA PAPETERIE,SAINT-MARD,Belgium,1712,n.a.,304,330,329,328,335,317,317,315,347,n.a.,580,585,593,606,615,618,613,631,640
72.,SAPPI LANAKEN,MONTAIGNEWEG 2,LANAKEN,Belgium,1712,n.a.,281,286,249,262,304,326,312,264,312,n.a.,503,531,549,571,594,607,628,614,644
73.,CRYSTAL COMPUTING,RUE DE GHLIN 100,BAUDOUR,Belgium,6311,n.a.,296,277,213,191,151,116,80,50,11,n.a.,101,106,87,70,51,33,20,13,1
74.,VEOLIA,QUAI FERNAND DEMETS 52,BRUXELLES,Belgium,8110,n.a.,n.a.,286,252,223,187,172,176,169,169,n.a.,n.a.,"2,101","1,990","1,967","1,565","1,626","1,592","1,623","1,705"
75.,STORA ENSO LANGERBRUGGE,WONDELGEMKAAI 200,GENT,Belgium,1712,n.a.,288,286,308,303,313,326,274,262,294,n.a.,342,352,361,384,387,387,380,394,428
76.,WIENERBERGER,KAPEL TER BEDE 121,KORTRIJK,Belgium,4673,n.a.,277,293,293,270,277,299,279,275,314,n.a.,"1,022","1,044","1,038","1,080","1,096","1,097","1,067","1,025",920
77.,BENEO-ORAFTI,RUE LOUIS MARECHAL 1,OREYE,Belgium,1081,n.a.,273,228,223,213,196,219,210,174,163,n.a.,276,271,266,256,253,247,249,213,206
78.,TOTAL OLEFINS ANTWERP,SCHELDELAAN 10 B.447,ANTWERPEN,Belgium,2014,n.a.,259,260,274,296,319,300,281,276,300,n.a.,484,496,524,571,617,623,628,635,647
79.,NITTO BELGIUM,EIKELAARSTRAAT 22,GENK,Belgium,2222,n.a.,248,230,211,193,175,179,179,142,146,n.a.,636,653,651,639,679,649,610,595,638
80.,B.I.G. FLOORCOVERINGS,RIJKSWEG 442,WIELSBEKE,Belgium,1393,n.a.,245,217,183,166,163,165,154,141,199,n.a.,325,289,286,356,376,373,400,437,620
81.,NIPPON SHOKUBAI EUROPE,NIEUWE WEG 1,ZWIJNDRECHT,Belgium,2059,n.a.,242,277,249,204,288,301,284,247,265,n.a.,136,95,93,93,94,93,94,92,86
82.,BIOWANZE,TERVURENLAAN 182,BRUSSEL,Belgium,1920,n.a.,236,252,247,263,262,206,170,92,3,n.a.,122,125,125,125,122,122,124,128,92
83.,RAIN CARBON,VREDEKAAI 18,ZELZATE,Belgium,2014,n.a.,234,260,271,286,295,248,205,161,216,n.a.,168,169,166,164,162,163,160,159,157
84.,BOORTMALT,ZANDVOORT 2,ANTWERPEN,Belgium,1106,202,225,217,228,256,232,195,149,183,183,50,47,46,47,45,41,42,43,40,39
85.,CL WARNETON,CHAUSSEE DE LILLE 61,WARNETON,Belgium,5229,n.a.,217,188,166,146,111,104,94,92,n.a.,n.a.,496,397,338,282,235,159,107,29,n.a.
86.,BP CHEMBEL,AMOCOLAAN 2,GEEL,Belgium,2014,n.a.,215,251,232,229,201,237,228,244,344,n.a.,366,367,372,360,356,408,425,429,440
87.,GREENYARD PREPARED BELGIUM,INDUSTRIETERR.KANAAL-NOORD 2002,BREE,Belgium,1039,n.a.,211,214,221,222,209,203,199,183,163,n.a.,676,666,663,634,610,527,504,498,489
88.,MONSANTO EUROPE,SCHELDELAAN 460,ANTWERPEN,Belgium,2020,n.a.,202,228,221,203,198,191,223,237,237,n.a.,784,803,794,777,748,807,912,974,949
89.,SOCIETE ANONYME BELGE DE CONSTRUCTIONS AERONAUTIQUES SA,CHAUSSEE DE HAECHT 1470,BRUSSELS,Belgium,3030,n.a.,206,188,187,179,151,145,140,148,137,n.a.,"1,079","1,157",744,"1,044",988,964,987,"1,422","1,017"
90.,"COMPAGNIE DES CIMENTS BELGES, C.C.B.",GRAND'ROUTE,GAURAIN-RAMECROIX,Belgium,0811,n.a.,203,201,211,208,220,238,221,224,246,n.a.,351,380,420,423,439,424,429,441,445
91.,ETERNIT,KUIERMANSSTRAAT 1,KAPELLE-OP-DEN-BOS,Belgium,2361,n.a.,197,188,188,178,170,181,161,169,208,n.a.,721,672,655,630,618,627,648,695,757
92.,AVERY DENNISON MATERIALS BELGIUM,BOULEVARD JOHN F. KENNEDY,SOIGNIES,Belgium,2229,n.a.,n.a.,188,198,204,209,207,203,1,226,n.a.,n.a.,548,616,640,651,695,690,694,727
93.,AMCOR FLEXIBLES TRANSPAC,OTTERGEMSESTEENWEG-ZUID 801,GENT,Belgium,2222,n.a.,182,177,184,204,189,220,201,191,205,n.a.,581,593,612,632,624,689,684,672,686
94.,KRONOS EUROPE,LANGERBRUGGEKAAI 10,GENT,Belgium,2012,n.a.,191,193,201,193,233,252,175,114,160,n.a.,276,289,292,292,293,294,288,279,283
95.,3B-FIBREGLASS,RUE DE MAESTRICHT 67,BATTICE,Belgium,2314,n.a.,189,185,175,168,163,168,167,119,174,n.a.,505,504,478,454,464,470,432,390,431
96.,BASF DOW HPPO PRODUCTION,SCHELDELAAN 600,ANTWERPEN,Belgium,2014,n.a.,185,204,185,176,185,174,157,159,54,n.a.,n.a.,n.a.,n.a.,n.a.,n.a.,n.a.,n.a.,n.a.,n.a.
97.,MAGOTTEAUX,RUE ADOLPHE DUMONT,VAUX-SOUS-CHEVREMONT,Belgium,2452,n.a.,184,200,200,221,221,229,211,228,305,n.a.,52,54,58,70,70,69,70,65,90
98.,NYRSTAR BELGIUM,ZINKSTRAAT 1,BALEN,Belgium,2443,n.a.,184,194,176,188,183,193,195,245,746,n.a.,533,536,540,545,556,559,574,657,770
99.,VPK PAPER,OUDE BAAN 120,DENDERMONDE,Belgium,1712,n.a.,182,196,189,179,154,176,146,100,115,n.a.,273,275,278,273,267,254,248,255,247
100.,BFS EUROPE,GROENEDREEF 15A,KRUISHOUTEM,Belgium,4647,n.a.,172,176,94,80,79,79,102,114,131,n.a.,579,595,337,340,335,339,405,430,442
101.,MOLKEREI - LAITERIE WALHORN,MOLKEREIWEG 14,WALHORN,Belgium,1051,n.a.,170,233,296,286,242,253,232,190,217,n.a.,119,121,121,121,119,118,116,113,115
102.,SPANOLUX,RUE DE LA FORET 2,VIELSALM,Belgium,1621,n.a.,169,181,174,165,170,170,167,148,182,n.a.,261,315,313,314,308,318,330,330,333
103.,ASSOCIATED WEAVERS-EUROPE,WEVERIJSTRAAT 1,RONSE,Belgium,1393,n.a.,163,158,129,118,116,100,99,98,129,n.a.,446,402,363,361,346,363,374,389,427
104.,ALCO BIO FUEL,PLEITSTRAAT 1,GENT,Belgium,2014,n.a.,161,168,148,189,171,146,119,90,39,n.a.,42,42,42,39,36,35,33,31,23
105.,CARRIERES ET FOURS A CHAUX DUMONT-WAUTIER,RUE CHARLES DUBOIS 28,LIMELETTE,Belgium,0811,n.a.,160,169,169,159,159,179,166,154,165,n.a.,256,264,268,267,267,259,257,280,300
106.,MYDIBEL,RUE DU PIRO-LANNOY 30,MOUSCRON,Belgium,4721,n.a.,160,139,137,128,108,96,87,77,74,n.a.,345,308,234,216,188,164,138,137,130
107.,EVAL EUROPE,NIEUWE WEG 1,ZWIJNDRECHT,Belgium,4675,n.a.,158,166,146,145,145,137,122,106,145,n.a.,121,117,112,105,100,97,96,97,96
108.,GUNVOR PETROLEUM ANTWERPEN,SCHELDELAAN 490,ANTWERPEN,Belgium,1920,n.a.,156,162,138,121,51,n.a.,n.a.,n.a.,n.a.,n.a.,241,237,228,219,200,n.a.,n.a.,n.a.,n.a.
109.,IDEM PAPERS - IDEMPAPERS,RUE D'ASQUEMPONT 2,VIRGINAL-SAMME,Belgium,1712,n.a.,145,148,150,155,152,152,113,206,482,n.a.,396,391,416,434,424,435,437,432,457
110.,BOREALIS POLYMERS,INDUSTRIEWEG 148 B.13,PAAL,Belgium,2016,n.a.,151,144,143,150,151,151,181,"1,200","1,837",n.a.,561,548,538,537,544,552,590,666,732
111.,MONUMENT CHEMICAL,KETENISLAAN 3,KALLO (KIELDRECHT),Belgium,2014,n.a.,150,128,115,99,81,71,80,75,124,n.a.,99,97,95,91,90,87,84,90,93
112.,KNAUF INSULATION,RUE DE MAESTRICHT 95,VISE,Belgium,2314,n.a.,148,125,139,163,134,114,135,131,126,n.a.,315,329,331,331,327,315,308,293,296
113.,NLMK LA LOUVIERE,RUE DES RIVAUX 2,LA LOUVIERE,Belgium,2410,n.a.,145,156,160,160,413,501,529,399,881,n.a.,543,541,569,762,"1,055","1,307","1,562","1,601","1,682"
114.,ROUSSELOT,MEULESTEDEKAAI 81,GENT,Belgium,4638,n.a.,142,121,116,135,140,114,84,81,78,n.a.,141,141,139,136,140,141,140,143,152
115.,CARMEUSE,RUE DU CHATEAU 13A,SEILLES,Belgium,0811,n.a.,140,143,137,137,143,148,131,150,176,n.a.,377,372,379,389,405,413,400,404,427
116.,"SPA MONOPOLE, COMPAGNIE FERMIERE DE SPA",RUE AUGUSTE LAPORTE 34,SPA,Belgium,1107,n.a.,140,142,138,127,129,126,124,132,139,n.a.,441,441,440,466,464,482,487,499,529
117.,INEOS STYROLUTION BELGIUM,SCHELDELAAN 600,ANTWERPEN,Belgium,2221,n.a.,136,137,141,"1,461","1,499","1,279",0,0,n.a.,n.a.,319,328,321,312,302,271,n.a.,n.a.,n.a.
118.,LANGERLO,SWINNENWIJERWEG 30,GENK,Belgium,3511,n.a.,n.a.,131,n.a.,n.a.,n.a.,n.a.,n.a.,n.a.,n.a.,n.a.,n.a.,98,n.a.,n.a.,n.a.,n.a.,n.a.,n.a.,n.a.
119.,TOTAL PETROCHEMICALS FELUY,PARC INDUSTRIEL DE FELUY,FELUY,Belgium,2011,n.a.,135,135,137,132,132,132,136,129,141,n.a.,421,432,440,440,445,471,493,501,512
120.,AIR LIQUIDE LARGE INDUSTRY,AVENUE DU BOURGET 44,BRUXELLES,Belgium,2011,n.a.,129,156,145,170,166,194,195,179,203,n.a.,58,60,62,62,58,56,58,57,55
121.,C.A.L. - CARGO AIR LINES LTD.,1 HAYARDEN,AIRPORT CITY,Israel,5110,n.a.,n.a.,124,119,n.a.,n.a.,n.a.,n.a.,n.a.,n.a.,n.a.,n.a.,120,n.a.,n.a.,120,n.a.,n.a.,n.a.,n.a.
122.,I.B.V. & CIE,QUATRIEME AVENUE 66,HERSTAL,Belgium,4673,n.a.,120,125,138,117,116,118,110,89,99,n.a.,214,227,217,217,174,158,153,166,158
123.,CITRIQUE BELGE - TIENEN,PASTORIJSTRAAT 249,TIENEN,Belgium,2014,n.a.,120,120,116,137,132,123,114,123,129,n.a.,294,297,296,295,284,268,272,266,282
124.,INTERCOOPERATIEVE ZUIVELFABRIEK VAN ANTWERPEN INZA,WASSERIJSTRAAT 5,SCHOTEN,Belgium,1051,n.a.,n.a.,n.a.,104,116,101,100,100,87,98,n.a.,n.a.,n.a.,215,217,217,227,227,233,234
125.,ARLANXEO BELGIUM,CANADASTRAAT 21,ZWIJNDRECHT,Belgium,2017,n.a.,115,121,183,182,193,148,149,110,246,n.a.,333,353,404,437,443,406,371,403,442
126.,VLAAMSE INSTELLING VOOR TECHNOLOGISCH ONDERZOEK,BOERETANG 200,MOL,Belgium,7219,n.a.,111,110,98,96,101,89,n.a.,n.a.,n.a.,n.a.,597,569,590,594,587,556,n.a.,n.a.,n.a.
127.,ALGIST BRUGGEMAN,LANGERBRUGGEKAAI 37,GENT,Belgium,1089,n.a.,n.a.,107,98,98,94,86,90,88,76,n.a.,n.a.,216,217,219,214,215,212,204,173
128.,LANO,VENETIELAAN 33,HARELBEKE,Belgium,1393,n.a.,107,105,88,77,70,70,69,68,86,n.a.,399,384,371,387,410,430,449,475,527
129.,LIMELCO,GENKERBAAN 71-75,ZONHOVEN,Belgium,1051,n.a.,107,133,193,n.a.,54,57,56,56,71,n.a.,160,151,144,n.a.,140,145,146,145,148
130.,CELANESE PRODUCTION BELGIUM,INDUSTRIEWEG 80,LANAKEN,Belgium,2016,n.a.,107,172,0,n.a.,n.a.,n.a.,n.a.,n.a.,n.a.,n.a.,149,197,n.a.,n.a.,n.a.,n.a.,n.a.,n.a.,n.a.
131.,UTEXBEL,CESAR SNOECKLAAN 30,RONSE,Belgium,1310,n.a.,106,99,100,101,108,119,99,76,100,n.a.,935,822,856,877,902,911,909,918,974
132.,SOFIDEL BENELUX,ADOLF STOCLETLAAN 3,DUFFEL,Belgium,1722,n.a.,105,109,106,96,57,52,77,59,60,n.a.,172,172,177,170,146,144,148,160,161
133.,FLUXYS LNG,RUE GUIMARD 4,BRUXELLES,Belgium,5224,n.a.,105,103,102,103,93,107,98,100,83,n.a.,39,37,39,41,42,42,38,35,34
134.,ENGINEERING STEEL BELGIUM,RUE DE L'ENVIRONNEMENT 8,SERAING,Belgium,2452,n.a.,n.a.,n.a.,n.a.,80,93,121,96,47,n.a.,n.a.,n.a.,n.a.,n.a.,122,127,116,116,117,n.a.
135.,NLMK CLABECQ,RUE DE CLABECQ 101,ITTRE,Belgium,2410,n.a.,102,97,104,98,114,279,267,196,715,n.a.,551,547,584,602,577,577,609,629,606
136.,RWE GENERATION BELGIUM,NIEUWE WEG 1,ZWIJNDRECHT,Belgium,3521,n.a.,101,121,186,178,169,144,135,114,157,n.a.,n.a.,n.a.,n.a.,n.a.,n.a.,n.a.,n.a.,n.a.,n.a.
137.,MOUTERIJ ALBERT,KANAALDIJK,RUISBROEK (ANTW.),Belgium,1106,n.a.,100,104,109,113,117,97,89,100,109,n.a.,44,43,44,45,45,43,43,41,41
138.,VISKO TEEPAK,MAATHEIDE 81,LOMMEL,Belgium,2222,n.a.,99,96,93,97,92,82,84,79,81,n.a.,376,358,336,341,336,336,341,340,351
139.,BROUWERIJ HAACHT,PROVINCIESTEENWEG 28,BOORTMEERBEEK,Belgium,1105,n.a.,99,99,100,101,97,96,94,98,95,n.a.,385,382,384,393,389,392,394,398,401
140.,WIMBLE MANUFACTURING BELGIUM,EGGESTRAAT 1,MECHELEN,Belgium,1089,n.a.,96,109,111,114,50,n.a.,n.a.,n.a.,n.a.,n.a.,567,580,616,677,637,n.a.,n.a.,n.a.,n.a.
141.,TOTAL POLYMERS ANTWERP,SCHELDELAAN 4,ANTWERPEN,Belgium,2016,n.a.,92,94,98,107,103,102,101,101,118,n.a.,n.a.,n.a.,n.a.,n.a.,n.a.,n.a.,n.a.,n.a.,n.a.
142.,COSUCRA-GROUPE WARCOING,RUE DE LA SUCRERIE 1,WARCOING,Belgium,1032,n.a.,90,81,85,86,73,69,70,68,57,n.a.,247,245,245,226,213,216,214,207,215
143.,FERRERO ARDENNES,RUE PIETRO FERRERO 5,ARLON,Belgium,1082,n.a.,83,81,78,268,255,236,223,231,237,n.a.,756,725,692,672,684,689,684,704,810
144.,ECOFROST,RUE DE L'EUROPE 34,PERUWELZ,Belgium,1031,n.a.,83,131,n.a.,114,n.a.,63,49,42,51,n.a.,63,53,n.a.,52,n.a.,44,41,39,34
145.,PITTSBURGH CORNING EUROPE,ALBERTKADE 1,TESSENDERLO,Belgium,2319,n.a.,87,102,109,107,96,99,94,101,93,n.a.,328,352,346,343,352,358,345,338,320
146.,LATEXCO,SINT-AMANDSTRAAT 8 BIS,TIELT,Belgium,2219,n.a.,85,78,80,73,80,79,70,77,90,n.a.,279,267,255,262,278,284,291,304,326
147.,INEOS MANUFACTURING BELGIUM,SCHELDELAAN 482,ANTWERPEN,Belgium,2016,n.a.,83,89,88,88,87,97,108,98,116,n.a.,243,241,246,252,253,246,245,245,254
148.,GERRESHEIMER MOMIGNIES,RUE MANDENNE 19-20,MOMIGNIES,Belgium,2313,n.a.,82,77,73,76,78,72,61,50,66,n.a.,616,576,568,529,507,492,484,440,509
149.,COLAS BELGIUM,NESTOR MARTINSTRAAT 313,BRUSSEL,Belgium,4211,n.a.,80,76,87,100,111,102,87,72,80,n.a.,351,360,384,400,393,371,357,349,353
150.,GC PAPER S.A.,AVENUE DE LA LIBERATION 1,MALMEDY,Belgium,1712,n.a.,n.a.,n.a.,n.a.,n.a.,n.a.,n.a.,n.a.,n.a.,n.a.,n.a.,n.a.,n.a.,n.a.,n.a.,n.a.,n.a.,n.a.,n.a.,n.a.
151.,BALTA OUDENAARDE,INDUSTRIEPARK DE BRUWAAN 4,BEVERE,Belgium,1393,n.a.,79,50,55,91,101,103,99,99,115,n.a.,259,252,264,315,333,333,348,370,386
152.,DECKX ALGEMENE ONDERNEMINGEN,GOORMANSDIJK 15,DESSEL,Belgium,4211,n.a.,79,56,58,48,47,60,43,45,42,n.a.,228,205,196,210,227,218,242,216,229
153.,DOMO GENT,NEDERZWIJNAARDE 2,ZWIJNAARDE,Belgium,2060,n.a.,n.a.,n.a.,n.a.,n.a.,n.a.,n.a.,n.a.,n.a.,n.a.,n.a.,n.a.,n.a.,n.a.,n.a.,n.a.,n.a.,n.a.,n.a.,n.a.
154.,NORBORD,EIKELAARSTRAAT 33,GENK,Belgium,1621,n.a.,79,79,86,78,74,74,68,40,49,n.a.,110,107,111,102,96,98,98,110,138
155.,URSA BENELUX,PITANTIESTRAAT 127,DESSELGEM,Belgium,2314,n.a.,77,55,64,58,63,55,51,57,63,n.a.,163,164,161,161,166,179,158,157,165
156.,VANDERSANDEN STEENFABRIEKEN,RIEMSTERWEG 300,BILZEN,Belgium,2332,n.a.,76,73,70,62,63,65,58,60,65,n.a.,201,193,186,188,186,190,189,191,199
157.,VBG,DELLESTRAAT 25,ZOLDER,Belgium,4211,n.a.,74,75,93,86,106,111,94,87,100,n.a.,339,372,434,495,516,502,491,485,487
158.,MONDELEZ BELGIUM BISCUITS PRODUCTION,DE BEUKELAER-PAREINLAAN 1,HERENTALS,Belgium,1072,n.a.,74,79,84,94,180,288,255,351,310,n.a.,n.a.,n.a.,n.a.,n.a.,603,"1,165","1,226","1,347","1,346"
159.,CONCORDIA TEXTILES,FLANDERS-FIELDWEG 37,WAREGEM,Belgium,1320,n.a.,n.a.,71,n.a.,n.a.,n.a.,n.a.,n.a.,n.a.,n.a.,n.a.,n.a.,354,n.a.,n.a.,n.a.,n.a.,n.a.,n.a.,n.a.
160.,FARM FRITES BELGIUM,MAATHEIDE 50,LOMMEL,Belgium,1089,n.a.,72,71,74,75,83,81,41,55,49,n.a.,283,273,277,290,291,259,133,135,148
161.,T-POWER,GULLEDELLE 96,BRUXELLES,Belgium,3511,n.a.,71,68,70,69,68,31,0,0,0,n.a.,4,4,3,3,2,3,3,n.a.,n.a.
162.,SADEPAN CHIMICA,HENRY FORDLAAN 68,GENK,Belgium,2052,n.a.,69,75,76,81,72,86,75,58,115,n.a.,39,46,44,41,42,41,48,51,55
163.,DOW BELGIUM,SNEEUWBESLAAN 20 B.10,WILRIJK,Belgium,2016,n.a.,65,71,68,74,89,85,86,102,84,n.a.,99,103,102,149,212,214,223,n.a.,197
164.,AANNEMINGEN VAN WELLEN,KLINKAARDSTRAAT 198,KAPELLEN,Belgium,4211,n.a.,64,62,86,80,83,68,67,62,108,n.a.,173,169,217,245,261,253,245,238,297
165.,INEOS FELUY,PARC INDUSTRIEL DE FELUY,FELUY,Belgium,2014,n.a.,64,76,80,90,84,84,72,73,81,n.a.,176,194,198,201,204,201,199,201,210
166.,MARCINELLE ENERGIE,RUE DE LA PROVIDENCE 150,MARCHIENNE-AU-PONT,Belgium,3511,n.a.,64,83,58,20,25,1,1,1,0,n.a.,38,38,38,38,37,38,4,2,1
167.,VEURNE SNACKFOODS,ALBERT I LAAN 33,VEURNE,Belgium,1031,n.a.,62,59,68,73,68,64,62,64,62,n.a.,458,464,481,478,466,457,459,464,466
168.,SEGAL,CHAUSSEE DE RAMIOUL 50,IVOZ-RAMET,Belgium,2561,n.a.,60,58,57,52,55,56,57,50,46,n.a.,133,131,134,135,132,136,136,132,133
169.,JBF GLOBAL EUROPE,NIJVERHEIDSWEG 4,EINDHOUT,Belgium,2221,n.a.,n.a.,52,23,1,1,n.a.,n.a.,n.a.,n.a.,n.a.,n.a.,97,97,56,5,n.a.,n.a.,n.a.,n.a.
170.,ABELAG AVIATION,KORTRIJKSTRAAT 345 B.D,WEVELGEM,Belgium,5110,n.a.,56,58,46,43,41,25,14,10,17,n.a.,60,51,48,49,47,24,23,22,23
171.,BOREALIS ANTWERPEN,INDUSTRIEWEG 148,PAAL,Belgium,2014,n.a.,55,89,22,21,21,20,18,16,17,n.a.,228,217,103,110,106,107,101,102,103
172.,STEINZEUG - KERAMO,PAALSTEENSTRAAT 36,HASSELT,Belgium,2332,n.a.,55,74,68,72,72,59,48,47,62,n.a.,167,149,143,154,145,144,140,226,220
173.,AKZO NOBEL CHEMICALS,AVENUE GOBLET 7,GHLIN,Belgium,2011,n.a.,53,49,47,49,52,45,46,40,48,n.a.,218,210,213,226,231,219,203,207,213
174.,IMERYS GRAPHITE & CARBON BELGIUM,BROWNFIELDLAAN 19,WILLEBROEK,Belgium,2013,n.a.,52,40,35,29,31,27,20,11,16,n.a.,75,60,47,42,32,30,28,31,36
175.,NELCA,STATIONSSTRAAT 80,LENDELEDE,Belgium,1393,n.a.,n.a.,n.a.,n.a.,n.a.,n.a.,n.a.,n.a.,n.a.,n.a.,n.a.,n.a.,n.a.,n.a.,n.a.,n.a.,n.a.,n.a.,n.a.,n.a.
176.,DYNEA,MOERVAARTKAAI 7,GENT,Belgium,2052,n.a.,49,56,51,49,45,37,36,29,38,n.a.,22,23,22,21,19,21,22,23,24
177.,FARMO,MAATHEIDE 52,LOMMEL,Belgium,1031,n.a.,n.a.,n.a.,n.a.,n.a.,n.a.,n.a.,38,43,44,n.a.,n.a.,n.a.,n.a.,n.a.,n.a.,n.a.,149,154,140
178.,DOLOMIES DE MARCHE-LES-DAMES,RUE CHARLES DUBOIS 28,LIMELETTE,Belgium,0811,n.a.,47,50,67,118,123,124,100,76,103,n.a.,196,197,201,206,210,204,189,185,196
179.,SCHEERDERS VAN KERCHOVE'S VERENIGDE FABRIEKEN NV,AERSCHOTSTRAAT 114,SINT-NIKLAAS,Belgium,2332,n.a.,45,44,47,44,50,55,55,51,54,n.a.,n.a.,n.a.,n.a.,n.a.,n.a.,396,413,341,301
180.,OSTEND BASIC CHEMICALS,STATIONSSTRAAT 123 B.2,ZANDVOORDE (OOSTENDE),Belgium,2014,n.a.,44,54,76,77,79,65,64,48,119,n.a.,36,39,39,41,55,60,61,81,279
181.,MD VERRE,RUE DES AYETTES 2,GHLIN,Belgium,2313,n.a.,43,45,52,67,43,39,35,46,47,n.a.,262,271,258,247,226,205,255,295,289
182.,FLYING SERVICE,LUCHTHAVENLEI 1 B.18,DEURNE,Belgium,5110,n.a.,42,47,39,34,42,32,27,23,27,n.a.,79,77,76,80,80,78,72,71,72
183.,VLM AIRLINES,LUCHTHAVENLEI 1 B.50,DEURNE,Belgium,5110,n.a.,n.a.,n.a.,34,39,39,34,43,66,126,n.a.,n.a.,n.a.,253,286,300,321,324,387,429
184.,STRUIK FOODS BELGIUM,BRECHTSEBAAN 913,SCHOTEN,Belgium,1011,n.a.,n.a.,38,40,45,43,38,36,40,45,n.a.,n.a.,111,115,113,112,114,113,114,115
185.,INTERCONNECTOR ZEEBRUGGE TERMINAL,RUE GUIMARD 4,BRUXELLES,Belgium,4950,n.a.,39,26,25,34,24,25,22,20,23,n.a.,n.a.,n.a.,n.a.,n.a.,n.a.,n.a.,n.a.,n.a.,n.a.
186.,ANTWERP TERMINAL & PROCESSING COMPANY,BELIWEG 20,ANTWERPEN,Belgium,1920,n.a.,39,36,34,35,28,25,21,40,115,n.a.,98,98,98,95,91,94,120,136,138
187.,ZANDVLIET POWER,SCHELDELAAN 600,ANTWERPEN,Belgium,3511,n.a.,35,35,39,40,39,39,38,38,38,n.a.,n.a.,n.a.,n.a.,n.a.,n.a.,n.a.,n.a.,n.a.,n.a.
188.,NELISSEN STEENFABRIEKEN,KIEZELWEG 458,LANAKEN,Belgium,2332,n.a.,30,28,25,18,20,20,18,18,21,n.a.,63,53,50,49,50,47,47,45,46
189.,GRAMYBEL,BOULEVARD DE L'EUROZONE 1,MOUSCRON,Belgium,1031,n.a.,30,30,31,23,29,27,22,19,19,n.a.,56,55,46,44,42,40,35,30,31
190.,DE POORTERE FRERES SA,BOULEVARD INDUSTRIEL 97,MOUSCRON,Belgium,1310,n.a.,n.a.,n.a.,n.a.,n.a.,n.a.,n.a.,n.a.,n.a.,n.a.,n.a.,n.a.,n.a.,n.a.,n.a.,n.a.,n.a.,n.a.,n.a.,n.a.
191.,OILTANKING ANTWERP GAS TERMINAL,LAND VAN WAASLAAN 3,KALLO (KIELDRECHT),Belgium,5210,n.a.,29,26,24,26,25,23,22,22,21,n.a.,42,40,42,41,40,40,42,42,40
192.,LHOIST INDUSTRIE,ON SN,INCOMPLET/ONVOLLEDIG,Belgium,2352,n.a.,29,33,35,32,31,33,29,55,60,n.a.,101,104,103,104,110,107,106,110,116
193.,DUCATT,BALENDIJK 161,LOMMEL,Belgium,2312,n.a.,n.a.,26,17,7,7,17,n.a.,n.a.,n.a.,n.a.,n.a.,155,143,111,96,93,n.a.,n.a.,n.a.
194.,ARCELORMITTAL RINGMILL,RUE DE MARNIX 3,SERAING,Belgium,2511,n.a.,27,26,21,19,22,32,22,29,64,n.a.,80,84,85,82,106,114,116,125,123
195.,BRIQUETERIES DE PLOEGSTEERT,RUE DU TOUQUET 228,BIZET,Belgium,2332,n.a.,27,28,28,25,28,31,30,29,34,n.a.,144,144,150,159,171,180,182,188,191
196.,SOLAE BELGIUM,ZWAANHOFWEG 1,IEPER,Belgium,1089,n.a.,25,25,26,25,24,24,23,21,25,n.a.,99,105,102,105,108,108,108,106,111
197.,ENERGIES RENOUVELABLES DES ARDENNES,LE ROUVROU 2,BERTRIX,Belgium,3514,n.a.,25,26,21,23,21,23,24,31,15,n.a.,34,28,31,40,39,38,35,35,25
198.,GRAVAUBEL,AVENUE DE L'INDEPENDANCE 83,WANDRE,Belgium,4211,n.a.,24,24,23,31,30,36,24,21,20,n.a.,57,51,46,48,46,47,48,45,44
199.,BIOSTOOM OOSTENDE,SOLVAYLAAN 7,ZANDVOORDE (OOSTENDE),Belgium,3511,n.a.,23,23,22,22,22,23,22,10,2,n.a.,23,22,21,17,17,18,20,15,2
200.,BELASCO,CHRISTOFFEL COLUMBUSLAAN,GENT,Belgium,2399,n.a.,23,23,31,36,35,20,n.a.,n.a.,n.a.,n.a.,45,43,44,45,46,42,n.a.,n.a.,n.a.
201.,DUROBOR GROUP,RUE MADEMOISELLE HANICQ 39,SOIGNIES,Belgium,2313,n.a.,22,22,22,26,26,n.a.,n.a.,n.a.,n.a.,n.a.,27,28,27,27,23,n.a.,n.a.,n.a.,n.a.
202.,AHLSTROM- MUNKSJO MALMEDY S.A,AVENUE DU PONT DE WARCHE 40,MALMEDY,Belgium,1712,n.a.,22,21,25,29,27,39,34,22,32,n.a.,76,73,82,89,90,88,86,87,84
203.,TRINSEO BELGIUM,HAVENLAAN 7,TESSENDERLO,Belgium,4675,n.a.,20,23,21,19,23,23,15,0,n.a.,n.a.,58,55,56,55,48,48,46,n.a.,n.a.
204.,ITC RUBIS TERMINAL ANTWERP,BLIKKEN,BEVEREN-WAAS,Belgium,5210,n.a.,19,17,16,15,11,8,0,0,0,n.a.,40,36,33,29,25,23,6,2,n.a.
205.,INEOS C2T,NIEUWE WEG 1,ZWIJNDRECHT,Belgium,5224,n.a.,19,19,21,18,0,0,0,0,n.a.,n.a.,n.a.,n.a.,n.a.,n.a.,n.a.,n.a.,n.a.,n.a.,n.a.
206.,GROEP MASUREEL VEREDELING,ZUIDSTRAAT 18,WEVELGEM,Belgium,1330,n.a.,16,17,16,17,19,19,18,16,20,n.a.,86,87,94,100,103,105,108,116,143
207.,VIABUILD BETON EN ASFALT,LEUVENSESTEENWEG 300,BOORTMEERBEEK,Belgium,2361,n.a.,17,18,25,13,12,12,11,10,16,n.a.,22,22,23,13,15,11,10,10,14
208.,2VALORISE AMEL,"BORN, HOLZSTRASSE 5",AMEL,Belgium,3511,n.a.,16,12,10,11,12,12,11,9,5,n.a.,40,31,31,34,26,23,18,9,3
209.,EM GENERATION BRUSSELS,JAN-FRANS WILLEMSSTRAAT 200,VILVOORDE,Belgium,3511,n.a.,16,13,128,148,263,339,343,n.a.,n.a.,n.a.,21,77,136,155,169,164,161,n.a.,n.a.
210.,BIOPOWER OOSTENDE,KUIPWEG 44,OOSTENDE,Belgium,3511,n.a.,n.a.,14,30,61,51,50,47,45,21,n.a.,n.a.,24,35,38,45,45,33,32,32
211.,DWBEL,RUE JEAN STAS 11,BRUXELLES,Belgium,1320,n.a.,n.a.,n.a.,n.a.,9,14,12,1,1,1,n.a.,n.a.,n.a.,n.a.,153,178,70,11,11,10
212.,CARSID,RUE DE MARCHIENNE 42,MARCINELLE,Belgium,8299,n.a.,9,2,5,12,45,93,n.a.,62,362,n.a.,32,32,35,97,906,945,n.a.,"1,001","1,092"
213.,MICROFIBRES EUROPE,LANGE MEIRE 56,LAARNE,Belgium,4616,n.a.,n.a.,n.a.,9,11,11,13,18,15,39,n.a.,n.a.,n.a.,84,88,105,129,149,169,186
214.,SAINT ROCH - COUVIN,RUE DE LA GARE 36,COUVIN,Belgium,2529,n.a.,9,13,12,14,18,18,19,20,25,n.a.,102,104,107,113,107,130,132,135,139
215.,DUMOULIN BRICKS,MOORSEELSESTEENWEG 239,RUMBEKE,Belgium,2332,n.a.,8,2,3,2,n.a.,0,n.a.,n.a.,n.a.,n.a.,9,8,5,3,n.a.,n.a.,n.a.,n.a.,n.a.
216.,ASFALT PRODUCTIE LIMBURG,DELLESTRAAT 25,ZOLDER,Belgium,2399,n.a.,9,10,12,11,13,14,11,11,11,n.a.,9,9,9,8,9,8,8,8,8
217.,LES ENROBES DU CENTRE,ROUTE DU GRAND PEUPLIER 4 A,STREPY-BRACQUEGNIES,Belgium,2399,n.a.,9,9,13,13,15,15,13,8,9,n.a.,12,15,15,13,12,12,11,10,10
218.,FAMENNE ENROBES,RUE SAINT-ISIDORE 101,MARCHE-EN-FAMENNE,Belgium,2059,n.a.,8,8,9,13,13,13,9,7,9,n.a.,14,14,15,12,13,13,12,13,12
219.,SCREDEMA,GRAND'ROUTE 260 A,GAURAIN-RAMECROIX,Belgium,2399,n.a.,7,6,9,10,13,14,12,10,10,n.a.,8,9,10,10,13,14,14,14,14
220.,DESSOL BELGIUM,WISSENSTRAAT 2,DENDERMONDE,Belgium,4690,n.a.,6,12,14,14,15,17,18,37,n.a.,n.a.,43,53,58,55,64,79,81,82,n.a.
221.,ASCOVIL,GRAND'ROUTE 71,CRISNEE,Belgium,2399,n.a.,6,6,11,n.a.,n.a.,n.a.,n.a.,n.a.,n.a.,n.a.,8,8,7,n.a.,n.a.,n.a.,n.a.,n.a.,n.a.
222.,GREENPOWER OOSTENDE,SOLVAYLAAN 7,ZANDVOORDE (OOSTENDE),Belgium,3511,n.a.,n.a.,n.a.,4,6,1,8,2,n.a.,n.a.,n.a.,n.a.,n.a.,n.a.,n.a.,n.a.,n.a.,n.a.,n.a.,n.a.
223.,LINOPAN,OOIGEMSTRAAT 16,WIELSBEKE,Belgium,1621,n.a.,n.a.,n.a.,n.a.,n.a.,4,7,24,n.a.,26,n.a.,n.a.,n.a.,n.a.,n.a.,58,64,102,n.a.,141
224.,WIENERBERGER BUILDING SOLUTIONS,KAPEL TER BEDE 121,KORTRIJK,Belgium,4673,n.a.,n.a.,n.a.,n.a.,n.a.,n.a.,4,6,3,9,n.a.,n.a.,n.a.,n.a.,n.a.,n.a.,28,12,11,38
225.,BAM ASPHALT,HASSELTSESTEENWEG 172,SINT-TRUIDEN,Belgium,2399,n.a.,3,5,9,11,10,12,5,1,1,n.a.,n.a.,n.a.,n.a.,n.a.,n.a.,n.a.,n.a.,n.a.,n.a.
226.,FLOREN EN CIE,VAARTKANT RECHTS 4,SINT-LENAARTS,Belgium,2332,n.a.,2,2,2,2,4,2,1,1,2,n.a.,21,20,21,21,20,20,19,18,18
227.,VORONEZHREGIONTORG,"UL. SAKKO I VANTSETTI D. 69, OFFICE 27",VORONEZH,Russian Federation,4711,n.a.,2,1,n.a.,n.a.,n.a.,n.a.,n.a.,n.a.,n.a.,n.a.,36,23,n.a.,n.a.,n.a.,n.a.,n.a.,n.a.,n.a.
228.,TECOMA,SPIEGELLAAN 39,MERCHTEM,Belgium,3514,n.a.,2,1,1,1,1,1,1,0,0,n.a.,2,2,2,2,2,3,3,3,3
229.,TOTAL PETROCHEMICALS ELASTOMERS,NIJVERHEIDSSTRAAT 52,BRUSSEL,Belgium,4675,n.a.,n.a.,n.a.,n.a.,n.a.,n.a.,n.a.,n.a.,n.a.,1,n.a.,n.a.,n.a.,n.a.,n.a.,n.a.,n.a.,n.a.,n.a.,13
230.,AEROTRANSCARGO,"STR. DACIA BD., 60/5, AP. 115",CHISINAU,Republic of Moldova,5110,n.a.,n.a.,n.a.,1,n.a.,n.a.,n.a.,n.a.,n.a.,n.a.,n.a.,n.a.,n.a.,22,n.a.,n.a.,n.a.,n.a.,n.a.,n.a.
231.,ENERGIE SERVICES DUFFEL,ROETESTRAAT 41,DUFFEL,Belgium,3511,n.a.,1,1,1,0,1,1,1,1,1,n.a.,1,n.a.,n.a.,1,n.a.,n.a.,n.a.,n.a.,n.a.
232.,ACRS ASFALT & RECYCLING,KANAALDIJK 22,RAVELS,Belgium,3900,n.a.,n.a.,1,0,n.a.,n.a.,n.a.,n.a.,n.a.,n.a.,n.a.,n.a.,3,4,n.a.,n.a.,n.a.,n.a.,n.a.,n.a.
233.,LAMINOIRS DU RUAU,ROUTE DE TRAZEGNIES 147,MONCEAU-SUR-SAMBRE,Belgium,2410,n.a.,0,n.a.,n.a.,n.a.,n.a.,13,14,11,20,n.a.,10,10,10,1,55,96,120,132,139
234.,SOUTHERN AIR INC,1500 OLD EBENEZER RD,FLORENCE,United States of America,4322,n.a.,n.a.,n.a.,n.a.,n.a.,n.a.,0,n.a.,n.a.,n.a.,n.a.,n.a.,n.a.,n.a.,n.a.,n.a.,1,n.a.,n.a.,n.a.
235.,SAINT - GOBAIN GLASS COATING BENELUX,RUE DES GLACES NATIONALES 169,AUVELAIS,Belgium,2312,n.a.,n.a.,n.a.,n.a.,n.a.,n.a.,n.a.,n.a.,n.a.,n.a.,n.a.,n.a.,n.a.,n.a.,n.a.,n.a.,n.a.,n.a.,n.a.,n.a.
236.,SOLAREC,UITBREIDINGSTRAAT 84,BERCHEM-ANTWERPEN,Belgium,4676,n.a.,0,0,0,0,0,0,0,0,0,n.a.,n.a.,n.a.,n.a.,n.a.,n.a.,n.a.,n.a.,1,n.a.
237.,EMGO,BALENDIJK 161,LOMMEL,Belgium,2319,n.a.,0,1,1,9,53,78,n.a.,46,58,n.a.,n.a.,n.a.,1,37,134,252,n.a.,284,293
238.,NEW HOLLAND TRACTOR LIMITED,WILMARSDONKSTEENWEG 32,ANTWERPEN,Belgium,2932,n.a.,n.a.,n.a.,0,425,454,378,282,256,387,n.a.,n.a.,n.a.,n.a.,"1,011","1,072",998,894,967,"1,073"
239.,SONACA PARTICIPATION,ROUTE NATIONALE 5 5,GOSSELIES,Belgium,5223,n.a.,n.a.,n.a.,n.a.,n.a.,n.a.,n.a.,n.a.,n.a.,n.a.,n.a.,n.a.,n.a.,n.a.,n.a.,n.a.,n.a.,n.a.,n.a.,n.a.
240.,EXCELLENT INVESTMENT,BLD MAURICE LEMONNIER 113,BRUXELLES,Belgium,4641,n.a.,n.a.,n.a.,n.a.,n.a.,n.a.,n.a.,n.a.,n.a.,n.a.,n.a.,n.a.,n.a.,n.a.,n.a.,n.a.,n.a.,n.a.,n.a.,n.a.
241.,ARGEX S.A.,,,Panama,,n.a.,n.a.,n.a.,n.a.,n.a.,n.a.,n.a.,n.a.,n.a.,n.a.,n.a.,n.a.,n.a.,n.a.,n.a.,n.a.,n.a.,n.a.,n.a.,n.a.
242.,UCB PHARMA S.A.,,,Panama,,n.a.,n.a.,n.a.,n.a.,n.a.,n.a.,n.a.,n.a.,n.a.,n.a.,n.a.,n.a.,n.a.,n.a.,n.a.,n.a.,n.a.,n.a.,n.a.,n.a.
243.,REGIE DES BATIMENTS,AVENUE DE LA TOISON D'OR 87 B.2,BRUXELLES,Belgium,8411,n.a.,n.a.,n.a.,n.a.,n.a.,n.a.,n.a.,n.a.,n.a.,n.a.,n.a.,n.a.,n.a.,n.a.,n.a.,n.a.,n.a.,n.a.,n.a.,n.a.
244.,UNIVERSITAIR ZIEKENHUIS GENT,DE PINTELAAN 185,GENT,Belgium,9412,n.a.,n.a.,n.a.,n.a.,n.a.,n.a.,n.a.,n.a.,n.a.,n.a.,n.a.,n.a.,n.a.,n.a.,n.a.,n.a.,n.a.,n.a.,n.a.,n.a.
245.,COCKERILL MAINTENANCE ET INGENIERIE - SOLIDARITE,AVENUE GREINER 1,SERAING,Belgium,,n.a.,n.a.,n.a.,n.a.,n.a.,n.a.,n.a.,n.a.,n.a.,n.a.,n.a.,n.a.,n.a.,n.a.,n.a.,n.a.,n.a.,n.a.,n.a.,n.a.
246.,SOLAR TURBINES,AVENUE DES ETATS-UNIS 1,GOSSELIES,Belgium,,n.a.,n.a.,n.a.,n.a.,n.a.,n.a.,n.a.,n.a.,n.a.,n.a.,n.a.,n.a.,n.a.,n.a.,n.a.,n.a.,n.a.,n.a.,n.a.,n.a.
247.,ARMSTRONG ORCHIDEE,DEUXIEME AVENUE 4,HERSTAL,Belgium,3514,n.a.,n.a.,0,1,2,2,2,2,3,2,n.a.,n.a.,n.a.,n.a.,n.a.,n.a.,n.a.,n.a.,n.a.,n.a.
248.,INEOS PHENOL INC.,HAVENWEG,DOEL,Belgium,4675,n.a.,n.a.,n.a.,n.a.,n.a.,n.a.,n.a.,n.a.,n.a.,n.a.,n.a.,n.a.,n.a.,n.a.,n.a.,n.a.,n.a.,n.a.,n.a.,n.a.
249.,VAN HOOL BEN,HERTENDREEF 4,SCHILDE,Belgium,6202,n.a.,n.a.,n.a.,n.a.,n.a.,n.a.,n.a.,n.a.,n.a.,n.a.,n.a.,n.a.,n.a.,n.a.,n.a.,n.a.,n.a.,n.a.,n.a.,n.a.
250.,ASSOCIATION DES COPROPRIETAIRES RUE DU BEFFROI,RUE DU BEFFROI 12-14,BRUXELLES,Belgium,6820,n.a.,n.a.,n.a.,n.a.,n.a.,n.a.,n.a.,n.a.,n.a.,n.a.,n.a.,n.a.,n.a.,n.a.,n.a.,n.a.,n.a.,n.a.,n.a.,n.a.
251.,BELREF,RUE DE LA RIVIERETTE 100,SAINT-GHISLAIN,Belgium,2320,n.a.,n.a.,n.a.,n.a.,n.a.,n.a.,n.a.,n.a.,n.a.,n.a.,n.a.,n.a.,n.a.,n.a.,n.a.,n.a.,n.a.,n.a.,n.a.,n.a.
252.,UNIVERSITE DE LIEGE - COMMUNAUTE FRANCAISE,PLACE DU VINGT AOUT 7,LIEGE,Belgium,8542,n.a.,n.a.,n.a.,n.a.,n.a.,n.a.,n.a.,n.a.,n.a.,n.a.,n.a.,n.a.,n.a.,n.a.,n.a.,n.a.,n.a.,n.a.,n.a.,n.a.
253.,PARLEMENT EUROPEEN,BELLIARDSTRAAT 97 B.113,BRUSSEL,Belgium,5221,n.a.,n.a.,n.a.,n.a.,n.a.,n.a.,n.a.,n.a.,n.a.,n.a.,n.a.,n.a.,n.a.,n.a.,n.a.,n.a.,n.a.,n.a.,n.a.,n.a.
254.,ALLNEX BELGIUM SA,,,Belgium,,n.a.,n.a.,n.a.,n.a.,n.a.,n.a.,n.a.,n.a.,n.a.,n.a.,n.a.,n.a.,n.a.,n.a.,n.a.,n.a.,n.a.,n.a.,n.a.,n.a.
255.,BOMBARDIER TRANSPORTATION BELGIUM,,,Belgium,,n.a.,n.a.,n.a.,n.a.,n.a.,n.a.,n.a.,n.a.,n.a.,n.a.,n.a.,n.a.,n.a.,n.a.,n.a.,n.a.,n.a.,n.a.,n.a.,n.a.
256.,ASWEBO NV,BOOIEBOS 4,DRONGEN,Belgium,1920,n.a.,n.a.,n.a.,n.a.,n.a.,n.a.,n.a.,n.a.,n.a.,n.a.,n.a.,n.a.,n.a.,n.a.,n.a.,n.a.,n.a.,n.a.,n.a.,n.a.
257.,PARC DES EXPOSITIONS DE BRUXELLES,PLACE DE LA BELGIQUE 1,BRUXELLES,Belgium,,n.a.,n.a.,n.a.,n.a.,n.a.,n.a.,n.a.,n.a.,n.a.,n.a.,n.a.,n.a.,n.a.,n.a.,n.a.,n.a.,n.a.,n.a.,n.a.,n.a.
258.,GENERAL MOTORS PENSIOENFONDS OVV,"NOORDERLAAN, 401 HAVEN, 500",ANTWERP,Belgium,,n.a.,n.a.,n.a.,n.a.,n.a.,n.a.,n.a.,n.a.,n.a.,n.a.,n.a.,n.a.,n.a.,n.a.,n.a.,n.a.,n.a.,n.a.,n.a.,n.a.
259.,JINDAL FILMS EUROPE VIRTON LLC,,,United States of America,,n.a.,n.a.,n.a.,n.a.,n.a.,n.a.,n.a.,n.a.,n.a.,n.a.,n.a.,n.a.,n.a.,n.a.,n.a.,n.a.,n.a.,n.a.,n.a.,n.a.
260.,PRO-MAT INTERNATIONAL LIMITED,,,Hong Kong,,n.a.,n.a.,n.a.,n.a.,n.a.,n.a.,n.a.,n.a.,n.a.,n.a.,n.a.,n.a.,n.a.,n.a.,n.a.,n.a.,n.a.,n.a.,n.a.,n.a.
261.,INTERNATIONAL BUSINESS MACHINES of BELGIUM SARL,RUE PAFEBRUCH 89 C,CAP,Luxembourg,4741,n.a.,n.a.,n.a.,n.a.,n.a.,n.a.,742,719,678,687,n.a.,n.a.,n.a.,n.a.,75,75,75,75,75,n.a.
262.,EGYPTAIR,,CAIRO,Egypt,,n.a.,n.a.,n.a.,n.a.,n.a.,n.a.,n.a.,n.a.,n.a.,n.a.,n.a.,n.a.,n.a.,n.a.,n.a.,n.a.,n.a.,n.a.,n.a.,n.a.
263.,ARCELORMITTAL BELGIUM,BOULVARD ROI ALBERT II UT 35.,BRUXELLES,Hungary,4672,n.a.,n.a.,n.a.,n.a.,n.a.,n.a.,n.a.,n.a.,n.a.,n.a.,n.a.,n.a.,n.a.,n.a.,n.a.,n.a.,n.a.,n.a.,n.a.,n.a.