,Company name,"Street, no., building etc, line 1",City,Country,"NACE Rev. 2
Core code (4 digits)","Operating
revenue
(Turnover)
m EUR
2017","Operating
revenue
(Turnover)
m EUR
2016","Operating
revenue
(Turnover)
m EUR
2015","Operating
revenue
(Turnover)
m EUR
2014","Operating
revenue
(Turnover)
m EUR
2013","Operating
revenue
(Turnover)
m EUR
2012","Operating
revenue
(Turnover)
m EUR
2011","Operating
revenue
(Turnover)
m EUR
2010","Operating
revenue
(Turnover)
m EUR
2009","Operating
revenue
(Turnover)
m EUR
2008","Number of employees
2017","Number of employees
2016","Number of employees
2015","Number of employees
2014","Number of employees
2013","Number of employees
2012","Number of employees
2011","Number of employees
2010","Number of employees
2009","Number of employees
2008"
1.,AURUBIS BULGARIA AD,PROMISHLENA ZONA,PIRDOP,Bulgaria,2444,n.a.,"1,674","2,274","2,137","2,279","2,216","2,390","1,635","1,213","1,330",n.a.,854,850,830,818,810,815,786,781,766
2.,"APRO FINANCIAL CO.,LTD.","39, SEJONG-DAERO JUNG-GU SEOUL",SEOUL,Republic of Korea,6619,n.a.,698,699,657,436,466,500,412,268,221,n.a.,"1,006",n.a.,n.a.,n.a.,n.a.,n.a.,n.a.,n.a.,n.a.
3.,TPP MARITSA EAST 2 EAD,,KOVACHEVO,Bulgaria,3511,n.a.,283,326,303,302,346,340,266,296,282,n.a.,"2,445","2,457","2,468","2,494","2,526","2,451","2,517","2,581","2,320"
4.,AES 3C MARITZA EAST I EOOD,,GALABOVO,Bulgaria,3511,n.a.,278,313,278,297,275,131,0,0,0,n.a.,n.a.,1,1,1,1,24,25,1,1
5.,STOMANA INDUSTRY AD,UL. VLADAYSKO VASTANIE 1,PERNIK,Bulgaria,2452,n.a.,270,307,333,286,372,480,362,255,583,n.a.,"1,063","1,092",997,903,929,740,718,790,876
6.,AMYLUM BULGARIA EAD,SEVERNA INDUSTRIALNA ZONA,RAZGRAD,Bulgaria,1062,n.a.,259,150,149,171,148,147,112,99,102,n.a.,287,271,264,266,259,250,243,232,228
7.,AGROPOLYCHIM AD,PROMISHLENA ZONA,DEVNYA,Bulgaria,2015,n.a.,237,286,252,204,245,224,155,112,204,n.a.,688,666,626,639,657,670,662,727,876
8.,CONTOURGLOBAL MARITSA EAST 3 AD,"BUL. SITNYAKOVO 48, ET. 9",SOFIA,Bulgaria,3511,n.a.,221,287,249,202,228,242,231,209,164,n.a.,44,39,43,39,40,41,50,57,65
9.,"GREENS CO., LTD.","5-3, HAMADA CHO",YOKKAICHI CITY,Japan,5510,204,219,n.a.,n.a.,n.a.,n.a.,n.a.,n.a.,n.a.,n.a.,628,639,n.a.,n.a.,n.a.,n.a.,n.a.,n.a.,n.a.,n.a.
10.,TOPLOFIKACIYA SOFIA EAD,UL. YASTREBETS 23B,SOFIA,Bulgaria,3530,n.a.,192,270,274,316,338,306,238,231,202,n.a.,"2,360","2,371","2,456","2,264","2,275","2,273","2,328","2,417","2,418"
11.,IDEAL STANDARD VIDIMA AD,UL. MARIN POPOV 53,SEVLIEVO,Bulgaria,2814,n.a.,191,194,193,192,197,172,155,146,217,n.a.,"3,217","3,326","3,122","3,156","3,201","3,312","1,906","1,928","2,369"
12.,BULGARTRANSGAZ EAD,"KVARTAL LYULIN -2, BUL. PANCHO VLADIGEROV, 66",SOFIA,Bulgaria,4950,n.a.,170,187,186,200,219,194,146,137,77,n.a.,"1,160","1,139","1,108","1,092","1,074","1,035","1,062","1,063","1,004"
13.,ALCOMET AD,II INDUSTRIAL ZONE,SHUMEN,Bulgaria,2442,n.a.,163,n.a.,n.a.,n.a.,n.a.,n.a.,n.a.,n.a.,n.a.,n.a.,928,n.a.,n.a.,n.a.,n.a.,n.a.,n.a.,n.a.,n.a.
14.,BALKANPHARMA DUPNITSA AD,UL. SAMOKOVSKO SHOSE 3,DUPNITSA,Bulgaria,2120,n.a.,157,155,125,121,103,85,45,38,41,n.a.,"1,297","1,342","1,190","1,099",987,802,676,697,895
15.,BLAGOEVGRAD BT AD,UL. POKROVNISHKO SHOSE 1,BLAGOEVGRAD,Bulgaria,1200,n.a.,153,168,147,127,135,103,88,81,99,n.a.,626,599,819,839,837,"1,044","1,023","1,047","1,067"
16.,BULGARIA AIR AD,AEROGARA SOFIA,SOFIA,Bulgaria,5110,n.a.,144,172,174,171,168,168,159,144,166,n.a.,456,483,448,548,702,888,969,"1,002","1,112"
17.,TRAKYA GLASS BULGARIA EAD,"KV. VABEL, INDUSTRIALNA ZONA",TARGOVISHTE,Bulgaria,2311,n.a.,139,232,186,150,143,139,136,109,119,n.a.,502,"1,857","1,731","1,579","1,280","1,095",998,912,913
18.,POLYSAN AD,"UL. PRIDUNAVSKI BULEVARD 18, ET. 3",RUSE,Bulgaria,4671,n.a.,135,106,113,107,94,68,29,22,25,n.a.,231,213,180,176,154,137,108,101,80
19.,NEOCHIM AD,IZTOCHNA INDUSTRIALNA ZONA,DIMITROVGRAD,Bulgaria,4675,n.a.,126,149,121,127,129,145,81,n.a.,n.a.,n.a.,"1,072","1,102","1,277","1,423","1,235","1,227","1,150",n.a.,n.a.
20.,E MIROGLIO EAD,INDUSTRIALNA ZONA,SLIVEN,Bulgaria,1310,n.a.,121,113,113,108,93,91,78,74,94,n.a.,"2,304","2,055","1,968","1,883","1,732","1,747","1,649","1,623","1,788"
21.,KRONOSPAN BULGARIA EOOD,SEVEROZAPADNA PROMISHLENA ZONA,BURGAS,Bulgaria,1621,n.a.,88,92,91,96,96,96,91,76,95,n.a.,399,398,403,414,412,427,426,439,436
22.,ZAGORKA AD,UL. HAN ASPARUH 41,STARA ZAGORA,Bulgaria,1105,n.a.,83,82,72,75,76,69,73,76,78,n.a.,489,499,511,523,543,554,572,572,571
23.,ZAHARNI ZAVODI AD,"29, PRINCE BORIS I STREET",GORNA ORYAHOVITSA,Bulgaria,1081,n.a.,80,70,57,81,n.a.,n.a.,n.a.,n.a.,n.a.,n.a.,800,787,784,740,n.a.,n.a.,n.a.,n.a.,n.a.
24.,MONDI STAMBOLIJSKI EAD,UL. ZAVODSKA 1,STAMBOLIYSKI,Bulgaria,1712,n.a.,77,73,72,66,54,53,32,15,47,n.a.,317,323,323,322,335,341,338,242,584
25.,BRIKEL EAD,IZVAN GRADA,GALABOVO,Bulgaria,3511,n.a.,74,44,64,66,64,46,71,79,96,n.a.,"1,298","1,389","1,245","1,216","1,301","1,255","1,302","1,331","1,325"
26.,"TERRA CO.,LTD.","5-19, HIGASHISHUKUGO 1-CHOME",UTSUNOMIYA-SHI,Japan,4741,n.a.,70,69,57,55,60,58,n.a.,n.a.,n.a.,n.a.,192,185,185,177,168,152,n.a.,n.a.,n.a.
27.,DEVNYA CEMENT AD,PROMISHLENA ZONA,DEVNYA,Bulgaria,2351,n.a.,68,74,56,55,63,60,52,75,136,n.a.,237,259,257,263,254,262,287,299,320
28.,"CALCIT, PROIZVODNJA KALCITNIH POLNIL D.O.O.",STAHOVICA 15,STAHOVICA,Slovenia,0811,n.a.,67,66,71,59,47,45,43,36,32,n.a.,144,131,122,120,122,118,110,109,107
29.,DEVEN AD,PROMISHLENA ZONA,DEVNYA,Bulgaria,3530,n.a.,65,71,96,83,98,96,83,50,71,n.a.,53,51,54,56,56,58,97,139,155
30.,DS SMITH BULGARIA AD,KV. GLAVINITSA,PAZARDZHIK,Bulgaria,1721,n.a.,62,63,60,56,56,56,46,42,48,n.a.,516,540,543,537,522,516,513,524,683
31.,TPP BOBOV DOL EAD,,GOLEMO SELO,Bulgaria,3511,n.a.,60,75,78,73,75,109,93,87,90,n.a.,854,857,930,820,977,936,872,788,"1,085"
32.,SVILOSA AD,WESTERN INDUSTRIAL ZONE,SVISHTOV,Bulgaria,1711,n.a.,52,59,55,56,48,55,56,n.a.,n.a.,n.a.,513,502,507,507,n.a.,508,532,n.a.,n.a.
33.,AIR VIA OOD,"BUL. ARSENALSKI 11, ET. 7, OFIS 11",SOFIA,Bulgaria,5110,n.a.,42,54,70,69,60,61,65,51,59,n.a.,199,238,227,219,174,190,186,158,184
34.,KNAUF BULGARIA EOOD,UL. ANGELOV VRAH 27,SOFIA,Bulgaria,2362,n.a.,40,36,35,35,33,33,25,26,41,n.a.,187,203,203,201,198,196,190,175,152
35.,HOLCIM BULGARIA AD,,BELI IZVOR,Bulgaria,2351,n.a.,39,46,45,38,39,48,53,65,123,n.a.,273,278,283,274,279,281,363,473,510
36.,BISER OLIVA AD,KVARTAL INDUSTRIALEN,STARA ZAGORA,Bulgaria,1041,n.a.,39,46,38,44,31,18,15,19,14,n.a.,199,207,194,206,169,157,151,155,179
37.,ZLATNA PANEGA CEMENT AD,UL. SHIPKA 1,ZLATNA PANEGA,Bulgaria,2351,n.a.,36,45,37,34,44,53,42,56,126,n.a.,222,227,226,232,254,255,280,330,396
38.,TOPLOFIKACIA PERNIK AD,KVARTAL MOSHINO,PERNIK,Bulgaria,3530,n.a.,28,26,31,31,30,43,25,20,22,n.a.,457,460,462,485,532,551,635,650,780
39.,RUBIN TRADING EAD,"BUL. VITOSHA 68, ET. 2",SOFIA,Bulgaria,2313,n.a.,28,30,n.a.,n.a.,n.a.,n.a.,n.a.,n.a.,n.a.,n.a.,517,508,n.a.,n.a.,n.a.,n.a.,n.a.,n.a.,n.a.
40.,TOPLOFIKACIA PLEVEN EAD,IZTOCHNA INDUSTRIALNA ZONA 128,PLEVEN,Bulgaria,3511,n.a.,27,30,42,45,49,40,41,36,31,n.a.,209,208,206,205,202,204,215,222,223
41.,ROCA BULGARIA AD,UL. MADARSKI KONNIK 48,KASPICHAN,Bulgaria,2342,n.a.,24,28,26,19,18,17,15,13,17,n.a.,466,482,472,392,331,316,283,279,330
42.,BALKANPHARMA TROYAN AD,UL. KRAYRECHNA 1,TROYAN,Bulgaria,2120,n.a.,21,24,25,23,22,16,16,14,16,n.a.,348,366,363,360,362,323,334,376,520
43.,KOSTENETS PAPER MILL EAD,UL. SAEDINENIE 2,KOSTENETS,Bulgaria,1712,n.a.,20,0,n.a.,n.a.,n.a.,n.a.,n.a.,n.a.,n.a.,n.a.,233,1,n.a.,n.a.,n.a.,n.a.,n.a.,n.a.,n.a.
44.,WIENERBERGER EOOD,"KV. DIANABAD, UL. PIMEN ZOGRAFSKI 4 , BIZNES SGRADA 2, ET. 2, OFIS 1",SOFIA,Bulgaria,2332,n.a.,16,13,11,10,10,9,9,10,17,n.a.,86,83,81,82,81,81,86,96,101
45.,CASTING FORGING MACHINERY COMPLEX EOOD,INDUSTRIALNA ZONA,RADOMIR,Bulgaria,2410,n.a.,16,5,n.a.,n.a.,n.a.,n.a.,n.a.,n.a.,n.a.,n.a.,159,317,n.a.,n.a.,n.a.,n.a.,n.a.,n.a.,n.a.
46.,OGNYANOVO K AD,"UL. POZITANO 7, ET. 4, OFIS 15",SOFIA,Bulgaria,2352,n.a.,15,16,15,13,15,13,14,14,17,n.a.,167,175,177,158,181,206,265,277,333
47.,KEROS BULGARIA EAD,"IZTOCHNA PROMISHLENA ZONA, UL. SVETI SPIRIDON 11",RUSE,Bulgaria,2331,n.a.,15,16,13,13,12,12,7,2,0,n.a.,214,160,175,152,135,126,110,115,5
48.,VULKAN CEMENT AD,ZH.K. VULKAN,DIMITROVGRAD,Bulgaria,2351,n.a.,14,14,12,12,18,17,17,27,43,n.a.,76,92,91,102,114,157,160,174,189
49.,TOPLOFIKACIA SLIVEN EAD,BUL. STEFAN KARADZHA 23,SLIVEN,Bulgaria,3511,n.a.,13,13,16,13,15,14,11,11,13,n.a.,285,285,270,261,267,259,264,265,256
50.,TEC MARITSA 3 AD,PROMISHLENA ZONA,DIMITROVGRAD,Bulgaria,3511,n.a.,8,15,15,18,n.a.,n.a.,n.a.,n.a.,n.a.,n.a.,199,278,317,326,n.a.,n.a.,n.a.,n.a.,n.a.
51.,FAZERLES AD,P.O. BOX: 93,SILISTRA,Bulgaria,1629,n.a.,7,9,9,10,9,n.a.,n.a.,n.a.,n.a.,n.a.,232,244,n.a.,n.a.,n.a.,n.a.,n.a.,n.a.,n.a.
52.,VMV METAL EOOD,INDUSTRIALEN PAT 3B,IHTIMAN,Bulgaria,2451,n.a.,6,6,10,7,7,0,0,0,n.a.,n.a.,234,254,256,229,249,83,1,1,n.a.
53.,VELPA 91 AD,UL. GLADSTON 36,STRAZHITSA,Bulgaria,1721,n.a.,6,6,6,6,7,8,6,5,7,n.a.,221,224,213,217,222,245,260,258,263
54.,PETROCELTIC BULGARIA EOOD,KOMPRESORNA STANTSIA,VARNA,Bulgaria,0620,n.a.,5,7,19,11,4,2,0,1,14,n.a.,15,18,19,19,21,19,25,29,43
55.,REMOTEX M OOD,BUL. D-R G.M. DIMITROV 57,SOFIA,Bulgaria,2815,n.a.,4,4,0,n.a.,n.a.,n.a.,n.a.,n.a.,n.a.,n.a.,335,181,1,n.a.,n.a.,n.a.,n.a.,n.a.,n.a.
56.,ORANZHERII GIMEL II EOOD,"KVARTAL VRAZHDEBNA, UL. 2-RA, 26A",SOFIA,Bulgaria,0113,n.a.,3,3,4,2,2,2,2,2,3,n.a.,187,198,194,187,201,174,171,206,204
57.,TOPLOFIKACIA GABROVO EAD,UL. INDUSTRIALNA 6,GABROVO,Bulgaria,3530,n.a.,3,2,2,2,2,2,2,2,2,n.a.,78,91,101,102,99,98,89,120,100
58.,TOPLOFIKATCIA - VT AD,"UL. NIKOLA GABROVSKI, 71 A",VELIKO TARNOVO,Bulgaria,3530,n.a.,3,3,3,4,4,4,3,3,3,n.a.,45,52,54,57,63,69,73,74,67
59.,JOINT STOCK COMPANY TROOD,UL. BOLNICHNAYA D. 18,RP VACHA,Russian Federation,2571,n.a.,2,3,4,7,11,10,10,7,9,n.a.,372,340,386,551,608,635,783,664,801
60.,SMA MINERAL BURGAS VAR EOOD,"BUL. STEFAN STAMBOLOV, 120",BURGAS,Bulgaria,2352,n.a.,2,2,2,2,1,1,1,1,1,n.a.,65,72,71,71,64,58,47,43,55
61.,INTER PIPE AD,"BUL. SIMEONOVSKO SHOSE, 120D, ET. 2",SOFIA,Bulgaria,2420,n.a.,n.a.,n.a.,n.a.,n.a.,2,4,5,4,20,n.a.,n.a.,n.a.,n.a.,n.a.,28,23,64,181,325
62.,ALT KO AD,UL. PERSENK 10,BANKYA,Bulgaria,0113,n.a.,2,2,2,3,3,3,3,2,2,n.a.,93,136,126,132,142,137,134,130,126
63.,BALGARSKA PETROLNA RAFINERIA EOOD,UL. STEFAN KARADZHA 2,SOFIA,Bulgaria,1920,n.a.,2,2,6,15,10,8,8,9,15,n.a.,46,55,53,53,60,55,56,55,77
64.,RUNO KAZANLAK EAD,UL. MANYO STAYNOV 4,KAZANLAK,Bulgaria,3511,n.a.,1,2,2,2,2,1,4,4,3,n.a.,52,50,51,51,52,50,96,155,160
65.,KERAMAT AD,UL. ALEKSANDAR STAMBOLIYSKI 77,KASPICHAN,Bulgaria,2332,n.a.,1,1,1,1,1,1,2,1,5,n.a.,78,109,100,97,101,95,110,142,384
66.,YAMBOLEN AD,"UL. YAMBOLEN, 35",YAMBOL,Bulgaria,2599,n.a.,1,1,1,1,1,1,1,1,1,n.a.,55,66,64,67,83,80,86,175,180
67.,KERAM INVEST AD,"KVARTAL KV. INDUSTRIALEN, UL. SAMUILOVSKO SHOSE",SLIVEN,Bulgaria,2332,n.a.,1,1,1,1,1,1,1,1,2,n.a.,85,90,99,151,156,152,104,111,127
68.,KALIAKRA AD,TSAR OSVOBODITEL 10; ET. 3,SOFIA,Bulgaria,8211,n.a.,0,1,1,1,1,1,1,8,33,n.a.,9,10,13,12,10,9,8,39,56
69.,MELGI EOOD,"KV. VRAZHDEBNA, UL. 9-TA 21",SOFIA,Bulgaria,0113,n.a.,0,1,1,2,1,0,0,1,1,n.a.,46,60,53,61,58,54,41,34,192
70.,RODNA INDUSTRIA 91 EOOD,BUL. BULGARIA 108,POPOVO,Bulgaria,2332,n.a.,0,0,0,0,0,0,0,0,2,n.a.,42,38,43,40,40,24,33,53,135
71.,NIKOM - 97 AD,"VASIL LEVSKI, 15, ET. 10",VELIKO TARNOVO,Bulgaria,2332,n.a.,0,1,0,0,0,0,0,0,0,n.a.,15,17,11,34,38,18,3,3,n.a.
72.,BULGARIAN SUGAR COMPANY EOOD,"BURGASKI ZAHAREN ZAVOD, -, BL. -, VH. -, ET-, AP.",KAMENO,Bulgaria,4636,n.a.,0,5,1,0,0,0,n.a.,n.a.,n.a.,n.a.,20,56,55,1,5,2,1,1,1
73.,IZIDA 1894 EOOD,"UL. SLAVYANSKA, 5, VH. 1, ET. 3",SOFIA,Bulgaria,6820,n.a.,0,0,0,0,1,0,2,6,0,n.a.,10,10,11,42,10,9,8,9,8
74.,TAMARA 2009 OOD,"KVARTAL BAKSTON, BULGARSKA LEGIA, 36",SOFIA,Bulgaria,2352,n.a.,0,2,3,2,0,0,n.a.,n.a.,n.a.,n.a.,5,18,26,26,14,5,n.a.,1,n.a.
75.,HARMANLIYSKA KERAMIKA AD,"UL. TRETI MART, 14",HARMANLI,Bulgaria,2332,n.a.,0,0,0,0,0,0,0,0,n.a.,n.a.,33,51,35,19,10,10,8,16,n.a.
76.,SHAVARNA 97 OOD,"UL. PANAYOT HITOV, 1",LEVSKI,Bulgaria,2363,n.a.,0,0,0,0,0,0,0,0,1,n.a.,12,16,17,17,25,24,34,30,80
77.,SHAMOT AD,UL. STARA PLANINA 1,GARA ELIN PELIN,Bulgaria,6820,n.a.,0,0,0,0,0,1,1,0,1,n.a.,8,8,9,10,11,11,14,17,22
78.,MAYR MELNHOF NIKOPOL AD,"UL.RADETSKI, N43, ET.2, AP.4",PLEVEN,Bulgaria,1712,n.a.,n.a.,n.a.,n.a.,n.a.,n.a.,n.a.,0,13,12,n.a.,n.a.,n.a.,n.a.,n.a.,n.a.,n.a.,6,15,295
79.,SMA MINERAL VARODOBIV EOOD,UL. TSAR OSVOBODITEL 97,SHUMEN,Bulgaria,0811,n.a.,n.a.,n.a.,n.a.,n.a.,0,1,1,1,1,n.a.,n.a.,n.a.,n.a.,n.a.,6,6,20,43,47
80.,STARTKERAMIK OOD,UL.CHETIRIDESET I SEDMA 7,MIHALTSI,Bulgaria,2332,n.a.,0,0,0,0,0,0,0,0,n.a.,n.a.,1,3,2,4,3,10,8,9,n.a.
81.,GARDINVEST,SH. ZAGORODNOE D. 3,ORENBURG,Russian Federation,6820,n.a.,n.a.,0,0,0,0,0,n.a.,n.a.,n.a.,n.a.,n.a.,3,3,3,3,3,n.a.,n.a.,n.a.
82.,IVAN ATANASOV CHERVENIVANOV,UL. BAYKAL N 15,BANYA,Bulgaria,0113,n.a.,n.a.,n.a.,n.a.,n.a.,n.a.,0,0,n.a.,0,n.a.,n.a.,n.a.,n.a.,n.a.,n.a.,n.a.,1,3,49
83.,SDRUZHENIE HAN ASPARUH,"UL. 6-TI SEPTEMVRI, N35",SOFIA,Bulgaria,9499,n.a.,n.a.,n.a.,n.a.,n.a.,n.a.,n.a.,n.a.,n.a.,n.a.,n.a.,n.a.,n.a.,n.a.,n.a.,n.a.,n.a.,n.a.,n.a.,n.a.
84.,LESOPLAST A.D.,,,Bulgaria,,n.a.,n.a.,n.a.,n.a.,n.a.,n.a.,n.a.,n.a.,n.a.,n.a.,n.a.,n.a.,n.a.,n.a.,n.a.,n.a.,n.a.,n.a.,n.a.,n.a.
85.,TEC VARNA EAD,,,Bulgaria,,n.a.,n.a.,n.a.,n.a.,n.a.,n.a.,n.a.,n.a.,n.a.,n.a.,n.a.,n.a.,n.a.,n.a.,n.a.,n.a.,n.a.,n.a.,n.a.,n.a.
86.,TOPLOFIKATSIA BURGAS,,,Bulgaria,,n.a.,n.a.,n.a.,n.a.,n.a.,n.a.,n.a.,n.a.,n.a.,n.a.,n.a.,n.a.,n.a.,n.a.,n.a.,n.a.,n.a.,n.a.,n.a.,n.a.
87.,BHAIR APS,SCT. JACOBSVEJ 12,BALLERUP,Denmark,9602,n.a.,n.a.,n.a.,n.a.,n.a.,n.a.,n.a.,n.a.,n.a.,n.a.,1,n.a.,n.a.,n.a.,n.a.,n.a.,n.a.,n.a.,n.a.,n.a.
88.,SOFIAMED,Credit needed,Credit needed,Credit needed,Credit needed,n.a.,n.a.,n.a.,n.a.,n.a.,n.a.,n.a.,n.a.,n.a.,n.a.,n.a.,n.a.,n.a.,n.a.,n.a.,n.a.,n.a.,n.a.,n.a.,n.a.
89.,ELMAZ LIMITED,285 FORE STREET,LONDON,United Kingdom,9609,n.a.,n.a.,n.a.,n.a.,n.a.,n.a.,n.a.,n.a.,n.a.,n.a.,n.a.,n.a.,n.a.,n.a.,n.a.,n.a.,n.a.,n.a.,n.a.,n.a.