,Company name,"Street, no., building etc, line 1",City,Country,"NACE Rev. 2
Core code (4 digits)","Operating
revenue
(Turnover)
m EUR
2017","Operating
revenue
(Turnover)
m EUR
2016","Operating
revenue
(Turnover)
m EUR
2015","Operating
revenue
(Turnover)
m EUR
2014","Operating
revenue
(Turnover)
m EUR
2013","Operating
revenue
(Turnover)
m EUR
2012","Operating
revenue
(Turnover)
m EUR
2011","Operating
revenue
(Turnover)
m EUR
2010","Operating
revenue
(Turnover)
m EUR
2009","Operating
revenue
(Turnover)
m EUR
2008","Number of employees
2017","Number of employees
2016","Number of employees
2015","Number of employees
2014","Number of employees
2013","Number of employees
2012","Number of employees
2011","Number of employees
2010","Number of employees
2009","Number of employees
2008"
1.,ELECTRICITY AUTHORITY OF CYPRUS,24506,STROVOLOS,Cyprus,,n.a.,n.a.,n.a.,n.a.,797,967,n.a.,810,n.a.,n.a.,n.a.,n.a.,n.a.,n.a.,"2,269","2,269",n.a.,"2,269",n.a.,n.a.
2.,CYPRUS AIRWAYS PUBLIC LTD.,P.O. BOX 21903,ENGOMI (NICOSIA),Cyprus,5110,n.a.,n.a.,n.a.,n.a.,n.a.,176,213,255,254,535,n.a.,n.a.,n.a.,n.a.,n.a.,"1,224","1,224","1,385",n.a.,n.a.
3.,EDT SHIPMANAGEMENT LTD,"AGIOS PAVLOS COURT, FLAT NO: 411/412, FLOOR NO: 4",LIMASSOL,Cyprus,5020,n.a.,n.a.,n.a.,n.a.,n.a.,n.a.,n.a.,n.a.,n.a.,3,n.a.,n.a.,n.a.,n.a.,n.a.,n.a.,n.a.,n.a.,n.a.,n.a.
4.,AZUR AVIATION,21 B IMPASSE DE L OLIVETTE,LE CANNET,France,5229,n.a.,n.a.,2,n.a.,n.a.,1,1,0,0,0,n.a.,n.a.,n.a.,n.a.,n.a.,n.a.,n.a.,n.a.,n.a.,n.a.
5.,VASSILIKO CEMENT WORKS,VASILIKOS,LARNAKA,Cyprus,,n.a.,n.a.,n.a.,n.a.,n.a.,n.a.,n.a.,n.a.,n.a.,0,n.a.,n.a.,n.a.,n.a.,n.a.,n.a.,n.a.,n.a.,n.a.,n.a.
6.,ORION 10,PER. SAVVINSKII B. D.19,MOSCOW,Russian Federation,4759,n.a.,n.a.,0,0,0,n.a.,n.a.,n.a.,n.a.,n.a.,n.a.,n.a.,2,2,2,n.a.,n.a.,n.a.,n.a.,n.a.
7.,SHOTGUN RANCH AVIATION LLC,PO BOX 1906,BELLEVUE,United States of America,3030,n.a.,n.a.,n.a.,n.a.,n.a.,n.a.,n.a.,n.a.,n.a.,n.a.,n.a.,n.a.,n.a.,n.a.,n.a.,n.a.,n.a.,n.a.,n.a.,n.a.
8.,AIR EXECUTIVE LIMITED,"KASTELLA COURT, FLAT NO: 242, FLOOR NO: 4",LARNAKA,Cyprus,3316,n.a.,n.a.,n.a.,n.a.,n.a.,n.a.,n.a.,n.a.,n.a.,n.a.,n.a.,n.a.,n.a.,n.a.,n.a.,n.a.,n.a.,n.a.,n.a.,n.a.
9.,CHRISTOS POUPAS LIMITED,AGIOU SPYRIDONOS 36,NICOSIA,Cyprus,4520,n.a.,n.a.,n.a.,n.a.,n.a.,n.a.,n.a.,n.a.,n.a.,n.a.,n.a.,n.a.,n.a.,n.a.,n.a.,n.a.,n.a.,n.a.,n.a.,n.a.
10.,VARNAVAS NIKOLAOU & YIOI LIMITED,FLAT NO: 102,NICOSIA,Cyprus,,n.a.,n.a.,n.a.,n.a.,n.a.,n.a.,n.a.,n.a.,n.a.,n.a.,n.a.,n.a.,n.a.,n.a.,n.a.,n.a.,n.a.,n.a.,n.a.,n.a.
11.,MARIOS HADJIGAVRIEL & CO LLC,"CAPITAL CENTER, FLOOR NO: 9",NICOSIA,Cyprus,,n.a.,n.a.,n.a.,n.a.,n.a.,n.a.,n.a.,n.a.,n.a.,n.a.,n.a.,n.a.,n.a.,n.a.,n.a.,n.a.,n.a.,n.a.,n.a.,n.a.
12.,COBALTAIR LTD,"JOANNA TOWER, FLAT NO: 601",NICOSIA,Cyprus,6499,n.a.,n.a.,n.a.,n.a.,n.a.,n.a.,n.a.,n.a.,n.a.,n.a.,n.a.,n.a.,n.a.,n.a.,n.a.,n.a.,n.a.,n.a.,n.a.,n.a.
13.,"KERAMOPOIEIA PALAIKYTHROU ""O GIGAS"" LIMITED",ELAIONON 7,NICOSIA,Cyprus,2332,n.a.,n.a.,n.a.,n.a.,n.a.,n.a.,n.a.,n.a.,n.a.,n.a.,n.a.,n.a.,n.a.,n.a.,n.a.,n.a.,n.a.,n.a.,n.a.,n.a.
14.,JOANNOU & PARASKEVAIDES (AVIATION) LIMITED,,,Guernsey (United Kingdom),,n.a.,n.a.,n.a.,n.a.,n.a.,n.a.,n.a.,n.a.,n.a.,n.a.,n.a.,n.a.,n.a.,n.a.,n.a.,n.a.,n.a.,n.a.,n.a.,n.a.
15.,KINGFISHER AIRLINES LIMITED,NORTH BRIDGE ROAD 111 #04-14,SINGAPORE,Singapore,5110,n.a.,n.a.,n.a.,n.a.,n.a.,n.a.,n.a.,n.a.,n.a.,n.a.,n.a.,n.a.,n.a.,n.a.,n.a.,n.a.,n.a.,n.a.,n.a.,n.a.