,Company name,"Street, no., building etc, line 1",City,Country,"NACE Rev. 2
Core code (4 digits)","Operating
revenue
(Turnover)
m EUR
2017","Operating
revenue
(Turnover)
m EUR
2016","Operating
revenue
(Turnover)
m EUR
2015","Operating
revenue
(Turnover)
m EUR
2014","Operating
revenue
(Turnover)
m EUR
2013","Operating
revenue
(Turnover)
m EUR
2012","Operating
revenue
(Turnover)
m EUR
2011","Operating
revenue
(Turnover)
m EUR
2010","Operating
revenue
(Turnover)
m EUR
2009","Operating
revenue
(Turnover)
m EUR
2008","Number of employees
2017","Number of employees
2016","Number of employees
2015","Number of employees
2014","Number of employees
2013","Number of employees
2012","Number of employees
2011","Number of employees
2010","Number of employees
2009","Number of employees
2008"
1.,"SKODA AUTO, A.S.",TR. VACLAVA KLEMENTA 869,MLADA BOLESLAV,Czech Republic,2910,n.a.,"13,116","12,347","10,982","9,099","9,797","9,306","8,326","6,710","7,292",n.a.,"10,000","10,000","10,000","10,000","10,000","10,000","10,000","10,000","10,000"
2.,CEZ A.S.,"2/1444, DUHOVA",PRAHA,Czech Republic,3511,n.a.,"7,539","7,777","7,369","7,948","8,618","8,266","8,049","7,477","6,907",n.a.,"26,300","25,866","26,255","26,582","31,308","31,420","32,627","32,985","27,232"
3.,"ROCKWELL AUTOMATION, INC.","1201, SOUTH SECOND STREET",MILWAUKEE,United States of America,2651,"5,346","5,268","5,631","5,264","4,703","4,841","4,444","3,559","2,959","3,984","22,000","22,000","22,500","22,500","22,000","22,000","21,000","19,000","19,000","21,000"
4.,"HYUNDAI MOTOR MANUFACTURING CZECH, S.R. O.",HYUNDAI 700/1,NIZNI LHOTY,Czech Republic,2910,n.a.,"5,392","4,838","3,976","3,751","4,043","2,884","2,205","1,249",146,n.a.,"2,750","2,750","2,750","2,750","2,750","2,750","2,250","2,250",750
5.,"UNIPETROL RPA, S.R.O.",1,LITVINOV,Czech Republic,2016,n.a.,"3,354","3,785","4,185","3,326","3,966","4,142","3,764","2,982","3,796",n.a.,"1,750","1,750",n.a.,"1,750","1,750","1,750","2,250","2,250","2,250"
6.,"ARCELORMITTAL OSTRAVA, A.S.",VRATIMOVSKA 689/117,OSTRAVA,Czech Republic,2410,n.a.,"1,358","1,371","1,631","1,377","1,367","1,405","1,310",908,n.a.,n.a.,"7,500","7,500","7,500","4,500","4,500","4,500","7,500","7,500",n.a.
7.,"TRINECKE ZELEZARNY, A. S.",PRUMYSLOVA 1000,TRINEC,Czech Republic,2410,n.a.,"1,227","1,379","1,472","1,372","1,534","1,592","1,393",953,"1,484",n.a.,"7,500","7,500","7,500","7,500","7,500","7,500","7,500","7,500","7,500"
8.,"SIEMENS, S.R.O.",SIEMENSOVA 2715/1,PRAHA STODULKY (PRAHA 13),Czech Republic,2711,n.a.,"1,027","1,129","1,235","1,235","1,206","1,054",754,358,416,n.a.,"7,500","7,500","7,500","7,500","7,500","7,500","1,250","1,250",n.a.
9.,"IVECO CZECH REPUBLIC, A. S.",DOBROVSKEHO 74,VYSOKE MYTO,Czech Republic,2910,n.a.,792,833,596,529,485,486,422,512,486,n.a.,"2,250","2,250","2,250","1,750","1,750","1,750","1,750","1,750","1,750"
10.,"VARROC LIGHTING SYSTEMS, S.R.O.",SUVOROVOVA 195,SENOV U NOVEHO JICINA,Czech Republic,2740,n.a.,689,533,552,466,n.a.,n.a.,n.a.,n.a.,n.a.,n.a.,n.a.,"2,750","2,250",n.a.,n.a.,n.a.,n.a.,n.a.,n.a.
11.,"PLZENSKY PRAZDROJ, A. S.",U PRAZDROJE 64/7,PLZEN,Czech Republic,1105,n.a.,595,555,533,504,546,"1,163",n.a.,629,613,n.a.,n.a.,"2,250","2,250","2,250","2,250","2,250",n.a.,"2,750","2,750"
12.,"TRAVEL SERVICE, A.S.",K LETISTI 1068/30,PRAHA 6,Czech Republic,5110,n.a.,576,586,572,544,432,410,354,266,243,n.a.,"1,750","1,750","1,250","1,250","1,250","1,250",750,750,750
13.,"VEOLIA ENERGIE CR, A.S.",28. RIJNA 3337/7,OSTRAVA,Czech Republic,3530,n.a.,n.a.,n.a.,390,477,516,511,565,494,411,n.a.,n.a.,n.a.,n.a.,"1,750","1,750","1,750","1,750",n.a.,n.a.
14.,"SYNTHOS KRALUPY, A.S.",O. WICHTERLEHO 810,KRALUPY NAD VLTAVOU,Czech Republic,2016,n.a.,426,500,688,737,"1,016",786,647,410,447,n.a.,750,750,750,750,750,750,750,750,n.a.
15.,"VITKOVICE STEEL, A. S.",CESKOBRATRSKA 3321/46,OSTRAVA,Czech Republic,2410,n.a.,380,399,391,371,461,677,545,299,759,n.a.,"1,250","1,250",n.a.,"1,250","1,250","1,250","1,250","1,750",n.a.
16.,"MONDI STETI, A.S.",LITOMERICKA 272,STETI,Czech Republic,1712,n.a.,367,368,355,338,357,365,346,241,270,n.a.,750,750,750,750,750,750,750,750,750
17.,"NET4GAS, S.R.O.",NA HREBENECH II 1718/8,PRAHA NUSLE (PRAHA 4),Czech Republic,4950,n.a.,361,403,328,334,409,389,413,380,376,n.a.,750,750,750,750,750,750,750,750,750
18.,"SEV.EN EC, A.S.",K ELEKTRARNE 227,CHVALETICE,Czech Republic,3511,n.a.,357,873,399,181,227,211,0,n.a.,n.a.,n.a.,375,375,375,375,225,225,n.a.,n.a.,n.a.
19.,"TEVA CZECH INDUSTRIES, S.R.O.",OSTRAVSKA 305/29,OPAVA,Czech Republic,2120,n.a.,348,359,314,305,317,345,290,208,195,n.a.,"1,750","1,750","1,750","1,750","1,750","1,750","1,250","1,250","1,250"
20.,FAKULTNI NEMOCNICE V MOTOLE,V UVALU 84/1,PRAHA MOTOL,Czech Republic,8610,n.a.,n.a.,n.a.,n.a.,n.a.,n.a.,264,257,n.a.,n.a.,n.a.,n.a.,n.a.,n.a.,n.a.,n.a.,"7,500","7,500",n.a.,n.a.
21.,"SOKOLOVSKA UHELNA, PRAVNI NASTUPCE, A.S.",STARE NAMESTI 69,SOKOLOV,Czech Republic,0520,n.a.,304,273,270,308,419,381,434,422,483,n.a.,"3,500","3,500","3,500","3,500","4,500","4,500","4,500","4,500","4,500"
22.,"CESKE AEROLINIE, A.S.",EVROPSKA 846/176A,PRAHA VOKOVICE,Czech Republic,5110,n.a.,300,318,351,391,610,594,816,810,950,n.a.,"1,250","1,250","1,250","1,750","1,750","1,750","4,500","7,500","7,500"
23.,"ELEKTRARNA POCERADY, A.S.",DUHOVA 1444/2,PRAHA,Czech Republic,3511,n.a.,295,218,322,461,n.a.,n.a.,n.a.,n.a.,n.a.,n.a.,375,375,375,375,n.a.,n.a.,n.a.,n.a.,n.a.
24.,"MITAS, A.S.",SVEHLOVA 1900/3,PRAHA ZABEHLICE (PRAHA 10),Czech Republic,2211,n.a.,273,298,322,351,441,414,328,236,343,n.a.,"2,250","2,750","2,750","2,750","2,750","2,750","2,750","2,750","2,750"
25.,"SLADOVNY SOUFFLET CR, A.S.",PRUMYSLOVA 2170/12,PROSTEJOV,Czech Republic,1106,n.a.,251,254,265,261,234,198,224,260,246,n.a.,150,150,150,150,150,150,225,225,225
26.,"DEZA, A.S.",MASARYKOVA 753,VALASSKE MEZIRICI,Czech Republic,2014,n.a.,257,294,369,382,398,356,323,198,351,n.a.,"1,250","1,250","1,250","1,250","1,250","1,250","1,250","1,250","1,250"
27.,"SAINT-GOBAIN ADFORS CZ, S.R.O.",SOKOLOVSKA 106,LITOMYSL,Czech Republic,1320,n.a.,255,270,209,195,228,230,214,173,203,n.a.,"1,750","1,750","1,750","1,750","1,750","1,750","1,250","1,250","1,250"
28.,"PRAZSKE VODOVODY A KANALIZACE, A.S.",KE KABLU 971/1,PRAHA HOSTIVAR,Czech Republic,3600,n.a.,252,231,218,221,218,202,198,189,195,n.a.,"1,250","1,250","1,250","1,250","1,250","1,250","1,250","1,250","1,250"
29.,"KRONOSPAN CR,SPOL. S R.O.",NA HRANICI 2361/6,JIHLAVA,Czech Republic,1621,n.a.,231,236,237,219,226,218,197,177,266,n.a.,375,375,375,375,375,375,375,375,375
30.,"LETISTE PRAHA, A. S.",K LETISTI 1019/6,PRAHA RUZYNE,Czech Republic,5223,n.a.,241,225,209,205,213,n.a.,231,n.a.,n.a.,n.a.,"2,250","2,250","2,250","2,250","2,250",n.a.,"1,750",n.a.,n.a.
31.,"TEREOS TTD, A.S.",PALACKEHO NAMESTI 1,DOBROVICE,Czech Republic,1081,n.a.,231,196,232,253,306,223,194,179,189,n.a.,n.a.,750,750,750,750,375,375,375,375
32.,"AGC FLAT GLASS CZECH, A.S., CLEN AGC GROUP",SKLARSKA 450,TEPLICE,Czech Republic,2311,n.a.,231,235,230,202,227,267,262,250,344,n.a.,"1,250","1,250","1,250",750,750,750,"1,250","1,250","1,250"
33.,"BONATRANS GROUP, A.S.",REVOLUCNI 1234,BOHUMIN,Czech Republic,3020,n.a.,215,241,231,205,249,246,243,226,239,n.a.,"1,250","1,250","1,250","1,250","1,250","1,250","1,250","1,250","1,250"
34.,"CONSTELLIUM EXTRUSIONS DECIN, S.R.O.",USTECKA 751/37,DECIN,Czech Republic,2442,n.a.,203,214,190,166,168,166,162,109,154,n.a.,750,750,750,750,750,750,750,750,750
35.,"HAME, S.R.O.",NA DRAHACH 814,KUNOVICE,Czech Republic,1013,n.a.,199,190,176,170,179,173,189,266,n.a.,n.a.,750,750,750,750,750,750,750,n.a.,n.a.
36.,"SELLIER & BELLOT, A.S.",LIDICKA 667,VLASIM,Czech Republic,2540,n.a.,189,174,137,113,102,87,86,65,n.a.,n.a.,"1,750","1,250","1,250","1,250","1,250","1,250","1,250",n.a.,n.a.
37.,"PRAZSKA TEPLARENSKA, A.S.",PARTYZANSKA 1/7,PRAHA HOLESOVICE (PRAHA 7),Czech Republic,3530,n.a.,188,181,214,242,247,235,398,246,232,n.a.,750,750,750,750,750,750,750,750,750
38.,"SAINT-GOBAIN CONSTRUCTION PRODUCTS CZ, A.S.",SMRCKOVA 2485/4,PRAHA LIBEN (PRAHA 8),Czech Republic,2364,n.a.,188,197,176,145,160,171,65,60,62,n.a.,"1,250","1,250",750,750,750,750,375,375,375
39.,"KOSTELECKE UZENINY, A.S.",60,KOSTELEC,Czech Republic,1013,n.a.,187,188,186,202,197,185,213,142,148,n.a.,"1,250","1,750","1,750","1,750","1,750","1,750","1,750","1,750","1,750"
40.,BIOCEL PASKOV AS,"762, ZAHRADNI",PASKOV,Czech Republic,1711,n.a.,n.a.,n.a.,n.a.,n.a.,n.a.,n.a.,n.a.,n.a.,n.a.,n.a.,n.a.,n.a.,n.a.,n.a.,n.a.,n.a.,n.a.,n.a.,n.a.
41.,"BORSODCHEM MCHZ, S.R.O.",CHEMICKA 2039/1,OSTRAVA,Czech Republic,2014,n.a.,173,191,232,205,215,183,183,106,159,n.a.,375,375,375,375,375,375,375,750,750
42.,"LOVOCHEMIE, A.S.",TEREZINSKA 57,LOVOSICE,Czech Republic,2015,n.a.,169,208,209,200,234,219,164,144,193,n.a.,750,750,750,750,750,750,750,750,750
43.,"VITKOVICE HEAVY MACHINERY, A.S.",RUSKA 2887/101,OSTRAVA,Czech Republic,2815,n.a.,n.a.,161,171,179,201,195,176,178,280,n.a.,n.a.,"1,250",n.a.,"1,750","1,750","1,750","2,750","2,750","2,750"
44.,"CESKA ZBROJOVKA, A.S.",SVAT. CECHA 1283,UHERSKY BROD,Czech Republic,2540,n.a.,n.a.,160,n.a.,n.a.,n.a.,n.a.,n.a.,n.a.,n.a.,n.a.,n.a.,"1,750",n.a.,n.a.,n.a.,n.a.,n.a.,n.a.,n.a.
45.,"SKODA JS, A.S.",ORLIK 266/15,PLZEN,Czech Republic,2530,n.a.,162,113,105,115,203,200,178,145,109,n.a.,"1,250","1,250","1,250","1,250","1,250","1,250",n.a.,n.a.,750
46.,"LASSELSBERGER, S.R.O.",ADELOVA 2549/1,PLZEN,Czech Republic,2331,n.a.,161,158,148,131,154,141,145,139,186,n.a.,"1,750","1,750","1,750","1,250","1,250","1,750","1,750","3,500","3,500"
47.,"SYNTHESIA, A.S.",103,PARDUBICE,Czech Republic,2012,n.a.,160,165,154,139,149,143,136,112,171,n.a.,"1,750","1,750","1,750","1,750","1,750","1,750","2,250","4,500","4,500"
48.,"AL INVEST BRIDLICNA, A.S.",BRUNTALSKA 167,BRIDLICNA,Czech Republic,2442,n.a.,157,168,155,153,169,170,164,123,142,n.a.,"1,250","1,250","1,250",750,"1,250","1,250","1,250","1,250","1,250"
49.,"PORR, A.S.",DUBECSKA 3238/36,PRAHA STRASNICE (PRAHA 10),Czech Republic,4211,n.a.,148,165,210,55,130,15,43,49,101,n.a.,750,750,750,750,75,75,150,150,150
50.,"ESAB CZ, S.R.O., CLEN KONCERNU",SMETANOVO NABREZI 334,VAMBERK,Czech Republic,2434,n.a.,n.a.,144,146,141,n.a.,n.a.,n.a.,n.a.,n.a.,n.a.,n.a.,750,750,n.a.,n.a.,n.a.,n.a.,n.a.,n.a.
51.,"ARCELORMITTAL TUBULAR PRODUCTS OSTRAVA, A.S.",VRATIMOVSKA 689/117,OSTRAVA,Czech Republic,2420,n.a.,147,184,229,220,263,248,221,136,281,n.a.,"1,250","1,250","1,250","1,250","1,250","1,250","1,250","1,250","1,250"
52.,"ALPIQ GENERATION (CZ), S.R.O.",DUBSKA 257,KLADNO,Czech Republic,3511,n.a.,144,177,203,180,204,188,158,186,0,n.a.,375,375,375,375,375,375,375,375,n.a.
53.,"ENERGOTRANS, A.S.",DUHOVA 1444/2,PRAHA MICHLE (PRAHA 4),Czech Republic,3511,n.a.,142,143,142,146,174,179,203,202,194,n.a.,150,150,150,150,150,150,150,150,150
54.,"SPOLANA, A.S.",PRACE 657,NERATOVICE,Czech Republic,2016,n.a.,140,201,215,188,232,223,245,170,225,n.a.,750,750,750,750,750,750,"1,250","1,250","1,250"
55.,"NKT CABLES VRCHLABI, S.R.O., CLEN SKUPINY NKT",CESKYCH BRATRI 509,VRCHLABI,Czech Republic,2732,n.a.,n.a.,n.a.,n.a.,n.a.,107,140,155,83,98,n.a.,n.a.,n.a.,n.a.,n.a.,750,750,750,750,n.a.
56.,"MORAVSKOSLEZSKE CUKROVARY, A.S.",CUKROVARSKA 657,HRUSOVANY NAD JEVISOVKOU,Czech Republic,1081,n.a.,130,104,119,133,167,149,89,88,81,n.a.,375,375,375,375,750,750,375,375,375
57.,"HEINEKEN CESKA REPUBLIKA, A.S.",U PIVOVARU 1,KRUSOVICE,Czech Republic,1105,n.a.,n.a.,125,120,124,140,135,140,121,48,n.a.,n.a.,750,750,750,750,750,750,750,n.a.
58.,"CESKOMORAVSKY CEMENT, A.S.",359,MOKRA-HORAKOV,Czech Republic,2351,n.a.,128,119,116,101,129,149,159,163,203,n.a.,750,750,750,750,750,750,750,750,750
59.,"OP PAPIRNA, S.R.O.",18,OLSANY,Czech Republic,1712,n.a.,128,127,114,106,122,109,112,104,90,n.a.,375,375,375,375,375,375,750,750,n.a.
60.,"OKK KOKSOVNY, A.S.",KOKSARNI 1112,OSTRAVA - PRIVOZ,Czech Republic,1910,n.a.,126,140,154,154,195,251,304,151,362,n.a.,750,750,750,750,750,750,"1,250","1,250","1,250"
61.,ROCKWOOL A/S,HOVEDGADEN 501,HEDEHUSENE,Denmark,2399,n.a.,126,121,120,117,118,n.a.,n.a.,n.a.,n.a.,n.a.,528,564,535,533,569,n.a.,n.a.,n.a.,n.a.
62.,"DEVRO, S.R.O.",VICHOVSKA 830,JILEMNICE,Czech Republic,2221,n.a.,121,130,121,116,118,89,84,73,62,n.a.,"1,250","1,250","1,250","1,250","1,250","1,250","1,250","1,250","1,250"
63.,"SYNTHOMER, A.S.",TOVARNI 2093,SOKOLOV,Czech Republic,2014,n.a.,118,138,162,156,161,170,163,95,109,n.a.,375,375,375,375,375,375,750,750,750
64.,"ELEKTRARNY OPATOVICE, A.S.",OPATOVICE NAD LABEM - PARDUBICE 2,PSC 53213,Czech Republic,3511,n.a.,117,127,151,194,284,239,216,n.a.,n.a.,n.a.,375,375,375,375,375,375,375,n.a.,n.a.
65.,"Z-GROUP STEEL HOLDING, A.S.",KOLLAROVA 1229,VESELI NAD MORAVOU,Czech Republic,,n.a.,n.a.,113,101,111,150,146,271,133,170,n.a.,n.a.,"1,250",n.a.,750,750,"1,250",750,750,750
66.,"ARCELORMITTAL TUBULAR PRODUCTS KARVINA, A.S.",RUDE ARMADY 471,KARVINA,Czech Republic,2420,n.a.,113,113,95,78,86,84,87,57,110,n.a.,375,375,375,375,375,375,750,750,750
67.,"PRECHEZA, A.S.",NABR. DR. EDVARDA BENESE 1170/24,PREROV,Czech Republic,2012,n.a.,112,137,110,101,130,114,87,79,68,n.a.,750,750,750,750,750,750,n.a.,n.a.,n.a.
68.,"ELEKTRARNA DETMAROVICE, A.S.",1202,DETMAROVICE,Czech Republic,3511,n.a.,111,147,150,133,n.a.,n.a.,n.a.,n.a.,n.a.,n.a.,225,225,225,225,n.a.,n.a.,n.a.,n.a.,n.a.
69.,"TEPLARNY BRNO, A.S.",OKRUZNI 828/25,BRNO,Czech Republic,3530,n.a.,105,97,99,125,117,119,132,143,130,n.a.,750,750,750,750,750,750,750,375,375
70.,"SEMPERFLEX OPTIMIT, S.R.O.",VITKOVSKA 391/29,ODRY,Czech Republic,2219,n.a.,111,106,105,99,89,87,74,48,76,n.a.,750,750,750,750,750,750,375,750,750
71.,"TEPLARNA TRMICE, A.S.",EDISONOVA 453,TRMICE,Czech Republic,3530,n.a.,n.a.,n.a.,n.a.,n.a.,88,63,78,n.a.,n.a.,n.a.,n.a.,n.a.,n.a.,n.a.,375,375,375,n.a.,n.a.
72.,"CEZ TEPLARENSKA, A.S.",BEZRUCOVA 2212/30,RICANY,Czech Republic,3530,n.a.,110,115,103,119,127,83,86,72,36,n.a.,375,375,375,375,375,225,n.a.,n.a.,n.a.
73.,"FOSFA, A.S.",HRANICNI 268/120,BRECLAV,Czech Republic,2013,n.a.,110,142,125,99,85,71,67,57,79,n.a.,375,375,375,375,375,375,375,375,375
74.,"LAUFEN CZ, S.R.O.",V TUNICH 1637/3,PRAHA NOVE MESTO (PRAHA 2),Czech Republic,2342,n.a.,109,105,91,77,78,70,65,63,82,n.a.,"1,250",750,750,750,750,750,750,750,750
75.,"SMURFIT KAPPA CZECH, S.R.O.",SKANDINAVSKA 1000,ZEBRAK,Czech Republic,1721,n.a.,104,106,93,91,97,97,89,73,90,n.a.,375,375,375,375,375,375,750,750,750
76.,"TAMEH CZECH, S.R.O.",VRATIMOVSKA 689/117,OSTRAVA,Czech Republic,3530,n.a.,104,100,92,87,122,118,93,n.a.,n.a.,n.a.,375,375,375,375,375,375,375,n.a.,n.a.
77.,"ENERGETIKA TRINEC, A.S.",PRUMYSLOVA 1024,TRINEC,Czech Republic,3511,n.a.,103,119,114,117,132,138,139,114,131,n.a.,375,375,375,375,375,375,375,375,375
78.,"SKO-ENERGO, S.R.O.",TR. VACLAVA KLEMENTA 869,MLADA BOLESLAV,Czech Republic,3511,n.a.,102,108,106,113,117,105,97,86,89,n.a.,375,375,375,375,375,375,225,225,225
79.,"GZ MEDIA, A.S.",TOVARNI 340,LODENICE,Czech Republic,1820,n.a.,98,101,85,68,76,81,72,62,61,n.a.,"1,250","1,250","1,250","1,250","1,250","1,250",750,750,750
80.,"MLEKARNA HLINSKO, A.S.",53,HLINSKO,Czech Republic,1051,n.a.,97,102,110,99,92,92,88,77,92,n.a.,375,375,375,375,375,375,375,375,375
81.,"SCHOTT CR, S.R.O.",DVORAKOVA 997,LANSKROUN,Czech Republic,2611,n.a.,86,72,62,60,79,26,23,44,34,n.a.,750,750,750,750,75,150,225,225,225
82.,"AMMANN CZECH REPUBLIC, A.S.",NACHODSKA 145,NOVE MESTO NAD METUJI,Czech Republic,2892,n.a.,n.a.,87,78,77,83,66,52,24,94,n.a.,n.a.,750,750,750,750,750,750,750,n.a.
83.,"ZDAS, A.S.",STROJIRENSKA 675/6,ZDAR NAD SAZAVOU,Czech Republic,2410,n.a.,89,108,113,114,136,125,123,103,200,n.a.,"2,250","2,250",n.a.,"2,750","2,750","2,750","2,250","2,750",n.a.
84.,"VETROPACK MORAVIA GLASS, A.S.",HAVLICKOVA 180/18,KYJOV,Czech Republic,2313,n.a.,88,90,77,78,93,84,79,85,91,n.a.,750,375,n.a.,375,750,750,375,375,750
85.,"KAVALIERGLASS, A.S.",KRIZOVA 1018/6,PRAHA SMICHOV,Czech Republic,2319,n.a.,84,67,70,n.a.,0,72,54,22,0,n.a.,375,375,375,n.a.,375,"1,750",15,15,3
86.,"PARAMO, A.S.",PREROVSKA 560,PARDUBICE,Czech Republic,1920,n.a.,83,100,118,110,220,463,469,349,464,n.a.,375,375,375,750,750,750,750,750,n.a.
87.,"PLZENSKA TEPLARENSKA, A.S.",DOUBRAVECKA 2760/1,PLZEN,Czech Republic,3530,n.a.,82,90,85,99,107,109,107,96,106,n.a.,375,375,375,375,375,375,375,375,375
88.,DREVOZPRACUJICI DRUZSTVO,9,LUKAVEC,Czech Republic,1621,n.a.,75,76,75,71,83,78,79,74,88,n.a.,750,750,750,750,750,750,750,750,n.a.
89.,"TORAY TEXTILES CENTRAL EUROPE, S.R.O.",PRUMYSLOVA 4235/4,PROSTEJOV,Czech Republic,1320,n.a.,73,66,55,31,31,27,23,18,19,n.a.,n.a.,375,375,375,225,225,225,225,375
90.,"INNOGY GAS STORAGE, S.R.O.",LIMUZSKA 3135/12,PRAHA STRASNICE (PRAHA 10),Czech Republic,5210,n.a.,73,74,95,162,174,189,157,142,112,n.a.,375,375,375,375,225,225,225,225,23
91.,"TAMERO INVEST, S.R.O.",O. WICHTERLEHO 810,KRALUPY NAD VLTAVOU,Czech Republic,3530,n.a.,72,85,94,97,99,53,n.a.,n.a.,n.a.,n.a.,75,75,75,75,75,75,n.a.,n.a.,n.a.
92.,"PRAZSKE PIVOVARY, A.S.","85, NADRAZNI",PRAHA 5,Czech Republic,1105,n.a.,n.a.,n.a.,n.a.,n.a.,n.a.,n.a.,n.a.,n.a.,n.a.,n.a.,n.a.,n.a.,n.a.,n.a.,n.a.,n.a.,n.a.,n.a.,n.a.
93.,"ELEKTRARNA TISOVA, A.S.",2,BREZOVA,Czech Republic,3510,n.a.,64,18,0,0,n.a.,n.a.,n.a.,n.a.,n.a.,n.a.,150,7,7,7,n.a.,n.a.,n.a.,n.a.,n.a.
94.,"CEMEX CEMENT, K.S.",TOVARNI 296,PRACHOVICE,Czech Republic,2351,n.a.,62,41,71,62,80,89,90,89,119,n.a.,225,225,375,375,375,375,375,375,375
95.,"UNITED ENERGY, A.S.","2, TEPLARENSKA",MOST KOMORANY,Czech Republic,3512,n.a.,n.a.,n.a.,n.a.,n.a.,n.a.,n.a.,n.a.,n.a.,n.a.,n.a.,n.a.,n.a.,n.a.,n.a.,n.a.,n.a.,n.a.,n.a.,n.a.
96.,"WOTAN FOREST, A.S.",RUDOLFOVSKA TR. 202/88,CESKE BUDEJOVICE,Czech Republic,1624,n.a.,61,76,52,57,65,62,73,54,10,n.a.,750,750,n.a.,750,750,750,225,375,n.a.
97.,"CEZ ENERGETICKE SLUZBY, S.R.O.",VYSTAVNI 1144/103,OSTRAVA,Czech Republic,3522,n.a.,60,29,30,27,22,23,35,46,51,n.a.,375,375,375,375,375,375,375,375,375
98.,"PROCTER & GAMBLE - RAKONA, S.R.O.",OTTOVA 402,RAKOVNIK,Czech Republic,2041,n.a.,56,54,55,58,59,62,61,63,63,n.a.,750,750,750,750,750,750,750,750,750
99.,"VIADRUS, A.S.",BEZRUCOVA 300,BOHUMIN,Czech Republic,2521,n.a.,59,71,70,70,n.a.,n.a.,n.a.,n.a.,n.a.,n.a.,750,750,n.a.,750,n.a.,n.a.,n.a.,n.a.,n.a.
100.,"CEMENT HRANICE, A.S.",BELOTINSKA 288,HRANICE,Czech Republic,2351,n.a.,57,61,59,54,67,79,68,76,101,n.a.,150,150,150,150,150,150,150,150,150
101.,FAKULTNI NEMOCNICE BRNO,JIHLAVSKA 340/20,BRNO,Czech Republic,8610,n.a.,n.a.,56,54,55,60,58,60,n.a.,n.a.,n.a.,n.a.,"7,500","7,500","7,500","7,500","7,500","7,500",n.a.,n.a.
102.,"KNAUF INSULATION, S.R.O.",BUCHAROVA 2641/14,PRAHA STODULKY (PRAHA 13),Czech Republic,2399,n.a.,56,59,60,59,66,65,74,70,67,n.a.,150,150,150,150,150,150,150,150,150
103.,"VAPENKA CERTOVY SCHODY, A.S.",200,TMAN,Czech Republic,2352,n.a.,56,51,55,50,59,62,63,57,58,n.a.,150,150,n.a.,150,150,150,75,75,150
104.,MLEKARNA KLATOVY A. S.,ZA TRATI 640,KLATOVY,Czech Republic,1051,n.a.,n.a.,54,60,63,65,61,58,34,36,n.a.,n.a.,375,375,375,375,375,225,225,225
105.,"HELUZ CIHLARSKY PRUMYSL, V.O.S.",U CIHELNY 295,DOLNI BUKOVSKO,Czech Republic,2332,n.a.,55,51,44,52,64,67,57,57,51,n.a.,375,375,375,375,375,375,375,375,375
106.,"WIENERBERGER CIHLARSKY PRUMYSL, A. S.",PLACHEHO 388/28,CESKE BUDEJOVICE,Czech Republic,2332,n.a.,54,47,41,40,46,52,55,56,103,n.a.,375,375,n.a.,225,375,375,375,375,375
107.,"ABS JETS, A.S.",K LETISTI 549,PRAHA RUZYNE,Czech Republic,5110,n.a.,54,58,49,48,48,39,40,36,28,n.a.,150,150,225,150,150,150,150,150,75
108.,"AB FACILITY, A.S.",U TREZORKY 921/2,PRAHA JINONICE (PRAHA 5),Czech Republic,8110,n.a.,53,57,57,58,66,52,30,n.a.,n.a.,n.a.,750,750,750,"1,250","1,250","1,250",n.a.,n.a.,n.a.
109.,"P-D REFRACTORIES CZ, A.S.",NADRAZNI 218,VELKE OPATOVICE,Czech Republic,2320,n.a.,51,52,48,43,45,48,47,43,54,n.a.,750,750,750,750,750,750,750,750,750
110.,"OSTROJ, A.S.",TESINSKA 1586/66,OPAVA,Czech Republic,2892,n.a.,47,46,42,76,87,57,35,64,70,n.a.,750,750,750,750,750,750,750,750,750
111.,"SECO GROUP, A.S.",PODNIKATELSKA 552,PRAHA BECHOVICE,Czech Republic,2830,n.a.,47,51,43,42,41,39,35,21,40,n.a.,750,750,750,750,750,750,750,750,750
112.,"VEOLIA PRUMYSLOVE SLUZBY CR, A.S.",ZELENA 2061/88A,OSTRAVA,Czech Republic,3513,n.a.,46,54,53,70,79,92,97,93,n.a.,n.a.,225,375,375,375,375,375,375,375,n.a.
113.,"CRYSTALITE BOHEMIA, S.R.O.",ZAMECKA 730,SVETLA NAD SAZAVOU,Czech Republic,2313,n.a.,46,35,33,33,35,28,22,6,0,n.a.,750,750,750,750,750,750,375,n.a.,n.a.
114.,"KAREL HOLOUBEK - TRADE GROUP, A.S.",VODICKOVA 682/20,PRAHA NOVE MESTO (PRAHA 1),Czech Republic,3530,n.a.,44,52,46,49,65,54,37,43,44,n.a.,150,150,150,150,150,150,38,375,375
115.,"LAFARGE CEMENT, A.S.",C.P. 27,CIZKOVICE,Czech Republic,2351,n.a.,44,46,46,37,51,55,51,56,68,n.a.,150,150,150,150,150,150,150,150,n.a.
116.,"PLEAS, A.S.",HAVIRSKA 144,HAVLICKUV BROD,Czech Republic,1414,n.a.,44,45,43,41,45,36,40,34,42,n.a.,750,750,750,750,750,750,"1,750","1,750","1,750"
117.,"KRPA PAPER, A.S.",NADRAZNI 266,HOSTINNE,Czech Republic,1712,n.a.,43,43,41,39,43,36,39,34,60,n.a.,225,225,225,225,225,225,225,225,n.a.
118.,"TEPLARNA OTROKOVICE, A.S.",OBJIZDNA 1777,OTROKOVICE,Czech Republic,3530,n.a.,43,46,45,47,0,n.a.,n.a.,n.a.,n.a.,n.a.,150,150,150,n.a.,n.a.,n.a.,n.a.,n.a.,n.a.
119.,"AIRCRAFT INDUSTRIES, A.S.",NA ZAHONECH 1177,KUNOVICE,Czech Republic,3030,n.a.,43,57,70,70,49,45,59,34,25,n.a.,750,"1,250","1,250",750,750,750,375,375,n.a.
120.,"KAVALIER TEC, S.R.O.",KRIZOVA 1018/6,PRAHA SMICHOV,Czech Republic,2313,n.a.,42,50,34,16,2,0,1,0,0,n.a.,"1,750","1,750",n.a.,"1,750",n.a.,n.a.,38,38,38
121.,"SLEVARNY TRINEC, A.S.",PRUMYSLOVA 1001,TRINEC,Czech Republic,2451,n.a.,41,46,42,41,47,48,41,28,53,n.a.,750,750,750,750,750,750,750,750,750
122.,"ETHANOL ENERGY, A.S.",SKOLSKA 118,VRDY,Czech Republic,2014,n.a.,39,43,34,35,33,8,6,7,3,n.a.,75,75,75,75,75,75,3,3,375
123.,"TONDACH CESKA REPUBLIKA, S.R.O.",BELOTINSKA 722,HRANICE,Czech Republic,2332,n.a.,39,41,39,38,47,53,48,54,71,n.a.,375,375,375,375,750,750,375,750,750
124.,"VEOLIA ENERGIE PRAHA, A.S.",NA FLORENCI 2116/15,PRAHA NOVE MESTO (PRAHA 1),Czech Republic,3530,n.a.,38,42,n.a.,n.a.,n.a.,n.a.,n.a.,n.a.,n.a.,n.a.,75,75,n.a.,n.a.,n.a.,n.a.,n.a.,n.a.,n.a.
125.,"CRYSTALEX CZ, S.R.O.",MASARYKOVO NABREZI 236/30,PRAHA NOVE MESTO (PRAHA 1),Czech Republic,2313,n.a.,37,41,38,38,34,32,29,2,n.a.,n.a.,750,750,750,750,750,750,750,n.a.,n.a.
126.,"PRECIOSA ORNELA, A.S.",317,ZASADA,Czech Republic,2319,n.a.,36,43,48,44,44,40,35,n.a.,n.a.,n.a.,n.a.,750,750,750,750,750,750,n.a.,n.a.
127.,"GLAZURA, S.R.O.",ROUDNICKA 122,DOBRIN,Czech Republic,2030,n.a.,36,34,34,35,43,45,44,35,34,n.a.,150,150,150,150,150,150,150,150,n.a.
128.,RED COM INC,34 PARKER,IRVINE,United States of America,4690,31,n.a.,n.a.,n.a.,n.a.,n.a.,n.a.,n.a.,n.a.,n.a.,35,n.a.,n.a.,n.a.,n.a.,n.a.,n.a.,n.a.,n.a.,n.a.
129.,"STOLZLE - UNION, S.R.O.",U SKLARNY 300,HERMANOVA HUT,Czech Republic,2313,n.a.,35,32,31,28,26,25,11,19,18,n.a.,375,375,375,375,375,375,150,150,150
130.,"ARCELORMITTAL ENGINEERING PRODUCTS OSTRAVA, S.R.O.",VRATIMOVSKA 689/117,OSTRAVA,Czech Republic,2451,n.a.,35,39,37,36,46,42,4,4,7,n.a.,750,750,750,750,750,750,150,150,150
131.,"O-I MANUFACTURING CZECH REPUBLIC, A.S.",RUSKA 113/80,DUBI,Czech Republic,2313,n.a.,35,34,35,35,46,44,41,40,76,n.a.,375,375,375,375,375,375,375,375,750
132.,"LITOVELSKA CUKROVARNA, A.S.",LOSTICKA 131/1,LITOVEL,Czech Republic,1081,n.a.,35,29,28,37,24,20,16,16,15,n.a.,150,150,75,150,150,75,150,150,75
133.,"PLZENSKA ENERGETIKA, A.S.",TYLOVA 1/57,PLZEN,Czech Republic,3530,n.a.,35,39,36,40,42,54,53,60,0,n.a.,225,225,225,225,225,225,225,n.a.,n.a.
134.,"GUMARNY ZUBRI, A.S.",HAMERSKA 9,ZUBRI,Czech Republic,2219,n.a.,35,36,36,32,34,34,32,23,33,n.a.,750,750,750,750,750,750,750,750,n.a.
135.,"POLDI, S.R.O.",PRUMYSLOVA 1343,KLADNO,Czech Republic,2410,n.a.,n.a.,n.a.,30,28,n.a.,n.a.,n.a.,n.a.,n.a.,n.a.,n.a.,n.a.,375,375,n.a.,n.a.,n.a.,n.a.,n.a.
136.,"PITTSBURGH CORNING CR, S.R.O.",PRUMYSLOVA 3,KLASTEREC NAD OHRI,Czech Republic,2319,n.a.,n.a.,32,30,23,24,25,26,24,15,n.a.,n.a.,225,225,225,225,225,225,225,225
137.,"VAPENKA VITOSOV, S.R.O.",54,HRABOVA,Czech Republic,2352,n.a.,32,34,33,30,35,42,37,31,39,n.a.,150,150,n.a.,150,150,150,150,225,225
138.,"HUHTAMAKI CESKA REPUBLIKA, A.S.",PETROVICKA 101,PRIBYSLAVICE,Czech Republic,1729,n.a.,32,30,27,25,23,21,21,19,19,n.a.,375,225,225,225,225,225,150,225,150
139.,"HOLIDAYS CZECH AIRLINES, A.S.",JANA KASPARA 1069/1,PRAHA 6,Czech Republic,7911,n.a.,n.a.,n.a.,n.a.,23,106,49,45,2,2,n.a.,n.a.,n.a.,n.a.,150,225,225,23,23,23
140.,"SPP STORAGE, S.R.O.",SOKOLOVSKA 651/136A,PRAHA KARLIN,Czech Republic,5210,n.a.,31,32,30,34,37,25,n.a.,n.a.,n.a.,n.a.,15,15,38,38,38,38,n.a.,n.a.,n.a.
141.,"TEPLARNA CESKE BUDEJOVICE, A.S.",NOVOHRADSKA 398/32,CESKE BUDEJOVICE,Czech Republic,3530,n.a.,30,31,31,36,53,42,48,40,45,n.a.,375,375,375,375,375,375,375,375,375
142.,"HANACKA POTRAVINARSKA SPOLECNOST, S.R.O.",MALOPROSENSKA 238,PROSENICE,Czech Republic,1081,n.a.,n.a.,n.a.,n.a.,n.a.,25,20,16,16,26,n.a.,n.a.,n.a.,n.a.,n.a.,150,75,375,375,375
143.,PLIVA-LACHEMA A.S.,"1, KARASEK",BRNO,Czech Republic,2120,n.a.,n.a.,n.a.,n.a.,n.a.,n.a.,n.a.,n.a.,n.a.,n.a.,n.a.,n.a.,n.a.,n.a.,n.a.,n.a.,n.a.,n.a.,n.a.,n.a.
144.,PSYCHIATRICKA NEMOCNICE V DOBRANECH,USTAVNI 341,DOBRANY,Czech Republic,8610,n.a.,n.a.,28,27,15,30,29,30,n.a.,n.a.,n.a.,n.a.,"1,250","1,250","1,250","1,250","1,250","1,250",n.a.,n.a.
145.,"CUKROVAR VRBATKY, A.S.",65,VRBATKY,Czech Republic,1081,n.a.,27,28,25,31,35,29,22,25,22,n.a.,150,150,150,150,150,150,150,150,150
146.,"SEEIF CERAMIC, A.S.",SPESOVSKA 243,RAJEC-JESTREBI,Czech Republic,2320,n.a.,27,30,28,28,29,28,23,n.a.,n.a.,n.a.,750,750,750,750,750,750,n.a.,n.a.,n.a.
147.,"CKD KUTNA HORA, A.S.",197,KUTNA HORA,Czech Republic,2452,n.a.,26,41,45,44,88,66,34,53,83,n.a.,750,750,750,750,750,750,750,"1,250",n.a.
148.,"SCHIEDEL, S.R.O.",HOROUSANSKA 286,NEHVIZDY,Czech Republic,2511,n.a.,25,27,28,32,34,37,34,33,27,n.a.,375,375,375,375,375,375,n.a.,n.a.,n.a.
149.,"ACTHERM, S.R.O.",TOVARNI 5533,CHOMUTOV,Czech Republic,3530,n.a.,n.a.,24,23,26,109,n.a.,59,68,n.a.,n.a.,n.a.,150,150,150,150,n.a.,225,225,n.a.
150.,"KROMERIZSKA NEMOCNICE, A.S.",HAVLICKOVA 660/69,KROMERIZ,Czech Republic,8610,n.a.,24,24,21,19,22,21,21,19,17,n.a.,750,750,750,750,750,750,750,750,n.a.
151.,"MS UTILITIES & SERVICES, A.S.",BEZRUCOVA 1200,BOHUMIN,Czech Republic,3530,n.a.,23,25,25,28,n.a.,n.a.,n.a.,n.a.,n.a.,n.a.,225,225,225,225,n.a.,n.a.,n.a.,n.a.,n.a.
152.,"JIP - PAPIRNY VETRNI, A. S.",PAPIRENSKA 2,VETRNI,Czech Republic,1712,n.a.,n.a.,22,16,3,99,83,89,n.a.,68,n.a.,n.a.,225,225,375,750,750,375,n.a.,375
153.,"BALSAC PAPERMILL, S.R.O.",21,LUKAVICE,Czech Republic,1712,n.a.,n.a.,n.a.,19,n.a.,n.a.,n.a.,n.a.,n.a.,n.a.,n.a.,n.a.,n.a.,225,n.a.,n.a.,n.a.,n.a.,n.a.,n.a.
154.,"PRAZSKA SPRAVA NEMOVITOSTI, S.R.O.",SEIFERTOVA 823/9,PRAHA ZIZKOV (PRAHA 3),Czech Republic,6820,n.a.,21,63,38,33,32,43,38,28,35,n.a.,150,150,150,150,150,150,150,150,75
155.,"DANZER BOHEMIA-DYHARNA, S.R.O.",1,HORNI POCAPLY,Czech Republic,1621,n.a.,20,16,15,16,14,15,40,n.a.,22,n.a.,750,750,750,375,375,375,375,n.a.,n.a.
156.,"LIAS VINTIROV, LEHKY STAVEBNI MATERIAL, K.S.",176,VINTIROV,Czech Republic,2361,n.a.,20,20,17,14,16,n.a.,19,19,24,n.a.,150,150,150,150,150,n.a.,150,225,225
157.,"KRALOVOPOLSKA, A.S.",KRIZIKOVA 2989/68A,BRNO,Czech Republic,2822,n.a.,20,24,28,20,26,35,28,29,29,n.a.,375,375,375,375,750,750,750,750,750
158.,"INNOGY ENERGO, S.R.O.",LIMUZSKA 3135/12,PRAHA STRASNICE (PRAHA 10),Czech Republic,3530,n.a.,20,24,24,25,23,23,25,23,23,n.a.,75,75,75,150,75,75,75,75,75
159.,"HELUZ, S.R.O.",U CIHELNY 295,DOLNI BUKOVSKO,Czech Republic,2332,n.a.,20,20,16,18,21,19,16,13,0,n.a.,38,75,75,38,75,75,38,38,n.a.
160.,"AGRIS, S.R.O.",175,MEDLOV,Czech Republic,1091,n.a.,19,18,17,20,22,21,22,12,12,n.a.,225,225,225,225,225,225,75,75,150
161.,"ENERGOAQUA, A.S.","823, THE FIRST MAY DAY",ROZNOV POD,Czech Republic,3512,n.a.,19,21,24,26,28,n.a.,n.a.,n.a.,n.a.,n.a.,158,157,168,171,174,n.a.,n.a.,n.a.,n.a.
162.,"CRYSTAL BOHEMIA, A.S.",JIRASKOVA 223/19,PODEBRADY,Czech Republic,2313,n.a.,18,17,16,15,18,16,14,5,n.a.,n.a.,375,375,375,375,375,375,375,n.a.,n.a.
163.,"KONGRESOVE CENTRUM PRAHA, A.S.",5. KVETNA 1640/65,PRAHA NUSLE (PRAHA 4),Czech Republic,8230,n.a.,18,19,16,15,19,18,17,24,20,n.a.,375,375,375,375,375,375,375,375,375
164.,"TEPLARNA LIBEREC, A.S.",DR. MILADY HORAKOVE 641/34A,LIBEREC,Czech Republic,3530,n.a.,17,19,21,26,26,26,28,32,31,n.a.,75,150,150,150,75,75,150,150,150
165.,"PBS INDUSTRY, A.S.",PRUMYSLOVA 162,TREBIC,Czech Republic,2530,n.a.,18,22,25,23,29,32,30,29,41,n.a.,375,375,375,750,750,750,750,750,750
166.,"KERAMOST, A.S.",ZATECKA 1899/25,MOST,Czech Republic,0812,n.a.,18,18,18,16,16,21,18,16,19,n.a.,225,225,375,375,375,375,375,375,375
167.,"C-ENERGY PLANA, S.R.O.",PRUMYSLOVA 748,PLANA NAD LUZNICI,Czech Republic,3511,n.a.,17,17,13,15,20,31,21,22,28,n.a.,75,75,75,75,150,150,75,75,75
168.,"CKD BLANSKO STROJIRNY, A.S.",GELLHORNOVA 2228/1,BLANSKO,Czech Republic,6820,n.a.,n.a.,n.a.,n.a.,n.a.,n.a.,n.a.,n.a.,12,n.a.,n.a.,n.a.,n.a.,n.a.,n.a.,n.a.,n.a.,n.a.,225,n.a.
169.,"PILSEN STEEL, S.R.O.",TYLOVA 1/57,PLZEN,Czech Republic,2410,n.a.,16,17,n.a.,43,6,149,154,174,252,n.a.,750,750,n.a.,750,750,750,375,375,375
170.,"OAZA-ENERGO, A.S.",DR. MILADY HORAKOVE 81/117,LIBEREC VI.,Czech Republic,3514,n.a.,16,17,14,15,14,9,6,13,13,n.a.,23,15,23,23,15,15,15,75,n.a.
171.,"ZASOBOVANI TEPLEM VSETIN, A.S.",JIRASKOVA 1326,VSETIN,Czech Republic,3530,n.a.,14,15,15,18,19,18,17,20,19,n.a.,75,75,n.a.,75,75,75,75,75,75
172.,"REFRASIL, S.R.O.",PRUMYSLOVA 720,TRINEC,Czech Republic,2320,n.a.,15,16,14,13,14,14,17,14,16,n.a.,225,225,225,150,150,150,150,150,225
173.,"VEOLIA ENERGIE KOLIN, A.S.",TOVARNI 21,KOLIN,Czech Republic,3530,n.a.,15,16,15,17,19,20,22,21,27,n.a.,75,75,n.a.,75,75,75,150,150,150
174.,"CARMEUSE CZECH REPUBLIC, S.R.O.",359,MOKRA-HORAKOV,Czech Republic,2352,n.a.,15,16,17,13,18,n.a.,19,17,24,n.a.,75,75,75,75,75,n.a.,75,75,75
175.,"CESKE LUPKOVE ZAVODY, A.S.",1171,NOVE STRASECI,Czech Republic,0812,n.a.,14,16,16,16,17,20,19,15,18,n.a.,225,225,225,225,225,225,375,375,375
176.,"TTS ENERGO, S.R.O.",PRUMYSLOVA 163,TREBIC,Czech Republic,3530,n.a.,14,19,13,14,14,22,20,16,9,n.a.,75,75,150,75,75,150,75,38,n.a.
177.,"HASIT SUMAVSKE VAPENICE A OMITKARNY, S. R.O.",91,VELKE HYDCICE,Czech Republic,2364,n.a.,13,13,12,13,16,19,20,24,28,n.a.,150,150,150,150,150,150,225,225,225
178.,"KOMTERM MORAVA, S.R.O.",TRATOVA 653/3,BRNO,Czech Republic,3530,n.a.,13,14,14,19,24,1,1,1,1,n.a.,38,75,75,75,7,7,15,7,n.a.
179.,"PRIBRAMSKA TEPLARENSKA, A.S.",OBECNICKA 269,PRIBRAM,Czech Republic,3530,n.a.,13,13,13,15,16,17,17,19,26,n.a.,150,150,150,150,150,150,n.a.,n.a.,n.a.
180.,"ENERGOCENTRUM VITKOVICE, A. S.",DUHOVA 1444/2,PRAHA MICHLE (PRAHA 4),Czech Republic,3530,n.a.,13,n.a.,n.a.,n.a.,n.a.,n.a.,n.a.,n.a.,n.a.,n.a.,150,n.a.,n.a.,n.a.,n.a.,n.a.,n.a.,n.a.,n.a.
181.,"KOMTERM CECHY, S.R.O.",BELEHRADSKA 55/15,PRAHA NUSLE (PRAHA 4),Czech Republic,3530,n.a.,n.a.,13,13,16,18,2,3,1,n.a.,n.a.,n.a.,150,150,150,n.a.,15,15,n.a.,n.a.
182.,"ENERGY USTI NAD LABEM, A.S.",ZUKOVOVA 100/27,USTI NAD LABEM,Czech Republic,3530,n.a.,n.a.,12,13,12,13,11,42,18,16,n.a.,n.a.,150,150,150,150,150,150,150,150
183.,"MND GAS STORAGE, A.S.",UPRKOVA 807/6,HODONIN,Czech Republic,5210,n.a.,13,13,13,14,16,47,26,25,7,n.a.,38,38,38,38,38,38,38,75,n.a.
184.,"CARTHAMUS, A.S.",VACLAVSKE NAMESTI 775/8,PRAHA NOVE MESTO (PRAHA 1),Czech Republic,3511,n.a.,13,13,14,12,3,2,2,2,2,n.a.,38,38,38,75,38,38,23,23,n.a.
185.,"Z-GROUP, A.S.",TRIDA TOMASE BATI 258,ZLIN,Czech Republic,7739,n.a.,n.a.,12,10,13,29,9,7,9,6,n.a.,n.a.,75,75,150,38,38,150,75,150
186.,"SKLARNY MORAVIA, A.S.",79,USOBRNO,Czech Republic,2313,n.a.,12,12,10,10,11,9,8,9,10,n.a.,225,225,150,150,150,150,150,150,150
187.,"EUROSERUM, S.R.O.",REVOLUCNI 1489,STRIBRO,Czech Republic,1051,n.a.,12,14,19,17,20,18,15,12,10,n.a.,75,38,38,75,38,75,75,75,75
188.,"ENERGIE HOLDING, A.S.",KUTVIRTOVA 339/5,PRAHA RADLICE,Czech Republic,3530,n.a.,11,10,11,13,13,13,14,n.a.,n.a.,n.a.,75,75,75,75,75,75,75,n.a.,n.a.
189.,"ASAVET, A.S.",CHODSKA 1032/27,PRAHA VINOHRADY (PRAHA 2),Czech Republic,3821,n.a.,n.a.,11,10,10,11,10,10,10,11,n.a.,n.a.,150,150,150,150,150,150,150,150
190.,"TEPLARNA STRAKONICE, A.S.",KOMENSKEHO 59,STRAKONICE,Czech Republic,3530,n.a.,11,15,13,16,18,19,6,21,23,n.a.,150,225,225,225,225,225,225,225,225
191.,"WET WIPES INTERNATIONAL, S.R.O.",57,LICHOCEVES,Czech Republic,1722,n.a.,11,11,7,8,6,1,1,1,0,n.a.,75,75,n.a.,75,75,75,38,15,15
192.,"TEPLARNA TABOR, A.S.",U CIHELNY 2128/9,TABOR,Czech Republic,3530,n.a.,10,12,12,14,18,17,21,18,20,n.a.,150,150,150,150,150,150,150,150,150
193.,"KLIMA, A.S.",KRUMLOVSKA 38,PRACHATICE,Czech Republic,2825,n.a.,n.a.,10,7,8,8,9,7,8,9,n.a.,n.a.,150,150,150,150,150,150,225,n.a.
194.,"VYROBA A PRODEJ TEPLA PRIBRAM, A.S.",PRAZSKA 600,MNISEK POD BRDY,Czech Republic,3530,n.a.,10,10,11,12,14,13,13,15,11,n.a.,n.a.,n.a.,n.a.,n.a.,n.a.,n.a.,n.a.,n.a.,n.a.
195.,"FOMA BOHEMIA, S.R.O.",JANA KRUSINKY 1737/6,HRADEC KRALOVE,Czech Republic,2059,n.a.,10,13,11,14,20,18,15,18,16,n.a.,225,375,375,375,375,375,375,375,375
196.,"TERMO DECIN, A.S.",OBLOUKOVA 958/25,DECIN,Czech Republic,3530,n.a.,9,10,11,13,13,13,13,14,15,n.a.,38,38,38,38,38,38,38,38,38
197.,"UNION LESNI BRANA, A.S.",NOVOSEDLICKA 248,DUBI,Czech Republic,2314,n.a.,9,9,9,8,9,8,6,5,8,n.a.,75,75,n.a.,75,75,75,75,75,75
198.,"EMBA, S.R.O.",235,PASEKY NAD JIZEROU,Czech Republic,1721,n.a.,n.a.,n.a.,8,7,8,8,10,8,8,n.a.,n.a.,n.a.,150,150,150,150,150,150,150
199.,"TEPLARNA LOUCOVICE, A.S.",HUSOVA TR. 1847/5,CESKE BUDEJOVICE,Czech Republic,3511,n.a.,9,9,8,0,0,n.a.,n.a.,n.a.,n.a.,n.a.,38,38,38,3,n.a.,n.a.,n.a.,n.a.,n.a.
200.,"PRECYS, S.R.O.",KATERINSKA 235,STRAZ NAD NISOU,Czech Republic,6832,n.a.,n.a.,n.a.,n.a.,7,5,3,0,0,0,n.a.,n.a.,n.a.,n.a.,38,23,23,15,7,3
201.,"POWGEN, A.S.",KUTVIRTOVA 339/5,PRAHA RADLICE,Czech Republic,3511,n.a.,8,9,10,11,11,10,7,3,3,n.a.,15,15,15,15,15,15,15,3,n.a.
202.,"TEREA CHEB, S.R.O.",MAJOVA 588/33,CHEB,Czech Republic,3530,n.a.,8,9,10,10,10,10,12,11,12,n.a.,75,75,75,75,75,75,75,75,150
203.,"JIHLAVAN, A.S.",ZNOJEMSKA 5594/54,JIHLAVA,Czech Republic,3030,n.a.,8,8,8,6,7,8,7,5,9,n.a.,225,225,225,150,150,225,150,375,375
204.,"DH DEKOR, S.R.O.",LNARSKA 1602,HUMPOLEC,Czech Republic,1621,n.a.,8,8,8,7,8,7,9,9,10,n.a.,225,225,225,225,225,225,225,225,225
205.,"HOLOUBEK ENERGO, A.S.",VODICKOVA 682/20,PRAHA NOVE MESTO (PRAHA 1),Czech Republic,4671,n.a.,8,8,8,10,11,13,13,13,16,n.a.,75,75,75,75,75,75,38,38,38
206.,"ENERGETICKE CENTRUM, S.R.O.",3,JINDRICHUV HRADEC,Czech Republic,3511,n.a.,8,7,7,6,7,8,6,5,3,n.a.,38,38,38,38,75,75,75,75,38
207.,"TEPLARNA PISEK, A.S.",U SMRKOVICKE SILNICE 2263,PISEK,Czech Republic,3530,n.a.,7,7,7,8,8,8,9,9,9,n.a.,150,150,150,150,150,150,150,150,n.a.
208.,"PAPIRNA ALOISOV, A.S.",CERMENSKA 910,VITKOV,Czech Republic,1712,n.a.,7,8,7,8,7,n.a.,n.a.,n.a.,n.a.,n.a.,75,75,75,75,75,n.a.,n.a.,n.a.,n.a.
209.,"OPATHERM, A.S.",HORNI NAMESTI 283/58,OPAVA,Czech Republic,3530,n.a.,6,6,6,8,9,8,9,10,9,n.a.,38,75,75,75,75,75,75,75,75
210.,"CESKOLIPSKA TEPLARENSKA, A.S.",LIBERECKA 132,CESKA LIPA,Czech Republic,3530,n.a.,6,6,7,9,9,9,9,n.a.,10,n.a.,38,38,38,38,38,38,38,n.a.,38
211.,"VEOLIA ENERGIE MARIANSKE LAZNE, S.R.O.",NADRAZNI NAMESTI 294,MARIANSKE LAZNE,Czech Republic,3530,n.a.,6,6,5,6,7,7,7,6,7,n.a.,38,38,n.a.,23,23,15,38,38,n.a.
212.,"PRAZSKA OBALOVNA HERINK, S.R.O.",HLAVNI 26,HERINK,Czech Republic,2399,n.a.,n.a.,6,7,7,8,6,5,n.a.,n.a.,n.a.,n.a.,15,15,15,7,7,15,n.a.,n.a.
213.,"TEPVOS, S.R.O.",KRALOVEHRADECKA 1566,USTI NAD ORLICI,Czech Republic,3530,n.a.,6,6,6,6,6,6,6,5,5,n.a.,150,150,150,150,150,150,150,150,150
214.,"ENERGETIKA CHROPYNE, A.S.",KOMENSKEHO75/,CHROPYNE,Czech Republic,3530,n.a.,n.a.,6,6,6,7,8,7,6,7,n.a.,n.a.,75,75,75,75,75,75,75,75
215.,"BRUDRA, S.R.O.",JEMNICKA 312/17,PRAHA MICHLE (PRAHA 4),Czech Republic,4642,n.a.,n.a.,6,5,5,6,6,6,n.a.,n.a.,n.a.,n.a.,75,75,38,38,38,38,n.a.,n.a.
216.,"OSTROVSKA TEPLARENSKA, A.S.",MORICOVSKA 1210,OSTROV,Czech Republic,3530,n.a.,n.a.,5,5,6,7,7,8,7,8,n.a.,n.a.,75,75,75,75,75,75,75,75
217.,"CHRUDIM IRON & STEEL, S.R.O.",NA ZAMECKE 1518/9,PRAHA NUSLE (PRAHA 4),Czech Republic,2451,n.a.,n.a.,n.a.,5,2,0,0,0,0,n.a.,n.a.,n.a.,n.a.,75,75,n.a.,n.a.,n.a.,n.a.,n.a.
218.,"JIHLAVSKE KOTELNY, S.R.O.",HAVLICKOVA 2331/111,JIHLAVA,Czech Republic,3530,n.a.,5,6,6,6,6,6,7,7,7,n.a.,38,38,38,38,38,38,38,38,38
219.,"JABLONECKA ENERGETICKA, A.S.",LIBERECKA 4191/120,JABLONEC NAD NISOU,Czech Republic,3530,n.a.,5,7,9,12,15,13,14,15,14,n.a.,38,38,75,75,75,75,75,75,75
220.,"ZATECKA TEPLARENSKA, A.S.",,ZATEC 3149,Czech Republic,3530,n.a.,5,5,4,5,5,5,4,4,4,n.a.,38,38,n.a.,38,38,38,38,38,38
221.,"OMNICON, S.R.O.",V ROVINACH 336/103,PRAHA PODOLI,Czech Republic,3530,n.a.,5,6,n.a.,5,5,5,6,5,6,n.a.,150,150,n.a.,150,150,150,150,150,n.a.
222.,"SILIKE KERAMIKA, S.R.O.",PLACHEHO 388/28,CESKE BUDEJOVICE,Czech Republic,2320,n.a.,5,4,5,4,4,3,4,3,6,n.a.,75,75,75,75,75,75,75,75,150
223.,"CEREPA, A. S.",107,CERVENA RECICE,Czech Republic,1722,n.a.,n.a.,5,4,6,5,7,5,5,n.a.,n.a.,n.a.,75,75,75,150,150,150,150,n.a.
224.,"BEST - BUSINESS, A.S.",HAVLICKOVA 342/7,VYSKOV,Czech Republic,2391,n.a.,n.a.,4,5,6,7,8,6,6,6,n.a.,n.a.,75,75,75,75,75,75,75,75
225.,"PAPOS TRADE, S.R.O.",MORICOVSKA 251,OSTROV,Czech Republic,1712,n.a.,n.a.,4,4,5,2,n.a.,n.a.,n.a.,n.a.,n.a.,n.a.,150,150,150,150,n.a.,n.a.,n.a.,n.a.
226.,"POLDI TRADE, A.S.",PRUMYSLOVA 1343,KLADNO,Czech Republic,2410,n.a.,n.a.,n.a.,4,4,4,6,6,1,0,n.a.,n.a.,n.a.,75,75,38,38,75,n.a.,n.a.
227.,"KASTL INVEST, S.R.O.",VITKOVICKA 3083/1,OSTRAVA,Czech Republic,6820,n.a.,4,0,0,1,n.a.,0,0,0,0,n.a.,7,15,7,15,n.a.,15,n.a.,n.a.,n.a.
228.,"MESIT REALITY, S.R.O.",SOKOLOVSKA 573,UHERSKE HRADISTE,Czech Republic,3513,n.a.,4,4,4,4,4,5,5,5,5,n.a.,38,38,38,38,38,38,38,38,38
229.,"TYLEX LETOVICE, A.S.",BRNENSKA 20/3,LETOVICE,Czech Republic,1399,n.a.,4,5,5,3,4,6,5,6,6,n.a.,150,150,150,150,150,150,375,375,375
230.,"RYNOVICKA ENERGETICKA, S.R.O.",BELGICKA 4887,JABLONEC NAD NISOU,Czech Republic,3511,n.a.,4,4,4,4,3,3,3,3,3,n.a.,15,15,15,15,15,15,15,15,15
231.,"CTZ, S.R.O.",SOKOLOVSKA 572,UHERSKE HRADISTE,Czech Republic,3530,n.a.,4,4,4,4,4,4,4,4,4,n.a.,38,38,38,38,38,38,38,38,n.a.
232.,"IROMEZ, S.R.O.",POD NASPEM 2005,PELHRIMOV,Czech Republic,3530,n.a.,4,4,4,5,5,5,n.a.,n.a.,n.a.,n.a.,38,38,38,38,38,38,n.a.,n.a.,n.a.
233.,"AMPER SAVINGS, A.S.",ANTALA STASKA 1076/33A,PRAHA KRC,Czech Republic,7022,n.a.,4,1,0,0,n.a.,n.a.,n.a.,n.a.,n.a.,n.a.,15,7,3,3,n.a.,n.a.,n.a.,n.a.,n.a.
234.,"TEPLOSPOL, A.S.",SIDLISTE VAJGAR 585,JINDRICHUV HRADEC,Czech Republic,3530,n.a.,4,4,4,4,5,4,6,5,5,n.a.,38,38,38,38,38,38,75,75,38
235.,"TEPLARNA VARNSDORF, A.S.",PALACKEHO 2760,VARNSDORF,Czech Republic,3530,n.a.,4,3,3,4,5,5,7,5,6,n.a.,75,75,75,75,75,75,75,38,75
236.,"TON - ENERGO, A.S.",MICHAELA THONETA 148,BYSTRICE POD HOSTYNEM,Czech Republic,3530,n.a.,3,3,3,4,4,5,4,7,5,n.a.,38,38,38,75,75,75,75,75,75
237.,"CIHELNA KINSKY, S.R.O.",HALKOVA 1359,KOSTELEC NAD ORLICI,Czech Republic,2332,n.a.,3,3,3,2,3,4,3,3,4,n.a.,38,38,38,38,38,38,38,38,38
238.,TEPLO BRUNTAL A. S.,SMILOVSKEHO 659/6,BRUNTAL,Czech Republic,3530,n.a.,3,1,3,4,4,4,5,5,5,n.a.,38,75,75,38,75,75,75,75,75
239.,"ENERGETIKA KURIM, A.S.",STEFANIKOVA 110/41,BRNO,Czech Republic,3513,n.a.,n.a.,3,3,4,4,4,4,4,4,n.a.,n.a.,15,15,15,15,15,15,15,n.a.
240.,"SPH-SLUZBY, S.R.O.",TOVARNI 605,HRANICE,Czech Republic,3513,n.a.,n.a.,3,2,3,2,2,2,2,2,n.a.,n.a.,15,38,23,23,23,23,38,38
241.,"MEFRIT, S.R.O.",CESKOLIPSKA 798,MELNIK,Czech Republic,2030,n.a.,3,4,3,3,5,1,5,4,5,n.a.,38,38,38,75,75,75,75,75,75
242.,"KLATOVSKA TEPLARNA, A.S.",JATECNI 660,KLATOVY,Czech Republic,3530,n.a.,3,3,3,4,4,4,4,4,5,n.a.,38,38,38,38,38,38,38,38,38
243.,"THERMOSERVIS, S.R.O.",GENERALA ANTONINA SOCHORA 2175,NYMBURK,Czech Republic,3530,n.a.,3,3,3,3,4,3,5,4,4,n.a.,38,38,38,38,38,38,23,38,38
244.,"GAMA INVESTMENT, A.S.",POBREZNI 297/14,PRAHA KARLIN,Czech Republic,3512,n.a.,3,3,2,4,0,0,n.a.,n.a.,n.a.,n.a.,15,15,15,15,15,15,n.a.,n.a.,n.a.
245.,"ZLINSKE CIHELNY, S.R.O.",SRAMKOVA 1211,ZLIN,Czech Republic,2332,n.a.,n.a.,n.a.,n.a.,n.a.,2,n.a.,2,3,n.a.,n.a.,n.a.,n.a.,n.a.,n.a.,75,n.a.,75,75,n.a.
246.,"TEPLARNA KYJOV, A.S.",HAVLICKOVA 180/18,KYJOV,Czech Republic,3530,n.a.,3,2,0,0,0,n.a.,n.a.,n.a.,n.a.,n.a.,23,n.a.,n.a.,n.a.,n.a.,n.a.,n.a.,n.a.,n.a.
247.,"ZEVETA BOJKOVICE, A.S.",TOVARNI 532,BOJKOVICE,Czech Republic,6820,n.a.,3,3,3,3,3,3,3,4,5,n.a.,38,38,n.a.,38,38,38,75,75,75
248.,"KG ENERGO, S.R.O.",BELEHRADSKA 55/15,PRAHA NUSLE (PRAHA 4),Czech Republic,3530,n.a.,n.a.,n.a.,2,3,3,3,1,n.a.,n.a.,n.a.,n.a.,n.a.,38,38,38,38,n.a.,n.a.,n.a.
249.,"ZVVZ ENERGO, S.R.O.",SAZINOVA 888/11,MILEVSKO,Czech Republic,3530,n.a.,3,3,2,3,4,n.a.,4,4,n.a.,n.a.,38,38,n.a.,38,38,n.a.,38,3,n.a.
250.,"OMGD, S.R.O.",KRIZOVA 1018/6,PRAHA SMICHOV,Czech Republic,3511,n.a.,n.a.,n.a.,2,3,4,8,3,2,4,n.a.,n.a.,n.a.,15,15,7,23,150,150,150
251.,"ENERGZET, A.S.",JEDOVNICKA 4303/2A,BRNO,Czech Republic,3513,n.a.,n.a.,n.a.,2,2,3,3,6,5,6,n.a.,n.a.,n.a.,15,15,15,15,23,23,75
252.,"TEPELNE HOSPODARSTVI RYCHNOV NAD KNEZNOU, S. R. O.",MIROVA 1411,RYCHNOV NAD KNEZNOU,Czech Republic,3530,n.a.,2,2,2,2,3,2,3,2,3,n.a.,38,38,38,38,38,38,38,38,38
253.,"SCB FOUNDRY, A.S.",OKRUZNI 621/1A,CESKE BUDEJOVICE,Czech Republic,2452,n.a.,n.a.,2,9,23,46,38,7,10,25,n.a.,n.a.,150,150,375,750,750,375,375,n.a.
254.,"BURSON PROPERTIES, A.S. V LIKVIDACI",ANTONINUV DUL C.P 107,JIHLAVA,Czech Republic,6820,n.a.,n.a.,2,2,7,4,7,n.a.,8,9,n.a.,n.a.,n.a.,n.a.,7,3,3,n.a.,750,750
255.,"TERMOFRYDLANT N. O., S.R.O.",HAMERNICKA 233,FRYDLANT NAD OSTRAVICI,Czech Republic,3530,n.a.,n.a.,2,1,2,2,2,3,3,3,n.a.,n.a.,38,38,38,38,38,23,15,38
256.,SLEZAN FRYDEK - MISTEK A. S.,NA PRIKOPE 1221,FRYDEK-MISTEK,Czech Republic,1320,n.a.,n.a.,2,2,2,2,4,6,11,0,n.a.,n.a.,7,15,15,15,15,225,"1,750","1,750"
257.,"OKAY HOLDING, A.S.",KSIROVA 676/259,BRNO,Czech Republic,7010,n.a.,n.a.,1,n.a.,1,2,1,5,5,1,n.a.,n.a.,15,n.a.,15,15,15,38,38,15
258.,"SPRAVA DOMU MESTA KAPLICE, S.R.O.",CESKOBUDEJOVICKA 79,KAPLICE,Czech Republic,3530,n.a.,n.a.,n.a.,n.a.,n.a.,1,1,1,1,1,n.a.,n.a.,n.a.,n.a.,n.a.,23,23,23,23,23
259.,H MOTOR CO.,"141, HAPPO-RO MASANHAPPO-GU CHANGWON-SI GYEONGNAM",CHANGWON-SI,Republic of Korea,4643,n.a.,1,1,1,0,n.a.,n.a.,n.a.,n.a.,n.a.,n.a.,n.a.,n.a.,1,n.a.,n.a.,n.a.,n.a.,n.a.,n.a.
260.,"CIHELNA POLOM, S.R.O.",,POLOM 97,Czech Republic,2332,n.a.,1,1,1,1,1,1,1,1,1,n.a.,38,38,38,38,38,38,38,38,n.a.
261.,"KRKONOSSKE PAPIRNY, A.S.",NADRAZNI 266,HOSTINNE,Czech Republic,7010,n.a.,1,1,2,2,2,2,2,2,3,n.a.,38,38,38,38,38,38,750,750,750
262.,"ZEOLIT KLADNO, S.R.O. V LIKVIDACI",PRUMYSLOVA 1343,KLADNO,Czech Republic,2320,n.a.,n.a.,n.a.,1,1,1,1,2,1,2,n.a.,n.a.,n.a.,n.a.,38,38,38,38,38,38
263.,"TRANSTEPLO KDYNE, S.R.O.",DELNICKA 425,KDYNE,Czech Republic,3530,n.a.,1,1,1,1,1,1,2,1,2,n.a.,15,23,23,23,23,23,23,38,38
264.,"EGRES CZ, A.S.",SINKULOVA 329/48,PRAHA 4,Czech Republic,2331,n.a.,n.a.,n.a.,n.a.,n.a.,n.a.,n.a.,1,n.a.,n.a.,n.a.,n.a.,n.a.,n.a.,n.a.,n.a.,n.a.,n.a.,n.a.,n.a.
265.,"OLSANSKE PAPIRNY, A.S.",HNEVKOVSKA 1228/50,PRAHA CHODOV,Czech Republic,1712,n.a.,n.a.,1,n.a.,0,1,n.a.,n.a.,n.a.,n.a.,n.a.,n.a.,n.a.,n.a.,n.a.,n.a.,n.a.,n.a.,n.a.,n.a.
266.,"BFS ENERGO, A.S.",ZITAVSKEHO 496,PRAHA ZBRASLAV,Czech Republic,4222,n.a.,n.a.,1,5,5,2,16,6,n.a.,n.a.,n.a.,n.a.,n.a.,n.a.,3,7,3,7,n.a.,n.a.
267.,"ENE20, S.R.O.",OVOCNY TRH 572/11,PRAHA STARE MESTO,Czech Republic,2790,n.a.,1,0,n.a.,n.a.,n.a.,n.a.,n.a.,n.a.,n.a.,n.a.,15,3,n.a.,n.a.,n.a.,n.a.,n.a.,n.a.,n.a.
268.,AXIS AVIATION GROUP INC,6133 FREEPORT BLVD,SACRAMENTO,United States of America,,1,n.a.,n.a.,n.a.,n.a.,n.a.,n.a.,n.a.,n.a.,n.a.,7,n.a.,n.a.,n.a.,n.a.,n.a.,n.a.,n.a.,n.a.,n.a.
269.,"ZASOBOVANI TEPLEM ADAMOV, S.R.O.",NADRAZNI 455,ADAMOV,Czech Republic,4322,n.a.,n.a.,n.a.,n.a.,n.a.,0,1,2,3,3,n.a.,n.a.,n.a.,n.a.,n.a.,3,3,7,15,n.a.
270.,"WIENERBERGER CIHELNA HODONIN, S.R.O.",PLACHEHO 388/28,CESKE BUDEJOVICE,Czech Republic,6499,n.a.,n.a.,n.a.,0,0,0,0,0,0,0,n.a.,n.a.,n.a.,n.a.,n.a.,n.a.,n.a.,n.a.,3,3
271.,"EASTERN SUGAR CESKA REPUBLIKA, A.S. V LIKVIDACI",MASARYKOVA 419,NEMCICE NAD HANOU,Czech Republic,1081,n.a.,n.a.,n.a.,n.a.,n.a.,0,2,1,5,28,n.a.,n.a.,n.a.,n.a.,n.a.,n.a.,3,3,375,375
272.,"CIHELNA VYSOKE MYTO, S.R.O.",TISOVSKA 269,VYSOKE MYTO,Czech Republic,2332,n.a.,n.a.,0,0,n.a.,n.a.,0,0,1,n.a.,n.a.,n.a.,15,15,n.a.,n.a.,15,23,15,n.a.
273.,"CASSALIMA GROUP, S.R.O.",8. KVETNA 464/21,OLOMOUC,Czech Republic,6820,n.a.,n.a.,n.a.,n.a.,n.a.,0,1,0,n.a.,n.a.,n.a.,n.a.,n.a.,n.a.,n.a.,n.a.,n.a.,n.a.,n.a.,n.a.
274.,"CIHELNY STAMP MISKOLEZY, S.R.O.",59,VELKY TREBESOV,Czech Republic,2332,n.a.,n.a.,n.a.,0,0,0,0,0,0,1,n.a.,n.a.,n.a.,7,3,7,7,15,15,23
275.,"NATURAL KERAMIKA, S.R.O.",U CIHELNY 375,JEVICKO,Czech Republic,2331,n.a.,0,0,n.a.,n.a.,n.a.,0,0,0,n.a.,n.a.,7,7,n.a.,n.a.,n.a.,15,15,15,n.a.
276.,"CIHELNA HODONIN, S.R.O.",BRNENSKA 59/A,HODONIN,Czech Republic,6820,n.a.,0,1,0,0,0,2,1,3,4,n.a.,3,3,3,7,7,7,75,75,150
277.,"MORAVIA GAS STORAGE, A.S.",UPRKOVA 807/6,HODONIN,Czech Republic,5210,n.a.,n.a.,0,0,0,0,0,0,0,n.a.,n.a.,n.a.,38,15,n.a.,n.a.,n.a.,n.a.,n.a.,n.a.
278.,"PARALAX, A.S.",KOTLASKA 64/5,PRAHA LIBEN (PRAHA 8),Czech Republic,2332,n.a.,n.a.,n.a.,n.a.,n.a.,0,0,1,0,1,n.a.,n.a.,n.a.,n.a.,n.a.,7,7,7,7,38
279.,"ZOS CESKE VELENICE CZ, A.S.",JANA PERNERA 159,CESKE VELENICE,Czech Republic,3317,n.a.,n.a.,n.a.,n.a.,0,1,n.a.,n.a.,n.a.,11,n.a.,n.a.,n.a.,n.a.,3,3,n.a.,n.a.,n.a.,375
280.,"CIHELNA KLIMA, S.R.O.",ZAHRADY 1460,CESKY BROD,Czech Republic,2332,n.a.,n.a.,n.a.,n.a.,n.a.,0,0,n.a.,n.a.,0,n.a.,n.a.,n.a.,n.a.,n.a.,3,3,n.a.,n.a.,3
281.,AVIA-AS,"UL. STAVROPOLSKAYA D.60, KORP.1, POM.105",MOSCOW,Russian Federation,5220,n.a.,0,0,0,0,n.a.,n.a.,n.a.,n.a.,n.a.,n.a.,15,8,3,3,n.a.,n.a.,n.a.,n.a.,n.a.
282.,"CIHELNA CASY, S.R.O.",FREYOVA 1/12,PRAHA VYSOCANY (PRAHA 9),Czech Republic,0811,n.a.,n.a.,n.a.,n.a.,n.a.,n.a.,n.a.,n.a.,0,n.a.,n.a.,n.a.,n.a.,n.a.,n.a.,n.a.,n.a.,n.a.,n.a.,n.a.
283.,"KX POWER, A.S.",SUJANOVO NAMESTI 302/3,BRNO,Czech Republic,3530,n.a.,0,0,0,0,0,1,3,n.a.,n.a.,n.a.,3,3,3,3,3,3,3,n.a.,n.a.
284.,TIMBER LLC,"UL. SADOVNICHESKAYA D.72, STR.1, OFFICE 6",MOSCOW,Russian Federation,4673,n.a.,0,1,3,12,20,n.a.,n.a.,n.a.,n.a.,n.a.,28,53,72,89,135,n.a.,n.a.,n.a.,n.a.
285.,"GEOPOS, S.R.O.",69,DRINOV,Czech Republic,2332,n.a.,n.a.,0,n.a.,0,0,0,0,n.a.,n.a.,n.a.,n.a.,n.a.,n.a.,n.a.,n.a.,n.a.,n.a.,n.a.,n.a.
286.,"BEFACOAL, S.R.O.",SOKOLSKA 1795/46,PRAHA NOVE MESTO (PRAHA 2),Czech Republic,3530,n.a.,n.a.,0,0,0,0,0,n.a.,n.a.,n.a.,n.a.,n.a.,3,3,3,3,3,n.a.,n.a.,n.a.
287.,"CRYSTALEX, A.S.",B. EGERMANNA 634,NOVY BOR,Czech Republic,2313,n.a.,n.a.,0,0,0,0,n.a.,n.a.,n.a.,n.a.,n.a.,n.a.,3,3,3,3,n.a.,n.a.,n.a.,n.a.
288.,"VITRABLOK, S.R.O.",BILINSKA 782/42,DUCHCOV,Czech Republic,2319,n.a.,n.a.,0,0,0,0,0,0,0,0,n.a.,n.a.,3,3,3,3,3,3,3,n.a.
289.,"CIHELNA HLUCIN, S.R.O.",KOLEJNI 1323/12,OSTRAVA,Czech Republic,2332,n.a.,n.a.,0,0,1,0,0,0,1,2,n.a.,n.a.,n.a.,n.a.,3,3,3,3,23,38
290.,"VALCOVNY TRUB CHOMUTOV, A.S.",TOVARNI 629,CHOMUTOV,Czech Republic,2420,n.a.,n.a.,0,0,0,0,n.a.,n.a.,n.a.,n.a.,n.a.,n.a.,n.a.,n.a.,n.a.,n.a.,n.a.,n.a.,n.a.,n.a.
291.,"TEPLARNA TYNEC, S.R.O.",K NAKLI 523,TYNEC NAD SAZAVOU,Czech Republic,3530,n.a.,0,2,1,2,2,2,2,3,2,n.a.,7,7,7,7,7,7,7,15,15
292.,"ODEVNI PODNIK, A.S.",ZA DRAHOU 4239/2,PROSTEJOV,Czech Republic,1413,n.a.,0,0,2,0,7,n.a.,n.a.,64,81,n.a.,n.a.,n.a.,3,3,150,n.a.,n.a.,"4,500","4,500"
293.,"EKO - CONTAINER SERVICE, S.R.O.",KAMPELIKOVA 767/2A,HRADEC KRALOVE,Czech Republic,2223,n.a.,0,7,6,5,5,5,4,3,4,n.a.,38,38,38,38,38,23,23,23,23
294.,"TEPELNE HOSPODARSTVI PRACHATICE, S.R.O.",NADRAZNI 52,PRACHATICE,Czech Republic,3530,n.a.,0,3,3,3,3,3,4,3,4,n.a.,23,23,23,23,23,38,38,38,38
295.,"MASOKOMBINAT POLICKA, A.S.",KAMENEC U POLICKY 300,POLICKA,Czech Republic,,n.a.,n.a.,n.a.,n.a.,n.a.,n.a.,n.a.,n.a.,n.a.,n.a.,n.a.,n.a.,n.a.,n.a.,n.a.,n.a.,n.a.,n.a.,n.a.,n.a.
296.,MIDAMERICA HOLDINGS LTD,2104 HASTINGS AVE,NEWPORT,United States of America,6420,n.a.,n.a.,n.a.,n.a.,n.a.,n.a.,n.a.,n.a.,n.a.,n.a.,n.a.,n.a.,15,n.a.,n.a.,n.a.,n.a.,n.a.,n.a.,n.a.
297.,INCLEDON ENTERPRISES LIMITED,"CAPITAL CENTER, FLOOR NO: 9",NICOSIA,Cyprus,,n.a.,n.a.,n.a.,n.a.,n.a.,n.a.,n.a.,n.a.,n.a.,n.a.,n.a.,n.a.,n.a.,n.a.,n.a.,n.a.,n.a.,n.a.,n.a.,n.a.
298.,CAIMITO ENTERPRISES LIMITED,FLAT NO: 301,NICOSIA,Cyprus,6499,n.a.,n.a.,n.a.,n.a.,n.a.,n.a.,n.a.,n.a.,n.a.,n.a.,n.a.,n.a.,n.a.,n.a.,n.a.,n.a.,n.a.,n.a.,n.a.,n.a.
299.,RETENTURA LIMITED,FLAT NO: 301,NICOSIA,Cyprus,6420,n.a.,n.a.,n.a.,n.a.,n.a.,n.a.,n.a.,n.a.,n.a.,n.a.,n.a.,n.a.,n.a.,n.a.,n.a.,n.a.,n.a.,n.a.,n.a.,n.a.
300.,PLORISTA LIMITED,SANTA ROZA 18,,Cyprus,,n.a.,n.a.,n.a.,n.a.,n.a.,n.a.,n.a.,n.a.,n.a.,n.a.,n.a.,n.a.,n.a.,n.a.,n.a.,n.a.,n.a.,n.a.,n.a.,n.a.
301.,"LOSTR, A.S.",NA PORICI 1071/17,PRAHA NOVE MESTO (PRAHA 1),Czech Republic,8210,n.a.,n.a.,n.a.,n.a.,n.a.,n.a.,n.a.,n.a.,n.a.,n.a.,n.a.,n.a.,n.a.,n.a.,n.a.,n.a.,n.a.,n.a.,n.a.,n.a.