,Company name,"Street, no., building etc, line 1",City,Country,"NACE Rev. 2
Core code (4 digits)","Operating
revenue
(Turnover)
m EUR
2017","Operating
revenue
(Turnover)
m EUR
2016","Operating
revenue
(Turnover)
m EUR
2015","Operating
revenue
(Turnover)
m EUR
2014","Operating
revenue
(Turnover)
m EUR
2013","Operating
revenue
(Turnover)
m EUR
2012","Operating
revenue
(Turnover)
m EUR
2011","Operating
revenue
(Turnover)
m EUR
2010","Operating
revenue
(Turnover)
m EUR
2009","Operating
revenue
(Turnover)
m EUR
2008","Number of employees
2017","Number of employees
2016","Number of employees
2015","Number of employees
2014","Number of employees
2013","Number of employees
2012","Number of employees
2011","Number of employees
2010","Number of employees
2009","Number of employees
2008"
171.,A/S BACHMANNS TEGLVAERK,AMTSVEJEN 23,SOENDERBORG,Denmark,2332,n.a.,n.a.,n.a.,n.a.,n.a.,n.a.,n.a.,n.a.,n.a.,n.a.,n.a.,18,n.a.,n.a.,n.a.,n.a.,n.a.,n.a.,n.a.,n.a.
201.,A/S CARL MATZENS TEGLVAERKER,HAVNEVEJ 44,EGERNSUND,Denmark,2332,n.a.,n.a.,n.a.,n.a.,n.a.,n.a.,n.a.,n.a.,n.a.,n.a.,n.a.,13,8,8,7,n.a.,n.a.,n.a.,n.a.,n.a.
8.,A/S DANSK SHELL,EGESKOVVEJ 265,FREDERICIA,Denmark,1920,n.a.,"1,158","1,721","2,475","2,579","2,822",n.a.,n.a.,n.a.,n.a.,n.a.,289,403,415,422,419,n.a.,n.a.,n.a.,n.a.
197.,A/S GRAASTEN TEGLVAERK,TEGLVAERKSVEJ 14,GRAASTEN,Denmark,2332,n.a.,n.a.,n.a.,n.a.,n.a.,n.a.,n.a.,n.a.,n.a.,n.a.,n.a.,19,19,15,14,n.a.,n.a.,n.a.,n.a.,n.a.
120.,A/S KNUD JEPSEN,SKANDERBORGVEJ 193,HINNERUP,Denmark,0119,n.a.,n.a.,n.a.,n.a.,n.a.,n.a.,n.a.,n.a.,n.a.,n.a.,128,131,124,113,117,n.a.,n.a.,n.a.,n.a.,n.a.
184.,AABENRAA - ROEDEKRO FJERNVARME,EGELUND 60,AABENRAA,Denmark,3530,n.a.,n.a.,n.a.,n.a.,n.a.,n.a.,n.a.,n.a.,n.a.,n.a.,n.a.,35,n.a.,n.a.,n.a.,n.a.,n.a.,n.a.,n.a.,n.a.
30.,AAK DENMARK A/S,SLIPVEJ 4,AARHUS C,Denmark,1041,n.a.,211,191,209,181,209,n.a.,n.a.,n.a.,n.a.,n.a.,207,201,205,244,268,n.a.,n.a.,n.a.,n.a.
10.,AALBORG PORTLAND HOLDING A/S,ROERDALSVEJ 44,AALBORG OEST,Denmark,6420,n.a.,950,898,880,686,582,n.a.,n.a.,n.a.,n.a.,n.a.,"2,991","2,605","2,627","2,650","1,531",n.a.,n.a.,n.a.,n.a.
218.,AARHUS KOMMUNE,RAADHUSPLADSEN 2,AARHUS C,Denmark,8411,n.a.,n.a.,n.a.,n.a.,n.a.,n.a.,n.a.,n.a.,n.a.,n.a.,n.a.,"1,750",n.a.,n.a.,n.a.,n.a.,n.a.,n.a.,n.a.,n.a.
217.,AARS FJERNVARME AMBA,DYBVAD MOELLE VEJ 1,AARS,Denmark,3530,n.a.,n.a.,n.a.,n.a.,n.a.,n.a.,n.a.,n.a.,n.a.,n.a.,n.a.,35,n.a.,n.a.,n.a.,n.a.,n.a.,n.a.,n.a.,n.a.
148.,AFFALDSSELSKABET VENDSYSSEL VEST I/S,POSTBOKS 152,HJOERRING,Denmark,3821,n.a.,n.a.,n.a.,n.a.,n.a.,n.a.,n.a.,n.a.,n.a.,n.a.,n.a.,150,n.a.,n.a.,n.a.,n.a.,n.a.,n.a.,n.a.,n.a.
62.,AIR ALSIE A/S,SOENDERBORG LUFTHAVN,SOENDERBORG,Denmark,5110,55,56,51,52,45,n.a.,n.a.,n.a.,n.a.,n.a.,141,138,142,142,112,n.a.,n.a.,n.a.,n.a.,n.a.
32.,AIR GREENLAND A/S,B - 1842,NUUSSUAQ,Greenland (Denmark),5110,n.a.,176,165,158,158,156,n.a.,n.a.,n.a.,n.a.,n.a.,653,652,655,661,651,n.a.,n.a.,n.a.,n.a.
61.,AKZO NOBEL SALT A/S,HADSUNDVEJ 17,MARIAGER,Denmark,0893,n.a.,61,61,58,60,61,n.a.,n.a.,n.a.,n.a.,n.a.,140,144,151,157,157,n.a.,n.a.,n.a.,n.a.
238.,ALBERTSLUND KOMMUNE,NORDMARKS ALLE 1,ALBERTSLUND,Denmark,8411,n.a.,n.a.,n.a.,n.a.,n.a.,n.a.,n.a.,n.a.,n.a.,n.a.,n.a.,"1,750",n.a.,n.a.,n.a.,n.a.,n.a.,n.a.,n.a.,n.a.
140.,ALFRED PEDERSEN & SOEN APS,ASSENSVEJ 217,ODENSE SV,Denmark,0113,n.a.,n.a.,n.a.,n.a.,n.a.,n.a.,n.a.,n.a.,n.a.,n.a.,n.a.,117,85,58,59,n.a.,n.a.,n.a.,n.a.,n.a.
109.,ALIGAP A/S,HARBOUR HOUSE,KOEBENHAVN OE,Denmark,7735,n.a.,n.a.,n.a.,2,2,2,n.a.,n.a.,n.a.,n.a.,n.a.,n.a.,n.a.,n.a.,0,n.a.,n.a.,n.a.,n.a.,n.a.
18.,ALUMECO A/S,NAESBYVEJ 26,ODENSE C,Denmark,4672,456,396,370,326,301,n.a.,n.a.,n.a.,n.a.,n.a.,821,683,620,545,673,n.a.,n.a.,n.a.,n.a.,n.a.
71.,ANDELS-KARTOFFELMELSFABRIKKEN SOENDERJYLLAND,TOENDERVEJ 3,TOFTLUND,Denmark,1062,36,n.a.,n.a.,n.a.,n.a.,n.a.,n.a.,n.a.,n.a.,n.a.,31,n.a.,n.a.,n.a.,n.a.,n.a.,n.a.,n.a.,n.a.,n.a.
208.,ANDELSSELSKABET MOELHOLM VARMEVAERK,MOELHOLM LANDEVEJ 14,VEJLE,Denmark,3530,n.a.,n.a.,n.a.,n.a.,n.a.,n.a.,n.a.,n.a.,n.a.,n.a.,n.a.,3,n.a.,n.a.,n.a.,n.a.,n.a.,n.a.,n.a.,n.a.
123.,ANDELSSELSKABET OKSBOEL VARMEVAERK,INDUSTRIVEJ 10,OKSBOEL,Denmark,3530,n.a.,n.a.,n.a.,n.a.,n.a.,n.a.,n.a.,n.a.,n.a.,n.a.,n.a.,3,n.a.,n.a.,n.a.,n.a.,n.a.,n.a.,n.a.,n.a.
53.,ARDAGH GLASS HOLMEGAARD A/S,GLASVAERKSVEJ 52,HOLMEGAARD,Denmark,2313,n.a.,80,76,79,80,77,n.a.,n.a.,n.a.,n.a.,n.a.,320,323,333,333,342,n.a.,n.a.,n.a.,n.a.
125.,ARGO I/S,HAANDVAERKERVEJ 70,ROSKILDE,Denmark,3821,n.a.,n.a.,n.a.,n.a.,n.a.,n.a.,n.a.,n.a.,n.a.,n.a.,n.a.,150,n.a.,n.a.,n.a.,n.a.,n.a.,n.a.,n.a.,n.a.
26.,ARKIL A/S,SOENDERGAARD ALLE 4,VOJENS,Denmark,4211,n.a.,246,291,249,250,270,n.a.,n.a.,n.a.,n.a.,n.a.,"1,107","1,236","1,082","1,120","1,164",n.a.,n.a.,n.a.,n.a.
79.,ARLA FOODS ENERGY A/S,SOENDERHOEJ 14,VIBY J,Denmark,3511,n.a.,27,20,19,21,20,n.a.,n.a.,n.a.,n.a.,n.a.,0,0,0,0,0,n.a.,n.a.,n.a.,n.a.
228.,ASSENS FJERNVARME A.M.B.A.,STEJLEBJERGVEJ 4,ASSENS,Denmark,3530,n.a.,n.a.,n.a.,n.a.,n.a.,n.a.,n.a.,n.a.,n.a.,n.a.,n.a.,15,n.a.,n.a.,n.a.,n.a.,n.a.,n.a.,n.a.,n.a.
195.,AULUM FJERNVARME AMBA,RUGBJERGVEJ 3,AULUM,Denmark,3530,n.a.,n.a.,n.a.,n.a.,n.a.,n.a.,n.a.,n.a.,n.a.,n.a.,n.a.,3,n.a.,n.a.,n.a.,n.a.,n.a.,n.a.,n.a.,n.a.
128.,AVEDOERE FJERNVARME,EBO CONSULT,HVIDOVRE,Denmark,3530,n.a.,n.a.,n.a.,n.a.,n.a.,n.a.,n.a.,n.a.,n.a.,n.a.,n.a.,1,n.a.,n.a.,n.a.,n.a.,n.a.,n.a.,n.a.,n.a.
165.,BGR I/S,AXZON A/S,HERNING,Denmark,5110,n.a.,n.a.,n.a.,n.a.,n.a.,n.a.,n.a.,n.a.,n.a.,n.a.,n.a.,n.a.,n.a.,n.a.,n.a.,n.a.,n.a.,n.a.,n.a.,n.a.
189.,BILLUND VARMEVAERK,MOELLEVEJ 9,BILLUND,Denmark,3530,n.a.,n.a.,n.a.,n.a.,n.a.,n.a.,n.a.,n.a.,n.a.,n.a.,n.a.,7,n.a.,n.a.,n.a.,n.a.,n.a.,n.a.,n.a.,n.a.
34.,BIOGEN (DENMARK) MANUFACTURING APS,BIOGEN ALLE 1,HILLEROED,Denmark,8292,n.a.,175,168,155,141,89,n.a.,n.a.,n.a.,n.a.,n.a.,596,608,552,483,375,n.a.,n.a.,n.a.,n.a.
236.,BOGENSE FORSYNINGSSELSKAB,FYNSVEJ 5,BOGENSE,Denmark,3530,n.a.,n.a.,n.a.,n.a.,n.a.,n.a.,n.a.,n.a.,n.a.,n.a.,n.a.,7,n.a.,n.a.,n.a.,n.a.,n.a.,n.a.,n.a.,n.a.
152.,BORDING KRAFT-VARMEVAERK,JOERGEN MOSEGAARD,IKAST,Denmark,3530,n.a.,n.a.,n.a.,n.a.,n.a.,n.a.,n.a.,n.a.,n.a.,n.a.,n.a.,0,n.a.,n.a.,n.a.,n.a.,n.a.,n.a.,n.a.,n.a.
92.,BORNHOLMS EL-PRODUKTION A/S,SKANSEVEJ 2,ROENNE,Denmark,3511,n.a.,11,n.a.,n.a.,0,n.a.,n.a.,n.a.,n.a.,n.a.,n.a.,18,43,44,44,45,n.a.,n.a.,n.a.,n.a.
108.,BRAEDSTRUP TOTALENERGIANLAEG A/S,FJERNVARMEVEJ 2,BRAEDSTRUP,Denmark,3511,n.a.,3,3,4,3,3,n.a.,n.a.,n.a.,n.a.,n.a.,n.a.,n.a.,2,2,3,n.a.,n.a.,n.a.,n.a.
229.,BRAMMING FJERNVARME AMBA,GROENNINGEN 7,BRAMMING,Denmark,3530,n.a.,n.a.,n.a.,n.a.,n.a.,n.a.,n.a.,n.a.,n.a.,n.a.,n.a.,3,n.a.,n.a.,n.a.,n.a.,n.a.,n.a.,n.a.,n.a.
223.,BRANDE FJERNVARME A.M.B.A.,PRAESTEVAENGET 11,BRANDE,Denmark,3530,n.a.,n.a.,n.a.,n.a.,n.a.,n.a.,n.a.,n.a.,n.a.,n.a.,n.a.,3,n.a.,n.a.,n.a.,n.a.,n.a.,n.a.,n.a.,n.a.
225.,BROAGER FJERNVARMESELSKAB AMBA,OESTERGADE 21,BROAGER,Denmark,3530,n.a.,n.a.,n.a.,n.a.,n.a.,n.a.,n.a.,n.a.,n.a.,n.a.,n.a.,3,n.a.,n.a.,n.a.,n.a.,n.a.,n.a.,n.a.,n.a.
23.,BRODRENE HARTMANN A/S,ORNEGARDSVEJ 18,GENTOFTE,Denmark,1721,n.a.,282,287,218,212,207,200,198,185,204,n.a.,"1,992","2,070","1,461","1,487","1,506","1,489","1,543","1,553","1,629"
175.,BROENDBY FJERNVARME A.M.B.A.,KIRKEBJERG ALLE 92 A,BROENDBY,Denmark,3530,n.a.,n.a.,n.a.,n.a.,n.a.,n.a.,n.a.,n.a.,n.a.,n.a.,n.a.,15,n.a.,n.a.,n.a.,n.a.,n.a.,n.a.,n.a.,n.a.
94.,BROENDERSLEV VARME A/S,VIRKSOMHEDSVEJ 20,BROENDERSLEV,Denmark,3530,n.a.,11,12,12,14,13,n.a.,n.a.,n.a.,n.a.,n.a.,n.a.,n.a.,n.a.,n.a.,n.a.,n.a.,n.a.,n.a.,n.a.
127.,BROERUP FJERNVARME A M B A,VANDVAERKSVEJ 5,BROERUP,Denmark,3530,n.a.,n.a.,n.a.,n.a.,n.a.,n.a.,n.a.,n.a.,n.a.,n.a.,n.a.,3,n.a.,n.a.,n.a.,n.a.,n.a.,n.a.,n.a.,n.a.
192.,BROVST FJERNVARME ANDELSSELSKAB,BOEGE BAKKER 3,BROVST,Denmark,3530,n.a.,n.a.,n.a.,n.a.,n.a.,n.a.,n.a.,n.a.,n.a.,n.a.,n.a.,3,n.a.,n.a.,n.a.,n.a.,n.a.,n.a.,n.a.,n.a.
15.,CARLSBERG DANMARK A/S,VESTERFAELLEDVEJ 6,KOEBENHAVN V,Denmark,4634,n.a.,590,602,661,616,615,n.a.,n.a.,n.a.,n.a.,n.a.,521,545,"1,653","1,560","1,643",n.a.,n.a.,n.a.,n.a.
33.,CARLSBERG SUPPLY COMPANY DANMARK A/S,VESTERFAELLEDVEJ 6,KOEBENHAVN V,Denmark,1105,n.a.,175,247,n.a.,n.a.,n.a.,n.a.,n.a.,n.a.,n.a.,n.a.,"1,060","1,070",n.a.,n.a.,n.a.,n.a.,n.a.,n.a.,n.a.
9.,CHEMINOVA A/S,THYBOROENVEJ 78,HARBOOERE,Denmark,2020,n.a.,n.a.,n.a.,909,884,838,768,n.a.,n.a.,n.a.,n.a.,n.a.,n.a.,"2,295","2,202","2,125","2,125",n.a.,n.a.,n.a.
51.,CIMBER A/S,KYSTVEJEN 2,KASTRUP,Denmark,5110,n.a.,81,68,26,27,14,n.a.,n.a.,n.a.,n.a.,n.a.,258,225,132,138,130,n.a.,n.a.,n.a.,n.a.
41.,COLAS DANMARK A/S,FABRIKSPARKEN 40,GLOSTRUP,Denmark,2399,n.a.,145,139,138,108,108,n.a.,n.a.,n.a.,n.a.,n.a.,505,511,491,405,402,n.a.,n.a.,n.a.,n.a.
24.,CP KELCO APS,VED BANEN 16,LILLE SKENSVED,Denmark,1062,n.a.,258,250,191,175,175,n.a.,n.a.,n.a.,n.a.,n.a.,385,366,364,363,377,n.a.,n.a.,n.a.,n.a.
248.,CTR I/S,POSTBOX 9,FREDERIKSBERG,Denmark,3530,n.a.,n.a.,n.a.,n.a.,n.a.,n.a.,n.a.,n.a.,n.a.,n.a.,n.a.,35,n.a.,n.a.,n.a.,n.a.,n.a.,n.a.,n.a.,n.a.
111.,DALUM PAPIR A/S,SIVLANDVAENGET 27 B FLOOR 01,ODENSE S,Denmark,4619,n.a.,1,1,2,12,90,n.a.,n.a.,n.a.,n.a.,n.a.,6,6,9,60,248,n.a.,n.a.,n.a.,n.a.
2.,DANFOSS A/S,NORDBORGVEJ 81,NORDBORG,Denmark,2814,n.a.,"5,283","5,124","4,651","4,522","4,611",n.a.,n.a.,n.a.,n.a.,n.a.,"24,034","23,594","22,494","23,030","23,173",n.a.,n.a.,n.a.,n.a.
48.,DANISH AIR TRANSPORT A/S,LUFTHAVNSVEJ 4,VAMDRUP,Denmark,5110,n.a.,105,86,67,66,66,n.a.,n.a.,n.a.,n.a.,n.a.,267,250,211,218,213,n.a.,n.a.,n.a.,n.a.
5.,DANISH CROWN A/S,MARSVEJ 43,RANDERS SOE,Denmark,6420,"2,939",271,"2,909","3,190","3,326",n.a.,n.a.,n.a.,n.a.,n.a.,"6,090","6,289","6,482","6,527","6,692",n.a.,n.a.,n.a.,n.a.,n.a.
179.,DC GENERATION A/S,ANKER ENGELUNDS VEJ 411,KGS.LYNGBY,Denmark,3511,n.a.,n.a.,n.a.,n.a.,n.a.,n.a.,n.a.,n.a.,n.a.,n.a.,n.a.,n.a.,n.a.,n.a.,n.a.,n.a.,n.a.,n.a.,n.a.,n.a.
67.,DIN FORSYNING VARME A/S,ULVSUNDVEJ 1,ESBJERG N,Denmark,3530,n.a.,48,53,53,60,53,n.a.,n.a.,n.a.,n.a.,n.a.,0,0,0,0,0,n.a.,n.a.,n.a.,n.a.
130.,DK PLANT APS,GARTNERIVEJ 5,OTTERUP,Denmark,0113,n.a.,n.a.,n.a.,n.a.,n.a.,n.a.,n.a.,n.a.,n.a.,n.a.,n.a.,12,n.a.,n.a.,n.a.,n.a.,n.a.,n.a.,n.a.,n.a.
60.,DUFERCO DANISH STEEL A/S,HAVNEVEJ 47,FREDERIKSVAERK,Denmark,2410,n.a.,58,65,65,70,85,n.a.,n.a.,n.a.,n.a.,n.a.,74,78,79,98,110,n.a.,n.a.,n.a.,n.a.
14.,DUPONT NUTRITION BIOSCIENCES APS,LANGEBROGADE 1,KOEBENHAVN K,Denmark,2059,n.a.,591,597,545,591,554,n.a.,n.a.,n.a.,n.a.,n.a.,"1,100","1,191","1,205","1,243","1,247",n.a.,n.a.,n.a.,n.a.
88.,E.ON PRODUKTION DANMARK A/S,DIRCH PASSERS ALLE 76,FREDERIKSBERG,Denmark,3511,n.a.,18,21,27,33,44,n.a.,n.a.,n.a.,n.a.,n.a.,n.a.,n.a.,n.a.,n.a.,n.a.,n.a.,n.a.,n.a.,n.a.
147.,EBELTOFT FJERNVARMEVAERK,HANS WINTHERS VEJ 9,EBELTOFT,Denmark,3530,n.a.,n.a.,n.a.,n.a.,n.a.,n.a.,n.a.,n.a.,n.a.,n.a.,n.a.,3,n.a.,n.a.,n.a.,n.a.,n.a.,n.a.,n.a.,n.a.
172.,EFFEKTMARKED.DK A/S,EUROPAVEJ 2,IKAST,Denmark,3511,n.a.,n.a.,n.a.,n.a.,n.a.,n.a.,n.a.,n.a.,n.a.,n.a.,n.a.,n.a.,n.a.,n.a.,n.a.,n.a.,n.a.,n.a.,n.a.,n.a.
155.,EFFEKTPARTNER AS,ESTRUPVEJ 28,ESBJERG,Denmark,3513,n.a.,n.a.,n.a.,n.a.,n.a.,n.a.,n.a.,n.a.,n.a.,n.a.,n.a.,n.a.,n.a.,n.a.,n.a.,n.a.,n.a.,n.a.,n.a.,n.a.
103.,ENERGI FYN PRODUKTION A/S,SANDERUMVEJ 16,ODENSE SV,Denmark,3511,n.a.,6,2,0,0,2,n.a.,n.a.,n.a.,n.a.,n.a.,1,1,1,1,1,n.a.,n.a.,n.a.,n.a.
209.,ENERGI IKAST A M B A,EUROPAVEJ 2,IKAST,Denmark,3511,n.a.,n.a.,n.a.,n.a.,n.a.,n.a.,n.a.,n.a.,n.a.,n.a.,n.a.,0,n.a.,n.a.,n.a.,n.a.,n.a.,n.a.,n.a.,n.a.
81.,ENERGI VIBORG KRAFTVARME A/S,INDUSTRIVEJ 40,VIBORG,Denmark,3511,n.a.,24,27,30,34,40,n.a.,n.a.,n.a.,n.a.,n.a.,10,10,9,10,10,n.a.,n.a.,n.a.,n.a.
132.,ENERGNIST,ULDJYDEVEJ 2,HERNING,Denmark,3821,n.a.,n.a.,n.a.,n.a.,n.a.,n.a.,n.a.,n.a.,n.a.,n.a.,n.a.,35,n.a.,n.a.,n.a.,n.a.,n.a.,n.a.,n.a.,n.a.
70.,ENIIG VARME A/S,INDUSTRIVEJ NORD 9 B,HERNING,Denmark,3530,n.a.,41,59,53,53,55,n.a.,n.a.,n.a.,n.a.,n.a.,0,0,n.a.,n.a.,n.a.,n.a.,n.a.,n.a.,n.a.
142.,EXECUJET EUROPE A/S,LEDREBORG ALLE 128 C FLOOR 01; TH,ROSKILDE,Denmark,5110,n.a.,n.a.,n.a.,n.a.,n.a.,n.a.,n.a.,n.a.,n.a.,n.a.,n.a.,8,9,n.a.,n.a.,n.a.,n.a.,n.a.,n.a.,n.a.
247.,FAELLENGGAARD VARMEFORSYNING APS,NY VESTERGADE 72 A,BROBY,Denmark,3530,n.a.,n.a.,n.a.,n.a.,n.a.,n.a.,n.a.,n.a.,n.a.,n.a.,1,n.a.,n.a.,n.a.,n.a.,n.a.,n.a.,n.a.,n.a.,n.a.
118.,FARUM FJERNVARME A M B A,STAVNSHOLTVEJ 33,FARUM,Denmark,3530,n.a.,n.a.,n.a.,n.a.,n.a.,n.a.,n.a.,n.a.,n.a.,n.a.,n.a.,7,n.a.,n.a.,n.a.,n.a.,n.a.,n.a.,n.a.,n.a.
74.,FAXE KALK A/S,HOVEDGADEN 13,FAXE LADEPLADS,Denmark,2352,n.a.,33,34,33,32,30,n.a.,n.a.,n.a.,n.a.,n.a.,71,69,69,n.a.,68,n.a.,n.a.,n.a.,n.a.
249.,FD HVIDOVRE AMBA,EBO CONSULT A/S,HVIDOVRE,Denmark,3530,n.a.,n.a.,n.a.,n.a.,n.a.,n.a.,n.a.,n.a.,n.a.,n.a.,n.a.,1,n.a.,n.a.,n.a.,n.a.,n.a.,n.a.,n.a.,n.a.
52.,FF HANSTHOLM A/S,NORDRE STRANDVEJ 54,HANSTHOLM,Denmark,1020,n.a.,81,66,57,49,34,n.a.,n.a.,n.a.,n.a.,n.a.,43,26,31,30,34,n.a.,n.a.,n.a.,n.a.
22.,FF SKAGEN A/S,HAVNEVAGTVEJ 5,SKAGEN,Denmark,1020,n.a.,297,285,190,251,230,n.a.,n.a.,n.a.,n.a.,n.a.,172,148,127,117,119,n.a.,n.a.,n.a.,n.a.
104.,FFV VARME A/S,KORSVANGEN 6 A,RINGE,Denmark,3530,n.a.,5,4,5,6,n.a.,n.a.,n.a.,n.a.,n.a.,n.a.,n.a.,n.a.,n.a.,n.a.,n.a.,n.a.,n.a.,n.a.,n.a.
77.,FJERNVARME FYN AFFALDSENERGI A/S,HAVNEGADE 120,ODENSE C,Denmark,3511,n.a.,27,30,26,24,27,n.a.,n.a.,n.a.,n.a.,n.a.,n.a.,0,0,0,0,n.a.,n.a.,n.a.,n.a.
45.,FJERNVARME FYN DISTRIBUTION A/S,HAVNEGADE 120,ODENSE C,Denmark,3530,n.a.,n.a.,n.a.,108,117,n.a.,n.a.,n.a.,n.a.,n.a.,n.a.,n.a.,n.a.,120,115,n.a.,n.a.,n.a.,n.a.,n.a.
46.,FJERNVARME FYN PRODUKTION A/S,HAVNEGADE 120,ODENSE C,Denmark,3511,n.a.,118,109,0,n.a.,n.a.,n.a.,n.a.,n.a.,n.a.,n.a.,152,n.a.,0,n.a.,n.a.,n.a.,n.a.,n.a.,n.a.
239.,FJERNVARME HORSENS A.M.B.A,ENDELAVEVEJ 7,HORSENS,Denmark,3530,n.a.,n.a.,n.a.,n.a.,n.a.,n.a.,n.a.,n.a.,n.a.,n.a.,n.a.,1,n.a.,n.a.,n.a.,n.a.,n.a.,n.a.,n.a.,n.a.
75.,FJERNVARME HORSENS A/S,ENDELAVEVEJ 7,HORSENS,Denmark,3511,31,26,23,9,n.a.,n.a.,n.a.,n.a.,n.a.,n.a.,42,36,17,17,n.a.,n.a.,n.a.,n.a.,n.a.,n.a.
146.,FJERNVARMECENTRALEN AVEDOERE HOLME,NORDHOLMEN 1,HVIDOVRE,Denmark,3530,n.a.,n.a.,n.a.,n.a.,n.a.,n.a.,n.a.,n.a.,n.a.,n.a.,n.a.,7,n.a.,n.a.,n.a.,n.a.,n.a.,n.a.,n.a.,n.a.
138.,"FJERNVARMEFORSYNINGEN I OE TOREBY, TOREBY, SUNDBY OG NAGELSTI AMBA",AGROVEJ 3,NYKOEBING F,Denmark,3530,n.a.,n.a.,n.a.,n.a.,n.a.,n.a.,n.a.,n.a.,n.a.,n.a.,n.a.,3,n.a.,n.a.,n.a.,n.a.,n.a.,n.a.,n.a.,n.a.
164.,FLEXENERGI A/S,HENRIK RASMUSSEN,NOERREBALLE,Denmark,3511,n.a.,n.a.,n.a.,n.a.,n.a.,n.a.,n.a.,n.a.,n.a.,n.a.,n.a.,n.a.,n.a.,n.a.,n.a.,n.a.,n.a.,n.a.,n.a.,n.a.
107.,"FORS VARME HOLBAEK, JYDERUP A/S",TAASTRUP MOELLEVEJ 5,HOLBAEK,Denmark,3530,n.a.,3,3,3,4,3,n.a.,n.a.,n.a.,n.a.,n.a.,n.a.,n.a.,n.a.,n.a.,n.a.,n.a.,n.a.,n.a.,n.a.
73.,FORS VARME ROSKILDE A/S,BETONVEJ 12,ROSKILDE,Denmark,3530,n.a.,34,32,32,32,32,n.a.,n.a.,n.a.,n.a.,n.a.,n.a.,n.a.,n.a.,n.a.,n.a.,n.a.,n.a.,n.a.,n.a.
85.,FORSYNING HELSINGOER VARME A/S,HADERSLEVVEJ 25,HELSINGOER,Denmark,3530,n.a.,19,19,20,18,18,n.a.,n.a.,n.a.,n.a.,n.a.,n.a.,0,n.a.,0,0,n.a.,n.a.,n.a.,n.a.
182.,FREDERICIA FJERNVARME AMBA,POSTBOKS 144,FREDERICIA,Denmark,3530,n.a.,n.a.,n.a.,n.a.,n.a.,n.a.,n.a.,n.a.,n.a.,n.a.,n.a.,15,n.a.,n.a.,n.a.,n.a.,n.a.,n.a.,n.a.,n.a.
87.,FREDERIKSHAVN VARME A/S,KNIVHOLTVEJ 15,FREDERIKSHAVN,Denmark,3530,n.a.,19,18,16,19,19,n.a.,n.a.,n.a.,n.a.,n.a.,n.a.,n.a.,n.a.,n.a.,n.a.,n.a.,n.a.,n.a.,n.a.
134.,GARTNERIET KRONBORG APS,BLADSTRUPVEJ 300 A,OTTERUP,Denmark,0130,n.a.,n.a.,n.a.,n.a.,n.a.,n.a.,n.a.,n.a.,n.a.,n.a.,2,n.a.,n.a.,n.a.,n.a.,n.a.,n.a.,n.a.,n.a.,n.a.
153.,GARTNERIET MASNEDOE A/S,TUBORGVEJ 48,FAAREVEJLE,Denmark,0113,n.a.,n.a.,n.a.,n.a.,n.a.,n.a.,n.a.,n.a.,n.a.,n.a.,14,n.a.,16,20,24,n.a.,n.a.,n.a.,n.a.,n.a.
96.,GEV VARME A/S,TAARNVEJ 24,GRINDSTED,Denmark,3530,n.a.,10,11,11,11,11,n.a.,n.a.,n.a.,n.a.,n.a.,n.a.,n.a.,n.a.,n.a.,n.a.,n.a.,n.a.,n.a.,n.a.
224.,GILLELEJE FJERNVARME A M B A,FISKERENGEN 2,GILLELEJE,Denmark,3530,n.a.,n.a.,n.a.,n.a.,n.a.,n.a.,n.a.,n.a.,n.a.,n.a.,n.a.,3,n.a.,n.a.,n.a.,n.a.,n.a.,n.a.,n.a.,n.a.
98.,GLOSTRUP VARME A/S,OERNEBJERGVEJ 7,GLOSTRUP,Denmark,3530,n.a.,8,7,6,5,5,n.a.,n.a.,n.a.,n.a.,n.a.,0,0,0,0,0,n.a.,n.a.,n.a.,n.a.
105.,GRAASTEN VARME A/S,SOENDERBORG LANDEVEJ 3,GRAASTEN,Denmark,3530,n.a.,3,4,3,3,3,n.a.,n.a.,n.a.,n.a.,n.a.,n.a.,n.a.,n.a.,n.a.,n.a.,n.a.,n.a.,n.a.,n.a.
204.,GRAESTED FJERNVARME AMBA,MESTERBUEN 8,GRAESTED,Denmark,3530,n.a.,n.a.,n.a.,n.a.,n.a.,n.a.,n.a.,n.a.,n.a.,n.a.,n.a.,3,n.a.,n.a.,n.a.,n.a.,n.a.,n.a.,n.a.,n.a.
185.,GRAM FJERNVARME,SOENDERBYVEJ 24,GRAM,Denmark,3530,n.a.,n.a.,n.a.,n.a.,n.a.,n.a.,n.a.,n.a.,n.a.,n.a.,n.a.,3,n.a.,n.a.,n.a.,n.a.,n.a.,n.a.,n.a.,n.a.
166.,GRENAA EFFEKTRESERVE AS,EFFEKTPARTNER,ESBJERG,Denmark,3511,n.a.,n.a.,n.a.,n.a.,n.a.,n.a.,n.a.,n.a.,n.a.,n.a.,n.a.,n.a.,n.a.,n.a.,n.a.,n.a.,n.a.,n.a.,n.a.,n.a.
206.,GRENAA VARMEVAERK A.M.B.A.,ENERGIVEJ 6,GRENAA,Denmark,3530,n.a.,n.a.,n.a.,n.a.,n.a.,n.a.,n.a.,n.a.,n.a.,n.a.,n.a.,15,n.a.,n.a.,n.a.,n.a.,n.a.,n.a.,n.a.,n.a.
177.,GREVE FJERNVARME A.M.B.A.,OVER BOELGEN 4,GREVE,Denmark,3530,n.a.,n.a.,n.a.,n.a.,n.a.,n.a.,n.a.,n.a.,n.a.,n.a.,n.a.,3,n.a.,n.a.,n.a.,n.a.,n.a.,n.a.,n.a.,n.a.
151.,GRUNDEJERFORENINGEN SMOERMOSEN,NOVO NORDISK A/SATT.: HANS PEDER WA,BAGSVAERD,Denmark,3511,n.a.,n.a.,n.a.,n.a.,n.a.,n.a.,n.a.,n.a.,n.a.,n.a.,n.a.,0,n.a.,n.a.,n.a.,n.a.,n.a.,n.a.,n.a.,n.a.
136.,GUDENAADALENS ENERGISELSKAB AMBA,REALSKOLEVEJ 18,BJERRINGBRO,Denmark,3530,n.a.,n.a.,n.a.,n.a.,n.a.,n.a.,n.a.,n.a.,n.a.,n.a.,n.a.,7,n.a.,n.a.,n.a.,n.a.,n.a.,n.a.,n.a.,n.a.
89.,GULDBORGSUND VARME A/S,GAABENSEVEJ 116,NYKOEBING F,Denmark,3530,n.a.,15,14,14,15,14,n.a.,n.a.,n.a.,n.a.,n.a.,0,n.a.,n.a.,n.a.,n.a.,n.a.,n.a.,n.a.,n.a.
222.,HADERSLEV FJERNVARME,FJORDAGERVEJ 15,HADERSLEV,Denmark,3530,n.a.,n.a.,n.a.,n.a.,n.a.,n.a.,n.a.,n.a.,n.a.,n.a.,n.a.,15,n.a.,n.a.,n.a.,n.a.,n.a.,n.a.,n.a.,n.a.
150.,HADERSLEV KRAFTVARMEVAERK A/S,KRAFTVAERKSVEJ 53,FREDERICIA,Denmark,3511,n.a.,n.a.,n.a.,0,3,8,n.a.,n.a.,n.a.,n.a.,n.a.,n.a.,n.a.,n.a.,n.a.,0,n.a.,n.a.,n.a.,n.a.
240.,HADSTEN VARMEVAERK A M B A,TOFTEGAARDSVEJ 30 A,HADSTEN,Denmark,3530,n.a.,n.a.,n.a.,n.a.,n.a.,n.a.,n.a.,n.a.,n.a.,n.a.,n.a.,7,n.a.,n.a.,n.a.,n.a.,n.a.,n.a.,n.a.,n.a.
11.,HALDOR TOPSOEE A/S,HALDOR TOPSOEES ALLE 1,KGS.LYNGBY,Denmark,7112,n.a.,805,782,758,735,718,n.a.,n.a.,n.a.,n.a.,n.a.,"2,543","2,688","2,694","2,430","2,195",n.a.,n.a.,n.a.,n.a.
100.,HALSNAES VARME A/S,GJETHUSPARKEN 3 FLOOR 01,FREDERIKSVAERK,Denmark,3530,n.a.,7,7,7,7,8,n.a.,n.a.,n.a.,n.a.,n.a.,n.a.,n.a.,n.a.,n.a.,n.a.,n.a.,n.a.,n.a.,n.a.
203.,HAMMEL FJERNVARME A.M.B.A.,IRLANDSVEJ 6,HAMMEL,Denmark,3530,n.a.,n.a.,n.a.,n.a.,n.a.,n.a.,n.a.,n.a.,n.a.,n.a.,n.a.,15,n.a.,n.a.,n.a.,n.a.,n.a.,n.a.,n.a.,n.a.
31.,HARBOES BRYGGERI A/S,SPEGERBORGVEJ 34,SKAELSKOER,Denmark,1105,195,187,186,194,184,193,211,206,210,186,n.a.,588,603,603,559,562,572,543,520,483
200.,HEDENSTED FJERNVARME,LOESNINGVEJ 26,HEDENSTED,Denmark,3530,n.a.,n.a.,n.a.,n.a.,n.a.,n.a.,n.a.,n.a.,n.a.,n.a.,n.a.,3,n.a.,n.a.,n.a.,n.a.,n.a.,n.a.,n.a.,n.a.
188.,HELLIGSOE TEGLVAERK A/S,HELLIGSOEVEJ 15,HURUP THY,Denmark,2332,n.a.,n.a.,n.a.,n.a.,n.a.,n.a.,n.a.,n.a.,n.a.,n.a.,n.a.,21,n.a.,n.a.,n.a.,n.a.,n.a.,n.a.,n.a.,n.a.
205.,HELSINGE FJERNVARME,SKOVGAARDSVEJ 4 A,HELSINGE,Denmark,3530,n.a.,n.a.,n.a.,n.a.,n.a.,n.a.,n.a.,n.a.,n.a.,n.a.,n.a.,7,n.a.,n.a.,n.a.,n.a.,n.a.,n.a.,n.a.,n.a.
86.,HELSINGOER KRAFTVARMEVAERK A/S,HADERSLEVVEJ 25,HELSINGOER,Denmark,3511,n.a.,19,21,26,29,30,n.a.,n.a.,n.a.,n.a.,n.a.,0,n.a.,0,0,0,n.a.,n.a.,n.a.,n.a.
35.,HESS DENMARK APS,OESTERGADE 26 B,KOEBENHAVN K,Denmark,0610,n.a.,173,202,353,251,264,n.a.,n.a.,n.a.,n.a.,n.a.,117,120,116,n.a.,112,n.a.,n.a.,n.a.,n.a.
78.,HILLEROED KRAFTVARME APS,AEGIRSVEJ 4,HILLEROED,Denmark,3511,n.a.,27,25,26,36,37,n.a.,n.a.,n.a.,n.a.,n.a.,n.a.,n.a.,n.a.,n.a.,n.a.,n.a.,n.a.,n.a.,n.a.
82.,HILLEROED VARME A/S,AEGIRSVEJ 4,HILLEROED,Denmark,3530,n.a.,22,22,20,25,21,n.a.,n.a.,n.a.,n.a.,n.a.,n.a.,n.a.,n.a.,n.a.,n.a.,n.a.,n.a.,n.a.,n.a.
116.,HINNERUP FJERNVARME,FANOEVEJ 15,HINNERUP,Denmark,3530,n.a.,n.a.,n.a.,n.a.,n.a.,n.a.,n.a.,n.a.,n.a.,n.a.,n.a.,7,n.a.,n.a.,n.a.,n.a.,n.a.,n.a.,n.a.,n.a.
210.,HIRTSHALS FJERNVARME,SOENDERGADE 12,HIRTSHALS,Denmark,3530,n.a.,n.a.,n.a.,n.a.,n.a.,n.a.,n.a.,n.a.,n.a.,n.a.,n.a.,7,n.a.,n.a.,n.a.,n.a.,n.a.,n.a.,n.a.,n.a.
181.,HJALLERUP FJERNVARMEVAERK,GRAVENSGADE 18,HJALLERUP,Denmark,3530,n.a.,n.a.,n.a.,n.a.,n.a.,n.a.,n.a.,n.a.,n.a.,n.a.,n.a.,3,n.a.,n.a.,n.a.,n.a.,n.a.,n.a.,n.a.,n.a.
233.,HJOERRING VARMEFORSYNING,BUEN 7,HJOERRING,Denmark,3530,n.a.,n.a.,n.a.,n.a.,n.a.,n.a.,n.a.,n.a.,n.a.,n.a.,n.a.,35,n.a.,n.a.,n.a.,n.a.,n.a.,n.a.,n.a.,n.a.
161.,HJORTEBJERG A/S,HJORTEBJERGVEJ 26,SOENDERSOE,Denmark,0119,n.a.,n.a.,n.a.,0,0,n.a.,n.a.,n.a.,n.a.,n.a.,n.a.,34,n.a.,n.a.,n.a.,n.a.,n.a.,n.a.,n.a.,n.a.
199.,HOBRO VARMEVAERK A M B A,LUPINVEJ 21,HOBRO,Denmark,3530,n.a.,n.a.,n.a.,n.a.,n.a.,n.a.,n.a.,n.a.,n.a.,n.a.,n.a.,3,n.a.,n.a.,n.a.,n.a.,n.a.,n.a.,n.a.,n.a.
124.,HOEJE TAASTRUP FJERNVARME A.M.B.A.,POSTBOKS 28,TAASTRUP,Denmark,3530,n.a.,n.a.,n.a.,n.a.,n.a.,n.a.,n.a.,n.a.,n.a.,n.a.,n.a.,15,n.a.,n.a.,n.a.,n.a.,n.a.,n.a.,n.a.,n.a.
241.,HOEJSLEV TEGLVAERK A/S,MINERALVEJ 2,AALBORG OEST,Denmark,2332,n.a.,n.a.,n.a.,n.a.,n.a.,n.a.,n.a.,n.a.,n.a.,n.a.,n.a.,102,n.a.,n.a.,n.a.,n.a.,n.a.,n.a.,n.a.,n.a.
159.,HOENG VARMEVAERK,BANEMARKEN 8,HOENG,Denmark,3530,n.a.,n.a.,n.a.,n.a.,n.a.,n.a.,n.a.,n.a.,n.a.,n.a.,n.a.,3,n.a.,n.a.,n.a.,n.a.,n.a.,n.a.,n.a.,n.a.
40.,HOFOR ENERGIPRODUKTION A/S,HOFOR,KOEBENHAVN S,Denmark,3511,n.a.,152,129,155,n.a.,n.a.,n.a.,n.a.,n.a.,n.a.,n.a.,0,n.a.,0,n.a.,n.a.,n.a.,n.a.,n.a.,n.a.
20.,HOFOR FJERNVARME P/S,HOFOR,KOEBENHAVN S,Denmark,3530,n.a.,403,394,399,417,385,n.a.,n.a.,n.a.,n.a.,n.a.,0,n.a.,n.a.,n.a.,0,n.a.,n.a.,n.a.,n.a.
196.,HOLME-LUNDSHOEJ FJERNVARMEV A M B A,HOLME BYVEJ 14,HOEJBJERG,Denmark,3530,n.a.,n.a.,n.a.,n.a.,n.a.,n.a.,n.a.,n.a.,n.a.,n.a.,n.a.,0,n.a.,n.a.,n.a.,n.a.,n.a.,n.a.,n.a.,n.a.
207.,HURUP FJERNVARME A M B A,NYGADE 22,HURUP THY,Denmark,3530,n.a.,n.a.,n.a.,n.a.,n.a.,n.a.,n.a.,n.a.,n.a.,n.a.,n.a.,0,n.a.,n.a.,n.a.,n.a.,n.a.,n.a.,n.a.,n.a.
245.,HVIDE SANDE FJERNVARME A.M.B.A.,NUMITVEJ 25,HVIDE SANDE,Denmark,3530,n.a.,n.a.,n.a.,n.a.,n.a.,n.a.,n.a.,n.a.,n.a.,n.a.,n.a.,3,n.a.,n.a.,n.a.,n.a.,n.a.,n.a.,n.a.,n.a.
237.,I/S AFFALDPLUS,VED FJORDEN 20,NAESTVED,Denmark,3821,n.a.,n.a.,n.a.,n.a.,n.a.,n.a.,n.a.,n.a.,n.a.,n.a.,n.a.,150,n.a.,n.a.,n.a.,n.a.,n.a.,n.a.,n.a.,n.a.
180.,I/S AMAGER RESSOURCECENTER,VINDMOELLEVEJ 6,KOEBENHAVN S,Denmark,3821,n.a.,n.a.,n.a.,n.a.,n.a.,n.a.,n.a.,n.a.,n.a.,n.a.,n.a.,150,n.a.,n.a.,n.a.,n.a.,n.a.,n.a.,n.a.,n.a.
129.,I/S NORFORS,SAVSVINGET 2,HOERSHOLM,Denmark,3821,n.a.,n.a.,n.a.,n.a.,n.a.,n.a.,n.a.,n.a.,n.a.,n.a.,n.a.,75,n.a.,n.a.,n.a.,n.a.,n.a.,n.a.,n.a.,n.a.
250.,I/S REFA,ENERGIVEJ 4,NYKOEBING F,Denmark,3821,n.a.,n.a.,n.a.,n.a.,n.a.,n.a.,n.a.,n.a.,n.a.,n.a.,n.a.,150,n.a.,n.a.,n.a.,n.a.,n.a.,n.a.,n.a.,n.a.
212.,I/S RENO-NORD,TROENSEVEJ 2,AALBORG OEST,Denmark,3821,n.a.,n.a.,n.a.,n.a.,n.a.,n.a.,n.a.,n.a.,n.a.,n.a.,n.a.,150,n.a.,n.a.,n.a.,n.a.,n.a.,n.a.,n.a.,n.a.
44.,I/S VESTFORBRAENDING,EJBY MOSEVEJ 219,GLOSTRUP,Denmark,3821,n.a.,125,122,116,114,n.a.,n.a.,n.a.,n.a.,n.a.,n.a.,338,330,304,322,n.a.,n.a.,n.a.,n.a.,n.a.
69.,IMERYS INDUSTRIAL MINERALS DENMARK A/S,KOENSBORGVEJ 9,FUR,Denmark,0899,n.a.,n.a.,44,43,42,40,38,n.a.,n.a.,n.a.,n.a.,n.a.,156,158,161,159,157,n.a.,n.a.,n.a.
21.,INEOS E&P A/S,NESA ALLE 1,GENTOFTE,Denmark,0610,n.a.,311,166,368,254,388,n.a.,n.a.,n.a.,n.a.,n.a.,512,595,584,545,541,n.a.,n.a.,n.a.,n.a.
139.,JAEGERSPRIS KRAFTVARME A.M.B.A,HAANDVAERKERVEJ 9,JAEGERSPRIS,Denmark,3511,n.a.,n.a.,n.a.,n.a.,n.a.,n.a.,n.a.,n.a.,n.a.,n.a.,n.a.,3,n.a.,n.a.,n.a.,n.a.,n.a.,n.a.,n.a.,n.a.
29.,JET TIME A/S,AMAGER STRANDVEJ 390,KASTRUP,Denmark,5110,198,235,232,192,n.a.,n.a.,n.a.,n.a.,n.a.,n.a.,583,711,645,474,n.a.,n.a.,n.a.,n.a.,n.a.,n.a.
135.,JETSMARK ENERGIVAERK A.M.B.A.,NOERREGADE 81,PANDRUP,Denmark,3530,n.a.,n.a.,n.a.,n.a.,n.a.,n.a.,n.a.,n.a.,n.a.,n.a.,n.a.,3,n.a.,n.a.,n.a.,n.a.,n.a.,n.a.,n.a.,n.a.
122.,JJO INVEST APS,ROERBAEKVEJ 1,GIVE,Denmark,0210,n.a.,n.a.,n.a.,31,36,38,38,n.a.,n.a.,n.a.,n.a.,n.a.,112,109,118,154,165,n.a.,n.a.,n.a.
91.,KERTEMINDE FORSYNING - VARME A/S,KOHAVEN 12,KERTEMINDE,Denmark,3530,n.a.,11,12,11,11,11,n.a.,n.a.,n.a.,n.a.,n.a.,n.a.,0,n.a.,0,0,n.a.,n.a.,n.a.,n.a.
227.,KJELLERUP FJERNVARME AMBA,TVAERGADE 4,KJELLERUP,Denmark,3530,n.a.,n.a.,n.a.,n.a.,n.a.,n.a.,n.a.,n.a.,n.a.,n.a.,n.a.,3,n.a.,n.a.,n.a.,n.a.,n.a.,n.a.,n.a.,n.a.
27.,"KMC, KARTOFFELMELCENTRALEN, AMBA",HERNINGVEJ 60,BRANDE,Denmark,1031,205,165,151,149,128,n.a.,n.a.,n.a.,n.a.,n.a.,178,167,163,151,143,n.a.,n.a.,n.a.,n.a.,n.a.
55.,KRONOSPAN APS,FABRIKSVEJ 2,RYOMGAARD,Denmark,1621,n.a.,70,66,65,65,67,n.a.,n.a.,n.a.,n.a.,n.a.,214,215,204,208,209,n.a.,n.a.,n.a.,n.a.
131.,LEM VARMEVAERK,ASKEVEJ 5,LEM ST,Denmark,3530,n.a.,n.a.,n.a.,n.a.,n.a.,n.a.,n.a.,n.a.,n.a.,n.a.,n.a.,3,n.a.,n.a.,n.a.,n.a.,n.a.,n.a.,n.a.,n.a.
50.,LEMMINKAINEN A/S,NOERRESKOV BAKKE 1,SILKEBORG,Denmark,2399,n.a.,86,77,94,80,88,n.a.,n.a.,n.a.,n.a.,n.a.,305,273,271,282,295,n.a.,n.a.,n.a.,n.a.
187.,LEMVIG VARMEVAERK A M B A,VESTAVEJ 2,LEMVIG,Denmark,3530,n.a.,n.a.,n.a.,n.a.,n.a.,n.a.,n.a.,n.a.,n.a.,n.a.,n.a.,7,n.a.,n.a.,n.a.,n.a.,n.a.,n.a.,n.a.,n.a.
141.,LOEGSTOER FJERNVARMEVAERK AMBA,BLEKINGEVEJ 8,LOEGSTOER,Denmark,3530,n.a.,n.a.,n.a.,n.a.,n.a.,n.a.,n.a.,n.a.,n.a.,n.a.,n.a.,7,n.a.,n.a.,n.a.,n.a.,n.a.,n.a.,n.a.,n.a.
194.,LUNDGAARD TEGLVAERK A/S,LUNDGAARDSVEJ 10,STOHOLM JYLL,Denmark,2332,n.a.,n.a.,n.a.,n.a.,n.a.,n.a.,n.a.,n.a.,n.a.,n.a.,n.a.,0,n.a.,n.a.,n.a.,n.a.,n.a.,n.a.,n.a.,n.a.
202.,LYSTRUP FJERNVARME A.M.B.A.,HOVMARKEN 2,LYSTRUP,Denmark,3530,n.a.,n.a.,n.a.,n.a.,n.a.,n.a.,n.a.,n.a.,n.a.,n.a.,n.a.,7,n.a.,n.a.,n.a.,n.a.,n.a.,n.a.,n.a.,n.a.
72.,MAABJERG ENERGY CENTER - BIOHEAT&POWER A/S,VESTFORSYNING A/S,HOLSTEBRO,Denmark,3511,n.a.,36,42,28,24,27,n.a.,n.a.,n.a.,n.a.,n.a.,33,28,n.a.,n.a.,0,n.a.,n.a.,n.a.,n.a.
3.,MAERSK OLIE OG GAS A/S,AMERIKA PLADS 29 FLOOR ST,KOEBENHAVN OE,Denmark,0610,n.a.,"4,660","5,556","6,477","5,297","5,951",n.a.,n.a.,n.a.,n.a.,n.a.,"2,014","2,481","2,573","2,313","2,140",n.a.,n.a.,n.a.,n.a.
119.,MARIBO VARMEVAERK AMBA,C. E. CHRISTIANSENS VEJ 40,MARIBO,Denmark,3530,n.a.,n.a.,n.a.,n.a.,n.a.,n.a.,n.a.,n.a.,n.a.,n.a.,n.a.,3,n.a.,n.a.,n.a.,n.a.,n.a.,n.a.,n.a.,n.a.
90.,MARICOGEN A/S,HADSUNDVEJ 17,MARIAGER,Denmark,3511,n.a.,12,6,5,4,5,n.a.,n.a.,n.a.,n.a.,n.a.,0,0,0,0,0,n.a.,n.a.,n.a.,n.a.
156.,MIDDELFART FJERNVARME A.M.B.A.,HESSGADE 21 B,MIDDELFART,Denmark,3530,n.a.,n.a.,n.a.,n.a.,n.a.,n.a.,n.a.,n.a.,n.a.,n.a.,n.a.,15,n.a.,n.a.,n.a.,n.a.,n.a.,n.a.,n.a.,n.a.
170.,MONIER A/S,KONG CHRISTIANS ALLE 53,AALBORG,Denmark,2332,n.a.,n.a.,n.a.,n.a.,n.a.,n.a.,n.a.,n.a.,n.a.,n.a.,n.a.,73,70,72,73,83,n.a.,n.a.,n.a.,n.a.
162.,MPM INVEST APS,NOERREGAARDSVEJ 9,SAKSKOEBING,Denmark,3511,n.a.,n.a.,n.a.,0,n.a.,n.a.,n.a.,n.a.,n.a.,n.a.,0,0,0,n.a.,n.a.,n.a.,n.a.,n.a.,n.a.,n.a.
57.,MUNCK ASFALT A/S,TOFTEGAARDSVEJ 18,NYBORG,Denmark,2399,62,65,69,83,61,n.a.,n.a.,n.a.,n.a.,n.a.,270,254,249,237,209,n.a.,n.a.,n.a.,n.a.,n.a.
246.,NAESTVED VARMEVAERK A.M.B.A.,AADERUPVEJ 22,NAESTVED,Denmark,3530,n.a.,n.a.,n.a.,n.a.,n.a.,n.a.,n.a.,n.a.,n.a.,n.a.,n.a.,15,n.a.,n.a.,n.a.,n.a.,n.a.,n.a.,n.a.,n.a.
28.,NCC INDUSTRY A/S,HOERKAER 8,HERLEV,Denmark,2399,n.a.,229,226,245,251,248,n.a.,n.a.,n.a.,n.a.,n.a.,"1,045","1,008",915,951,"1,061",n.a.,n.a.,n.a.,n.a.
244.,NIBE VARMEVAERK A M B A,HOBROVEJ 46,NIBE,Denmark,3530,n.a.,n.a.,n.a.,n.a.,n.a.,n.a.,n.a.,n.a.,n.a.,n.a.,n.a.,3,n.a.,n.a.,n.a.,n.a.,n.a.,n.a.,n.a.,n.a.
114.,NILAN A/S,NILANVEJ 2,HEDENSTED,Denmark,2825,0,0,0,0,0,n.a.,n.a.,n.a.,n.a.,n.a.,114,99,90,89,101,n.a.,n.a.,n.a.,n.a.,n.a.
25.,NLMK DANSTEEL A/S,HAVNEVEJ 33,FREDERIKSVAERK,Denmark,2410,n.a.,254,260,257,234,217,n.a.,n.a.,n.a.,n.a.,n.a.,368,351,353,355,380,n.a.,n.a.,n.a.,n.a.
17.,NORDIC AVIATION CAPITAL A/S,STRATUSVEJ 12,BILLUND,Denmark,4669,n.a.,549,358,228,323,222,n.a.,n.a.,n.a.,n.a.,n.a.,122,101,91,78,55,n.a.,n.a.,n.a.,n.a.
19.,NORDIC SUGAR A/S,LANGEBROGADE 1,KOEBENHAVN K,Denmark,1081,n.a.,437,355,451,481,476,n.a.,n.a.,n.a.,n.a.,n.a.,509,516,519,541,538,n.a.,n.a.,n.a.,n.a.
1.,NOVO NORDISK A/S,NOVO ALLE,BAGSVAERD,Denmark,2120,n.a.,"15,136","14,987","12,053","11,302","10,551","9,000","8,187","6,877","6,232",n.a.,"41,971","40,638","40,957","37,978","34,286","32,136","30,014","28,809","26,575"
7.,NOVOZYMES A/S,KROGSHOEJVEJ 36,BAGSVAERD,Denmark,2110,n.a.,"1,918","1,896","1,722","1,575","1,513","1,423","1,305","1,138","1,114",n.a.,"6,149","6,485","6,454","6,162","5,950","5,751","5,357","5,217","5,146"
76.,NYBORG FORSYNING OG SERVICE A/S,GASVAERKSVEJ 2,NYBORG,Denmark,3600,n.a.,27,28,28,30,29,n.a.,n.a.,n.a.,n.a.,n.a.,58,57,56,56,59,n.a.,n.a.,n.a.,n.a.
149.,NYBRO TOERRERI A.M.B.A.,NYBROVEJ 167,JANDERUP VESTJ,Denmark,1091,n.a.,n.a.,n.a.,n.a.,n.a.,n.a.,n.a.,n.a.,n.a.,n.a.,10,n.a.,n.a.,n.a.,n.a.,n.a.,n.a.,n.a.,n.a.,n.a.
221.,NYKOEBING M FJERNVARMEVAERK A.M.B.A.,KJAERGAARDSVEJ 20,NYKOEBING M,Denmark,3530,n.a.,n.a.,n.a.,n.a.,n.a.,n.a.,n.a.,n.a.,n.a.,n.a.,n.a.,3,n.a.,n.a.,n.a.,n.a.,n.a.,n.a.,n.a.,n.a.
214.,NYKOEBING SJ VARMEVAERK,BILLESVEJ 10,NYKOEBING SJ,Denmark,3530,n.a.,n.a.,n.a.,n.a.,n.a.,n.a.,n.a.,n.a.,n.a.,n.a.,n.a.,7,n.a.,n.a.,n.a.,n.a.,n.a.,n.a.,n.a.,n.a.
234.,ODDER VARMEVAERK A M B A,SKOVDALSVEJ 8,ODDER,Denmark,3530,n.a.,n.a.,n.a.,n.a.,n.a.,n.a.,n.a.,n.a.,n.a.,n.a.,n.a.,1,n.a.,n.a.,n.a.,n.a.,n.a.,n.a.,n.a.,n.a.
13.,OERSTED BIOENERGY & THERMAL POWER A/S,OERSTED A/S,FREDERICIA,Denmark,3511,n.a.,660,752,887,"1,022","1,040",n.a.,n.a.,n.a.,n.a.,n.a.,777,795,855,966,"1,094",n.a.,n.a.,n.a.,n.a.
4.,OERSTED SALG & SERVICE A/S,KRAFTVAERKSVEJ 53,FREDERICIA,Denmark,4671,n.a.,"4,315","5,999","5,902","5,191","5,526",n.a.,n.a.,n.a.,n.a.,n.a.,146,166,165,161,451,n.a.,n.a.,n.a.,n.a.
178.,OESTERVANG SJAELLAND A/S,MYREKAERVEJ 3,HAARLEV,Denmark,0113,n.a.,n.a.,n.a.,n.a.,n.a.,n.a.,n.a.,n.a.,n.a.,n.a.,n.a.,5,n.a.,n.a.,n.a.,n.a.,n.a.,n.a.,n.a.,n.a.
143.,OESTERVRAA VARMEVAERK AMBA,INDUSTRIVEJ 3,OESTER VRAA,Denmark,3530,n.a.,n.a.,n.a.,n.a.,n.a.,n.a.,n.a.,n.a.,n.a.,n.a.,n.a.,3,n.a.,n.a.,n.a.,n.a.,n.a.,n.a.,n.a.,n.a.
56.,"P/F ATLANTIC AIRWAYS, FAROE ISLANDS",FLOGVOELLURIN,"SOERVAGUR, FAEROEERNE",Faroe Islands (Denmark),7911,n.a.,70,67,77,73,67,n.a.,n.a.,n.a.,n.a.,n.a.,173,171,182,181,172,n.a.,n.a.,n.a.,n.a.
38.,PALSGAARD A/S,PALSGAARDVEJ 10,JUELSMINDE,Denmark,2059,n.a.,158,145,133,142,135,n.a.,n.a.,n.a.,n.a.,n.a.,331,338,331,289,281,n.a.,n.a.,n.a.,n.a.
112.,PARTNERSELSKABET OY - KVP,SCANOMAT A/S,KOKKEDAL,Denmark,5110,n.a.,1,0,1,1,1,n.a.,n.a.,n.a.,n.a.,n.a.,n.a.,n.a.,n.a.,n.a.,0,n.a.,n.a.,n.a.,n.a.
157.,PETERSEN TEGL A/S,NYBOELNORVEJ 14,BROAGER,Denmark,2332,n.a.,n.a.,n.a.,n.a.,n.a.,n.a.,n.a.,n.a.,n.a.,n.a.,n.a.,152,69,63,60,59,n.a.,n.a.,n.a.,n.a.
49.,PRIMERA AIR SCANDINAVIA A/S,DIGEVEJ 114,KOEBENHAVN S,Denmark,5110,n.a.,97,118,204,172,159,n.a.,n.a.,n.a.,n.a.,n.a.,n.a.,107,215,204,183,n.a.,n.a.,n.a.,n.a.
64.,RANDERS TEGL A/S,MINERALVEJ 4,AALBORG OEST,Denmark,2332,n.a.,54,n.a.,n.a.,n.a.,n.a.,n.a.,n.a.,n.a.,n.a.,n.a.,179,162,n.a.,n.a.,n.a.,n.a.,n.a.,n.a.,n.a.
93.,REFA ENERGI A/S,ENERGIVEJ 4,NYKOEBING F,Denmark,3530,n.a.,11,11,11,12,7,n.a.,n.a.,n.a.,n.a.,n.a.,20,18,18,11,4,n.a.,n.a.,n.a.,n.a.
160.,REGION HOVEDSTADEN,KONGENS VAENGE 2,HILLEROED,Denmark,8411,n.a.,n.a.,n.a.,n.a.,n.a.,n.a.,n.a.,n.a.,n.a.,n.a.,n.a.,"1,750",n.a.,n.a.,n.a.,n.a.,n.a.,n.a.,n.a.,n.a.
163.,REGULERKRAFT IKAST APS,GRUNDTVIGSVEJ 9,HERNING,Denmark,3511,n.a.,n.a.,n.a.,n.a.,n.a.,n.a.,n.a.,n.a.,n.a.,n.a.,n.a.,n.a.,n.a.,n.a.,n.a.,n.a.,n.a.,n.a.,n.a.,n.a.
126.,RENOSYD I/S,NORGESVEJ 13,SKANDERBORG,Denmark,3821,n.a.,n.a.,n.a.,n.a.,n.a.,n.a.,n.a.,n.a.,n.a.,n.a.,n.a.,75,n.a.,n.a.,n.a.,n.a.,n.a.,n.a.,n.a.,n.a.
63.,RHEINLAND AIR SERVICE GMBH,FLUGHAFENSTR. 31,MOENCHENGLADBACH,Germany,3316,n.a.,n.a.,54,65,n.a.,n.a.,n.a.,n.a.,n.a.,n.a.,n.a.,n.a.,209,181,151,150,120,95,95,n.a.
220.,RIBE FJERNVARME AMBA,MOSEVEJ 100,RIBE,Denmark,3530,n.a.,n.a.,n.a.,n.a.,n.a.,n.a.,n.a.,n.a.,n.a.,n.a.,n.a.,7,n.a.,n.a.,n.a.,n.a.,n.a.,n.a.,n.a.,n.a.
173.,RINGE FJERNVARMESELSKAB A M B A,OESTRE RINGVEJ 43,RINGE,Denmark,3530,n.a.,n.a.,n.a.,n.a.,n.a.,n.a.,n.a.,n.a.,n.a.,n.a.,n.a.,3,n.a.,n.a.,n.a.,n.a.,n.a.,n.a.,n.a.,n.a.
190.,RINGKOEBING FJERNVARMEVAERK A.M.B.A.,KONGEVEJEN 19 A,RINGKOEBING,Denmark,3530,n.a.,n.a.,n.a.,n.a.,n.a.,n.a.,n.a.,n.a.,n.a.,n.a.,n.a.,7,n.a.,n.a.,n.a.,n.a.,n.a.,n.a.,n.a.,n.a.
110.,RINGSTED KRAFTVARMEVAERK A/S,BRAGESVEJ 18,RINGSTED,Denmark,3511,n.a.,2,1,1,2,2,n.a.,n.a.,n.a.,n.a.,n.a.,0,n.a.,n.a.,n.a.,n.a.,n.a.,n.a.,n.a.,n.a.
43.,ROCKWOOL A/S,HOVEDGADEN 501,HEDEHUSENE,Denmark,2399,n.a.,126,121,120,117,118,n.a.,n.a.,n.a.,n.a.,n.a.,528,564,535,533,569,n.a.,n.a.,n.a.,n.a.
95.,ROENNE VARME A/S,SANDEMANDSVEJ 1 A,ROENNE,Denmark,3530,10,12,11,11,10,n.a.,n.a.,n.a.,n.a.,n.a.,0,0,0,n.a.,0,n.a.,n.a.,n.a.,n.a.,n.a.
167.,ROULUNDS ENERGY APS,HESTEHAVEN 39,ODENSE S,Denmark,3511,n.a.,n.a.,n.a.,1,1,1,n.a.,n.a.,n.a.,n.a.,n.a.,n.a.,n.a.,n.a.,n.a.,n.a.,n.a.,n.a.,n.a.,n.a.
231.,SAEBY VARMEVAERK A M B A,ENERGIVEJ 1,SAEBY,Denmark,3530,n.a.,n.a.,n.a.,n.a.,n.a.,n.a.,n.a.,n.a.,n.a.,n.a.,n.a.,7,n.a.,n.a.,n.a.,n.a.,n.a.,n.a.,n.a.,n.a.
42.,SAINT-GOBAIN DENMARK A/S,ROBERT JACOBSENS VEJ 62 A,KOEBENHAVN S,Denmark,2364,n.a.,145,140,47,49,58,n.a.,n.a.,n.a.,n.a.,n.a.,498,486,170,190,213,n.a.,n.a.,n.a.,n.a.
66.,SILKEBORG VARME A/S,TIETGENSVEJ 3,SILKEBORG,Denmark,3530,n.a.,50,44,49,53,48,n.a.,n.a.,n.a.,n.a.,n.a.,20,20,21,22,25,n.a.,n.a.,n.a.,n.a.
226.,SINDAL VARMEFORSYNING A M B A,JESPER SKRUBBELTRANG,SINDAL,Denmark,3530,n.a.,n.a.,n.a.,n.a.,n.a.,n.a.,n.a.,n.a.,n.a.,n.a.,n.a.,3,n.a.,n.a.,n.a.,n.a.,n.a.,n.a.,n.a.,n.a.
84.,SK VARME A/S,LILLEOEVEJ 3,KORSOER,Denmark,3530,n.a.,22,21,20,22,21,n.a.,n.a.,n.a.,n.a.,n.a.,n.a.,0,n.a.,0,n.a.,n.a.,n.a.,n.a.,n.a.
176.,SKAGEN VARMEVAERK AMBA,ELLEHAMMERVEJ 21,SKAGEN,Denmark,3530,n.a.,n.a.,n.a.,n.a.,n.a.,n.a.,n.a.,n.a.,n.a.,n.a.,n.a.,7,n.a.,n.a.,n.a.,n.a.,n.a.,n.a.,n.a.,n.a.
193.,SKANDERBORG-HOERNING FJERNVARME,DANMARKSVEJ 15,SKANDERBORG,Denmark,3530,n.a.,n.a.,n.a.,n.a.,n.a.,n.a.,n.a.,n.a.,n.a.,n.a.,n.a.,15,n.a.,n.a.,n.a.,n.a.,n.a.,n.a.,n.a.,n.a.
243.,SKIVE FJERNVARME A.M.B.A.,MARIUS JENSENS VEJ 3,SKIVE,Denmark,3530,n.a.,n.a.,n.a.,n.a.,n.a.,n.a.,n.a.,n.a.,n.a.,n.a.,n.a.,35,n.a.,n.a.,n.a.,n.a.,n.a.,n.a.,n.a.,n.a.
213.,SKJERN FJERNVARME,NYKAERSVEJ 8,SKJERN,Denmark,3530,n.a.,n.a.,n.a.,n.a.,n.a.,n.a.,n.a.,n.a.,n.a.,n.a.,n.a.,7,n.a.,n.a.,n.a.,n.a.,n.a.,n.a.,n.a.,n.a.
80.,SKJERN PAPIRFABRIK A/S,BIRKVEJ 14,SKJERN,Denmark,1712,n.a.,26,25,27,26,27,n.a.,n.a.,n.a.,n.a.,n.a.,73,73,72,72,70,n.a.,n.a.,n.a.,n.a.
144.,SMOERUM KRAFTVARME AMBA,SKEBJERGVEJ 25,SMOERUM,Denmark,3530,n.a.,n.a.,n.a.,n.a.,n.a.,n.a.,n.a.,n.a.,n.a.,n.a.,n.a.,3,n.a.,n.a.,n.a.,n.a.,n.a.,n.a.,n.a.,n.a.
183.,SOENDERBORG FJERNVARME A.M.B.A.,NOERREKOBBEL 54,SOENDERBORG,Denmark,3530,n.a.,n.a.,n.a.,n.a.,n.a.,n.a.,n.a.,n.a.,n.a.,n.a.,n.a.,35,n.a.,n.a.,n.a.,n.a.,n.a.,n.a.,n.a.,n.a.
137.,SOENDERBORG KRAFTVARMEVAERK I/S,VESTERMARK 16,SOENDERBORG,Denmark,3530,n.a.,n.a.,n.a.,n.a.,n.a.,n.a.,n.a.,n.a.,n.a.,n.a.,n.a.,0,n.a.,n.a.,n.a.,n.a.,n.a.,n.a.,n.a.,n.a.
58.,"SOPHUS FUGLSANG, EXPORT-MALTFABRIK A/S",RIBE LANDEVEJ 12,HADERSLEV,Denmark,1106,n.a.,67,64,63,62,57,n.a.,n.a.,n.a.,n.a.,n.a.,56,54,51,50,51,n.a.,n.a.,n.a.,n.a.
47.,STAR AIR A/S,A/S MAERSK AVIATION HOLDING,DRAGOER,Denmark,5121,n.a.,117,133,120,109,107,n.a.,n.a.,n.a.,n.a.,n.a.,207,206,196,196,192,n.a.,n.a.,n.a.,n.a.
6.,STATOIL REFINING DENMARK A/S,MELBYVEJ 17,KALUNDBORG,Denmark,1920,n.a.,"2,159","2,623","3,442","3,971","4,371",n.a.,n.a.,n.a.,n.a.,n.a.,375,362,383,395,409,n.a.,n.a.,n.a.,n.a.
133.,STOEVRING KRAFTVARMEVAERK A.M.B.A.,HJEDSBAEKVEJ 2,STOEVRING,Denmark,3530,n.a.,n.a.,n.a.,n.a.,n.a.,n.a.,n.a.,n.a.,n.a.,n.a.,n.a.,7,n.a.,n.a.,n.a.,n.a.,n.a.,n.a.,n.a.,n.a.
215.,STROEJER TEGL A/S,BOGYDEN 12,ASSENS,Denmark,2332,n.a.,n.a.,n.a.,n.a.,n.a.,n.a.,n.a.,n.a.,n.a.,n.a.,n.a.,79,64,58,48,45,n.a.,n.a.,n.a.,n.a.
97.,SUN CHEMICAL A/S,KOEBENHAVNSVEJ 112,KOEGE,Denmark,2012,n.a.,9,10,15,22,22,n.a.,n.a.,n.a.,n.a.,n.a.,64,67,108,137,144,n.a.,n.a.,n.a.,n.a.
59.,SUN-AIR of SCANDINAVIA A/S,CUMULUSVEJ 10,BILLUND,Denmark,5110,n.a.,62,68,68,73,51,n.a.,n.a.,n.a.,n.a.,n.a.,203,190,191,182,155,n.a.,n.a.,n.a.,n.a.
145.,SVENDBORG FJERNVARME A.M.B.A.,BAGERGADE 40 A,SVENDBORG,Denmark,3530,n.a.,n.a.,n.a.,n.a.,n.a.,n.a.,n.a.,n.a.,n.a.,n.a.,n.a.,15,n.a.,n.a.,n.a.,n.a.,n.a.,n.a.,n.a.,n.a.
102.,SVENDBORG KRAFTVARME A/S,BODOEVEJ 15,SVENDBORG,Denmark,3821,n.a.,7,8,10,6,8,n.a.,n.a.,n.a.,n.a.,n.a.,18,18,18,19,21,n.a.,n.a.,n.a.,n.a.
216.,SVOGERSLEV FJERNVARME,JAKOB HENKE,ROSKILDE,Denmark,3530,n.a.,n.a.,n.a.,n.a.,n.a.,n.a.,n.a.,n.a.,n.a.,n.a.,n.a.,3,n.a.,n.a.,n.a.,n.a.,n.a.,n.a.,n.a.,n.a.
232.,TAARS VARMEVAERK,DAMHUSVEJ 27,TAARS,Denmark,3530,n.a.,n.a.,n.a.,n.a.,n.a.,n.a.,n.a.,n.a.,n.a.,n.a.,n.a.,3,n.a.,n.a.,n.a.,n.a.,n.a.,n.a.,n.a.,n.a.
198.,TARM VARMEVAERK A M B A,SKOLEGADE 23,TARM,Denmark,3530,n.a.,n.a.,n.a.,n.a.,n.a.,n.a.,n.a.,n.a.,n.a.,n.a.,n.a.,3,n.a.,n.a.,n.a.,n.a.,n.a.,n.a.,n.a.,n.a.
115.,"THE DUCHOSSOIS GROUP, INC. PENSION TRUST",845 LARCH AVENUE,ELMHURST,United States of America,,n.a.,n.a.,n.a.,n.a.,n.a.,n.a.,n.a.,n.a.,n.a.,n.a.,n.a.,n.a.,n.a.,n.a.,n.a.,n.a.,n.a.,n.a.,n.a.,n.a.
168.,THISTED VARMEFORSYNING A M B A,RINGVEJ 26,THISTED,Denmark,3530,n.a.,n.a.,n.a.,n.a.,n.a.,n.a.,n.a.,n.a.,n.a.,n.a.,n.a.,7,n.a.,n.a.,n.a.,n.a.,n.a.,n.a.,n.a.,n.a.
16.,THOMAS COOK AIRLINES SCANDINAVIA A/S,HANGAR 276,DRAGOER,Denmark,5110,n.a.,552,556,589,598,575,n.a.,n.a.,n.a.,n.a.,n.a.,"1,093","1,060","1,043","1,063","1,062",n.a.,n.a.,n.a.,n.a.
186.,TOENDER FJERNVARMESELSKAB A.M.B.A.,OESTERGADE 83,TOENDER,Denmark,3530,n.a.,n.a.,n.a.,n.a.,n.a.,n.a.,n.a.,n.a.,n.a.,n.a.,n.a.,7,n.a.,n.a.,n.a.,n.a.,n.a.,n.a.,n.a.,n.a.
158.,TOERRING KRAFTVARMEVAERK A.M.B.A.,BYGADE 5 A,TOERRING,Denmark,3511,n.a.,n.a.,n.a.,n.a.,n.a.,n.a.,n.a.,n.a.,n.a.,n.a.,n.a.,3,n.a.,n.a.,n.a.,n.a.,n.a.,n.a.,n.a.,n.a.
230.,TOFTLUND FJERNVARME A.M.B.A.,OESTERDALEN 3,TOFTLUND,Denmark,3530,n.a.,n.a.,n.a.,n.a.,n.a.,n.a.,n.a.,n.a.,n.a.,n.a.,n.a.,3,n.a.,n.a.,n.a.,n.a.,n.a.,n.a.,n.a.,n.a.
174.,TRANBJERG VARMEVAERK A.M.B.A.,JEGSTRUPVAENGET 630,TRANBJERG J,Denmark,3530,n.a.,n.a.,n.a.,n.a.,n.a.,n.a.,n.a.,n.a.,n.a.,n.a.,n.a.,7,n.a.,n.a.,n.a.,n.a.,n.a.,n.a.,n.a.,n.a.
54.,TREFOR VARME A/S,KOKBJERG 30,KOLDING,Denmark,3530,n.a.,76,63,68,74,69,n.a.,n.a.,n.a.,n.a.,n.a.,10,10,9,9,9,n.a.,n.a.,n.a.,n.a.
36.,TRIPLENINE A/S,TRAFIKHAVNSKAJ 9,ESBJERG,Denmark,1020,n.a.,171,170,131,172,n.a.,n.a.,n.a.,n.a.,n.a.,n.a.,116,107,92,97,n.a.,n.a.,n.a.,n.a.,n.a.
12.,TULIP FOOD COMPANY A/S,TULIPVEJ 1,RANDERS SV,Denmark,1013,n.a.,n.a.,681,687,693,673,668,n.a.,n.a.,n.a.,n.a.,n.a.,"1,512","1,546","1,611","1,716","1,802",n.a.,n.a.,n.a.
121.,VAERLOESE VARMEVAERK A M B A,KLOSTERGAARDSVEJ 59,VAERLOESE,Denmark,3530,n.a.,n.a.,n.a.,n.a.,n.a.,n.a.,n.a.,n.a.,n.a.,n.a.,n.a.,3,n.a.,n.a.,n.a.,n.a.,n.a.,n.a.,n.a.,n.a.
219.,VAMDRUP FJERNVARME A M B A,NYGADE 6,VAMDRUP,Denmark,3530,n.a.,n.a.,n.a.,n.a.,n.a.,n.a.,n.a.,n.a.,n.a.,n.a.,n.a.,3,n.a.,n.a.,n.a.,n.a.,n.a.,n.a.,n.a.,n.a.
242.,VEJLE FJERNVARME A M B A,LANGELINIE 60,VEJLE,Denmark,3530,n.a.,n.a.,n.a.,n.a.,n.a.,n.a.,n.a.,n.a.,n.a.,n.a.,n.a.,7,n.a.,n.a.,n.a.,n.a.,n.a.,n.a.,n.a.,n.a.
65.,VERDO PRODUKTION A/S,AGERSKELLET 7,RANDERS NV,Denmark,3511,n.a.,50,48,47,56,56,n.a.,n.a.,n.a.,n.a.,n.a.,43,n.a.,44,41,39,n.a.,n.a.,n.a.,n.a.
37.,VESTEGNENS KRAFTVARMESELSKAB I/S,ROSKILDEVEJ 175,ALBERTSLUND,Denmark,3530,n.a.,170,160,151,163,n.a.,n.a.,n.a.,n.a.,n.a.,n.a.,71,68,64,65,n.a.,n.a.,n.a.,n.a.,n.a.
252.,VESTERLED TEGLVAERK A/S,VANDMOELLEVEJ 4,SOENDERBORG,Denmark,2332,n.a.,n.a.,n.a.,n.a.,n.a.,n.a.,n.a.,n.a.,n.a.,n.a.,n.a.,32,n.a.,n.a.,n.a.,n.a.,n.a.,n.a.,n.a.,n.a.
83.,VESTFORSYNING VARME A/S,NUPARK 51,HOLSTEBRO,Denmark,3530,n.a.,22,24,27,30,26,n.a.,n.a.,n.a.,n.a.,n.a.,24,n.a.,n.a.,n.a.,0,n.a.,n.a.,n.a.,n.a.
106.,VIDEBAEK VARME A/S,VIDEBAEK ENERGIFORSYNING,VIDEBAEK,Denmark,3530,n.a.,3,3,4,5,4,n.a.,n.a.,n.a.,n.a.,n.a.,n.a.,n.a.,n.a.,n.a.,n.a.,n.a.,n.a.,n.a.,n.a.
68.,VIKING MALT A/S,SPIREVEJ 5,VORDINGBORG,Denmark,1106,n.a.,47,52,50,55,50,n.a.,n.a.,n.a.,n.a.,n.a.,24,24,24,24,28,n.a.,n.a.,n.a.,n.a.
191.,VILDBJERG VARMEVAERK A.M.B.A.,ISLANDSVEJ 2,VILDBJERG,Denmark,3530,n.a.,n.a.,n.a.,n.a.,n.a.,n.a.,n.a.,n.a.,n.a.,n.a.,n.a.,0,n.a.,n.a.,n.a.,n.a.,n.a.,n.a.,n.a.,n.a.
211.,VILLEMOES TEGLVAERK A/S,LOURUPVEJ 2,GOERDING,Denmark,2332,n.a.,n.a.,n.a.,n.a.,n.a.,n.a.,n.a.,n.a.,n.a.,n.a.,10,n.a.,n.a.,n.a.,n.a.,n.a.,n.a.,n.a.,n.a.,n.a.
169.,VINDERUP VARMEVAERK A M B A,SEVELVEJ 67 FLOOR ; A,VINDERUP,Denmark,3530,n.a.,n.a.,n.a.,n.a.,n.a.,n.a.,n.a.,n.a.,n.a.,n.a.,n.a.,3,n.a.,n.a.,n.a.,n.a.,n.a.,n.a.,n.a.,n.a.
39.,VITFOSS A/S,DLG. AXELBORG,KOEBENHAVN V,Denmark,4621,n.a.,155,156,142,146,159,n.a.,n.a.,n.a.,n.a.,n.a.,135,140,124,132,133,n.a.,n.a.,n.a.,n.a.
154.,VOJENS FJERNVARME A.M.B.A.,TINGVEJEN 47,VOJENS,Denmark,3530,n.a.,n.a.,n.a.,n.a.,n.a.,n.a.,n.a.,n.a.,n.a.,n.a.,n.a.,3,n.a.,n.a.,n.a.,n.a.,n.a.,n.a.,n.a.,n.a.
101.,VORDINGBORG FJERNVARME A/S,BROVEJEN 10,VORDINGBORG,Denmark,3530,n.a.,7,7,6,8,7,n.a.,n.a.,n.a.,n.a.,n.a.,n.a.,n.a.,n.a.,n.a.,n.a.,n.a.,n.a.,n.a.,n.a.
99.,VORDINGBORG KRAFTVARME A/S,BROVEJEN 10,VORDINGBORG,Denmark,3511,n.a.,8,7,7,8,8,n.a.,n.a.,n.a.,n.a.,n.a.,n.a.,n.a.,n.a.,n.a.,n.a.,n.a.,n.a.,n.a.,n.a.
113.,VORSKLA STEEL DENMARK A/S,HAVNEVEJ 31,FREDERIKSVAERK,Denmark,2452,n.a.,0,1,1,0,0,n.a.,n.a.,n.a.,n.a.,n.a.,n.a.,n.a.,n.a.,n.a.,n.a.,n.a.,n.a.,n.a.,n.a.
235.,VRAA VARMEVAERK AMBA,KORSGADE 9,VRAA,Denmark,3530,n.a.,n.a.,n.a.,n.a.,n.a.,n.a.,n.a.,n.a.,n.a.,n.a.,n.a.,3,n.a.,n.a.,n.a.,n.a.,n.a.,n.a.,n.a.,n.a.
117.,WIENERBERGER A/S,ROERMOSEVEJ 85,HELSINGE,Denmark,2332,n.a.,n.a.,n.a.,n.a.,n.a.,n.a.,n.a.,n.a.,n.a.,n.a.,n.a.,85,88,76,73,77,n.a.,n.a.,n.a.,n.a.
251.,YDBY TEGLVAERK A/S,YDBY STATIONSVEJ 2,HURUP THY,Denmark,2332,n.a.,n.a.,n.a.,0,n.a.,n.a.,n.a.,n.a.,n.a.,n.a.,n.a.,n.a.,n.a.,n.a.,n.a.,n.a.,n.a.,n.a.,n.a.,n.a.