,Company name,"Street, no., building etc, line 1",City,Country,"NACE Rev. 2
Core code (4 digits)","Operating
revenue
(Turnover)
m EUR
2017","Operating
revenue
(Turnover)
m EUR
2016","Operating
revenue
(Turnover)
m EUR
2015","Operating
revenue
(Turnover)
m EUR
2014","Operating
revenue
(Turnover)
m EUR
2013","Operating
revenue
(Turnover)
m EUR
2012","Operating
revenue
(Turnover)
m EUR
2011","Operating
revenue
(Turnover)
m EUR
2010","Operating
revenue
(Turnover)
m EUR
2009","Operating
revenue
(Turnover)
m EUR
2008","Number of employees
2017","Number of employees
2016","Number of employees
2015","Number of employees
2014","Number of employees
2013","Number of employees
2012","Number of employees
2011","Number of employees
2010","Number of employees
2009","Number of employees
2008"
14.,ALEXELA SILLAMAE AS,KESK TN 2,SILLAMAE,Estonia,5210,n.a.,32,37,55,54,55,43,25,24,9,n.a.,129,133,133,134,133,114,93,86,81
13.,ANNE SOOJUS AS,TURU TN 18,TARTU,Estonia,3530,n.a.,34,32,35,34,38,30,34,20,12,n.a.,47,49,49,51,52,60,59,63,62
40.,ASPI OU,PARNU MNT 158/1,TALLINN,Estonia,4211,n.a.,n.a.,n.a.,n.a.,n.a.,n.a.,n.a.,n.a.,n.a.,n.a.,n.a.,n.a.,n.a.,n.a.,n.a.,n.a.,n.a.,n.a.,n.a.,n.a.
31.,DANPOWER EESTI AS,VILJA TN 14,VORU,Estonia,3530,n.a.,4,3,3,3,3,3,3,2,2,n.a.,48,46,44,35,29,29,30,31,35
2.,EESTI ENERGIA AS,LELLE TN 22,TALLINN,Estonia,3514,n.a.,350,357,453,436,441,421,454,447,433,n.a.,n.a.,n.a.,n.a.,n.a.,n.a.,n.a.,n.a.,n.a.,n.a.
35.,EESTI TAASTUVENERGIA OU,,,Estonia,,n.a.,n.a.,n.a.,n.a.,0,0,0,0,n.a.,n.a.,n.a.,n.a.,n.a.,n.a.,n.a.,n.a.,n.a.,n.a.,n.a.,n.a.
3.,ELERING AS,KADAKA TEE 42,TALLINN,Estonia,3512,n.a.,136,122,131,134,109,94,89,49,82,n.a.,231,n.a.,146,147,145,146,n.a.,126,128
1.,ENEFIT ENERGIATOOTMINE AS,"EESTI ELEKTRIJAAM, AUVERE KULA",VAIVARA VALD,Estonia,3511,n.a.,411,263,399,486,383,420,310,274,302,n.a.,934,644,694,705,832,"1,196","1,353","1,372","1,506"
29.,ESRO AS,PUIDU TN 11,VILJANDI,Estonia,3530,n.a.,6,8,8,8,7,5,6,6,6,n.a.,n.a.,n.a.,n.a.,n.a.,n.a.,n.a.,n.a.,n.a.,49
6.,ESTONIAN AIR AS,LENNUJAAMA TEE 13,TALLINN,Estonia,5110,n.a.,n.a.,n.a.,71,75,93,78,70,66,94,n.a.,n.a.,n.a.,179,n.a.,n.a.,n.a.,n.a.,219,n.a.
7.,ESTONIAN CELL AS,JAAMA TN 21,KUNDA,Estonia,1711,n.a.,74,78,70,66,68,68,69,49,59,n.a.,86,85,85,85,84,83,86,85,88
18.,FORTUM EESTI AS,LOOTSA TN 2,TALLINN,Estonia,3530,n.a.,25,24,26,26,28,11,n.a.,n.a.,n.a.,n.a.,52,51,52,51,51,51,n.a.,n.a.,n.a.
37.,GROVE INVEST OU,ROTERMANNI TN 8,TALLINN,Estonia,6820,n.a.,n.a.,n.a.,n.a.,n.a.,n.a.,n.a.,n.a.,n.a.,n.a.,n.a.,n.a.,n.a.,n.a.,n.a.,n.a.,n.a.,n.a.,15,n.a.
10.,HORIZON TSELLULOOSI JA PABERI AS,ANIJA MNT 10,"KEHRA, ANIJA VALD",Estonia,1712,n.a.,46,46,49,51,53,58,52,34,50,n.a.,n.a.,n.a.,388,396,n.a.,n.a.,n.a.,402,427
26.,KIVIOLI KEEMIATOOSTUSE OU,TURU TN 3,KIVIOLI,Estonia,3530,n.a.,10,9,31,35,35,35,23,19,22,n.a.,1,3,433,633,649,644,647,646,665
16.,KKT OIL OU,TURU TN 3,KIVIOLI,Estonia,0610,n.a.,30,28,11,n.a.,n.a.,n.a.,n.a.,n.a.,n.a.,n.a.,607,667,670,n.a.,n.a.,n.a.,n.a.,n.a.,n.a.
8.,KREENHOLMI VALDUSE AS,TEHASE TN 6,NARVA,Estonia,1392,n.a.,n.a.,n.a.,n.a.,n.a.,n.a.,n.a.,n.a.,n.a.,38,n.a.,n.a.,n.a.,n.a.,n.a.,n.a.,n.a.,n.a.,n.a.,"1,065"
12.,KUNDA NORDIC TSEMENT AS,JAAMA TN 2,KUNDA,Estonia,2351,n.a.,39,38,54,54,58,53,37,37,77,n.a.,184,196,220,219,217,218,221,259,282
30.,KURESSAARE SOOJUS AS,KALEVI TN 1A,KURESSAARE,Estonia,3530,n.a.,4,6,4,4,7,3,3,3,3,n.a.,34,35,35,36,36,34,37,39,44
32.,NITROFERT AS,JARVEKULA TEE 1,KOHTLA-JARVE,Estonia,3600,n.a.,1,4,30,63,9,1,1,13,101,n.a.,61,322,440,461,400,409,425,463,475
25.,NORDKALK AS,F. R. FAEHLMANNI TEE 11A,"RAKKE ALEVIK, VAIKE-MAARJA VALD",Estonia,0811,n.a.,15,16,18,21,21,18,14,15,17,n.a.,89,104,109,119,120,120,110,140,147
23.,O-I PRODUCTION ESTONIA AS,TEHASTE TN 7,"JARVAKANDI ALEV, KEHTNA VALD",Estonia,2313,n.a.,17,19,18,16,16,16,41,28,39,n.a.,157,155,152,152,150,156,157,n.a.,143
33.,POLVA SOOJUS AS,J. KAISI TN 11,"POLVA, POLVA VALD",Estonia,3530,n.a.,1,1,2,2,2,2,1,0,0,n.a.,9,9,8,8,11,11,6,1,1
19.,REPO VABRIKUD AS,MAIDLA TEE 7,"PUSSI, LUGANUSE VALD",Estonia,1621,n.a.,24,29,39,38,37,35,25,21,40,n.a.,226,242,258,267,276,n.a.,n.a.,253,303
21.,SAAREMAA PIIMATOOSTUS AS,PIKK TN 64,KURESSAARE,Estonia,1051,n.a.,22,19,18,20,16,15,15,12,15,n.a.,99,89,86,87,n.a.,n.a.,n.a.,n.a.,n.a.
15.,SAINT-GOBAIN EHITUSTOOTED AS,PETERBURI TEE 75,TALLINN,Estonia,2361,n.a.,31,29,29,25,24,22,21,18,20,n.a.,54,54,53,53,54,54,59,78,29
28.,SANGLA TURVAS AS,JARVAKULA,"PUHJA ALEVIK, PUHJA VALD",Estonia,,n.a.,n.a.,n.a.,5,n.a.,5,5,3,2,4,n.a.,n.a.,n.a.,n.a.,n.a.,n.a.,n.a.,82,n.a.,1
24.,SILPOWER AS,KESK TN 4,SILLAMAE,Estonia,3530,n.a.,15,14,15,16,17,15,14,12,10,n.a.,171,171,171,171,170,174,174,168,171
20.,SMARTLYNX AIRLINES ESTONIA OU,LENNUJAAMA TEE 13,TALLINN,Estonia,5110,n.a.,23,32,24,22,9,n.a.,n.a.,n.a.,n.a.,n.a.,8,8,7,6,5,n.a.,n.a.,n.a.,n.a.
34.,TEST OU,VEERENNI TN 54,TALLINN,Estonia,4799,n.a.,0,0,0,0,0,0,0,n.a.,n.a.,n.a.,2,2,2,2,2,2,n.a.,n.a.,n.a.
22.,TOOTSI TURVAS AS,PAPINIIDU TN 5,PARNU,Estonia,0892,16,13,15,21,n.a.,19,27,25,22,20,33,33,34,48,n.a.,75,100,1,190,273
27.,UTILITAS EESTI AS,PUNANE TN 36,TALLINN,Estonia,3530,n.a.,8,9,10,13,15,13,15,18,21,n.a.,60,62,60,75,n.a.,75,n.a.,116,128
5.,UTILITAS TALLINN AS,PUNANE TN 36,TALLINN,Estonia,3530,n.a.,85,86,98,100,109,86,95,85,81,n.a.,160,156,161,158,166,n.a.,n.a.,n.a.,263
17.,UTILITAS TALLINNA ELEKTRIJAAM OU,TOOMA TN 14,TALLINN,Estonia,3511,n.a.,29,29,29,33,34,1,30,25,0,n.a.,29,2,2,3,4,2,25,24,22
39.,VESTA TERMINAL TALLINN OU,"OLI TN 3, MUUGA KULA",VIIMSI VALD,Estonia,5224,n.a.,n.a.,n.a.,n.a.,n.a.,n.a.,n.a.,n.a.,n.a.,n.a.,n.a.,87,114,132,132,132,132,117,97,63
11.,VKG ENERGIA OU,ELEKTRIKU TN 3,KOHTLA-JARVE,Estonia,3514,n.a.,45,44,43,44,46,34,39,22,19,n.a.,126,156,166,n.a.,152,171,170,164,173
4.,VKG OIL AS,JARVEKULA TEE 14,KOHTLA-JARVE,Estonia,1920,n.a.,94,111,151,161,165,140,94,72,94,n.a.,585,660,671,626,596,582,726,n.a.,430
36.,VKG SOOJUS AS,RITSIKA VKT 10,KOHTLA-JARVE,Estonia,3530,n.a.,n.a.,n.a.,n.a.,n.a.,n.a.,n.a.,4,8,7,n.a.,38,38,45,51,97,90,95,111,120
9.,VOPAK E.O.S. AS,PIRITA TEE 102,TALLINN,Estonia,5229,n.a.,49,76,88,148,175,199,184,152,108,n.a.,n.a.,n.a.,n.a.,n.a.,n.a.,n.a.,n.a.,n.a.,n.a.
38.,WIENERBERGER AS,KORDONI TN 1,"ASERI ALEVIK, VIRU-NIGULA VALD",Estonia,2332,n.a.,n.a.,n.a.,n.a.,n.a.,n.a.,n.a.,n.a.,n.a.,n.a.,n.a.,106,104,102,108,111,110,118,164,191