,Company name,"Street, no., building etc, line 1",City,Country,"NACE Rev. 2
Core code (4 digits)","Operating
revenue
(Turnover)
m EUR
2017","Operating
revenue
(Turnover)
m EUR
2016","Operating
revenue
(Turnover)
m EUR
2015","Operating
revenue
(Turnover)
m EUR
2014","Operating
revenue
(Turnover)
m EUR
2013","Operating
revenue
(Turnover)
m EUR
2012","Operating
revenue
(Turnover)
m EUR
2011","Operating
revenue
(Turnover)
m EUR
2010","Operating
revenue
(Turnover)
m EUR
2009","Operating
revenue
(Turnover)
m EUR
2008","Number of employees
2017","Number of employees
2016","Number of employees
2015","Number of employees
2014","Number of employees
2013","Number of employees
2012","Number of employees
2011","Number of employees
2010","Number of employees
2009","Number of employees
2008"
,3555 PARTNERSHIP,8402 NELMS ST,HOUSTON,United States of America,5110,3,n.a.,n.a.,n.a.,n.a.,n.a.,n.a.,n.a.,n.a.,n.a.,1,n.a.,n.a.,n.a.,n.a.,n.a.,n.a.,n.a.,n.a.,n.a.
242,3CB SAS,2 B RUE LOUIS ARMAND,PARIS,France,3511,n.a.,73,28,28,33,37,58,56,109,70,n.a.,30,33,32,32,n.a.,n.a.,n.a.,2,n.a.
68,3M FRANCE,BOULEVARD DE L OISE,CERGY,France,2229,n.a.,742,720,764,767,739,726,613,579,666,n.a.,"1,494","1,589","1,640",n.a.,n.a.,"1,723","1,443",n.a.,n.a.
12,ACCOR SA,"82, RUE HENRI FARMAN",ISSY-LES-MOULINEAUX,France,5510,n.a.,"5,710","5,581","5,454","5,494","5,649","6,100","7,017","5,490","7,722",n.a.,"150,499","145,560","141,243","136,791","133,886","144,893","143,939","144,421","158,162"
,ACOME SOCIETE COOPERATIVE ET PARTICIPATIVE SOCIETE ANONYME COOPERATIVE DE PRODUCTION A CAPITAL VARIABLE,52 RUE DU MONTPARNASSE,PARIS,France,2732,n.a.,459,435,412,414,397,433,377,279,368,n.a.,"1,692",n.a.,"1,446","1,373",n.a.,"1,429",n.a.,n.a.,n.a.
481,ACTIFLY,Credit needed,Credit needed,Credit needed,Credit needed,n.a.,Credit needed,n.a.,Credit needed,Credit needed,n.a.,n.a.,n.a.,n.a.,n.a.,n.a.,n.a.,n.a.,n.a.,n.a.,n.a.,n.a.,n.a.,n.a.,n.a.
,ADAMS OFFICE LLC,88 OLD ROXBURY RD,ROXBURY,United States of America,7490,0,n.a.,n.a.,n.a.,n.a.,n.a.,n.a.,n.a.,n.a.,n.a.,1,n.a.,n.a.,n.a.,n.a.,n.a.,n.a.,n.a.,n.a.,n.a.
,ADISSEO FRANCE SAS,ANTONY PARC 2,ANTONY,France,2014,n.a.,"1,322","1,578","1,234","1,137","1,258","1,233","1,150","1,046","1,063",n.a.,"1,052","1,029","1,017","1,025","1,013",995,958,n.a.,924
,AERO RIO TAXI AEREO LTDA, AV VINTE DE JANEIRO SETOR NORTE PARALELO AO SISTEMA 10-28 LOTE H-5,RIO DE JANEIRO,Brazil,5110,n.a.,4,n.a.,n.a.,n.a.,n.a.,n.a.,n.a.,n.a.,n.a.,n.a.,76,n.a.,n.a.,n.a.,n.a.,n.a.,n.a.,n.a.,n.a.
,AEROPORT MARSEILLE PROVENCE,AEROPORT DE MARSEILLE PROVENCE,MARIGNANE,France,5223,n.a.,136,131,130,0,n.a.,n.a.,n.a.,n.a.,n.a.,n.a.,377,372,367,n.a.,n.a.,n.a.,n.a.,n.a.,n.a.
163,AEROPORTS DE LYON,AERP LYON ST EXUPERY LYON ST  AEROPORT,COLOMBIER SAUGNIEU,France,5223,n.a.,n.a.,167,164,163,159,152,n.a.,n.a.,n.a.,n.a.,n.a.,493,500,498,496,501,n.a.,n.a.,n.a.
20,AEROPORTS DE PARIS SA,"1, RUE DE FRANCE",PARIS,France,5223,n.a.,"3,009","2,953","2,798","2,766","2,672","2,563","2,608","2,643","2,540",n.a.,"8,947","9,008","8,966","9,026","9,035","9,092","9,550","12,096","11,789"
,AFRIQIYAH AIRWAYS,"273, WAHA BUILDING OMAR AL MOKHTAR STREET",TRIPOLI,Libya,5110,n.a.,n.a.,n.a.,n.a.,n.a.,n.a.,n.a.,n.a.,n.a.,n.a.,n.a.,"1,300",n.a.,n.a.,n.a.,n.a.,n.a.,n.a.,n.a.,n.a.
154,AGC GLASS FRANCE,100 RUE GAMBETTA,BOUSSOIS,France,2311,n.a.,n.a.,191,182,200,193,211,144,130,205,n.a.,n.a.,547,563,622,622,616,616,599,657
,AGC INTERPANE GLASS FRANCE,PARC D ACTIVITES FAREBERSVILLER,SEINGBOUSE,France,2311,n.a.,83,77,83,n.a.,89,76,68,55,69,n.a.,190,n.a.,n.a.,n.a.,n.a.,n.a.,n.a.,n.a.,n.a.
,AGRALIA,ROUTE DE CASTETS,ST PAUL LES DAX,France,4621,n.a.,161,169,149,191,183,176,106,115,123,n.a.,130,133,137,134,144,136,128,132,134
482,AHLSTROM CHANTRAINE,201 RUE CARNOT,FONTENAY SOUS BOIS,France,7010,n.a.,n.a.,n.a.,n.a.,0,1,0,2,2,22,n.a.,n.a.,n.a.,n.a.,n.a.,n.a.,n.a.,n.a.,10,n.a.
219,AHLSTROM MUNKSJO STENAY,CHEMIN DE LA GARE,STENAY,France,1712,n.a.,93,96,99,n.a.,n.a.,n.a.,n.a.,n.a.,n.a.,n.a.,216,211,198,n.a.,n.a.,n.a.,n.a.,n.a.,n.a.
172,AHLSTROM-MUNKSJO ARCHES,48 RUE DE REMIREMONT,ARCHES,France,1712,n.a.,155,158,162,145,139,148,147,112,139,n.a.,453,n.a.,474,n.a.,494,n.a.,n.a.,503,477
119,AIGLE AZUR,ZONE ORLY TECH,PARAY VIEILLE POSTE,France,5110,n.a.,n.a.,295,317,349,346,336,305,306,303,n.a.,n.a.,"1,141","1,139","1,243","1,189",n.a.,895,768,737
449,AIR ALGERIE,2 PLACE DE L'INDEPENDANCE,DAKAR,Senegal,5110,n.a.,n.a.,n.a.,3,3,2,1,1,n.a.,n.a.,n.a.,n.a.,n.a.,0,0,4,0,0,n.a.,n.a.
462,AIR ARABIA MAROC,"4 RUE CARTHAGE, QUARTIER LES TRIS",CASABLANCA,Morocco,5110,n.a.,n.a.,2,95,94,86,74,n.a.,n.a.,n.a.,n.a.,n.a.,n.a.,n.a.,n.a.,n.a.,n.a.,n.a.,n.a.,n.a.
,AIR AUSTRAL,GILLOT,STE MARIE,Reunion (France),5110,n.a.,n.a.,n.a.,n.a.,n.a.,379,n.a.,403,345,298,n.a.,n.a.,n.a.,n.a.,n.a.,n.a.,n.a.,n.a.,n.a.,720
,AIR CAIRO,SAYED ZAKARIA 20,CAIRO,Egypt,5223,n.a.,n.a.,64,n.a.,n.a.,n.a.,n.a.,n.a.,n.a.,n.a.,n.a.,n.a.,300,n.a.,n.a.,n.a.,n.a.,n.a.,n.a.,n.a.
,AIR CARAIBES,PARC D ACTIVITES DE PROVIDENCE,LES ABYMES,Guadeloupe (France),5110,n.a.,389,384,361,362,344,301,279,255,257,n.a.,375,367,n.a.,n.a.,n.a.,n.a.,n.a.,n.a.,n.a.
157,AIR CORSICA,CAMPO DELL ORO,AJACCIO,France,5110,n.a.,192,190,185,182,174,186,174,166,183,n.a.,672,657,698,28,n.a.,669,665,n.a.,673
,AIR FLEET OPERATIONS LIMITED,"INTERAVIA OFFICE 317, HANGAR 1",FARNBOROUGH,United Kingdom,5110,n.a.,n.a.,n.a.,n.a.,n.a.,n.a.,3,n.a.,n.a.,n.a.,n.a.,n.a.,n.a.,n.a.,n.a.,n.a.,n.a.,n.a.,n.a.,n.a.
5,AIR FRANCE - KLM,"2, RUE ROBERT-ESNAULT-PELTERIE",PARIS,France,5110,n.a.,"25,018","26,033","25,789","25,761","25,863","19,111","24,908","21,237","24,162",n.a.,"84,602","86,457","94,666","96,417","99,900","102,277","102,012","104,721","106,933"
,AIR KING JET SA,CHEMIN DES PAPILLONS 4,COINTRIN,Switzerland,5223,4,5,5,4,4,4,n.a.,n.a.,n.a.,n.a.,4,4,4,4,4,4,28,28,n.a.,n.a.
558,AIR LIBAN - MEA,,CAIRO,Egypt,,n.a.,n.a.,n.a.,n.a.,n.a.,n.a.,n.a.,n.a.,n.a.,n.a.,n.a.,n.a.,n.a.,n.a.,n.a.,n.a.,n.a.,n.a.,n.a.,n.a.
55,AIR LIQUIDE FRANCE INDUSTRIE,6 RUE COGNACQ JAY,PARIS,France,2011,n.a.,"1,020","1,058","1,104","1,192","1,168","1,186",441,382,423,n.a.,"2,258","2,302","2,344","2,453",n.a.,"2,611",n.a.,n.a.,n.a.
,AIR LIQUIDE HYDROGENE,6 RUE COGNACQ JAY,PARIS,France,2011,n.a.,79,92,81,97,98,98,86,67,89,n.a.,n.a.,n.a.,n.a.,20,n.a.,n.a.,n.a.,n.a.,n.a.
,AIR MADAGASCAR,1318 SANTA LUISA DR,SOLANA BEACH,United States of America,7911,3,n.a.,n.a.,n.a.,n.a.,n.a.,n.a.,n.a.,n.a.,n.a.,7,n.a.,n.a.,n.a.,n.a.,n.a.,n.a.,n.a.,n.a.,n.a.
95,AIR MAURITIUS LTD,AIR MAURITIUS CENTER,PORT LOUIS,Mauritius,5110,n.a.,503,495,469,465,456,458,440,375,453,n.a.,n.a.,n.a.,n.a.,n.a.,n.a.,n.a.,n.a.,n.a.,n.a.
150,AIR MEDITERRANEE,AEROPORT DE TARBES OSUN LOURDES,JUILLAN,France,5110,n.a.,n.a.,n.a.,175,417,n.a.,205,219,233,230,n.a.,n.a.,n.a.,311,311,n.a.,403,410,402,411
,AIR PINK D.O.O. BEOGRAD,RADNICKA 5A,BEOGRAD - CUKARICA,Serbia,5110,n.a.,27,24,18,18,16,13,10,6,6,n.a.,54,54,42,35,29,28,23,20,17
194,AIR SEYCHELLES LTD,INTERNATIONAL AIRPORT POINTE LARUE,VICTORIA,Seychelles,5110,n.a.,125,115,111,98,102,n.a.,n.a.,n.a.,n.a.,n.a.,n.a.,n.a.,629,629,"1,600",n.a.,n.a.,n.a.,n.a.
,AIRBUS,2 ROND POINT EMILE DEWOITINE,BLAGNAC,France,4669,n.a.,"54,477","51,154","45,729",n.a.,n.a.,n.a.,"28,809","26,160","24,369",n.a.,"7,238",n.a.,"7,305",n.a.,n.a.,n.a.,"5,709","5,433",n.a.
,AIRBUS DEFENCE AND SPACE HOLDING FRANCE SAS,51 ROUTE DE VERNEUIL,LES MUREAUX,France,6420,n.a.,n.a.,0,0,n.a.,n.a.,n.a.,n.a.,n.a.,n.a.,n.a.,n.a.,n.a.,n.a.,n.a.,n.a.,n.a.,n.a.,n.a.,n.a.
10,AIRBUS OPERATIONS,316 ROUTE DE BAYONNE,TOULOUSE,France,3030,n.a.,"12,384","11,627","10,454","9,453","8,550","7,009",n.a.,"6,427",0,n.a.,"20,699","20,225","20,250",n.a.,"20,125","16,993",n.a.,n.a.,n.a.
166,AIRBUS TRANSPORT INTERNATIONAL,12 RUE GABRIEL CLERC,BLAGNAC,France,5121,n.a.,162,165,145,147,132,118,111,117,116,n.a.,n.a.,n.a.,n.a.,n.a.,n.a.,n.a.,n.a.,n.a.,n.a.
452,AIRBY,32 AVENUE HOCHE,PARIS,France,5110,n.a.,3,3,3,3,3,0,0,0,0,n.a.,1,1,1,1,n.a.,n.a.,n.a.,n.a.,n.a.
,AIRFORGE,PARC TECHN LA PARDIEU,CLERMONT FERRAND,France,2550,n.a.,n.a.,n.a.,n.a.,n.a.,15,14,12,7,9,n.a.,n.a.,n.a.,n.a.,n.a.,n.a.,91,77,67,58
,"AIRWING CO., LTD.",520,"SHALU DIST., TAICHUNG CITY",Taiwan,4690,n.a.,n.a.,n.a.,n.a.,n.a.,n.a.,n.a.,n.a.,n.a.,n.a.,n.a.,n.a.,n.a.,n.a.,n.a.,n.a.,n.a.,n.a.,n.a.,n.a.
419,AIX EN PROVENCE ENERGIE ENVIRONNEMENT,43 AVENUE JEAN GIONO,AIX EN PROVENCE,France,3530,n.a.,6,6,6,6,7,n.a.,n.a.,n.a.,n.a.,n.a.,n.a.,n.a.,n.a.,n.a.,n.a.,n.a.,n.a.,n.a.,n.a.
255,AJINOMOTO EUROLYSINE SAS,Credit needed,Credit needed,Credit needed,Credit needed,n.a.,n.a.,n.a.,Credit needed,Credit needed,Credit needed,n.a.,n.a.,n.a.,n.a.,n.a.,n.a.,n.a.,n.a.,n.a.,n.a.,n.a.,n.a.,n.a.,n.a.
,AKDN LOGISTIQUE,Credit needed,Credit needed,Credit needed,Credit needed,n.a.,n.a.,n.a.,n.a.,n.a.,n.a.,n.a.,n.a.,n.a.,n.a.,n.a.,n.a.,n.a.,n.a.,n.a.,n.a.,n.a.,n.a.,n.a.,n.a.
233,AKERS FRANCE,CHEMIN DU LEIDT,THIONVILLE,France,2891,n.a.,n.a.,n.a.,n.a.,61,70,76,80,68,182,n.a.,n.a.,n.a.,n.a.,n.a.,n.a.,328,n.a.,n.a.,n.a.
,AL ATHEEL TRADING CO. (L.L.C.),PO BOX 51108,DUBAI,United Arab Emirates,,n.a.,n.a.,n.a.,n.a.,n.a.,n.a.,n.a.,n.a.,n.a.,n.a.,n.a.,n.a.,n.a.,n.a.,n.a.,n.a.,n.a.,n.a.,n.a.,n.a.
,ALA SERVICES LLC,704 GOODLETTE RD N,NAPLES,United States of America,5829,3,n.a.,n.a.,n.a.,n.a.,n.a.,n.a.,n.a.,n.a.,n.a.,35,n.a.,n.a.,n.a.,n.a.,n.a.,n.a.,n.a.,n.a.,n.a.
413,ALAMIGEON,99 ROUTE DE GOND PONTOUVRE,RUELLE SUR TOUVRE,France,1712,n.a.,n.a.,n.a.,6,6,8,8,11,10,n.a.,n.a.,n.a.,n.a.,n.a.,30,n.a.,27,32,36,n.a.
218,ALBIOMA BOIS-ROUGE,CAMBUSTON,ST ANDRE,Reunion (France),3511,n.a.,n.a.,90,87,94,105,n.a.,108,89,112,n.a.,n.a.,n.a.,n.a.,n.a.,n.a.,n.a.,n.a.,n.a.,n.a.
,ALBIOMA CARAIBES,ROUTE DE GARDEL,LE MOULE,Guadeloupe (France),3511,n.a.,n.a.,37,41,39,44,n.a.,0,0,0,n.a.,n.a.,37,n.a.,n.a.,n.a.,n.a.,n.a.,n.a.,n.a.
,ALBIOMA GALION,USINE DU GALION,ST-ESPRIT,Martinique (France),3511,n.a.,35,39,34,47,39,n.a.,n.a.,n.a.,n.a.,n.a.,7,n.a.,n.a.,n.a.,3,n.a.,n.a.,n.a.,n.a.
203,ALBIOMA LE GOL,1 ROUTE NATIONALE,ST LOUIS,Reunion (France),3530,n.a.,n.a.,103,100,100,113,116,111,101,126,n.a.,n.a.,n.a.,n.a.,n.a.,n.a.,n.a.,n.a.,n.a.,n.a.
275,ALBIOMA LE MOULE,ROUTE DE GARDEL,LE MOULE,Guadeloupe (France),3511,n.a.,n.a.,48,58,78,75,70,49,50,n.a.,n.a.,n.a.,n.a.,n.a.,n.a.,n.a.,n.a.,n.a.,n.a.,n.a.
,ALC SUISSE AG,MATTHOFSTRAND 8,LUZERN,Switzerland,7112,4,5,5,4,4,4,n.a.,n.a.,n.a.,n.a.,15,15,15,15,15,4,n.a.,n.a.,n.a.,n.a.
228,ALLARD EMBALLAGES,AVENUE ADRIEN ALLARD,BRIVE LA GAILLARDE,France,1721,n.a.,n.a.,81,79,67,64,n.a.,n.a.,n.a.,n.a.,n.a.,n.a.,409,439,n.a.,418,n.a.,n.a.,n.a.,n.a.
,ALN (BERMUDA) LTD.,CODAN SERVICES LIMITED,HAMILTON,Bermuda,6420,n.a.,n.a.,n.a.,n.a.,n.a.,n.a.,n.a.,n.a.,n.a.,n.a.,n.a.,n.a.,n.a.,n.a.,n.a.,n.a.,n.a.,n.a.,n.a.,n.a.
,ALPHA STAR AVIATION SERVICES COMPANY LIMITED,"ABU BAKER AL SIDDIQ ROAD, EXIT 6",RIYADH (AL),Saudi Arabia,3316,n.a.,n.a.,n.a.,n.a.,n.a.,n.a.,n.a.,n.a.,n.a.,n.a.,n.a.,n.a.,n.a.,n.a.,n.a.,n.a.,n.a.,n.a.,n.a.,n.a.
101,ALSTOM POWER SERVICE,204 ROND POINT DU PONT DE SEVRES,BOULOGNE BILLANCOURT,France,3314,n.a.,439,310,484,426,489,548,499,487,446,n.a.,"1,621",n.a.,"1,651","1,726",n.a.,"1,874","1,870","1,849","1,700"
514,ALSTOM POWER SYSTEMS SA,,,Brazil,2829,n.a.,n.a.,n.a.,n.a.,n.a.,n.a.,n.a.,n.a.,n.a.,n.a.,n.a.,n.a.,n.a.,n.a.,n.a.,n.a.,n.a.,n.a.,n.a.,n.a.
16,ALSTOM TRANSPORT SA,48 RUE ALBERT DHALENNE,ST OUEN,France,3020,n.a.,"3,795","3,473","3,240","3,421","3,165","3,496","3,270","3,466","3,148",n.a.,"8,862",n.a.,n.a.,"9,532","9,120","8,713","8,747","8,507","8,609"
152,ALTEO GARDANNE,ROUTE DE BIVER,GARDANNE,France,2442,n.a.,202,208,200,205,88,0,0,0,0,n.a.,n.a.,437,421,398,391,n.a.,n.a.,n.a.,n.a.
,ALTERNAE,49 ROUTE DE ROUEN,GISORS,France,4621,n.a.,139,145,153,140,117,128,83,97,103,n.a.,75,77,79,n.a.,n.a.,n.a.,34,32,35
165,ALTIS SEMICONDUCTOR,91 RUE DU FAUBOURG SAINT HONORE,PARIS,France,2611,n.a.,n.a.,n.a.,n.a.,n.a.,n.a.,132,n.a.,236,310,n.a.,n.a.,n.a.,n.a.,n.a.,n.a.,n.a.,n.a.,n.a.,n.a.
,ALTONA,"UL. BRESTSKAYA 1-YA D. 33, STR. 1, POM.I",MOSCOW,Russian Federation,4641,n.a.,1,0,n.a.,n.a.,n.a.,n.a.,n.a.,n.a.,n.a.,n.a.,12,2,n.a.,n.a.,n.a.,n.a.,n.a.,n.a.,n.a.
,ALTRIA CLIENT SERVICES,6840 CAROTHERS PKWY,FRANKLIN,United States of America,8299,0,n.a.,n.a.,n.a.,n.a.,n.a.,n.a.,n.a.,n.a.,n.a.,1,n.a.,n.a.,n.a.,n.a.,n.a.,n.a.,n.a.,n.a.,n.a.
,ALUMINIUM DUNKERQUE,17 PLACE DES REFLETS,COURBEVOIE,France,2442,n.a.,493,546,488,477,492,491,481,369,513,n.a.,548,675,612,618,n.a.,n.a.,n.a.,653,645
8,ANA HOLDINGS INC.,SHIODOME-CITY CENTER,TOKYO,Japan,5110,n.a.,"14,736","13,969","13,259","11,290","12,306","12,865","11,496","9,773","10,667",n.a.,"39,243","36,273","34,919","33,719","32,634","32,884","32,731","32,578","33,045"
72,ANDROS,Credit needed,Credit needed,Credit needed,Credit needed,n.a.,n.a.,n.a.,Credit needed,Credit needed,Credit needed,n.a.,n.a.,n.a.,n.a.,n.a.,n.a.,n.a.,n.a.,n.a.,n.a.,n.a.,n.a.,n.a.,n.a.
,ANISTANTE HOLDING LIMITED,NEOCLEOUS HOUSE,LIMASSOL,Cyprus,,n.a.,n.a.,n.a.,n.a.,n.a.,n.a.,n.a.,n.a.,n.a.,n.a.,n.a.,n.a.,n.a.,n.a.,n.a.,n.a.,n.a.,n.a.,n.a.,n.a.
437,ANNECY BIO-CHALEUR,2 B RUE DU RADAR,ANNECY,France,3530,n.a.,4,6,3,4,n.a.,0,n.a.,n.a.,n.a.,n.a.,n.a.,n.a.,n.a.,n.a.,n.a.,n.a.,n.a.,n.a.,n.a.
261,ANNUNZIATA FRANCE,21 RUE DE LA MAIGRETTE,BUXEUIL,France,1722,n.a.,n.a.,n.a.,n.a.,n.a.,n.a.,n.a.,n.a.,n.a.,n.a.,n.a.,n.a.,n.a.,n.a.,n.a.,n.a.,n.a.,n.a.,n.a.,n.a.
546,ANVIS FRANCE DECIZE,Credit needed,Credit needed,Credit needed,Credit needed,n.a.,n.a.,n.a.,n.a.,n.a.,n.a.,n.a.,n.a.,n.a.,n.a.,n.a.,n.a.,n.a.,n.a.,n.a.,n.a.,n.a.,n.a.,n.a.,n.a.
114,APERAM ALLOYS IMPHY,AVENUE JEAN JAURES,IMPHY,France,2445,n.a.,337,494,469,453,522,501,432,292,491,n.a.,749,853,840,817,n.a.,n.a.,658,n.a.,n.a.
,APERAM STAINLESS FRANCE,LA PLAINE ST DENIS,ST DENIS,France,2410,n.a.,941,"1,075","1,015",771,n.a.,0,0,0,0,n.a.,"1,127",n.a.,"1,172","1,323","1,436",n.a.,n.a.,n.a.,n.a.
,APEX OIL CO INC,8235 FORSYTH BLVD,SAINT LOUIS,United States of America,4671,"2,500",n.a.,n.a.,n.a.,n.a.,n.a.,n.a.,n.a.,n.a.,n.a.,375,n.a.,n.a.,n.a.,n.a.,n.a.,n.a.,n.a.,n.a.,n.a.
,API GROUP INC,1100 OLD HIGHWAY 8 NW,SAINT PAUL,United States of America,6420,"2,500",n.a.,n.a.,n.a.,n.a.,n.a.,n.a.,n.a.,n.a.,n.a.,"7,500",n.a.,n.a.,n.a.,n.a.,n.a.,n.a.,n.a.,n.a.,n.a.
,APPRYL SNC,ZONE ECOPOLIS NORD N 7,MARTIGUES,France,2016,n.a.,40,37,41,n.a.,45,41,34,35,38,n.a.,n.a.,n.a.,n.a.,n.a.,n.a.,n.a.,n.a.,n.a.,n.a.
91,ARC FRANCE,104 AVENUE DU GENERAL DE GAULLE,ARQUES,France,2313,n.a.,549,506,528,n.a.,n.a.,n.a.,n.a.,n.a.,n.a.,n.a.,"5,120","5,193","5,304",n.a.,n.a.,n.a.,n.a.,n.a.,n.a.
15,ARCELORMITTAL ATLANTIQUE ET LORRAINE,LA PLAINE ST DENIS IMMEUBLE LE CEZANNE,ST DENIS,France,2410,n.a.,"4,073","4,225","4,381","4,354","4,628","5,607","4,868","3,979","5,158",n.a.,"7,317","7,423","7,462","7,452","7,859","8,143",n.a.,n.a.,n.a.
,ARCELORMITTAL CONSTRUCTION FRANCE,SITE 1 ZONE INDUSTRIELLE,CONTRISSON,France,2433,n.a.,448,426,420,414,435,496,483,444,590,n.a.,977,"1,012",980,911,969,"1,013","1,087","1,149","1,069"
,ARCELORMITTAL GANDRANGE,SITE INDUSTRIEL GANDRANGE,GANDRANGE,France,2410,n.a.,n.a.,242,n.a.,275,245,506,451,226,557,n.a.,n.a.,n.a.,n.a.,n.a.,n.a.,n.a.,n.a.,n.a.,935
39,ARCELORMITTAL MEDITERRANEE,LA PLAINE ST DENIS IMMEUBLE LE CEZANNE,ST DENIS,France,2410,n.a.,"1,639","1,681","1,927","1,972","2,048","1,992","1,764","1,522","1,968",n.a.,"2,605",n.a.,"2,639","2,573",n.a.,n.a.,"2,651",n.a.,n.a.
339,ARCHEMIS,24 AVENUE JEAN JAURES,DECINES CHARPIEU,France,7219,n.a.,n.a.,n.a.,n.a.,n.a.,n.a.,n.a.,n.a.,n.a.,n.a.,n.a.,n.a.,n.a.,n.a.,n.a.,n.a.,n.a.,n.a.,n.a.,n.a.
36,AREVA NC,TOUR AREVA,COURBEVOIE,France,2013,"1,715","3,228","3,345","3,020","3,395","2,632","2,652","3,684","3,064","3,524","7,715","8,012","8,565","8,871","6,946",n.a.,"6,067","6,653","6,702",n.a.
,AREVA NP,TOUR AREVA,COURBEVOIE,France,3311,n.a.,"2,613","2,850","2,790","2,771","2,517","2,340","2,174","2,069","1,729",n.a.,"9,591","10,091","10,329","6,739",n.a.,"5,297","5,379","5,173","4,705"
,ARG MANGUEIRAS LTDA, AV CAVALHEIRO JOSE FARINA 389 SALA B,BENTO GONCALVES,Brazil,4752,n.a.,1,n.a.,n.a.,n.a.,n.a.,n.a.,n.a.,n.a.,n.a.,n.a.,36,n.a.,n.a.,n.a.,n.a.,n.a.,n.a.,n.a.,n.a.
,ARGEVAL,3 RUE AMBROISE CROIZAT,ARGENTEUIL,France,3530,n.a.,4,4,4,3,2,0,0,n.a.,n.a.,n.a.,n.a.,n.a.,n.a.,n.a.,n.a.,n.a.,n.a.,n.a.,n.a.
37,ARIANEGROUP SAS,7 11 TOUR,PARIS,France,3030,n.a.,"1,841","1,238",0,0,0,0,0,0,n.a.,n.a.,"3,877",179,n.a.,n.a.,n.a.,n.a.,n.a.,n.a.,n.a.
220,ARJOWIGGINS LE BOURRAY,LIEU DIT LE BOURRAY,ST MARS LA BRIERE,France,1712,n.a.,92,90,90,89,92,84,88,88,94,n.a.,266,260,262,n.a.,n.a.,n.a.,252,n.a.,n.a.
139,ARJOWIGGINS PAPIERS COUCHES,32 AVENUE PIERRE GRENIER,BOULOGNE BILLANCOURT,France,1712,n.a.,252,281,329,337,335,349,358,319,384,n.a.,898,847,"1,024",886,934,941,952,950,906
346,ARJOWIGGINS RIVES,ZONE ARTISANALE CHAMPFEUILLET,VOIRON,France,7211,n.a.,18,34,48,48,49,53,52,47,60,n.a.,39,122,178,183,182,n.a.,204,207,n.a.
208,ARJOWIGGINS SECURITY,32 AVENUE PIERRE GRENIER,BOULOGNE BILLANCOURT,France,1712,n.a.,102,173,212,204,211,214,179,172,156,n.a.,287,359,348,45,n.a.,52,n.a.,n.a.,295
25,ARKEMA FRANCE,420 RUE D ESTIENNE D ORVES,COLOMBES,France,2014,n.a.,"2,558","2,610","2,775","2,909","3,482","4,022","3,347","2,643","3,543",n.a.,"5,073","5,048","5,056","5,055","5,729","6,199",n.a.,"6,357","6,515"
167,ARLANXEO EMULSION RUBBER FRANCE SAS,RUE DU RIED,LA WANTZENAU,France,2017,n.a.,159,159,205,196,258,292,199,116,192,n.a.,286,n.a.,n.a.,n.a.,n.a.,n.a.,n.a.,322,334
,ARMAVIA AVIACOMPANY LLC,625 W STOCKER ST,GLENDALE,United States of America,,n.a.,n.a.,n.a.,n.a.,n.a.,n.a.,n.a.,n.a.,n.a.,n.a.,n.a.,n.a.,n.a.,n.a.,n.a.,n.a.,n.a.,n.a.,n.a.,n.a.
,ARMBRUSTER FRERES,68 RUE DU LOGELBACH,COLMAR,France,4621,n.a.,n.a.,n.a.,98,142,n.a.,n.a.,n.a.,n.a.,118,n.a.,n.a.,n.a.,119,119,n.a.,n.a.,n.a.,n.a.,n.a.
,ARMSTRONG BUILDING PRODUCTS,67 RUE DE SALINS,PONTARLIER,France,2399,n.a.,72,70,78,75,79,83,83,78,96,n.a.,n.a.,203,198,219,225,n.a.,242,253,n.a.
,ARTEMIS,12 RUE FRANCOIS 1ER,PARIS,France,6420,n.a.,n.a.,10,8,8,n.a.,7,7,8,9,n.a.,n.a.,1,n.a.,1,n.a.,n.a.,n.a.,n.a.,n.a.
427,ARTOIS ENERGIES,37 AVENUE DE LATTRE DE TASSIGNY,ST ANDRE LEZ LILLE,France,3511,n.a.,5,6,7,8,8,9,8,8,9,n.a.,n.a.,n.a.,n.a.,n.a.,n.a.,n.a.,n.a.,n.a.,n.a.
106,ASCO INDUSTRIES,WEIVELDLAAN 2,ZAVENTEM,Belgium,3030,n.a.,401,386,273,265,248,209,192,205,217,n.a.,893,893,879,851,773,709,674,676,673
134,ASCOMETAL,IMMEUBLE,LA GARENNE COLOMBES,France,2410,n.a.,n.a.,n.a.,227,n.a.,739,"1,007",788,425,"1,118",n.a.,n.a.,n.a.,n.a.,n.a.,n.a.,n.a.,"2,370","2,566","2,751"
169,ASL AIRLINES FRANCE S A,15 RUE DU HAUT DE LAVAL,TREMBLAY EN FRANCE,France,5121,n.a.,158,191,203,208,259,270,260,244,270,n.a.,365,365,382,393,n.a.,n.a.,473,n.a.,n.a.
551,ASS GROUP RECHER APPLI HOSPITALIERES,Credit needed,Credit needed,Credit needed,Credit needed,n.a.,n.a.,n.a.,n.a.,n.a.,n.a.,n.a.,n.a.,n.a.,n.a.,n.a.,n.a.,n.a.,n.a.,n.a.,n.a.,n.a.,n.a.,n.a.,n.a.
545,ASS LA P'TITE FAC,Credit needed,Credit needed,Credit needed,Credit needed,n.a.,n.a.,n.a.,n.a.,n.a.,n.a.,n.a.,n.a.,n.a.,n.a.,n.a.,n.a.,n.a.,n.a.,n.a.,n.a.,n.a.,n.a.,n.a.,n.a.
548,ASSOC POUR GEOTHERMIE SUD VAL DE MARNE,Credit needed,Credit needed,Credit needed,Credit needed,n.a.,n.a.,n.a.,n.a.,n.a.,n.a.,n.a.,n.a.,n.a.,n.a.,n.a.,n.a.,n.a.,n.a.,n.a.,n.a.,n.a.,n.a.,n.a.,n.a.
557,ASSOCIATION DE FORMATION MEDICALE MULHOUSIENNE,Credit needed,Credit needed,Credit needed,Credit needed,n.a.,n.a.,n.a.,n.a.,n.a.,n.a.,n.a.,n.a.,n.a.,n.a.,n.a.,n.a.,n.a.,n.a.,n.a.,n.a.,n.a.,n.a.,n.a.,n.a.
273,ATEMAX FRANCE,RESIDENCE LES PORTES DE L ATLANTIQUE,LE MANS,France,3812,n.a.,n.a.,n.a.,n.a.,n.a.,n.a.,40,39,36,n.a.,n.a.,n.a.,n.a.,n.a.,n.a.,n.a.,191,199,189,n.a.
60,AUBERT & DUVAL,TOUR MONTPARNASSE,PARIS,France,2550,n.a.,878,852,841,804,814,805,668,598,893,n.a.,"3,726","3,440","3,323","3,518",n.a.,"3,229","3,422",n.a.,"3,487"
361,AUBRY,LA CHEVALERIE LA CHEVALERIE,LE CHATEAU-D'OLERON,France,4638,n.a.,16,15,21,22,22,17,12,10,11,n.a.,n.a.,n.a.,n.a.,n.a.,n.a.,n.a.,n.a.,n.a.,n.a.
418,AUCHELAINE,BD JACQUES DEWAVRIN,AUCHEL,France,1310,n.a.,n.a.,n.a.,n.a.,n.a.,n.a.,n.a.,n.a.,n.a.,n.a.,n.a.,n.a.,n.a.,n.a.,n.a.,n.a.,n.a.,n.a.,n.a.,n.a.
414,AULNAY ENERGIE SERVICES,5 RUE DU DOCTEUR FLEMING,AULNAY SOUS BOIS,France,3530,n.a.,7,7,7,8,8,7,7,7,8,n.a.,n.a.,n.a.,n.a.,n.a.,n.a.,n.a.,n.a.,n.a.,n.a.
70,AUTO CHASSIS INTERNATIONAL,13 QUAI ALPHONSE LE GALLO,BOULOGNE BILLANCOURT,France,2932,n.a.,727,648,593,559,587,n.a.,647,596,693,n.a.,n.a.,n.a.,195,n.a.,n.a.,n.a.,n.a.,n.a.,n.a.
,AVENTIS PRINCIPES ACTIFS PHARMACEUTIQUES,20 AV RAYMOND ARON,ANTONY,France,2110,n.a.,n.a.,n.a.,n.a.,n.a.,n.a.,n.a.,n.a.,n.a.,n.a.,n.a.,n.a.,n.a.,n.a.,n.a.,n.a.,n.a.,n.a.,n.a.,n.a.
472,AVIALAIR,8 RUE HENRI LOSSIER ADP LE BOURGET,BONNEUIL EN FRANCE,France,4614,n.a.,n.a.,n.a.,1,n.a.,0,n.a.,n.a.,n.a.,n.a.,n.a.,n.a.,n.a.,n.a.,n.a.,n.a.,n.a.,n.a.,n.a.,n.a.
,AVIATION 604 AG,C/O IAW HOLDING AG,ZUG,Switzerland,5223,4,5,5,4,4,4,n.a.,n.a.,n.a.,n.a.,4,4,4,4,4,4,6,6,n.a.,n.a.
,AVIATRAX SA,"17, BLD ROYAL",LUXEMBOURG,Luxembourg,5223,n.a.,n.a.,n.a.,n.a.,n.a.,n.a.,n.a.,n.a.,n.a.,n.a.,n.a.,n.a.,n.a.,n.a.,n.a.,n.a.,n.a.,n.a.,n.a.,n.a.
,AXENS,89 BOULEVARD FRANKLIN ROOSEVELT,RUEIL MALMAISON,France,2059,n.a.,577,556,514,482,502,535,n.a.,420,586,n.a.,"1,171",n.a.,"1,068","1,012",999,958,n.a.,n.a.,n.a.
,B2 FLIGHT LLC C,2250 NE 25TH AVE,HILLSBORO,United States of America,3030,n.a.,n.a.,n.a.,n.a.,n.a.,n.a.,n.a.,n.a.,n.a.,n.a.,1,n.a.,n.a.,n.a.,n.a.,n.a.,n.a.,n.a.,n.a.,n.a.
,BANCO SAFRA,AVENIDA PAULISTA 2100 FLOOR 16,SAO PAULO,Brazil,6419,n.a.,"2,057","1,266","1,581","1,811","1,884","1,574",n.a.,n.a.,n.a.,n.a.,"5,876","5,752","5,824",n.a.,n.a.,n.a.,n.a.,n.a.,n.a.
162,BASF HEALTH AND CARE PRODUCTS FRANCE SAS,49 AVENUE GEORGES POMPIDOU,LEVALLOIS PERRET,France,2014,n.a.,174,190,182,182,219,341,290,237,322,n.a.,220,221,220,253,n.a.,n.a.,n.a.,480,522
264,BASF PERFORMANCE PRODUCTS FRANCE SAS,28 RUE DE LA CHAPELLE,HUNINGUE,France,2012,n.a.,58,67,90,109,114,171,230,281,380,n.a.,116,132,193,245,n.a.,n.a.,n.a.,n.a.,530
,BEACH CAPITAL MANAGEMENT,1514 PERIMETER RD,WEST PALM BEACH,United States of America,6612,15,n.a.,n.a.,n.a.,n.a.,n.a.,n.a.,n.a.,n.a.,n.a.,n.a.,n.a.,n.a.,n.a.,n.a.,n.a.,n.a.,n.a.,n.a.,n.a.
,BEFESA VALERA S A S,,,France,,n.a.,n.a.,n.a.,n.a.,n.a.,n.a.,n.a.,n.a.,n.a.,n.a.,n.a.,n.a.,n.a.,n.a.,n.a.,n.a.,n.a.,n.a.,n.a.,n.a.
42,BEGHIN-SAY,"12, RUE JOSEPH BEGHIN",THUMERIES,France,1081,n.a.,n.a.,n.a.,n.a.,n.a.,n.a.,n.a.,n.a.,n.a.,n.a.,n.a.,n.a.,n.a.,n.a.,n.a.,n.a.,n.a.,n.a.,n.a.,n.a.
,BELAIR AVIATION LLC,3 MANHATTANVILLE RD,PURCHASE,United States of America,3030,n.a.,0,n.a.,n.a.,n.a.,n.a.,n.a.,n.a.,n.a.,n.a.,n.a.,1,n.a.,n.a.,n.a.,n.a.,n.a.,n.a.,n.a.,n.a.
,BERNARD PRODUCTIONS VEGETALES,179 ROUTE DE TREVOUX,ST ANDRE DE CORCY,France,4621,n.a.,78,84,81,105,92,78,n.a.,n.a.,n.a.,n.a.,119,117,125,110,100,95,n.a.,n.a.,n.a.
,BERRY TUFT,ZONE INDUSTRIELLE N 2,LE POINCONNET,France,6820,n.a.,n.a.,0,0,1,1,1,0,1,0,n.a.,n.a.,n.a.,n.a.,n.a.,n.a.,n.a.,n.a.,n.a.,n.a.
240,BIO SPRINGER,Credit needed,Credit needed,Credit needed,Credit needed,n.a.,n.a.,n.a.,Credit needed,Credit needed,n.a.,Credit needed,n.a.,n.a.,n.a.,n.a.,n.a.,n.a.,n.a.,n.a.,n.a.,n.a.,n.a.,n.a.,n.a.
,BIOENERGIE DU SUD OUEST,ROCADE SUD D ARANCE,MONT,France,2014,n.a.,139,163,171,194,182,222,165,164,75,n.a.,65,65,65,n.a.,74,74,73,70,69
,BLOYET,ROUTE DE VANNES,ALLAIRE,France,4932,n.a.,n.a.,n.a.,1,1,1,1,1,1,1,n.a.,n.a.,n.a.,10,n.a.,7,8,8,7,7
181,BLUE PAPER,4 RUE CHARLES FRIEDEL,STRASBOURG,France,1712,n.a.,n.a.,136,99,8,n.a.,n.a.,n.a.,n.a.,n.a.,n.a.,n.a.,n.a.,n.a.,n.a.,n.a.,n.a.,n.a.,n.a.,n.a.
66,BONDUELLE CONSERVE INTERNATIONAL,Credit needed,Credit needed,Credit needed,Credit needed,n.a.,n.a.,n.a.,n.a.,n.a.,n.a.,Credit needed,Credit needed,Credit needed,Credit needed,n.a.,n.a.,n.a.,n.a.,n.a.,n.a.,Credit needed,Credit needed,Credit needed,Credit needed
62,BONDUELLE EUROPE LONG LIFE,RUE DE LA WOESTYNE,RENESCURE,France,1039,742,727,782,730,716,749,163,82,171,202,"2,271","2,534","2,437","1,972","1,867",n.a.,8,10,10,10
187,BONILAIT PROTEINES,BONNILLET,CHASSENEUIL DU POITOU,France,1051,n.a.,136,130,166,163,153,149,125,98,114,n.a.,226,230,228,223,n.a.,n.a.,n.a.,n.a.,n.a.
401,BORALEX BLENDECQUES SAS,71 RUE JEAN JAURES,BLENDECQUES,France,3530,n.a.,8,10,12,13,14,13,12,11,15,n.a.,n.a.,n.a.,n.a.,n.a.,n.a.,n.a.,n.a.,n.a.,n.a.
,BORDEAU SA,LES POIRIERS,BRENOUILLE,France,4621,n.a.,n.a.,n.a.,n.a.,n.a.,n.a.,n.a.,n.a.,n.a.,n.a.,n.a.,n.a.,n.a.,n.a.,n.a.,n.a.,n.a.,n.a.,n.a.,n.a.
,BORDELAISE DE MATERIAUX ENROBES,PARC ACTIVITES JACQUOTTE,FLOIRAC,France,2399,n.a.,11,8,11,11,12,11,10,9,13,n.a.,4,5,5,n.a.,5,6,3,6,7
125,BOREALIS CHIMIE,20 T RUE DE BEZONS,COURBEVOIE,France,2015,n.a.,290,384,391,501,534,535,444,449,801,n.a.,626,676,687,721,n.a.,736,814,903,n.a.
,BOREALIS-PRODUITS ET ENGRAIS CHIMIQUES DU RHIN,ZONE INDUSTRIELLE,OTTMARSHEIM,France,2015,n.a.,n.a.,168,171,152,n.a.,129,115,105,184,n.a.,n.a.,n.a.,n.a.,n.a.,n.a.,n.a.,n.a.,n.a.,n.a.
,BOSCH SYSTEMES DE FREINAGE,126 RUE DE STALINGRAD,DRANCY,France,2811,n.a.,n.a.,n.a.,n.a.,n.a.,n.a.,n.a.,n.a.,n.a.,n.a.,n.a.,n.a.,n.a.,n.a.,n.a.,n.a.,n.a.,n.a.,n.a.,n.a.
,BOULDER AVIATION MANAGEMENT,9596 METRO AIRPORT AVE,BROOMFIELD,United States of America,7112,n.a.,n.a.,n.a.,n.a.,n.a.,n.a.,2,n.a.,n.a.,n.a.,n.a.,n.a.,n.a.,n.a.,n.a.,n.a.,7,n.a.,n.a.,n.a.
429,BOURGES-BIO-ENERGIE SERVICES,AVENUE DE LA PROSPECTIVE,BOURGES,France,3530,n.a.,5,5,5,5,6,11,6,15,5,n.a.,n.a.,n.a.,n.a.,n.a.,n.a.,n.a.,n.a.,n.a.,n.a.
161,BOUYER LEROUX,LIEU DIT L ETABLERE,LA SEGUINIERE,France,2332,n.a.,168,146,n.a.,n.a.,n.a.,n.a.,n.a.,n.a.,n.a.,n.a.,884,864,n.a.,n.a.,n.a.,n.a.,n.a.,n.a.,n.a.
243,BOUYER LEROUX STRUCTURE,LIEU DIT L ETABLERE,LA SEGUINIERE,France,2332,n.a.,n.a.,69,n.a.,n.a.,0,0,n.a.,n.a.,n.a.,n.a.,n.a.,328,n.a.,n.a.,n.a.,n.a.,n.a.,n.a.,n.a.
123,BRAAS GMBH,FRANKFURTER LANDSTR. 2 -4,OBERURSEL,Germany,4673,n.a.,n.a.,288,285,272,291,313,286,239,246,n.a.,n.a.,"1,060","1,069","1,116","1,208","1,197","1,168","1,210","1,335"
518,BRASSERIE DE SAINT OMER LTEE,13A DAUPHINE STREET,PORT LOUIS,Mauritius,,n.a.,n.a.,n.a.,n.a.,n.a.,n.a.,n.a.,n.a.,n.a.,n.a.,n.a.,n.a.,n.a.,n.a.,n.a.,n.a.,n.a.,n.a.,n.a.,n.a.
502,BRIE CHAMPAGNE ETHANOL,Credit needed,Credit needed,Credit needed,Credit needed,n.a.,n.a.,n.a.,Credit needed,Credit needed,n.a.,n.a.,n.a.,n.a.,n.a.,n.a.,n.a.,n.a.,n.a.,n.a.,n.a.,n.a.,n.a.,n.a.,n.a.
497,BRIQUETERIE DE ROUFFACH,1 RUE DE LA TUILERIE,ROUFFACH,France,2332,n.a.,n.a.,0,n.a.,n.a.,0,1,4,5,6,n.a.,n.a.,n.a.,n.a.,n.a.,n.a.,n.a.,n.a.,n.a.,35
349,BRIQUETERIES DU NORD,9 EME RUE 9 EME RUE,LILLE,France,2332,n.a.,17,15,16,17,17,18,17,20,22,n.a.,73,n.a.,83,88,n.a.,n.a.,n.a.,n.a.,106
,BRITISH STEEL FRANCE RAIL,164 RUE MARECHAL FOCH,HAYANGE,France,2410,n.a.,n.a.,333,320,284,248,256,265,256,361,n.a.,n.a.,419,n.a.,n.a.,n.a.,n.a.,n.a.,n.a.,n.a.
515,BUSNEL S.A.,,,Brazil,6420,n.a.,n.a.,n.a.,n.a.,n.a.,n.a.,n.a.,n.a.,n.a.,n.a.,n.a.,36,n.a.,n.a.,n.a.,n.a.,n.a.,n.a.,n.a.,n.a.
107,BUTACHIMIE,Credit needed,Credit needed,Credit needed,Credit needed,n.a.,Credit needed,n.a.,Credit needed,Credit needed,n.a.,n.a.,n.a.,n.a.,n.a.,n.a.,n.a.,n.a.,n.a.,n.a.,n.a.,n.a.,n.a.,n.a.,n.a.
309,CABOT CARBONE,AVENUE DE PORT JEROME,LILLEBONNE,France,2013,n.a.,29,29,33,33,35,116,101,64,103,n.a.,86,89,90,91,99,79,75,n.a.,n.a.
416,CALAIS ENERGIE,ZAC MARCEL DORET,CALAIS,France,3530,n.a.,6,8,9,9,6,6,6,6,6,n.a.,n.a.,n.a.,n.a.,n.a.,n.a.,n.a.,n.a.,n.a.,n.a.
496,CALLET ENTREPRISES,10 AVENUE DE FONTCOUVERTE,AVIGNON,France,6420,n.a.,0,0,0,0,0,0,0,0,0,n.a.,n.a.,n.a.,n.a.,n.a.,n.a.,2,5,3,3
,CALVIN KLEIN STUDIO LLC,STE 1040 N STE 1040N,SANTA MONICA,United States of America,,n.a.,n.a.,n.a.,n.a.,n.a.,n.a.,n.a.,n.a.,n.a.,n.a.,n.a.,n.a.,n.a.,n.a.,n.a.,n.a.,n.a.,n.a.,n.a.,15
,CANELIA PETIT FAYT BEURRE,49 RUE DU VILLAGE,PETIT FAYT,France,4729,n.a.,n.a.,137,164,114,131,154,167,112,n.a.,n.a.,n.a.,111,105,99,n.a.,102,113,110,n.a.
,CANELIA ROUVROY POUDRE,ROUTE DEPARTEMENTALE 978,ROUVROY SUR AUDRY,France,1051,n.a.,n.a.,n.a.,n.a.,n.a.,n.a.,n.a.,133,98,n.a.,n.a.,n.a.,n.a.,n.a.,n.a.,n.a.,n.a.,n.a.,66,n.a.
254,CANSON,GRAND MURIER,ANNONAY,France,1723,n.a.,63,n.a.,n.a.,n.a.,59,n.a.,n.a.,n.a.,n.a.,n.a.,259,n.a.,n.a.,n.a.,n.a.,n.a.,n.a.,n.a.,n.a.
448,CANTELEU ENERGIE,55 AVENUE DE BUCHHOLZ,CANTELEU,France,3511,n.a.,3,3,4,5,2,0,n.a.,n.a.,n.a.,n.a.,n.a.,n.a.,n.a.,n.a.,n.a.,n.a.,n.a.,n.a.,n.a.
18,CARGILL FRANCE,TOUR WINTHERTUR,PUTEAUX,France,4621,n.a.,"3,023","3,217","3,571","3,838","3,555","3,284",0,0,0,n.a.,933,983,n.a.,"1,007","1,183","1,264",n.a.,n.a.,n.a.
126,CARGILL HAUBOURDIN SAS,7 RUE DU MARECHAL JOFFRE,HAUBOURDIN,France,1062,271,276,321,298,346,342,n.a.,289,315,337,364,n.a.,n.a.,398,522,n.a.,n.a.,n.a.,n.a.,n.a.
287,CARRIERES & FOURS A CHAUX DE DUGNY,JARDINS BOIELDIEU,PUTEAUX,France,2352,n.a.,42,41,48,47,50,50,41,40,69,n.a.,82,86,84,82,81,80,85,100,109
320,CARRIERES ET CHAUX BALTHAZARD ET COTTE,ZONE ARTISANALE DE PRA PARIS,SASSENAGE,France,2352,n.a.,26,29,32,31,28,29,28,26,31,n.a.,67,69,68,n.a.,67,n.a.,n.a.,66,71
,CARTIER EUROPE B.V.,HERENGRACHT 436,AMSTERDAM,Netherlands,7022,n.a.,n.a.,6,7,9,8,7,6,6,6,n.a.,7,n.a.,7,n.a.,n.a.,n.a.,n.a.,7,7
324,CARTONNERIE OUDIN,RUE DE LA CARTONNERIE,TRUYES,France,1712,n.a.,25,23,22,21,21,20,18,15,17,n.a.,77,82,80,82,n.a.,85,n.a.,82,n.a.
164,CATERPILLAR FRANCE,40 AVENUE LEON BLUM,GRENOBLE,France,2892,n.a.,164,182,219,221,215,239,203,196,256,n.a.,"1,436","1,545","1,620","1,717","1,976",n.a.,"1,865","2,311","2,667"
112,CECA SA,89 BOULEVARD NATIONAL,LA GARENNE COLOMBES,France,2013,n.a.,n.a.,334,331,313,323,337,289,253,309,n.a.,n.a.,630,629,625,628,621,615,626,649
236,CELIA - S.R.L.,VIA BARBERINI 28,ROMA,Italy,,n.a.,n.a.,n.a.,n.a.,n.a.,n.a.,n.a.,n.a.,n.a.,n.a.,n.a.,n.a.,n.a.,n.a.,n.a.,n.a.,n.a.,n.a.,n.a.,n.a.
,CELIA-LAITERIE DE CRAON,Credit needed,Credit needed,Credit needed,Credit needed,n.a.,Credit needed,n.a.,n.a.,Credit needed,Credit needed,n.a.,n.a.,n.a.,n.a.,n.a.,n.a.,n.a.,n.a.,n.a.,n.a.,n.a.,n.a.,n.a.,n.a.
,CELINA AVIATION LTD.,APPLEBY,HAMILTON,Bermuda,5223,n.a.,n.a.,n.a.,n.a.,n.a.,n.a.,n.a.,n.a.,n.a.,n.a.,n.a.,n.a.,n.a.,n.a.,n.a.,n.a.,n.a.,n.a.,n.a.,n.a.
151,CELSA FRANCE,RUE MAURICE PERSE,BOUCAU,France,2410,n.a.,203,213,290,306,495,495,401,341,498,n.a.,182,64,199,n.a.,n.a.,249,252,248,254
396,CENEVIA,TOUR EUROPE,COURBEVOIE,France,3530,n.a.,9,10,9,11,11,8,0,n.a.,n.a.,n.a.,n.a.,n.a.,n.a.,n.a.,n.a.,n.a.,n.a.,n.a.,n.a.
299,CENPA,5 RUE DE LA GARE,SCHWEIGHOUSE SUR MODER,France,1712,n.a.,33,33,31,33,30,35,33,26,32,n.a.,79,n.a.,n.a.,n.a.,n.a.,n.a.,n.a.,n.a.,n.a.
542,CENTRE HOSPITALIER DE VALENCIENNES,Credit needed,Credit needed,Credit needed,Credit needed,n.a.,n.a.,n.a.,n.a.,n.a.,n.a.,n.a.,n.a.,n.a.,n.a.,n.a.,n.a.,n.a.,n.a.,n.a.,n.a.,n.a.,n.a.,n.a.,n.a.
,CENTRE HOSPITALIER LA GRANDE,199 RUE JOLLIET,RADISSON,Canada,8710,0,n.a.,n.a.,n.a.,n.a.,n.a.,n.a.,n.a.,n.a.,n.a.,7,n.a.,n.a.,n.a.,n.a.,n.a.,n.a.,n.a.,n.a.,n.a.
543,CENTRE HOSPITALIER LE VINATIER,Credit needed,Credit needed,Credit needed,Credit needed,n.a.,n.a.,n.a.,n.a.,n.a.,n.a.,n.a.,n.a.,n.a.,n.a.,n.a.,n.a.,n.a.,n.a.,n.a.,n.a.,n.a.,n.a.,n.a.,n.a.
540,CENTRE HOSPITALIER REGIONAL DE MARSEILLE,Credit needed,Credit needed,Credit needed,Credit needed,n.a.,n.a.,n.a.,n.a.,n.a.,n.a.,n.a.,n.a.,n.a.,n.a.,n.a.,n.a.,n.a.,n.a.,n.a.,n.a.,n.a.,n.a.,n.a.,n.a.
541,CENTRE HOSPITALIER UNIVERSITAIRE,Credit needed,Credit needed,Credit needed,Credit needed,n.a.,n.a.,n.a.,n.a.,n.a.,n.a.,n.a.,n.a.,n.a.,n.a.,n.a.,n.a.,n.a.,n.a.,n.a.,n.a.,n.a.,n.a.,n.a.,n.a.
88,CENTRE HOSPITALIER UNIVERSITAIRE DE DIJON,Credit needed,Credit needed,Credit needed,Credit needed,n.a.,n.a.,n.a.,n.a.,n.a.,n.a.,Credit needed,n.a.,n.a.,n.a.,n.a.,n.a.,n.a.,n.a.,n.a.,n.a.,n.a.,n.a.,n.a.,n.a.
,CENTRE HOSPITALIER UNIVERSITAIRE DE POITIERS,Credit needed,Credit needed,Credit needed,Credit needed,n.a.,n.a.,n.a.,n.a.,n.a.,n.a.,n.a.,n.a.,n.a.,n.a.,n.a.,n.a.,n.a.,n.a.,n.a.,n.a.,n.a.,n.a.,n.a.,n.a.
,CENTRE HOSPITALIER VICTOR DUPOUY,Credit needed,Credit needed,Credit needed,Credit needed,n.a.,n.a.,n.a.,n.a.,n.a.,n.a.,n.a.,n.a.,n.a.,n.a.,n.a.,n.a.,n.a.,n.a.,n.a.,n.a.,n.a.,n.a.,n.a.,n.a.
41,CENTRE NATIONAL D'ETUDES SPATIALES,2 PLACE MAURICE QUENTIN,PARIS,France,7219,n.a.,n.a.,n.a.,n.a.,n.a.,n.a.,n.a.,n.a.,n.a.,"1,171",n.a.,n.a.,n.a.,n.a.,n.a.,n.a.,n.a.,n.a.,n.a.,n.a.
,CENTRE OUEST CEREALES,ZAE DE CHALEMBERT,JAUNAY MARIGNY,France,4621,n.a.,263,278,279,351,326,30,169,272,185,n.a.,n.a.,134,141,137,135,130,125,n.a.,101
128,CEREAL PARTNERS FRANCE,7 BOULEVARD PIERRE CARLE,NOISIEL,France,1061,n.a.,284,284,303,315,365,n.a.,389,397,421,n.a.,n.a.,n.a.,608,648,n.a.,n.a.,n.a.,585,n.a.
,CEREC,2 RUE RENE FOURCHET,RECQUIGNIES,France,2550,n.a.,17,16,10,0,n.a.,0,n.a.,n.a.,n.a.,n.a.,4,n.a.,104,n.a.,n.a.,n.a.,n.a.,n.a.,n.a.
351,CHALON'ENERGIE,16 BOULEVARD DE LA REPUBLIQUE,CHALON SUR SAONE,France,3530,n.a.,17,18,22,17,26,22,19,22,18,n.a.,n.a.,n.a.,n.a.,n.a.,n.a.,n.a.,n.a.,n.a.,n.a.
,CHALONS ENERGIES,6 RUE DES TREZELOTS,PULNOY,France,3511,n.a.,3,4,4,4,8,10,9,9,11,n.a.,n.a.,n.a.,n.a.,n.a.,n.a.,n.a.,n.a.,n.a.,n.a.
,CHARTON,4 PLACE CHARLES HERNU,VILLEURBANNE,France,5610,n.a.,5,5,5,5,5,5,5,4,4,n.a.,n.a.,n.a.,n.a.,n.a.,n.a.,n.a.,n.a.,n.a.,n.a.
310,CHAUX DE PROVENCE - SACAM,1525 ANCIENNE ROUTE DE MARTIGUES,CHATEAUNEUF LES MARTIGUES,France,2352,n.a.,30,29,22,24,23,19,17,18,21,n.a.,27,27,29,25,n.a.,26,n.a.,24,n.a.
381,CHAUX DE SAINT ASTIER,LIEU DIT LA JARTHE,ST ASTIER,France,2352,n.a.,n.a.,n.a.,n.a.,9,10,10,11,10,9,n.a.,n.a.,n.a.,n.a.,44,41,40,37,37,37
277,CHAUX ET DOLOMIE FRANCAISES,Credit needed,Credit needed,Credit needed,Credit needed,n.a.,n.a.,n.a.,n.a.,n.a.,n.a.,n.a.,n.a.,Credit needed,Credit needed,n.a.,n.a.,n.a.,n.a.,n.a.,n.a.,n.a.,n.a.,n.a.,Credit needed
270,CHAUX ET DOLOMIES DU BOULONNAIS,102 JARDINS BOIELDIEU,PUTEAUX,France,2352,n.a.,53,61,74,77,84,84,73,67,90,n.a.,71,74,76,74,75,76,75,78,83
397,CHELLES CHALEUR,62 RUE DE LA BELLE ILE,CHELLES,France,3530,n.a.,9,9,9,9,8,8,8,7,7,n.a.,n.a.,n.a.,n.a.,n.a.,n.a.,n.a.,n.a.,n.a.,n.a.
,CHINA CARGO AIRLINES LTD.,CHINA CARGO AIRLINES BUILDING,SHANGHAI,China,5121,n.a.,454,555,n.a.,n.a.,n.a.,n.a.,n.a.,n.a.,n.a.,n.a.,610,610,n.a.,n.a.,n.a.,n.a.,n.a.,n.a.,n.a.
509,CICEO SRL,STR. STEFAN CEL MARE NR. 2 BL. A AP. 3,MANGALIA,Romania,4751,n.a.,0,0,0,0,n.a.,n.a.,n.a.,n.a.,n.a.,n.a.,0,0,0,0,n.a.,n.a.,n.a.,n.a.,n.a.
,CIE IBM FRANCE,17 AVENUE DE L EUROPE,BOIS COLOMBES,France,6203,n.a.,"2,880","2,991","3,033","3,212","3,443","3,498","3,587","3,570","4,016",n.a.,"6,982","7,270",n.a.,n.a.,"9,313","9,730","9,922","10,323","10,208"
81,CIMENTS CALCIA,RUE DES TECHNODES,GUERVILLE,France,2351,n.a.,645,651,714,780,897,960,927,896,"1,068",n.a.,"1,321","1,364","1,370","1,369","1,383","1,398","1,421","1,444","1,446"
307,CLARIANT PRODUCTION (FRANCE),6 RUE LOUISE MICHEL,CHOISY LE ROI,France,2059,n.a.,31,82,114,169,184,110,145,93,130,n.a.,47,321,317,398,421,211,318,280,327
474,CLARIANT SERVICES (FRANCE),6 RUE LOUISE MICHEL,CHOISY LE ROI,France,7010,n.a.,1,2,2,0,1,1,10,21,22,n.a.,n.a.,n.a.,n.a.,n.a.,8,n.a.,n.a.,146,158
445,"CLAUDE, S.R.O.",STANICNE NAMESTIE 11,KOSICE,Slovakia,5630,n.a.,4,4,4,3,2,2,1,2,2,n.a.,75,75,75,38,38,38,15,15,15
424,CLICHY ENERGIE VERTE,21 RUE FOURNIER,CLICHY,France,3530,n.a.,6,n.a.,n.a.,n.a.,n.a.,n.a.,n.a.,n.a.,n.a.,n.a.,2,n.a.,n.a.,n.a.,n.a.,n.a.,n.a.,n.a.,n.a.
,CLUB PREMIER LTD,BALFOUR HOUSE 741 HIGH ROAD,LONDON,United Kingdom,7022,n.a.,n.a.,n.a.,n.a.,n.a.,n.a.,n.a.,n.a.,n.a.,n.a.,n.a.,n.a.,n.a.,n.a.,n.a.,n.a.,n.a.,n.a.,n.a.,n.a.
,COCA-COLA SOUTH PACIFIC PTY LTD,L 9 40 MOUNT ST,NORTH SYDNEY,Australia,8299,n.a.,104,100,97,99,128,121,112,87,67,n.a.,130,127,128,136,133,131,140,139,139
,CODEMA S.R.L.,VIA ATTILIO BARBARULO 71,NOCERA INFERIORE,Italy,4120,n.a.,3,1,0,1,0,2,0,n.a.,0,n.a.,7,3,n.a.,n.a.,n.a.,n.a.,n.a.,n.a.,n.a.
292,COFACE GESTION RESEAU INTERNATIONAL,1 PLACE COSTES ET BELLONTE,BOIS COLOMBES,France,7022,n.a.,38,38,37,39,39,50,39,45,41,n.a.,n.a.,n.a.,n.a.,n.a.,n.a.,n.a.,n.a.,n.a.,n.a.
385,COGE SANTE LILLE,37 AVENUE DE LATTRE DE TASSIGNY,ST ANDRE LEZ LILLE,France,8299,n.a.,n.a.,n.a.,9,10,n.a.,n.a.,n.a.,n.a.,n.a.,n.a.,n.a.,n.a.,n.a.,n.a.,n.a.,n.a.,n.a.,n.a.,n.a.
281,COGE VITRY,185 RUE DE BERCY,PARIS,France,3530,n.a.,44,46,38,73,85,74,71,71,75,n.a.,n.a.,n.a.,n.a.,n.a.,n.a.,n.a.,n.a.,n.a.,n.a.
302,COGELYO NORD-EST,6 RUE DU PARC,OBERHAUSBERGEN,France,3511,n.a.,n.a.,32,33,40,45,36,33,34,39,n.a.,n.a.,n.a.,n.a.,n.a.,n.a.,n.a.,n.a.,n.a.,n.a.
412,COGELYO PSM,Credit needed,Credit needed,Credit needed,Credit needed,n.a.,n.a.,n.a.,n.a.,n.a.,n.a.,Credit needed,Credit needed,Credit needed,Credit needed,n.a.,n.a.,n.a.,n.a.,n.a.,n.a.,n.a.,Credit needed,Credit needed,Credit needed
,COGENERATION SEDAN,6 RUE DES TREZELOTS,PULNOY,France,3511,n.a.,3,3,3,4,n.a.,3,5,5,5,n.a.,n.a.,n.a.,n.a.,n.a.,n.a.,n.a.,n.a.,n.a.,n.a.
260,COGESTAR,37 AVENUE DE LATTRE DE TASSIGNY,ST ANDRE LEZ LILLE,France,3511,n.a.,61,61,66,92,155,190,n.a.,223,254,n.a.,n.a.,n.a.,n.a.,n.a.,n.a.,n.a.,n.a.,n.a.,n.a.
193,COGESTAR 2,37 AVENUE DE LATTRE DE TASSIGNY,ST ANDRE LEZ LILLE,France,3511,n.a.,125,151,158,187,n.a.,162,138,128,133,n.a.,n.a.,n.a.,n.a.,n.a.,n.a.,n.a.,n.a.,n.a.,n.a.
441,COKES DE CARLING,RUE DE METZ,CARLING,France,1910,n.a.,n.a.,n.a.,4,5,n.a.,10,11,52,251,n.a.,n.a.,n.a.,n.a.,n.a.,n.a.,n.a.,n.a.,n.a.,156
,COLAS CENTRE OUEST,ZAC DE LA CHANTRERIE,NANTES,France,4211,n.a.,572,577,672,794,372,345,n.a.,329,357,n.a.,"3,303","3,469",n.a.,"3,669",n.a.,"1,485",n.a.,n.a.,"1,508"
,COLAS MIDI MEDITERRANEE,855 RUE RENE DESCARTES,AIX EN PROVENCE,France,4211,n.a.,464,456,488,577,320,n.a.,279,264,356,n.a.,"2,132","2,175",n.a.,n.a.,n.a.,n.a.,"1,201",n.a.,"1,500"
,COLAS NORD PICARDIE,44 BOULEVARD DE LA MOTHE,NANCY,France,4211,n.a.,0,309,365,408,233,240,202,207,250,n.a.,n.a.,"1,959",n.a.,"2,008",n.a.,"1,006","1,016","1,020",997
,COLAS NORD-EST,IMMEUBLE ECHANGEUR,NANCY,France,4211,n.a.,n.a.,497,591,736,348,341,302,313,333,n.a.,n.a.,"2,889","2,994","3,025","1,353","1,323","1,340","1,392","1,363"
,COLAS RHONE-ALPES AUVERGNE,LYON 7EME IMMEUBLE ECHANGEUR,LYON,France,4211,n.a.,497,521,624,674,325,326,n.a.,316,243,n.a.,"2,953","2,960","3,122",n.a.,"1,363","1,314",n.a.,n.a.,n.a.
232,COLGATE-PALMOLIVE INDUSTRIEL,9 RUE DU DEBARCADERE,COLOMBES,France,2041,n.a.,82,n.a.,80,78,78,79,81,81,83,n.a.,480,n.a.,594,513,528,551,555,560,567
478,COLOMBES HABITAT PUBLIC,PLACE DE LA REPUBLIQUE,COLOMBES,France,7022,n.a.,n.a.,n.a.,n.a.,n.a.,n.a.,n.a.,n.a.,n.a.,n.a.,n.a.,n.a.,n.a.,n.a.,n.a.,n.a.,n.a.,n.a.,n.a.,n.a.
,COMILOG DUNKERQUE,TOUR MONTPARNASSE,PARIS,France,2410,n.a.,42,55,55,54,63,61,72,45,90,n.a.,60,56,55,56,n.a.,n.a.,n.a.,n.a.,60
454,COMPAGNIE DE COGENERATION DE LA BRAYE,40 RUE JAMES WATT,TOURS,France,3530,n.a.,3,6,4,4,22,28,25,29,28,n.a.,n.a.,n.a.,n.a.,n.a.,n.a.,n.a.,n.a.,n.a.,n.a.
326,COMPAGNIE FRANCAISE ECO HUILE,ZONE INDUSTRIELLE,LILLEBONNE,France,3822,n.a.,n.a.,n.a.,n.a.,n.a.,n.a.,n.a.,n.a.,n.a.,n.a.,n.a.,n.a.,n.a.,n.a.,n.a.,n.a.,n.a.,n.a.,n.a.,n.a.
,COMPAGNIE GENERALE DES PAPIERS,,PARENT,France,1712,n.a.,n.a.,n.a.,n.a.,n.a.,n.a.,n.a.,n.a.,n.a.,n.a.,n.a.,n.a.,n.a.,n.a.,n.a.,n.a.,n.a.,n.a.,n.a.,n.a.
333,COMPAGNIE INDUSTRIELLE DES FILLERS ET CHAUX,ZONE INDUSTRIELLE,AIX EN PROVENCE,France,2352,n.a.,22,26,26,22,15,12,13,13,15,n.a.,17,17,17,19,n.a.,20,20,24,n.a.
298,COMPAGNIE PETROCHIMIQUE DE BERRE,RAFFINERIE DE BERRE SIEGE CD 54,BERRE-L'ETANG,France,7830,n.a.,34,36,64,87,415,550,509,507,407,n.a.,n.a.,n.a.,92,16,n.a.,n.a.,"1,337","1,464","1,512"
,COMPTOIR AGRICOLE DE BOLOGNE,ZONE D AMENAGEMENT ECONOMIQUE,BOLOGNE,France,4661,n.a.,n.a.,n.a.,3,n.a.,5,5,4,5,4,n.a.,n.a.,n.a.,n.a.,n.a.,n.a.,n.a.,n.a.,n.a.,n.a.
129,COMURHEX-SOC CONVER URANI METAL HEXAFLUO,CITE DU TRICASTIN,ST PAUL TROIS CHATEAUX,France,2446,n.a.,n.a.,n.a.,n.a.,n.a.,226,172,185,174,n.a.,n.a.,n.a.,n.a.,n.a.,n.a.,n.a.,n.a.,n.a.,n.a.,n.a.
532,CONDAT SAS DI GASSER EDMUND & CO.,"VIA J.G. MAHL, 28",BRUNICO,Italy,,n.a.,n.a.,n.a.,n.a.,n.a.,n.a.,n.a.,n.a.,n.a.,n.a.,n.a.,n.a.,n.a.,n.a.,n.a.,n.a.,n.a.,n.a.,n.a.,n.a.
,CONSERVERIE DE BERGERAC,35 ROUTE PIERRE PINSON,BERGERAC,France,1039,n.a.,n.a.,n.a.,n.a.,n.a.,22,n.a.,n.a.,33,32,n.a.,n.a.,n.a.,n.a.,n.a.,n.a.,n.a.,n.a.,n.a.,145
315,CONSERVES DE PROVENCE LE CABANON,CHEMIN DE PIOLENC,CAMARET SUR AIGUES,France,1039,n.a.,n.a.,n.a.,n.a.,n.a.,22,23,20,33,41,n.a.,n.a.,n.a.,n.a.,n.a.,n.a.,127,134,138,n.a.
226,CONSERVES FRANCE,BERNERAQUE,TARASCON,France,1039,80,108,168,163,172,171,147,171,230,222,264,373,601,664,699,n.a.,656,n.a.,n.a.,862
394,CONSTELLATION UTILITES SERVICES,RUE THOMAS EDISON,CANEJAN,France,3530,n.a.,9,10,10,10,10,10,10,11,10,n.a.,n.a.,n.a.,n.a.,n.a.,n.a.,n.a.,n.a.,n.a.,n.a.
,CONSTELLIUM ISSOIRE,ZONE INDUSTRIELLE LES LISTES,ISSOIRE,France,2442,n.a.,n.a.,699,"1,672","1,650","1,595","1,606","1,359","1,102","1,464",n.a.,n.a.,"1,589","2,955",n.a.,n.a.,"2,831","2,895","2,998","3,059"
,CONSTELLIUM NEUF BRISACH,ROUTE DEPARTEMENTALE 52,BIESHEIM,France,2442,n.a.,n.a.,n.a.,n.a.,n.a.,n.a.,n.a.,n.a.,n.a.,n.a.,n.a.,n.a.,n.a.,n.a.,n.a.,n.a.,n.a.,n.a.,n.a.,n.a.
229,CONTINENTAL FOODS PRODUCTION FRANCE,1420 ROUTE DE CARPENTRAS,VEDENE,France,1089,80,72,n.a.,n.a.,n.a.,n.a.,n.a.,n.a.,n.a.,n.a.,217,n.a.,n.a.,n.a.,n.a.,n.a.,n.a.,n.a.,n.a.,n.a.
58,CONTINENTAL FRANCE,PARC INDUST SUD ZI EDISON,SARREGUEMINES,France,2211,n.a.,906,876,846,844,912,837,697,628,898,n.a.,"1,604",n.a.,n.a.,n.a.,n.a.,"2,180","2,336",n.a.,n.a.
206,CONTINENTALE NUTRITION,19 RUE SAINT VINCENT DE PAUL,BOULOGNE SUR MER,France,1092,n.a.,n.a.,98,34,163,206,219,230,271,295,n.a.,n.a.,385,n.a.,638,691,n.a.,798,822,855
,COOPERATIVE AGRICOLE DE CEREALES,Credit needed,Credit needed,Credit needed,Credit needed,n.a.,Credit needed,n.a.,Credit needed,Credit needed,n.a.,n.a.,n.a.,n.a.,n.a.,n.a.,n.a.,n.a.,n.a.,n.a.,n.a.,n.a.,n.a.,n.a.,n.a.
,COOPERATIVE AGRICOLE LAITIERE LES MAITRES LAITIERS DU COTENTIN,8 ROUTE DE VALOGNES,SOTTEVAST,France,1051,n.a.,n.a.,331,334,331,305,308,293,n.a.,277,n.a.,n.a.,717,732,758,n.a.,694,686,n.a.,n.a.
,COOPERATIVE DAUPHINOISE,42 RUE DU 11 NOVEMBRE,VIENNE,France,4621,n.a.,415,445,446,465,378,313,288,320,321,n.a.,n.a.,n.a.,"1,300",n.a.,n.a.,n.a.,n.a.,n.a.,n.a.
,COOPERATIVE ISIGNY-SAINTE MERE,2 RUE DU DOCTEUR BOUTROIS,ISIGNY SUR MER,France,1051,n.a.,n.a.,n.a.,286,267,249,225,200,180,206,n.a.,n.a.,n.a.,630,597,586,562,529,505,495
,COOPERL ARC ATLANTIQUE,MAROUE ZONE INDUSTRIELLE,LAMBALLE,France,1011,n.a.,"1,949","1,994","2,046","2,162","2,098","1,969",n.a.,"1,554",n.a.,n.a.,n.a.,"5,294","4,990","4,877","4,775","4,795",n.a.,n.a.,n.a.
328,CORENSO FRANCE,Credit needed,Credit needed,Credit needed,Credit needed,n.a.,Credit needed,n.a.,Credit needed,n.a.,n.a.,Credit needed,n.a.,n.a.,n.a.,n.a.,n.a.,n.a.,n.a.,n.a.,n.a.,n.a.,n.a.,n.a.,n.a.
210,CORNING SAS,7 B AVENUE DE VALVINS,SAMOIS SUR SEINE,France,2319,n.a.,101,97,94,95,100,100,92,85,96,n.a.,463,468,496,n.a.,n.a.,n.a.,n.a.,n.a.,147
468,CORPOCHALEUR,112 RUE DE LA RABATERIE,ST PIERRE DES CORPS,France,3522,n.a.,n.a.,n.a.,1,2,3,2,n.a.,2,0,n.a.,n.a.,n.a.,n.a.,n.a.,n.a.,n.a.,n.a.,n.a.,n.a.
96,CORSAIR,2 PLACE DE L EQUERRE,RUNGIS,France,5110,n.a.,479,487,490,536,516,527,464,507,468,n.a.,"1,102",n.a.,"1,207",n.a.,"1,395","1,440","1,573","1,547","1,612"
475,CORTET,Credit needed,Credit needed,Credit needed,Credit needed,n.a.,Credit needed,n.a.,n.a.,n.a.,n.a.,n.a.,n.a.,n.a.,n.a.,n.a.,n.a.,n.a.,n.a.,n.a.,n.a.,n.a.,n.a.,n.a.,n.a.
4,COX ENTERPRISES INC,6205 PEACHTREE DUNWOODY RD,ATLANTA,United States of America,6020,"25,001",n.a.,n.a.,n.a.,n.a.,n.a.,n.a.,n.a.,n.a.,n.a.,"62,500",n.a.,n.a.,n.a.,n.a.,n.a.,n.a.,n.a.,n.a.,n.a.
,CP MANAGEMENT SP. Z O.O.,FRANCISZKA KLIMCZAKA 1,WARSZAWA,Poland,4110,n.a.,n.a.,n.a.,4,n.a.,n.a.,3,3,3,4,n.a.,n.a.,n.a.,n.a.,n.a.,n.a.,30,30,30,n.a.
,CPI AVIATION LLC,1517 PERIMETER RD,WEST PALM BEACH,United States of America,7990,15,n.a.,n.a.,n.a.,n.a.,n.a.,n.a.,n.a.,n.a.,n.a.,175,n.a.,n.a.,n.a.,n.a.,n.a.,n.a.,n.a.,n.a.,n.a.
,CREDIT AGRICOLE IMMOBILIER,12 PLACE DES ETATS UNIS,MONTROUGE,France,7010,n.a.,36,30,22,19,27,29,27,24,23,n.a.,n.a.,167,161,n.a.,98,108,26,n.a.,n.a.
383,CREIL ENERGIE,37 AVENUE DE LATTRE DE TASSIGNY,ST ANDRE LEZ LILLE,France,3530,n.a.,11,9,9,10,10,9,7,2,n.a.,n.a.,n.a.,n.a.,n.a.,n.a.,n.a.,n.a.,n.a.,n.a.,n.a.
,CRISTAL FRANCE SAS,95 RUE DU GENERAL DE GAULLE,THANN,France,2012,n.a.,n.a.,n.a.,158,166,146,148,104,76,109,n.a.,n.a.,n.a.,n.a.,n.a.,n.a.,n.a.,n.a.,n.a.,n.a.
38,CRISTAL UNION,ROUTE D ARCIS SUR AUBE,VILLETTE SUR AUBE,France,1081,n.a.,"1,653",649,844,947,920,687,606,654,680,n.a.,"2,097",n.a.,"1,480","1,437",n.a.,n.a.,"1,232",n.a.,"1,194"
176,CRISTALLERIES DE BACCARAT SA,"20, RUE DES CRISTALLERIES",BACCARAT,France,2314,n.a.,150,154,0,152,162,148,132,115,139,n.a.,"1,000","1,026","1,070","1,196","1,235","1,147","1,118","1,134","1,240"
,CRISTANOL,1 ROUTE DEPARTEMENTALE 20A,BAZANCOURT,France,2014,n.a.,318,216,n.a.,276,239,218,173,128,84,n.a.,159,164,n.a.,150,n.a.,n.a.,131,n.a.,92
322,CRODA CHOCQUES,1 RUE DE LAPUGNOY,CHOCQUES,France,2041,n.a.,25,24,24,24,24,24,22,19,20,n.a.,173,n.a.,154,n.a.,154,n.a.,144,126,132
,CROWN EQUIPMENT PTY. LIMITED,COOPER ST 15,SMITHFIELD,Australia,4669,n.a.,263,230,231,232,n.a.,254,213,197,184,n.a.,893,882,896,n.a.,n.a.,n.a.,n.a.,920,"1,044"
327,CYEL COMPAGNIE DE CHAUFFAGE URBAIN DE CERGY PONTOISE,1 RUE DU GROS MURGER,ST-OUEN-L'AUMONE,France,3530,n.a.,24,26,25,27,23,30,35,24,37,n.a.,n.a.,n.a.,n.a.,n.a.,n.a.,n.a.,n.a.,n.a.,n.a.
204,DA ALIZAY,ZONE INDUSTRIELLE,ALIZAY,France,1712,n.a.,106,n.a.,99,52,n.a.,n.a.,n.a.,n.a.,n.a.,n.a.,183,n.a.,153,n.a.,n.a.,n.a.,n.a.,n.a.,n.a.
28,DALKIA,37 AVENUE DE LATTRE DE TASSIGNY,ST ANDRE LEZ LILLE,France,3530,n.a.,"2,297","2,374","2,419","2,690","2,801","2,538","2,475","2,435","2,503",n.a.,"9,607","9,789","9,700","9,702","9,775","9,733","9,692","9,992","9,599"
43,DANONE PRODUITS FRAIS FRANCE,150 BOULEVARD VICTOR HUGO,ST OUEN,France,1051,n.a.,"1,487","1,555","1,624","1,661","1,632","1,723","1,695","1,620","2,002",n.a.,"2,390",n.a.,"2,187",n.a.,n.a.,n.a.,"2,548",n.a.,"2,536"
271,DARBO SAS,1089 ROUTE DE LA LANDE,LINXE,France,1621,n.a.,n.a.,n.a.,45,n.a.,48,55,35,26,45,n.a.,n.a.,n.a.,123,n.a.,135,137,139,140,143
17,DASSAULT AVIATION SA,"9, ROND-POINT DES CHAMPS-ELYSEES",PARIS,France,3030,n.a.,"3,700","4,226","3,723","4,633","3,980","3,366","4,228","3,460","3,757",n.a.,"12,161","11,984","11,654","11,590","11,552","11,447","11,551","12,215","12,391"
512,DASSAULT FALCON JET CORP.,,,Brazil,4669,n.a.,n.a.,n.a.,n.a.,n.a.,n.a.,n.a.,n.a.,n.a.,n.a.,n.a.,n.a.,n.a.,n.a.,n.a.,n.a.,n.a.,n.a.,n.a.,n.a.
,DCNS MALAYSIA SDN. BHD.,"LOT 6.05, LEVEL 6","PETALING JAYA, SELANGOR",Malaysia,,n.a.,n.a.,6,7,4,n.a.,n.a.,n.a.,n.a.,n.a.,n.a.,n.a.,n.a.,n.a.,n.a.,n.a.,n.a.,n.a.,n.a.,n.a.
561,DELDON B.V.,RAADHUISWEG 181,REEUWIJK,Netherlands,4649,n.a.,n.a.,n.a.,n.a.,n.a.,n.a.,n.a.,n.a.,n.a.,n.a.,n.a.,n.a.,n.a.,n.a.,3,3,n.a.,n.a.,n.a.,n.a.
432,DELEBECQUE,PARC DES ANSEREUILLES,WAVRIN,France,4332,n.a.,n.a.,5,5,5,7,n.a.,n.a.,n.a.,n.a.,n.a.,n.a.,38,n.a.,38,n.a.,n.a.,n.a.,n.a.,n.a.
,DES BRUYERES,21 RUE WASHINGTON,PARIS,France,7010,n.a.,0,n.a.,n.a.,n.a.,n.a.,n.a.,n.a.,n.a.,n.a.,n.a.,n.a.,n.a.,n.a.,n.a.,n.a.,n.a.,n.a.,n.a.,n.a.
246,DESCAMPS,71 AVENUE FRANKLIN DELANO ROOSEVELT,PARIS,France,4751,n.a.,n.a.,n.a.,n.a.,n.a.,n.a.,n.a.,56,56,67,n.a.,n.a.,n.a.,n.a.,n.a.,n.a.,n.a.,440,495,572
500,DESCARTES ENERGIES,40 RUE JAMES WATT,TOURS,France,3511,n.a.,n.a.,0,0,0,5,8,8,7,8,n.a.,n.a.,n.a.,n.a.,n.a.,n.a.,n.a.,n.a.,n.a.,n.a.
,DESHYOUEST,LA DELOIRE,CHANGE,France,1091,n.a.,n.a.,n.a.,n.a.,n.a.,2,2,3,n.a.,1,n.a.,n.a.,n.a.,n.a.,n.a.,n.a.,n.a.,n.a.,n.a.,n.a.
,DESVRES SAS,,BOUSSOIS,France,,n.a.,n.a.,n.a.,n.a.,n.a.,n.a.,n.a.,n.a.,n.a.,n.a.,n.a.,n.a.,n.a.,n.a.,n.a.,n.a.,n.a.,n.a.,n.a.,n.a.
400,DIJON ENERGIES,18 RUE DOCTEUR QUIGNARD,DIJON,France,3530,n.a.,8,5,2,1,0,0,0,n.a.,n.a.,n.a.,n.a.,n.a.,n.a.,n.a.,n.a.,n.a.,n.a.,n.a.,n.a.
,DILLINGER FRANCE,1 RUE DU COMTE JEAN,GRANDE SYNTHE,France,2410,n.a.,342,362,374,378,487,593,531,373,763,n.a.,546,541,571,n.a.,n.a.,609,594,619,623
145,DOLLFUS MIEG & CIE - DMC SA,"10, AVENUE LEDRU-ROLLIN",PARIS,France,1310,n.a.,n.a.,n.a.,n.a.,n.a.,n.a.,n.a.,n.a.,n.a.,n.a.,n.a.,n.a.,n.a.,n.a.,n.a.,n.a.,n.a.,n.a.,n.a.,n.a.
,DORIDA-M,"ALTUFYEVSKOE SHOSSE D.35,STR.1",MOSCOW,Russian Federation,4600,n.a.,n.a.,n.a.,n.a.,n.a.,n.a.,n.a.,n.a.,n.a.,n.a.,n.a.,n.a.,n.a.,n.a.,n.a.,n.a.,n.a.,n.a.,n.a.,n.a.
3,DOW CHEMICAL COMPANY (THE),"2030, DOW CENTER",MIDLAND,United States of America,2016,n.a.,"45,686","44,804","47,910","41,389","43,039","46,360","40,148","31,150","41,217",n.a.,"56,000","49,500","53,000","53,000","54,353","51,705","49,505","52,195","46,102"
76,DOW FRANCE,LA PLAINE ST DENIS,ST DENIS,France,2016,n.a.,654,112,121,126,137,131,153,130,140,n.a.,974,577,564,565,577,589,633,668,731
,DREAMJET,Credit needed,Credit needed,Credit needed,Credit needed,n.a.,n.a.,n.a.,Credit needed,n.a.,n.a.,n.a.,n.a.,n.a.,n.a.,n.a.,n.a.,n.a.,n.a.,n.a.,n.a.,n.a.,n.a.,n.a.,n.a.
408,DRESSER RAND MEXICO SA,GAUSS # 12 INT. 402,MEXICO,Mexico,2899,n.a.,n.a.,7,n.a.,n.a.,n.a.,n.a.,n.a.,n.a.,n.a.,n.a.,n.a.,375,n.a.,n.a.,n.a.,n.a.,n.a.,n.a.,n.a.
358,DREYFUS CORP,200 PARK AVE,NEW YORK,United States of America,6419,15,n.a.,n.a.,n.a.,n.a.,n.a.,n.a.,n.a.,n.a.,n.a.,n.a.,n.a.,n.a.,n.a.,n.a.,n.a.,n.a.,n.a.,n.a.,n.a.
,DROME ENERGIE SERVICES,2120 CHEMIN DU FREYSSINET,PIERRELATTE,France,3511,n.a.,19,18,16,16,5,2,2,2,2,n.a.,n.a.,n.a.,n.a.,n.a.,n.a.,n.a.,n.a.,n.a.,n.a.
335,DS SMITH CHOUANARD,LA FOSSE,COULLONS,France,1712,21,22,26,26,22,22,18,11,13,15,84,84,85,98,n.a.,n.a.,88,82,n.a.,90
223,DS SMITH PACKAGING CONTOIRE-HAMEL,PLACE DE CONTOIRE HAMEL,CONTOIRE,France,1721,n.a.,81,80,79,76,81,27,69,65,76,n.a.,268,284,277,282,283,285,285,281,288
221,DS SMITH PAPER KAYSERSBERG,KAYSERSBERG,KAYSERSBERG VIGNOBLE,France,1712,n.a.,84,46,0,0,0,0,n.a.,n.a.,n.a.,n.a.,n.a.,n.a.,n.a.,n.a.,n.a.,n.a.,n.a.,n.a.,n.a.
168,DSM NUTRITIONAL PRODUCTS FRANCE,1 BOULEVARD D ALSACE,VILLAGE NEUF,France,2012,n.a.,n.a.,154,126,121,123,119,121,108,110,n.a.,n.a.,n.a.,n.a.,n.a.,n.a.,n.a.,n.a.,n.a.,n.a.
,DSW A LLC,23411 AUTOPILOT DR,STERLING,United States of America,,n.a.,3,n.a.,n.a.,n.a.,n.a.,n.a.,n.a.,n.a.,n.a.,n.a.,1,n.a.,n.a.,n.a.,n.a.,n.a.,n.a.,n.a.,n.a.
201,DUMOULIN,RUE BOURIE 18,SEILLES,Belgium,4621,n.a.,110,107,112,116,106,86,71,66,82,n.a.,94,92,89,84,87,86,90,88,87
301,DURALEX INTERNATIONAL,7 RUE DU PETIT BOIS,LA CHAPELLE ST MESMIN,France,2313,n.a.,n.a.,32,33,31,32,32,30,42,n.a.,n.a.,n.a.,206,198,200,n.a.,n.a.,n.a.,205,n.a.
304,DURAND,33 RUE PASTEUR,L'ILE-BOUCHARD,France,4621,n.a.,30,31,30,37,31,31,21,22,19,n.a.,29,29,27,28,23,23,22,21,19
507,E L M OPERATIONS,184 COURS LA FAYETTE,LYON,France,3530,n.a.,0,n.a.,n.a.,n.a.,n.a.,n.a.,n.a.,n.a.,n.a.,n.a.,n.a.,n.a.,n.a.,n.a.,n.a.,n.a.,n.a.,n.a.,n.a.
455,EARTH STAR INC,3000 N CLYBOURN AVE,BURBANK,United States of America,7912,n.a.,n.a.,n.a.,n.a.,2,n.a.,n.a.,n.a.,n.a.,n.a.,n.a.,n.a.,n.a.,n.a.,75,n.a.,n.a.,n.a.,n.a.,n.a.
564,EASYJET SWITZERLAND SA,ROUTE DE L'AEROPORT 5,GENEVE 15 AEROPORT,Switzerland,5110,n.a.,n.a.,n.a.,n.a.,n.a.,n.a.,n.a.,n.a.,n.a.,n.a.,160,160,160,160,160,700,300,300,300,300
140,ECKES GRANINI FRANCE SNC,138 RUE LAVOISIER,MACON,France,4634,n.a.,n.a.,n.a.,n.a.,n.a.,197,198,188,190,276,n.a.,n.a.,n.a.,n.a.,n.a.,n.a.,n.a.,n.a.,n.a.,n.a.
,ECO CHALEUR DE BREST,90 RUE AUGUSTIN FRESNEL,GUIPAVAS,France,3530,n.a.,14,14,14,14,8,7,0,n.a.,n.a.,n.a.,38,37,39,39,39,n.a.,n.a.,n.a.,n.a.
498,ECOLE POLYTECHNIQUE DE SAFI,IMM MABROUKI -55 AV. MED V,SAFI,Morocco,8559,n.a.,n.a.,0,0,0,0,n.a.,n.a.,n.a.,n.a.,n.a.,n.a.,n.a.,n.a.,n.a.,n.a.,n.a.,n.a.,n.a.,n.a.
,EDF PRODUCTION ELECTRIQUE INSULAIRE SAS,PUTEAUX TOUR,COURBEVOIE,France,3511,n.a.,695,719,613,205,16,15,3,3,2,n.a.,393,389,368,278,89,n.a.,n.a.,n.a.,n.a.
,EFECTIS FRANCE,BATIMENT APOLLO,ST AUBIN,France,7112,n.a.,17,17,16,n.a.,14,12,11,9,8,n.a.,n.a.,105,n.a.,n.a.,n.a.,77,73,70,n.a.
111,EGGER PANNEAUX ET DECORS,AVENUE D ALBRET,RION DES LANDES,France,1621,n.a.,319,308,289,290,277,258,226,229,254,n.a.,813,814,n.a.,756,744,733,682,694,742
,EIFFAGE GENIE CIVIL,3 PLACE DE L EUROPE,VELIZY VILLACOUBLAY,France,4213,n.a.,816,738,831,948,778,716,743,766,633,n.a.,"2,642","2,428","2,510","2,701",2600,"2,500","2,444","2,487","1,917"
,EIGER JET LIMITED,APPLEBY,HAMILTON,Bermuda,5223,n.a.,n.a.,n.a.,n.a.,n.a.,n.a.,n.a.,n.a.,n.a.,n.a.,n.a.,n.a.,n.a.,n.a.,n.a.,n.a.,n.a.,n.a.,n.a.,n.a.
,EJ PICARDIE,ZONE INDUSTRIELLE DE MARIVAUX,ST CREPIN IBOUVILLERS,France,2599,n.a.,105,105,102,99,106,111,107,84,n.a.,n.a.,620,616,597,563,565,566,513,503,n.a.
1,ELECTRICITE DE FRANCE SA,"22-30, AVENUE DE WAGRAM",PARIS,France,3511,n.a.,"78,266","82,112","79,753","77,941","77,702","69,761","68,310","62,346","65,831",n.a.,"154,808","156,312","148,024","139,874","154,730","151,804","158,764","155,072","155,931"
,ELECTRICITE DE MAYOTTE,Credit needed,Credit needed,Credit needed,Credit needed,n.a.,Credit needed,n.a.,Credit needed,Credit needed,n.a.,n.a.,n.a.,n.a.,n.a.,n.a.,n.a.,n.a.,n.a.,n.a.,n.a.,n.a.,n.a.,n.a.,n.a.
153,ELENGY,11 AVENUE MICHEL RICARD,BOIS COLOMBES,France,5222,n.a.,201,202,234,225,223,222,216,154,196,n.a.,375,367,383,393,408,424,428,424,396
,ELIS BREAD,420 E 91ST ST,NEW YORK,United States of America,4724,n.a.,n.a.,n.a.,n.a.,n.a.,n.a.,n.a.,n.a.,n.a.,n.a.,n.a.,n.a.,n.a.,n.a.,n.a.,n.a.,n.a.,n.a.,n.a.,n.a.
,ELKEM SILICONES FRANCE SAS,21 AVENUE GEORGES POMPIDOU,LYON,France,2016,n.a.,390,430,386,388,379,361,365,283,394,n.a.,831,828,820,813,n.a.,n.a.,n.a.,n.a.,826
,ELVIR,2 ROUTE NEUVE,CONDE SUR VIRE,France,1051,n.a.,n.a.,n.a.,n.a.,n.a.,n.a.,n.a.,n.a.,n.a.,n.a.,n.a.,n.a.,n.a.,n.a.,n.a.,n.a.,n.a.,n.a.,n.a.,n.a.
493,ELYDE,290 CHEMIN DU PUY DU ROY,AIX EN PROVENCE,France,7022,n.a.,n.a.,n.a.,0,0,n.a.,n.a.,n.a.,n.a.,n.a.,n.a.,n.a.,n.a.,1,n.a.,n.a.,n.a.,n.a.,n.a.,n.a.
,EMAX OIL CO,2220 IVY RD,CHARLOTTESVILLE,United States of America,4671,n.a.,7,n.a.,n.a.,n.a.,n.a.,n.a.,n.a.,n.a.,n.a.,n.a.,1,n.a.,n.a.,n.a.,n.a.,n.a.,n.a.,n.a.,n.a.
56,EMERSON ELECTRIC NEDERLAND B.V.,PATRIJSWEG 140,RIJSWIJK ZH,Netherlands,3250,n.a.,892,"1,100","1,141","1,182","1,102","1,084",975,880,959,n.a.,"5,636","6,786","7,020","6,517","6,268","5,598","5,630","5,525",n.a.
144,EMIN LEYDIER SA,"66, QUAI CHARLES DE CHARLES DE GAULLE",LYON CEDEX 06,France,1712,n.a.,n.a.,n.a.,n.a.,n.a.,n.a.,n.a.,n.a.,n.a.,n.a.,n.a.,n.a.,n.a.,n.a.,n.a.,n.a.,n.a.,n.a.,n.a.,n.a.
,ENERGIE CLERMONT AVENIR,16 RUE PIERRE BOULANGER,CLERMONT FERRAND,France,3530,n.a.,3,3,3,2,2,3,n.a.,n.a.,n.a.,n.a.,n.a.,n.a.,n.a.,n.a.,n.a.,n.a.,n.a.,n.a.,n.a.
368,ENERGIE GRAND LITTORAL,ZONE INDUSTRIELLE PETITE SYNTHE,DUNKERQUE,France,3511,n.a.,14,12,14,15,15,13,13,12,12,n.a.,n.a.,n.a.,n.a.,n.a.,n.a.,n.a.,n.a.,n.a.,n.a.
,ENERGIE MEAUX,10 RUE LEON BARBIER,MEAUX,France,3530,n.a.,16,15,15,16,23,26,25,26,28,n.a.,n.a.,n.a.,n.a.,n.a.,n.a.,n.a.,n.a.,n.a.,n.a.
323,ENERGIES ANTILLES,8 AVENUE HOCHE,PARIS,France,3511,n.a.,25,28,33,31,28,20,23,17,22,n.a.,n.a.,n.a.,n.a.,n.a.,n.a.,n.a.,n.a.,n.a.,n.a.
423,ENERLAY,ZUP DU BEL AIR,ST GERMAIN EN LAYE,France,3530,n.a.,6,10,7,4,n.a.,0,0,n.a.,n.a.,n.a.,3,n.a.,n.a.,n.a.,n.a.,n.a.,n.a.,n.a.,n.a.
374,ENERLIS,AVENUE DE PROVENCE,LES ULIS,France,3530,n.a.,13,18,17,5,0,0,0,n.a.,n.a.,n.a.,n.a.,n.a.,n.a.,n.a.,n.a.,n.a.,n.a.,n.a.,n.a.
352,ENERSOL S.R.L.,VIA GUIDO D'AREZZO 15,MILANO,Italy,3511,n.a.,17,18,17,19,22,9,0,0,n.a.,n.a.,n.a.,n.a.,n.a.,n.a.,n.a.,n.a.,n.a.,n.a.,n.a.
433,ENERSUD S.R.L.,VIA ROMA 32,CANCELLO ED ARNONE,Italy,4211,n.a.,5,6,2,2,1,1,3,n.a.,n.a.,n.a.,41,13,9,9,4,5,n.a.,n.a.,n.a.
272,ENERTHERM,2 RUE D ALENCON,COURBEVOIE,France,3530,n.a.,48,53,53,61,62,62,58,53,55,n.a.,n.a.,n.a.,73,n.a.,73,73,74,74,73
29,ENGIE ENERGIE SERVICES,1 PLACE DES DEGRES,PUTEAUX,France,3530,n.a.,"2,191","2,276","2,259","2,321","2,268","2,136","2,143","2,056","1,534",n.a.,"10,928","11,245","11,182","10,931",n.a.,n.a.,"11,064",n.a.,"8,012"
200,ENGIE THERMIQUE FRANCE,2 PLACE SAMUEL DE CHAMPLAIN,COURBEVOIE,France,3511,n.a.,111,100,128,160,312,240,157,2,0,n.a.,111,110,119,138,n.a.,140,134,n.a.,n.a.
393,ENNOBLISSEMENT DE FLANDRES ANC.,2 RUE DU RIVAGE,NIEPPE,France,1330,n.a.,n.a.,n.a.,n.a.,n.a.,n.a.,n.a.,n.a.,n.a.,n.a.,n.a.,n.a.,n.a.,n.a.,n.a.,n.a.,n.a.,n.a.,n.a.,n.a.
314,ENORIS,ROUTE DE LA BONDE,MASSY,France,3821,n.a.,28,31,n.a.,n.a.,n.a.,n.a.,n.a.,n.a.,n.a.,n.a.,n.a.,n.a.,n.a.,n.a.,n.a.,n.a.,n.a.,n.a.,n.a.
51,ENTREMONT ALLIANCE,25 FAUBOURG DES BALMETTES,ANNECY,France,1051,n.a.,n.a.,"1,084","1,244","1,156",985,n.a.,"1,173","1,035","1,386",n.a.,n.a.,"1,752","1,770","1,781",n.a.,n.a.,n.a.,n.a.,n.a.
,ENTREPOSE INDUSTRIES,ZONE INDUSTRIELLE DE PETITE SYNTHE,DUNKERQUE,France,2511,n.a.,23,20,21,11,18,13,15,16,n.a.,n.a.,96,94,94,n.a.,n.a.,93,101,n.a.,n.a.
,ENTREPRISE MALET,30 AVENUE DE LARRIEU,TOULOUSE,France,4211,n.a.,239,235,260,262,234,244,230,246,274,n.a.,988,"1,024","1,084","1,067",n.a.,n.a.,"1,134","1,171","1,180"
118,EQIOM,49 AVENUE GEORGES POMPIDOU,LEVALLOIS PERRET,France,2351,n.a.,322,324,398,404,423,474,435,416,537,n.a.,693,729,782,805,n.a.,734,734,764,757
,ERASTEEL,PARIS 15 TOUR MAINE MONTPARNASE,PARIS,France,2431,n.a.,142,154,153,132,174,204,58,10,20,n.a.,n.a.,328,n.a.,38,n.a.,n.a.,36,n.a.,n.a.
458,ERIVA,RUE DU GENERAL CHATEAU,MONTEREAU FAULT YONNE,France,3530,n.a.,2,3,3,3,6,7,3,3,n.a.,n.a.,n.a.,n.a.,n.a.,n.a.,n.a.,n.a.,n.a.,n.a.,n.a.
82,ESSO RAFFINAGE,ENTREE 6,COURBEVOIE,France,1920,n.a.,627,697,621,688,705,n.a.,560,624,690,n.a.,"1,159","1,157",n.a.,"1,219",n.a.,n.a.,"1,190","1,193","1,182"
446,ESTIA RESEAUX DE CHALEUR,6 RUE DES TREZELOTS,PULNOY,France,3530,n.a.,4,0,0,0,0,0,0,0,0,n.a.,n.a.,n.a.,n.a.,n.a.,n.a.,n.a.,n.a.,n.a.,n.a.
280,ETABLISSEMENTS RENE MAINGOURD,26 AVENUE GEORGES POMPIDOU,LA CHAPELLE ST MESMIN,France,1039,n.a.,n.a.,44,48,45,37,37,n.a.,n.a.,n.a.,n.a.,n.a.,152,148,143,148,157,n.a.,n.a.,n.a.
,ETOUVIE ENERGIES ET ENVIRONNEMENT,6 RUE DU PARC,OBERHAUSBERGEN,France,3511,n.a.,n.a.,3,4,5,5,n.a.,n.a.,n.a.,n.a.,n.a.,n.a.,n.a.,n.a.,n.a.,n.a.,n.a.,n.a.,n.a.,n.a.
,ETS LACADEE SAS,19 ROUTE DE N HAUX,ARTHEZ DE BEARN,France,4621,21,22,28,32,40,45,36,24,27,28,22,20,n.a.,49,48,n.a.,39,37,35,33
544,ETS PUBLIC DE SANTE DE VILLE-EVRARD,Credit needed,Credit needed,Credit needed,Credit needed,n.a.,n.a.,n.a.,n.a.,n.a.,n.a.,n.a.,n.a.,n.a.,n.a.,n.a.,n.a.,n.a.,n.a.,n.a.,n.a.,n.a.,n.a.,n.a.,n.a.
,EURALIS CEREALES,AVENUE GASTON PHOEBUS,LESCAR,France,4621,n.a.,n.a.,n.a.,n.a.,n.a.,n.a.,n.a.,n.a.,n.a.,n.a.,n.a.,n.a.,n.a.,n.a.,n.a.,n.a.,n.a.,n.a.,n.a.,n.a.
,EURALIS COOP,CARRETERA EL COPERO (CR PUNTA VERDE),SEVILLA,Spain,4621,n.a.,n.a.,n.a.,n.a.,n.a.,n.a.,n.a.,n.a.,n.a.,n.a.,n.a.,n.a.,n.a.,n.a.,n.a.,n.a.,n.a.,n.a.,n.a.,n.a.
183,EURENCO,30 AVENUE CARNOT,MASSY,France,2014,n.a.,138,161,178,199,174,146,123,78,71,n.a.,474,492,503,516,n.a.,n.a.,435,420,n.a.
40,EURO DISNEY ASSOCIES,1 RUE DE LA GALMY,CHESSY,France,9321,n.a.,"1,541","1,573","1,495","1,471","1,612","1,390","1,367","1,331","1,359",n.a.,"15,089","14,610","13,027",n.a.,"14,105","13,678","13,221","13,266","13,509"
,EURODIF PRODUCTION,CITE DU TRICASTIN,ST PAUL TROIS CHATEAUX,France,2013,n.a.,77,n.a.,169,186,n.a.,204,212,212,210,n.a.,464,n.a.,588,30,n.a.,n.a.,n.a.,n.a.,n.a.
231,EUROFLOAT,ZONE INDUST ET PORTUAIRE,SALAISE SUR SANNE,France,2311,n.a.,82,95,95,92,85,85,76,71,81,n.a.,255,246,208,237,n.a.,n.a.,n.a.,n.a.,n.a.
213,EUROGLAS SA,Credit needed,Credit needed,Credit needed,Credit needed,n.a.,n.a.,n.a.,n.a.,Credit needed,Credit needed,Credit needed,n.a.,n.a.,n.a.,n.a.,n.a.,n.a.,n.a.,n.a.,n.a.,n.a.,n.a.,n.a.,n.a.
198,EUROPAC PAPETERIE DE ROUEN,RUE DESIRE GRANET,ST ETIENNE DU ROUVRAY,France,1712,n.a.,118,121,117,114,98,94,89,51,87,n.a.,160,160,169,174,n.a.,n.a.,173,175,n.a.
,EUROPAFI SA,AVE J.-F. KENNEDY 45,ETTELBRUCK,Luxembourg,4690,n.a.,n.a.,n.a.,n.a.,n.a.,n.a.,n.a.,n.a.,n.a.,n.a.,n.a.,n.a.,n.a.,n.a.,n.a.,n.a.,n.a.,n.a.,n.a.,n.a.
100,EUROSERUM,ROUTE DE VILLERS,PORT SUR SAONE,France,1051,n.a.,n.a.,428,502,478,464,472,464,369,444,n.a.,n.a.,576,537,497,n.a.,437,n.a.,510,487
,EUROVIA GRANDS TRAVAUX,18 RUE THIERRY SABINE,MERIGNAC,France,4211,n.a.,50,61,38,35,89,46,52,33,38,n.a.,110,103,95,n.a.,98,94,90,83,80
,EVERBAL,2 RUE D AVAUX,EVERGNICOURT,France,1712,n.a.,37,36,35,33,32,36,29,28,28,n.a.,133,n.a.,137,139,132,136,143,129,134
,EVERGREEN MONTROUGE SAS,12 PLACE DES ETATS UNIS,MONTROUGE,France,6820,n.a.,30,26,27,28,22,21,1,0,0,n.a.,n.a.,n.a.,n.a.,n.a.,n.a.,n.a.,n.a.,n.a.,n.a.
456,EWA HOLDING LLC,9 W 57TH ST,NEW YORK,United States of America,6420,n.a.,n.a.,n.a.,n.a.,n.a.,n.a.,n.a.,n.a.,2,n.a.,n.a.,n.a.,n.a.,n.a.,n.a.,n.a.,n.a.,n.a.,7,n.a.
34,EXXONMOBIL CHEMICAL FRANCE,TOUR MANHATTAN,COURBEVOIE,France,2016,n.a.,"1,983","2,136","2,284","2,534","2,813","2,830","2,369","1,821","2,442",n.a.,"1,348","1,406",n.a.,"1,473","1,511","1,499","1,512","1,525","1,500"
384,FAURE,205 AVENUE ROGER SALENGRO,VILLEURBANNE,France,4673,n.a.,11,12,13,12,12,11,9,9,10,n.a.,28,28,26,29,25,26,n.a.,n.a.,19
,FAURECIA AUTOMOTIVE COMPOSITES,2 RUE HENNAPE,NANTERRE,France,2932,n.a.,50,45,42,50,23,n.a.,n.a.,n.a.,n.a.,n.a.,401,423,429,446,n.a.,n.a.,n.a.,n.a.,n.a.
63,FAURECIA SYSTEMES D'ECHAPPEMENT,2 RUE HENNAPE,NANTERRE,France,2932,n.a.,797,699,583,539,552,543,507,416,663,n.a.,"1,295","1,273","1,270","1,284","1,274","1,265","1,253","1,277","1,336"
6,FEDERAL EXPRESS CORP,"3610, HACKS CROSS ROAD",MEMPHIS,United States of America,5121,n.a.,n.a.,"23,787","19,137","20,139","20,774","16,677","17,261","15,723","15,634",n.a.,n.a.,"166,000",n.a.,"160,700","149,000","143,000","141,000","140,000","145,000"
495,FERRO COULEURS FRANCE,43 RUE JEANNE D ARC,ST DIZIER,France,2030,n.a.,0,0,0,0,1,1,5,22,25,n.a.,n.a.,n.a.,n.a.,n.a.,1,5,68,139,164
,FERROPEM,517 AVENUE DE LA BOISSE,CHAMBERY,France,2013,n.a.,437,470,429,393,411,515,371,275,493,n.a.,n.a.,"1,012",n.a.,984,n.a.,n.a.,900,886,882
251,FIBERTEX NONWOVENS,CHEMILLE 3-5,CHEMILLE-EN-ANJOU,France,1399,n.a.,68,66,64,59,56,56,54,45,50,n.a.,143,140,138,136,131,126,133,135,137
170,FIBRE EXCELLENCE SAINT-GAUDENS SAS,BOULEVARD DU PRESIDENT SARAGAT,ST GAUDENS,France,1711,n.a.,157,172,142,142,154,152,188,96,141,n.a.,267,263,255,278,280,n.a.,253,n.a.,265
190,FIBRE EXCELLENCE TARASCON SAS,BOULEVARD DU PRESIDENT SARAGAT,ST GAUDENS,France,1711,n.a.,130,154,139,125,130,138,161,82,124,n.a.,273,274,274,312,294,n.a.,269,271,275
377,FICOBEL,2 RUE DE LA TOUCHE LAMBERT,CESSON SEVIGNE,France,3530,n.a.,12,16,21,17,25,28,28,26,28,n.a.,n.a.,n.a.,n.a.,n.a.,n.a.,n.a.,n.a.,n.a.,n.a.
375,FIGENAL SNC,6 RUE COGNACQ JAY,PARIS,France,3530,n.a.,13,10,8,n.a.,17,23,22,16,24,n.a.,n.a.,n.a.,n.a.,n.a.,n.a.,n.a.,n.a.,n.a.,n.a.
461,FILARTOIS,PARC DES INDUSTRIES ARTOIS FLANDRES,DOUVRIN,France,2060,n.a.,n.a.,n.a.,n.a.,2,0,0,1,18,59,n.a.,n.a.,n.a.,n.a.,n.a.,n.a.,2,31,219,266
,FJET MANAGEMENT LLC,38 WASHINGTON ST,TRUMANSBURG,United States of America,8211,n.a.,0,n.a.,n.a.,n.a.,n.a.,n.a.,n.a.,n.a.,n.a.,n.a.,1,n.a.,n.a.,n.a.,n.a.,n.a.,n.a.,n.a.,n.a.
,FLIGHT LEVELS LLC,7243 E OVERLOOK DR,SCOTTSDALE,United States of America,,n.a.,n.a.,n.a.,n.a.,n.a.,n.a.,n.a.,n.a.,n.a.,n.a.,n.a.,n.a.,n.a.,n.a.,n.a.,n.a.,n.a.,n.a.,n.a.,n.a.
,FMS FLEET MANAGEMENT SERVICE GMBH,ALTE BUERSCHE STR. 14,MELLE,Germany,5221,n.a.,n.a.,n.a.,n.a.,n.a.,n.a.,n.a.,n.a.,n.a.,n.a.,n.a.,n.a.,n.a.,1,n.a.,n.a.,n.a.,n.a.,n.a.,n.a.
,FORESA FRANCE,AVENUE DES INDUSTRIES,AMBARES ET LAGRAVE,France,2016,n.a.,44,52,56,52,43,47,34,24,46,n.a.,44,43,44,43,n.a.,40,n.a.,46,47
,FORGITAL DEMBIERMONT SAS,4 RUE JULES CAMPAGNE,HAUTMONT,France,2550,n.a.,39,46,46,37,49,52,46,63,107,n.a.,186,185,186,n.a.,215,n.a.,n.a.,248,268
,FRANCE TEINTURE,15 RUE DES HAUTS TREVOIS,TROYES,France,1330,n.a.,7,8,8,7,7,8,9,9,12,n.a.,92,93,93,94,n.a.,95,97,98,102
,"FREESCALE SEMICONDUCTOR, INC.","6501, WILLIAM CANNON DRIVE WEST",AUSTIN,United States of America,2611,n.a.,n.a.,n.a.,n.a.,n.a.,n.a.,n.a.,n.a.,"2,435","3,755",n.a.,n.a.,n.a.,n.a.,n.a.,n.a.,n.a.,n.a.,"18,000","22,900"
531,FROMAGERIES BEL PRODUCTION FRANCE SNC,2 ALLEE DE LONGCHAMP,SURESNES,France,,n.a.,n.a.,n.a.,n.a.,n.a.,n.a.,n.a.,n.a.,n.a.,n.a.,n.a.,n.a.,n.a.,n.a.,n.a.,n.a.,n.a.,n.a.,n.a.,n.a.
,FUTURE ELECTRONICS INC,237 BOUL HYMUS,POINTE-CLAIRE,Canada,4652,"6,250",n.a.,n.a.,n.a.,n.a.,n.a.,n.a.,n.a.,n.a.,n.a.,"1,500",n.a.,n.a.,n.a.,n.a.,n.a.,n.a.,n.a.,n.a.,n.a.
345,GAILLARD SAS,51 AVENUE DU DOCTEUR JACQUES ARNAUD,CLUSES,France,2562,n.a.,n.a.,n.a.,15,n.a.,16,22,22,14,15,n.a.,n.a.,n.a.,107,n.a.,117,124,n.a.,n.a.,124
,GARREAU,13 RUE DU STADE,VIX,France,4321,n.a.,n.a.,1,1,1,1,1,1,1,1,n.a.,n.a.,8,12,9,9,8,8,8,n.a.
188,GASCOGNE PAPIER,68 RUE DE LA PAPETERIE,MIMIZAN,France,1712,n.a.,132,134,131,133,136,137,114,107,116,n.a.,388,406,460,476,479,480,471,466,469
508,GASSCO AS,BYGNESVEGEN 75,KOPERVIK,Norway,4950,n.a.,0,0,0,0,0,0,0,0,0,n.a.,209,218,n.a.,n.a.,n.a.,n.a.,n.a.,n.a.,n.a.
222,GELATINES WEISHARDT,RUE MAURICE WEISHARDT,GRAULHET,France,2059,n.a.,n.a.,n.a.,n.a.,n.a.,n.a.,73,58,58,58,n.a.,n.a.,n.a.,n.a.,n.a.,n.a.,208,207,214,204
312,GEMDOUBS SAS,RUE JEAN BAPTISTE WEIBEL,NOVILLARS,France,1712,n.a.,30,30,32,n.a.,n.a.,n.a.,n.a.,n.a.,n.a.,n.a.,59,55,44,n.a.,n.a.,n.a.,n.a.,n.a.,n.a.
,GENIA CAPITAL (PTY) LTD,UNIT 20 SUMMIT PLACE 410 SUMMIT RD,MORNINGSIDE,South Africa,,n.a.,n.a.,n.a.,n.a.,n.a.,n.a.,n.a.,n.a.,n.a.,n.a.,n.a.,n.a.,n.a.,n.a.,n.a.,n.a.,n.a.,n.a.,n.a.,n.a.
343,GENNEVILLIERS ENERGIE,15 RUE PAUL VERLAINE,GENNEVILLIERS,France,3511,n.a.,19,12,11,3,n.a.,n.a.,n.a.,n.a.,n.a.,n.a.,n.a.,n.a.,n.a.,n.a.,n.a.,n.a.,n.a.,n.a.,n.a.
480,GENSEL SAS,45 10 LOC 208,BELLO,Colombia,4321,n.a.,0,1,0,0,n.a.,0,0,0,0,n.a.,43,n.a.,n.a.,n.a.,n.a.,n.a.,n.a.,n.a.,n.a.
390,GEODALYS,1 RUE DU PORT,DAMMARIE LES LYS,France,3530,n.a.,10,n.a.,n.a.,n.a.,n.a.,n.a.,n.a.,n.a.,n.a.,n.a.,n.a.,n.a.,n.a.,n.a.,n.a.,n.a.,n.a.,n.a.,n.a.
344,GEOGAZ LAVERA,2 RUE DES MARTINETS,RUEIL MALMAISON,France,5210,n.a.,18,18,n.a.,18,18,16,16,17,17,n.a.,n.a.,n.a.,n.a.,n.a.,n.a.,n.a.,n.a.,n.a.,n.a.
431,GEOPICTA,80 AVENUE DU GENERAL DE GAULLE,PUTEAUX,France,3530,n.a.,5,15,9,n.a.,n.a.,n.a.,n.a.,n.a.,n.a.,n.a.,n.a.,n.a.,n.a.,n.a.,n.a.,n.a.,n.a.,n.a.,n.a.
,GEORGIAN AIRWAYS LIMITED,48 GRAYS INN GRAY'S INN ROAD,LONDON,United Kingdom,5229,n.a.,n.a.,n.a.,n.a.,n.a.,n.a.,n.a.,n.a.,n.a.,n.a.,n.a.,n.a.,n.a.,n.a.,n.a.,n.a.,n.a.,n.a.,n.a.,n.a.
447,GEOVAL,38 RUE DE SARLIEVE,COURNON-D'AUVERGNE,France,7112,n.a.,n.a.,n.a.,4,4,4,4,4,4,4,n.a.,n.a.,n.a.,n.a.,44,n.a.,n.a.,n.a.,n.a.,n.a.
45,GIAT INDUSTRIES,83 BOULEVARD EXELMANS,PARIS,France,7010,n.a.,n.a.,"1,253","1,221",796,736,846,"1,070",0,0,n.a.,n.a.,"4,197",n.a.,"3,795",n.a.,n.a.,n.a.,n.a.,n.a.
523,GIE ATR,,BLAGNAC,France,,n.a.,n.a.,n.a.,n.a.,n.a.,n.a.,n.a.,n.a.,n.a.,n.a.,n.a.,n.a.,n.a.,n.a.,n.a.,n.a.,n.a.,n.a.,n.a.,n.a.
550,GIE CHIMIE SALINDRES,Credit needed,Credit needed,Credit needed,Credit needed,n.a.,n.a.,n.a.,n.a.,n.a.,n.a.,n.a.,n.a.,n.a.,n.a.,n.a.,n.a.,n.a.,n.a.,n.a.,n.a.,n.a.,n.a.,n.a.,n.a.
556,GIE DALKIA FRANCE SOCCRAM CHAUFFAGE,Credit needed,Credit needed,Credit needed,Credit needed,n.a.,n.a.,n.a.,n.a.,n.a.,n.a.,n.a.,n.a.,n.a.,n.a.,n.a.,n.a.,n.a.,n.a.,n.a.,n.a.,n.a.,n.a.,n.a.,n.a.
547,GIE OSIRIS,Credit needed,Credit needed,Credit needed,Credit needed,n.a.,n.a.,n.a.,n.a.,n.a.,n.a.,n.a.,n.a.,n.a.,n.a.,n.a.,n.a.,n.a.,n.a.,n.a.,n.a.,n.a.,n.a.,n.a.,n.a.
,GIORGI ROBERTO,VIA PASSO DEL CARDINALE,CECCANO,Italy,4752,n.a.,0,0,0,0,n.a.,n.a.,n.a.,n.a.,n.a.,n.a.,1,1,1,1,n.a.,n.a.,n.a.,n.a.,n.a.
,GLACIAL ENERGY,44 GLEASON RD,PRINCETON,United States of America,8299,n.a.,n.a.,n.a.,n.a.,n.a.,n.a.,0,n.a.,n.a.,n.a.,n.a.,n.a.,n.a.,n.a.,n.a.,n.a.,1,n.a.,n.a.,n.a.
258,GLANZSTOFF LONGLAVILLE,9087 RUE ERNEST HEMINGWAY,LONGLAVILLE,France,2060,n.a.,61,71,76,85,89,99,82,73,82,n.a.,202,199,198,204,215,219,224,227,245
,GLAXOSMITHKLINE BIOLOGICALS,RUE DE L'INSTITUT 89,RIXENSART,Belgium,2120,n.a.,"6,322","4,375","3,933","3,814","3,682","3,488","4,814","3,573","2,697",n.a.,"8,387","8,474","8,212","7,697","7,426","7,252","6,696","6,042","5,748"
,GLENCORE MANGANESE FRANCE,ROUTE DE L ECLUSE MARDYCK,GRANDE SYNTHE,France,2410,n.a.,62,61,60,102,150,158,195,71,262,n.a.,90,87,91,n.a.,96,n.a.,91,n.a.,119
,GLOBAL JET IOM LTD,"EXCHANGE HOUSE, 54-58 ATHOL STREET",DOUGLAS,Isle Of Man (United Kingdom),,n.a.,n.a.,n.a.,n.a.,n.a.,n.a.,n.a.,n.a.,n.a.,n.a.,n.a.,n.a.,n.a.,n.a.,n.a.,n.a.,n.a.,n.a.,n.a.,n.a.
,GLOBAL SWITCH PARIS,7 RUE PETIT,CLICHY,France,6311,n.a.,n.a.,52,45,44,43,35,32,28,4,n.a.,n.a.,22,20,21,19,n.a.,n.a.,n.a.,n.a.
,"GOLD EAGLE CO.,LTD.",19/37 MU,"BANG NAM PRIAO, CHACHOENGSAO",Thailand,,n.a.,3,n.a.,4,3,n.a.,n.a.,n.a.,n.a.,n.a.,n.a.,n.a.,n.a.,n.a.,n.a.,n.a.,n.a.,n.a.,n.a.,n.a.
102,GOODYEAR DUNLOP TIRES FRANCE,8 RUE LIONEL TERRAY,RUEIL MALMAISON,France,4531,n.a.,422,427,414,512,558,586,562,666,882,n.a.,"1,126","1,205",n.a.,"2,253","2,347","2,427","2,456","2,834","3,663"
247,GRAP'SUD,120 CHEMIN DE LA REGORDANE,CRUVIERS LASCOURS,France,2014,n.a.,n.a.,n.a.,57,61,66,46,42,44,48,n.a.,n.a.,n.a.,207,203,208,n.a.,n.a.,n.a.,n.a.
257,GREENFIELD,ZI LA GRANDE BORNE,CHATEAU THIERRY,France,1711,n.a.,61,65,67,67,66,57,66,54,71,n.a.,78,78,78,79,77,80,83,85,84
,GROUPE CERABATI,TOUR PART DIEU,LYON,France,2331,n.a.,n.a.,28,55,64,67,73,n.a.,103,133,n.a.,n.a.,126,144,n.a.,n.a.,n.a.,n.a.,n.a.,n.a.
,GROUPE FRANCE CERAM,Credit needed,Credit needed,Credit needed,Credit needed,n.a.,n.a.,n.a.,n.a.,n.a.,n.a.,n.a.,n.a.,n.a.,n.a.,n.a.,n.a.,n.a.,n.a.,n.a.,n.a.,n.a.,n.a.,n.a.,n.a.
,GROUSSARD,8 RUE JEAN GARCON,BLAIN,France,4334,n.a.,0,0,0,0,0,0,0,0,0,n.a.,n.a.,n.a.,n.a.,n.a.,n.a.,n.a.,n.a.,n.a.,n.a.
32,GRTGAZ,IMMEUBLE BORA,BOIS COLOMBES,France,4950,n.a.,"2,023","1,994","2,091","1,946","1,780","1,674","1,632","1,564","1,548",n.a.,"2,915","2,959","2,961","2,988",n.a.,"2,971","2,736",n.a.,n.a.
331,GSELL SP. Z O.O.,ZLOTA 59 LOK. 1415,WARSZAWA,Poland,4652,n.a.,23,48,n.a.,n.a.,n.a.,n.a.,n.a.,n.a.,n.a.,n.a.,n.a.,n.a.,n.a.,n.a.,n.a.,n.a.,n.a.,n.a.,n.a.
,GUSTAVE MULLER SAS,PORT RHENAN,NEUF-BRISACH,France,,n.a.,n.a.,n.a.,n.a.,n.a.,n.a.,n.a.,n.a.,n.a.,n.a.,n.a.,n.a.,n.a.,n.a.,n.a.,n.a.,n.a.,n.a.,n.a.,n.a.
290,H2D DIDIER MARY,6 ROUTE DE LA FERTE SOUS JOUARRE,MARY SUR MARNE,France,1812,n.a.,n.a.,38,43,44,50,n.a.,n.a.,n.a.,n.a.,n.a.,n.a.,266,277,274,264,n.a.,n.a.,n.a.,n.a.
,HAINAUT ENROBES,3 RUE EMILE PIERRONNE,BOUCHAIN,France,2399,n.a.,13,10,13,13,10,11,9,13,17,n.a.,5,5,5,5,5,5,6,6,6
,HALLIBURTON AS,ELDFISKVEGEN 1,TANANGER,Norway,910,n.a.,499,604,676,759,711,580,577,540,n.a.,n.a.,"1,569","2,092",n.a.,n.a.,n.a.,n.a.,n.a.,n.a.,n.a.
471,HAUTEPIERRE ENERGIE,Credit needed,Credit needed,Credit needed,Credit needed,n.a.,Credit needed,n.a.,Credit needed,Credit needed,n.a.,n.a.,n.a.,n.a.,n.a.,n.a.,n.a.,n.a.,n.a.,n.a.,n.a.,n.a.,n.a.,n.a.,n.a.
,HEDA AIRLINES LIMITED,"DOUGLAS CHAMBERS, NORTH QUAY",DOUGLAS,Isle Of Man (United Kingdom),,n.a.,n.a.,n.a.,n.a.,n.a.,n.a.,n.a.,n.a.,n.a.,n.a.,n.a.,n.a.,n.a.,n.a.,n.a.,n.a.,n.a.,n.a.,n.a.,n.a.
48,HEINEKEN ENTREPRISE,2 RUE DES MARTINETS,RUEIL MALMAISON,France,1105,n.a.,"1,231","1,209","1,163","1,096","1,073","1,105","1,022",n.a.,"1,017",n.a.,"1,217","1,213",n.a.,"1,274",n.a.,n.a.,"1,292",n.a.,"1,412"
,HENDRICK MOTOR SPORTS,7701 N TRYON ST,CHARLOTTE,United States of America,9312,n.a.,n.a.,n.a.,n.a.,n.a.,n.a.,n.a.,n.a.,n.a.,n.a.,n.a.,n.a.,n.a.,n.a.,n.a.,n.a.,n.a.,n.a.,n.a.,n.a.
,HENKEL FRANCE,161 RUE DE SILLY,BOULOGNE BILLANCOURT,France,2041,n.a.,902,785,789,744,732,762,739,719,888,n.a.,610,666,667,666,707,749,782,813,858
78,HERTA,7 BOULEVARD PIERRE CARLE,NOISIEL,France,1013,n.a.,651,669,662,645,649,625,572,555,690,n.a.,"1,691",n.a.,"1,680","1,684","1,658",n.a.,n.a.,"1,494",n.a.
,HIGH PERFORMANCE 100 SOCIEDAD ANONIMA CERRADA,AVENIDA JAVIER PRADO OESTE 1680,SAN ISIDRO,Peru,4690,n.a.,n.a.,n.a.,n.a.,n.a.,n.a.,n.a.,n.a.,n.a.,n.a.,n.a.,n.a.,n.a.,n.a.,n.a.,n.a.,n.a.,n.a.,n.a.,n.a.
250,HILDING ANDERS DANMARK A/S,FABRIKSVEJ 13,HURUP THY,Denmark,3103,n.a.,68,68,67,71,72,n.a.,n.a.,n.a.,n.a.,n.a.,188,201,203,212,192,n.a.,n.a.,n.a.,n.a.
330,HOLCIM HAUT RHIN,LIEU DIT RITTY,BLOTZHEIM,France,2351,n.a.,n.a.,22,0,n.a.,n.a.,n.a.,n.a.,n.a.,n.a.,n.a.,n.a.,116,n.a.,n.a.,n.a.,n.a.,n.a.,n.a.,n.a.
516,HOLOPHANE SA DE CV,CARR. MEXICO CUAUTITLAN NO. KM. 31,CUAUTITLAN,Mexico,4759,n.a.,n.a.,n.a.,n.a.,n.a.,n.a.,n.a.,n.a.,n.a.,n.a.,n.a.,n.a.,n.a.,n.a.,"2,100",n.a.,n.a.,n.a.,n.a.,n.a.
,HOP,24 26 IMMEUBLE CARACAS SILIC,RUNGIS,France,5110,n.a.,881,743,719,n.a.,0,n.a.,n.a.,n.a.,n.a.,n.a.,"2,737",n.a.,n.a.,n.a.,n.a.,n.a.,n.a.,n.a.,n.a.
,HOP -AIRLINAIR,24 RUE DE VILLENEUVE,RUNGIS,France,5110,n.a.,n.a.,n.a.,112,n.a.,121,87,110,106,108,n.a.,n.a.,n.a.,468,n.a.,480,476,477,477,n.a.
142,HOP -BRIT AIR,AEROPORT,MORLAIX,France,5110,n.a.,n.a.,n.a.,206,273,420,329,425,442,535,n.a.,n.a.,n.a.,987,"1,030",n.a.,"1,066","1,089","1,122","1,151"
121,HOP -REGIONAL,L AEROPORT,BOUGUENAIS,France,5110,n.a.,n.a.,n.a.,276,354,515,441,571,541,624,n.a.,n.a.,n.a.,"1,679","1,567",n.a.,"1,650","1,665","1,714",n.a.
,HUNTSMAN P&A FRANCE SAS,1 RUE DES GARENNES,CALAIS,France,2012,n.a.,n.a.,181,220,223,295,286,n.a.,n.a.,164,n.a.,n.a.,218,288,n.a.,279,270,n.a.,n.a.,n.a.
80,HUTCHINSON SNC,2 RUE BALZAC,PARIS,France,2219,n.a.,n.a.,n.a.,n.a.,n.a.,n.a.,n.a.,510,437,531,n.a.,n.a.,n.a.,n.a.,n.a.,n.a.,n.a.,"2,949","3,100",n.a.
365,HYET SWEET,Credit needed,Credit needed,Credit needed,Credit needed,n.a.,Credit needed,n.a.,Credit needed,Credit needed,n.a.,n.a.,n.a.,n.a.,n.a.,n.a.,n.a.,n.a.,n.a.,n.a.,n.a.,n.a.,n.a.,n.a.,n.a.
98,IDEX ENERGIES,72 AVENUE JEAN BAPTISTE CLEMENT,BOULOGNE BILLANCOURT,France,3311,n.a.,459,464,476,648,n.a.,37,416,393,369,n.a.,"2,465","2,463","2,412","2,502","2,552","2,603","2,566","2,555","2,441"
127,IMERYS TC,10 RUE DU CHATEAU D EAU,CHAMPAGNE-AU-MONT-D'OR,France,2332,n.a.,286,308,321,356,416,446,413,427,513,n.a.,901,"1,051",905,"1,201",n.a.,n.a.,n.a.,n.a.,"1,666"
366,IMPRIMERIE HELIO CORBEIL,4 BOULEVARD CRETE,CORBEIL ESSONNES,France,1812,n.a.,14,15,14,15,13,n.a.,n.a.,n.a.,n.a.,n.a.,92,92,92,n.a.,n.a.,n.a.,n.a.,n.a.,n.a.
120,INDUSTEEL FRANCE,LA PLAINE ST DENIS IMMEUBLE LE CEZANNE,ST DENIS,France,2410,n.a.,318,464,497,432,475,511,465,5,7,n.a.,"1,138","1,201","1,186","1,179",n.a.,n.a.,"1,167",1,7
435,INDUSTELEC SUD EST,IMMEUBLE LE LASER,LYON,France,7112,n.a.,5,4,4,5,7,9,8,10,10,n.a.,n.a.,n.a.,n.a.,n.a.,n.a.,n.a.,n.a.,n.a.,n.a.
,INDUSTRIAL & ENVIRONMENTAL PLATEFORM SAS,RUE DE LA GARE,VILLERS ST SEPULCRE,France,2016,n.a.,n.a.,n.a.,0,n.a.,0,5,0,0,6,n.a.,n.a.,n.a.,n.a.,n.a.,n.a.,n.a.,n.a.,2,n.a.
,INDUSTRIE CARTARIE TRONCHETTI FRANCE,100 RUE DES CAMELIAS,PANNES,France,1722,n.a.,115,102,94,85,68,20,0,0,0,n.a.,n.a.,n.a.,163,150,n.a.,n.a.,3,n.a.,n.a.
,INEOS CHEMICALS LAVERA SAS,RUE DE LA BIENFAISANCE,MARTIGUES,France,2016,n.a.,114,133,106,189,226,223,0,0,0,n.a.,182,177,402,440,433,426,n.a.,n.a.,n.a.
,INEOS DERIVATIVES LAVERA SAS,RUE DE LA BIENFAISANCE,MARTIGUES,France,2014,n.a.,96,84,81,n.a.,n.a.,n.a.,n.a.,n.a.,n.a.,n.a.,183,184,185,n.a.,n.a.,n.a.,n.a.,n.a.,n.a.
338,INEOS ENTERPRISES FRANCE SAS,ZONE INDUSTRIELLE,VERDUN,France,2014,n.a.,20,22,25,72,26,24,24,56,139,n.a.,139,143,150,157,161,181,186,n.a.,144
262,INEOS POLYMERS SARRALBE SAS,RUE ERNEST SOLVAY,SARRALBE,France,2016,n.a.,59,53,51,53,58,63,n.a.,1,1,n.a.,217,n.a.,n.a.,218,226,n.a.,n.a.,n.a.,n.a.
116,INGREDIA,51 AVENUE FERNAND LOBBEDEZ,ARRAS,France,1051,n.a.,330,359,415,424,318,328,302,264,354,n.a.,419,14,418,412,364,353,339,326,312
,INOVYN FRANCE,2 AVENUE DE LA REPUBLIQUE,TAVAUX,France,2013,n.a.,306,311,357,420,417,428,362,308,352,n.a.,643,662,"1,330","1,450",n.a.,n.a.,n.a.,n.a.,n.a.
464,INTER COMBUSTIBLES,36 ROUTE DU BASSIN 6,GENNEVILLIERS,France,4671,n.a.,n.a.,2,n.a.,2,2,3,n.a.,2,n.a.,n.a.,n.a.,n.a.,n.a.,n.a.,n.a.,n.a.,n.a.,n.a.,n.a.
,INTERNATIONAL COOKWARE,85 ALLEE DES MAISONS ROUGES,CHATEAUROUX,France,2313,n.a.,101,99,103,113,86,103,n.a.,81,92,n.a.,445,n.a.,448,n.a.,n.a.,453,n.a.,435,441
90,INTERNATIONAL PAPER KWIDZYN SP. Z O.O.,LOTNICZA 1,KWIDZYN,Poland,1712,n.a.,559,556,553,605,619,570,574,552,480,n.a.,"1,114","1,317",n.a.,n.a.,n.a.,"1,320","1,320","1,300","1,364"
,INTERSNACK FRANCE,ROUTE DE COMPIEGNE,MONTIGNY LENGRAIN,France,1031,n.a.,193,204,197,199,185,192,179,189,283,n.a.,408,383,467,n.a.,398,n.a.,406,502,546
,INTERXION FRANCE,129 BOULEVARD MALESHERBES,PARIS,France,6311,n.a.,69,63,54,50,48,48,39,32,26,n.a.,81,80,78,72,n.a.,n.a.,44,n.a.,n.a.
,IP AVIATION LTD,22 KNIGHTS WAY,DUNMOW,United Kingdom,7490,n.a.,n.a.,n.a.,n.a.,n.a.,n.a.,n.a.,n.a.,n.a.,n.a.,n.a.,n.a.,n.a.,n.a.,n.a.,n.a.,n.a.,n.a.,n.a.,n.a.
370,ISERGIE,17 RUE DE LA FRISE,GRENOBLE,France,3511,n.a.,n.a.,n.a.,n.a.,11,19,16,15,18,15,n.a.,n.a.,n.a.,n.a.,n.a.,n.a.,n.a.,n.a.,n.a.,n.a.
,ISRAIR AIRLINES & TOURISM LTD.,3 HAMELACHA,TEL AVIV-JAFFA,Israel,5110,n.a.,335,n.a.,n.a.,180,n.a.,189,n.a.,n.a.,n.a.,686,n.a.,n.a.,500,n.a.,n.a.,n.a.,n.a.,n.a.,n.a.
259,ITON SEINE,QUAI DE SEINE,BONNIERES SUR SEINE,France,2410,n.a.,61,68,74,71,77,74,68,71,81,n.a.,229,236,233,239,n.a.,6,235,246,233
,JAPAT AG,C/O NOVARTIS INTERNATIONAL AG,BASEL,Switzerland,6499,n.a.,n.a.,n.a.,n.a.,n.a.,n.a.,n.a.,n.a.,n.a.,n.a.,15,15,15,15,15,15,28,28,28,n.a.
,JCDECAUX SA,"17, RUE SOYER",NEUILLY-SUR-SEINE,France,7312,n.a.,"2,979","2,815","2,494","2,352","2,629","2,471","2,352","1,923","2,169",n.a.,"11,741","11,550","10,598","11,402","10,484","10,304","9,943","9,937","9,370"
146,JEREISSATI PARTICIPACOES S.A.,ANDAR 9,SAO PAULO,Brazil,6619,n.a.,216,194,248,148,"2,094","2,722","3,327","2,760","1,122",n.a.,n.a.,n.a.,n.a.,n.a.,n.a.,n.a.,n.a.,n.a.,n.a.
,JET CONNECTIONS LIMITED,BUILDING 34,KIDLINGTON,United Kingdom,5110,n.a.,n.a.,n.a.,n.a.,n.a.,n.a.,n.a.,n.a.,n.a.,n.a.,n.a.,n.a.,n.a.,n.a.,n.a.,n.a.,n.a.,n.a.,n.a.,n.a.
,JET4YOU,Credit needed,Credit needed,Credit needed,Credit needed,n.a.,n.a.,n.a.,n.a.,n.a.,n.a.,n.a.,n.a.,n.a.,n.a.,n.a.,n.a.,n.a.,n.a.,n.a.,n.a.,n.a.,n.a.,n.a.,n.a.
487,JOULIAN,21 RUE SAINTE ANNE,NIMES,France,1071,n.a.,n.a.,0,n.a.,0,0,0,n.a.,n.a.,n.a.,n.a.,n.a.,n.a.,n.a.,n.a.,n.a.,n.a.,n.a.,n.a.,n.a.
,KALAIR LIMITED,42 HIGH STREET,BEDFORD,United Kingdom,8299,n.a.,n.a.,n.a.,n.a.,n.a.,n.a.,n.a.,n.a.,n.a.,n.a.,n.a.,n.a.,n.a.,n.a.,n.a.,n.a.,n.a.,n.a.,n.a.,n.a.
61,KEM ONE,IMMEUBLE,LYON,France,2016,n.a.,855,874,927,887,474,0,n.a.,n.a.,n.a.,n.a.,n.a.,"1,254",n.a.,n.a.,"1,352",n.a.,n.a.,n.a.,n.a.
530,KERAGLASS SNC,,,France,,n.a.,n.a.,n.a.,n.a.,n.a.,n.a.,n.a.,n.a.,n.a.,n.a.,n.a.,n.a.,n.a.,n.a.,n.a.,n.a.,n.a.,n.a.,n.a.,n.a.
57,KERMENE,SAINT JACUT DU MENE,LE MENE,France,1011,n.a.,929,928,924,923,860,737,673,635,595,n.a.,"3,437","3,474","3,390","3,323","2,399","2,385","3,094","2,945","2,740"
,KERNEOS,11 COURS VALMY,PUTEAUX,France,2351,n.a.,242,242,176,62,234,232,215,186,227,n.a.,392,390,383,385,377,377,369,363,355
,KERVALIS,LIEU DIT LA HAIE ROBERT,VITRE,France,1013,n.a.,n.a.,54,53,52,40,n.a.,29,25,24,n.a.,n.a.,61,62,51,41,41,42,41,43
,KERVALIS ARMOR,9 PARC D ATE DES LANDES D IFFLET,TREMOREL,France,1041,n.a.,n.a.,19,16,16,n.a.,n.a.,n.a.,11,12,n.a.,n.a.,34,34,32,n.a.,n.a.,n.a.,33,38
225,KNAUF INSULATION LANNEMEZAN,501 VOIE NAPOLEON III,LANNEMEZAN,France,2314,n.a.,n.a.,84,82,82,84,78,39,0,0,n.a.,n.a.,206,211,204,n.a.,149,131,52,30
,KNAUF PLATRES & CIE,RUE DU SAUVOY,ST SOUPPLETS,France,2362,n.a.,105,n.a.,110,109,114,111,102,100,123,n.a.,n.a.,n.a.,181,173,172,167,164,171,179
,KNIGHT AVIATION LLC,2030 HIGHWAY 90 E,BROUSSARD,United States of America,,n.a.,n.a.,n.a.,n.a.,n.a.,n.a.,n.a.,n.a.,n.a.,n.a.,n.a.,n.a.,n.a.,n.a.,n.a.,n.a.,n.a.,n.a.,n.a.,n.a.
195,KRONENBOURG SUPPLY COMPANY,BOULEVARD D EUROPE,OBERNAI,France,1105,n.a.,n.a.,121,0,0,0,0,0,n.a.,n.a.,n.a.,n.a.,n.a.,n.a.,n.a.,n.a.,n.a.,n.a.,n.a.,n.a.
,KRONOSPAN POLSKA SP. Z O.O.,WARYNSKIEGO 1,SZCZECINEK,Poland,1621,n.a.,421,423,n.a.,n.a.,n.a.,n.a.,n.a.,n.a.,n.a.,n.a.,717,740,n.a.,n.a.,n.a.,n.a.,n.a.,n.a.,n.a.
,"L BRANDS SERVICE COMPANY, LLC",,DELAWARE,United States of America,,n.a.,n.a.,n.a.,n.a.,n.a.,n.a.,n.a.,n.a.,n.a.,n.a.,n.a.,n.a.,n.a.,n.a.,n.a.,n.a.,n.a.,n.a.,n.a.,n.a.
,L N U F BAYEUX,Credit needed,Credit needed,Credit needed,Credit needed,n.a.,Credit needed,n.a.,Credit needed,n.a.,Credit needed,n.a.,n.a.,n.a.,n.a.,n.a.,n.a.,n.a.,n.a.,n.a.,n.a.,n.a.,n.a.,n.a.,n.a.
378,LA ROCHERE,,PASSAVANT LA ROCHERE,France,2313,n.a.,12,12,13,12,19,15,16,15,18,n.a.,131,136,142,n.a.,160,170,173,186,198
,LA TRANSPORTES E LOCACOES LTDA - ME, R DO BOTO 530 QUADRA60 LOTE 05,GOIANIA,Brazil,7022,n.a.,n.a.,n.a.,n.a.,n.a.,n.a.,n.a.,n.a.,n.a.,n.a.,n.a.,n.a.,n.a.,n.a.,n.a.,n.a.,n.a.,n.a.,n.a.,n.a.
,LABORATOIRES A S L,Credit needed,Credit needed,Credit needed,Credit needed,n.a.,Credit needed,n.a.,n.a.,n.a.,n.a.,n.a.,n.a.,n.a.,n.a.,n.a.,n.a.,n.a.,n.a.,n.a.,n.a.,n.a.,n.a.,n.a.,n.a.
83,LAFARGEHOLCIM MAROC SA,QUARTIER DES CRETES,CASABLANCA,Morocco,2351,n.a.,627,485,450,451,456,502,479,481,440,n.a.,n.a.,n.a.,n.a.,n.a.,n.a.,n.a.,n.a.,972,992
197,LAITERIE NOUVELLE DE L'ARGUENON,BELLEVUE,CREHEN,France,1051,n.a.,120,127,135,120,115,124,71,31,125,n.a.,400,341,311,270,272,253,231,237,241
356,LALLEMAND INC,1620 RUE PREFONTAINE,MONTREAL,Canada,2120,15,n.a.,n.a.,n.a.,n.a.,n.a.,n.a.,n.a.,n.a.,n.a.,"3,500",n.a.,n.a.,n.a.,n.a.,n.a.,n.a.,n.a.,n.a.,n.a.
522,LAMINES MARCHANDS EUROPEENS SA - LME,,,France,,n.a.,n.a.,n.a.,n.a.,n.a.,n.a.,n.a.,n.a.,n.a.,n.a.,n.a.,n.a.,n.a.,n.a.,n.a.,n.a.,n.a.,n.a.,n.a.,n.a.
470,LAMPERT D.O.O.,KNEZA LJUDEVITA POSAVSKOG 11,KUTINA,Croatia,4941,n.a.,1,1,1,1,1,1,1,1,1,n.a.,16,18,15,14,15,15,13,12,12
353,LANA PAPIERS SPECIAUX II,139 ROUTE DE LA WANTZENAU,STRASBOURG,France,1712,n.a.,n.a.,16,19,n.a.,n.a.,n.a.,n.a.,n.a.,n.a.,n.a.,n.a.,n.a.,n.a.,n.a.,n.a.,n.a.,n.a.,n.a.,n.a.
529,LANXESS ELASTOMERES SAS,,,France,,n.a.,n.a.,n.a.,n.a.,n.a.,n.a.,n.a.,n.a.,n.a.,n.a.,n.a.,n.a.,n.a.,n.a.,n.a.,n.a.,n.a.,n.a.,n.a.,n.a.
359,LAS VEGAS JET,177 E RENO AVE,LAS VEGAS,United States of America,5110,n.a.,n.a.,n.a.,n.a.,n.a.,n.a.,14,n.a.,n.a.,n.a.,n.a.,n.a.,n.a.,n.a.,n.a.,n.a.,35,n.a.,n.a.,n.a.
,LAVAL ENERGIE NOUVELLE,ZUP CTRALE THERMIQUE,LAVAL,France,3530,n.a.,2,2,1,n.a.,n.a.,n.a.,n.a.,n.a.,n.a.,n.a.,n.a.,n.a.,n.a.,n.a.,n.a.,n.a.,n.a.,n.a.,n.a.
244,LAVERA ENERGIES,184 COURS LA FAYETTE,LYON,France,3530,n.a.,72,77,55,74,88,69,64,61,79,n.a.,43,38,36,35,n.a.,n.a.,n.a.,n.a.,n.a.
426,LAVERGNE,1 RUE PRINCIPALE,ETTENDORF,France,4673,n.a.,n.a.,n.a.,n.a.,n.a.,n.a.,n.a.,n.a.,n.a.,4,n.a.,n.a.,n.a.,n.a.,n.a.,n.a.,n.a.,n.a.,n.a.,n.a.
,LB,ROUTE DEPARTEMENTALE 933,AICIRITS CAMOU SUHAST,France,4621,74,76,77,74,83,79,79,60,57,64,n.a.,38,38,32,n.a.,31,31,31,30,6
,LEGEND AIR LIMITED,15 MOORCROFT AVENUE,CHESTER,United Kingdom,,n.a.,n.a.,n.a.,n.a.,n.a.,n.a.,n.a.,n.a.,n.a.,n.a.,n.a.,n.a.,n.a.,n.a.,n.a.,n.a.,n.a.,n.a.,n.a.,n.a.
297,LEROUX,84 RUE FRANCOIS HERBO,ORCHIES,France,1083,n.a.,34,34,35,41,42,46,43,43,42,n.a.,154,160,170,184,198,217,196,187,n.a.
341,LES CHAUX DE LA TOUR,1 CHEMIN DES CHAUX DE LA TOUR,ENSUES LA REDONNE,France,2352,n.a.,19,20,21,21,20,18,17,16,21,n.a.,22,24,23,23,n.a.,n.a.,26,22,n.a.
,LES CHEMINEES PHILIPPE,198 AVENUE DU PRESIDENT KENNEDY,BETHUNE,France,2752,n.a.,59,62,65,75,80,91,99,113,125,n.a.,n.a.,700,743,795,971,n.a.,n.a.,n.a.,n.a.
,LES DERIVES RESINIQUES ET TERPENIQUES,30 RUE GAMBETTA,DAX,France,2014,n.a.,282,251,243,235,234,n.a.,n.a.,150,145,n.a.,n.a.,n.a.,n.a.,n.a.,n.a.,n.a.,n.a.,n.a.,n.a.
191,LES LABORATOIRES SERVIER INDUSTRIE,905 ROUTE DE SARAN,GIDY,France,2120,n.a.,120,120,121,123,125,130,124,141,152,n.a.,800,818,821,811,804,815,826,844,847
241,LESAFFRE FRERES,2 RUE DU PIEGE,NANGIS,France,1081,66,46,53,76,90,98,60,58,55,53,135,137,135,134,132,n.a.,124,118,n.a.,104
69,LESIEUR,IMMEUBLE A,ASNIERES SUR SEINE,France,1041,n.a.,728,708,725,733,766,795,704,727,845,n.a.,724,604,726,688,n.a.,24,602,n.a.,593
494,LEUCKX,RUE DES PETITES VIGNES 29,LIEGE,Belgium,4322,n.a.,n.a.,n.a.,n.a.,n.a.,n.a.,n.a.,n.a.,n.a.,n.a.,n.a.,n.a.,n.a.,n.a.,n.a.,n.a.,n.a.,n.a.,n.a.,n.a.
189,LFOUNDRY ROUSSET SAS,112 AVENUE KLEBER,PARIS,France,2611,n.a.,n.a.,n.a.,n.a.,n.a.,n.a.,103,104,n.a.,n.a.,n.a.,n.a.,n.a.,n.a.,n.a.,n.a.,771,n.a.,n.a.,n.a.
252,LHOIST FRANCE OUEST,15 RUE HENRI DAGALIER,GRENOBLE,France,2352,n.a.,67,77,98,104,96,58,20,22,28,n.a.,204,213,211,n.a.,218,n.a.,n.a.,35,38
560,LIFETEX B.V.,NOORDEINDE 3,LANDSMEER,Netherlands,6530,n.a.,n.a.,n.a.,n.a.,n.a.,n.a.,n.a.,n.a.,n.a.,n.a.,n.a.,n.a.,n.a.,n.a.,n.a.,1,1,n.a.,n.a.,n.a.
22,LILLY FRANCE,24 BOULEVARD VITAL BOUHOT,NEUILLY SUR SEINE,France,2120,n.a.,n.a.,"2,765","2,648","3,170","2,479","2,692","2,655","2,439","2,165",n.a.,n.a.,"2,286","2,216","2,216",n.a.,"2,313","2,554",n.a.,"2,697"
,LIMAGRAIN,RUE HENRI MONDOR,ST BEAUZIRE,France,111,n.a.,"1,775","1,727","1,969",n.a.,n.a.,"1,555","1,349",n.a.,n.a.,n.a.,"9,684","9,387","8,624",n.a.,n.a.,n.a.,n.a.,n.a.,n.a.
,LINDE FRANCE,523 COURS DU 3E MILLENAIRE,ST PRIEST,France,2011,n.a.,272,268,264,275,286,279,270,81,80,n.a.,744,759,739,757,n.a.,n.a.,n.a.,n.a.,n.a.
,LINEX PANNEAUX,ZONE INDUSTRIELLE,ALLOUVILLE BELLEFOSSE,France,1621,n.a.,n.a.,n.a.,n.a.,n.a.,n.a.,n.a.,n.a.,n.a.,n.a.,n.a.,n.a.,n.a.,n.a.,n.a.,n.a.,n.a.,n.a.,n.a.,n.a.
,LINKCITY ILE DE FRANCE,1 AVENUE EUGENE FREYSSINET,GUYANCOURT,France,4110,n.a.,270,299,342,327,271,317,218,275,204,n.a.,127,121,118,n.a.,109,94,84,65,80
256,LIS FRANCE,67 RUE DE LA GARE,CERENCES,France,1089,n.a.,n.a.,60,61,62,59,55,53,49,n.a.,n.a.,n.a.,n.a.,n.a.,n.a.,n.a.,n.a.,n.a.,n.a.,n.a.
,LISIEUX ENERGIE,37 AVENUE DE LATTRE DE TASSIGNY,ST ANDRE LEZ LILLE,France,3530,n.a.,2,2,2,2,2,2,1,1,1,n.a.,n.a.,n.a.,n.a.,n.a.,n.a.,n.a.,n.a.,n.a.,n.a.
303,LOUIS MARTIN PRODUCTION,QUARTIER LA PEYROUSE,MONTEUX,France,1039,n.a.,32,36,34,31,30,30,33,35,29,n.a.,86,86,n.a.,86,n.a.,83,83,n.a.,86
,LR ENTERPRISES MANAGEMENT,100 PARK AVE,NEW YORK,United States of America,8211,3,n.a.,n.a.,n.a.,n.a.,n.a.,n.a.,n.a.,n.a.,n.a.,n.a.,n.a.,n.a.,n.a.,n.a.,n.a.,n.a.,n.a.,n.a.,n.a.
,LTR INDUSTRIES,29393 QUIMPERLE,QUIMPERLE,France,1200,n.a.,n.a.,n.a.,n.a.,n.a.,n.a.,n.a.,n.a.,148,130,n.a.,n.a.,n.a.,n.a.,n.a.,n.a.,n.a.,n.a.,432,433
50,LUBRIZOL FRANCE,25 QUAI DE FRANCE,ROUEN,France,2059,n.a.,"1,135","1,194","1,104","1,019","1,028","1,025",915,710,806,n.a.,720,671,619,n.a.,n.a.,n.a.,559,549,n.a.
248,LUCART SAS,10 RUE MAURICE MOUGEOT,LAVAL SUR VOLOGNE,France,1722,n.a.,70,71,72,71,64,60,58,65,n.a.,n.a.,268,260,260,n.a.,n.a.,238,248,239,n.a.
,LUZEAL,VOIE CHANTERAINE,RECY,France,1091,n.a.,57,61,n.a.,73,77,85,62,80,0,n.a.,165,219,n.a.,n.a.,n.a.,n.a.,278,296,n.a.
363,LVMH SERVICES LIMITED,15 ST. GEORGE STREET,LONDON,United Kingdom,7010,n.a.,16,13,4,12,4,4,2,2,2,n.a.,6,2,1,1,1,2,2,2,2
64,LYONDELL CHIMIE FRANCE,ZONE INDUSTRIELLE PORTUAIRE,FOS SUR MER,France,2014,n.a.,773,"1,047","1,236","1,232","1,285","1,200","1,074",785,"1,067",n.a.,300,304,304,310,n.a.,298,317,323,n.a.
94,LYRECO FRANCE,RUE ALPHONSE TERROIR,MARLY,France,4649,n.a.,526,509,503,505,519,537,525,525,546,n.a.,"1,964","1,924","1,919","1,971","2,006","2,009","2,030","2,127","2,099"
,M-EDIA AVIATION LIMITED,14 ATHOL STREET,DOUGLAS,Isle Of Man (United Kingdom),,n.a.,n.a.,n.a.,n.a.,n.a.,n.a.,n.a.,n.a.,n.a.,n.a.,n.a.,n.a.,n.a.,n.a.,n.a.,n.a.,n.a.,n.a.,n.a.,n.a.
,M.E.LEASING CO LTD,187/6 M.5 NONG HAN,CHIANGMAI,Thailand,4932,n.a.,0,0,0,0,0,0,0,0,0,n.a.,n.a.,n.a.,n.a.,n.a.,n.a.,n.a.,n.a.,n.a.,n.a.
,MACBENS PATRIMONIAL LTDA, PC ALPHA CENTAURO 54 CONJ. 03,SANTANA DE PARNAIBA,Brazil,6810,n.a.,1,n.a.,n.a.,n.a.,n.a.,n.a.,n.a.,n.a.,n.a.,n.a.,8,n.a.,n.a.,n.a.,n.a.,n.a.,n.a.,n.a.,n.a.
132,MADRANGE,65 B RUE LA FAYETTE,PARIS,France,1013,n.a.,n.a.,n.a.,n.a.,n.a.,n.a.,n.a.,219,214,289,n.a.,n.a.,n.a.,n.a.,n.a.,n.a.,n.a.,804,690,949
460,MADRILLET ENERGIE,1 ROND POINT DES BRUYERES,SOTTEVILLE LES ROUEN,France,3530,n.a.,2,2,2,3,n.a.,0,2,2,2,n.a.,n.a.,n.a.,n.a.,n.a.,n.a.,n.a.,n.a.,n.a.,n.a.
149,MAGNESITA REFRACTORIES GMBH,ITTERPARK 1,HILDEN,Germany,2320,n.a.,212,199,225,222,207,232,202,148,238,n.a.,421,419,391,378,357,340,340,450,550
,MAISADOUR SOC COOP AGRICOLE,ROUTE DE SAINT SEVER,HAUT MAUCO,France,4621,n.a.,n.a.,n.a.,n.a.,n.a.,n.a.,"1,229","1,018",n.a.,n.a.,n.a.,n.a.,n.a.,n.a.,n.a.,n.a.,n.a.,n.a.,n.a.,n.a.
,MAISICA DE BAYONNE,Credit needed,Credit needed,Credit needed,Credit needed,n.a.,n.a.,n.a.,n.a.,n.a.,n.a.,n.a.,n.a.,n.a.,n.a.,n.a.,n.a.,n.a.,n.a.,n.a.,n.a.,n.a.,n.a.,n.a.,n.a.
,MALIBU CONSULTING LLC,7604 TOWNSEND BLVD,MCKINNEY,United States of America,7022,n.a.,n.a.,0,n.a.,n.a.,n.a.,n.a.,n.a.,n.a.,n.a.,n.a.,n.a.,1,n.a.,n.a.,n.a.,n.a.,n.a.,n.a.,n.a.
,MALTERIES SOUFFLET,QUAI SARRAIL,NOGENT SUR SEINE,France,1106,314,340,343,359,368,338,307,265,273,234,176,171,174,168,164,155,142,137,133,129
,MALTEUROP FRANCE,2 RUE CLEMENT ADER,REIMS,France,1106,n.a.,162,161,176,179,184,156,150,206,177,n.a.,159,160,163,n.a.,151,148,145,147,149
,MANCELLE D HABITATION,11 RUE DU DONJON,LE MANS,France,6820,n.a.,n.a.,n.a.,n.a.,34,22,n.a.,n.a.,n.a.,20,n.a.,n.a.,n.a.,n.a.,n.a.,65,n.a.,n.a.,n.a.,64
399,MANTAISE EXPLOITATION CHAUFFAGE,TOUR EUROPE,COURBEVOIE,France,3530,n.a.,9,9,7,20,20,13,14,12,15,n.a.,n.a.,n.a.,n.a.,n.a.,n.a.,n.a.,n.a.,n.a.,n.a.
,MANUFACTORY EVER GRES SAS,,,France,,n.a.,n.a.,n.a.,n.a.,n.a.,n.a.,n.a.,n.a.,n.a.,n.a.,n.a.,n.a.,n.a.,n.a.,n.a.,n.a.,n.a.,n.a.,n.a.,n.a.
,MANUFACTURE DE PRODUITS D'HYGIENE,27 RUE MAURICE FLANDIN,LYON,France,1722,n.a.,81,71,72,81,54,46,43,37,24,n.a.,96,89,80,72,62,n.a.,n.a.,n.a.,n.a.
13,MANUFACTURE FRANCAISE DES PNEUMATIQUES MICHELIN,23 PLACE DES CARMES DECHAUX,CLERMONT FERRAND,France,2211,n.a.,"5,073","5,203","5,261","5,596","5,932","5,738","4,770","4,135","5,041",n.a.,"19,322","19,611","19,611","20,081","20,614","20,543","19,034","20,152","21,437"
,MARCILLAT CORCIEUX,Credit needed,Credit needed,Credit needed,Credit needed,n.a.,Credit needed,n.a.,Credit needed,Credit needed,n.a.,n.a.,n.a.,n.a.,n.a.,n.a.,n.a.,n.a.,n.a.,n.a.,n.a.,n.a.,n.a.,n.a.,n.a.
519,MARITIME INVESTMENT AND SHIPPING COMPANY LIMITED,"CONYERS, DILL & PEARMAN",HAMILTON,Bermuda,5110,n.a.,n.a.,n.a.,n.a.,n.a.,n.a.,n.a.,n.a.,n.a.,n.a.,n.a.,n.a.,n.a.,n.a.,n.a.,n.a.,n.a.,n.a.,n.a.,n.a.
65,MARS PF FRANCE,BOULEVARD DES CHENATS,ST-DENIS-DE-L'HOTEL,France,1092,n.a.,772,753,741,729,702,696,713,703,833,n.a.,842,858,875,857,858,n.a.,860,856,n.a.
,MARTINEZ,ALLEE DU POUSSET,HYERES,France,4322,n.a.,3,2,2,3,2,1,1,2,1,n.a.,15,13,12,10,9,10,9,7,7
439,MARVELL GLASS SAS,2 RUE LOUIS JACQUES THENARD,CHALON SUR SAONE,France,2740,n.a.,n.a.,4,4,5,n.a.,n.a.,n.a.,n.a.,n.a.,n.a.,n.a.,25,24,n.a.,n.a.,n.a.,n.a.,n.a.,n.a.
,MASCAIR LLC,600 TOWNE CENTRE BLVD,PINEVILLE,United States of America,,n.a.,n.a.,n.a.,n.a.,n.a.,n.a.,n.a.,n.a.,n.a.,n.a.,n.a.,n.a.,n.a.,n.a.,n.a.,n.a.,n.a.,n.a.,n.a.,n.a.
,MAUBEUGE CONSTRUCTION AUTOMOBILE,AVENUE ANDRE CHAUSSON,MAUBEUGE,France,2910,n.a.,205,n.a.,195,228,254,248,302,280,394,n.a.,"1,678",n.a.,n.a.,n.a.,n.a.,"2,667",n.a.,n.a.,n.a.
,MAXAM TAN SAS,CHEMIN DES SOLDATS,MAZINGARBE,France,2015,n.a.,66,56,45,44,44,55,10,n.a.,n.a.,n.a.,86,85,82,n.a.,n.a.,n.a.,n.a.,n.a.,n.a.
,MAYES JOHN,2787 LARK RD,ABILENE,United States of America,111,n.a.,n.a.,n.a.,0,n.a.,n.a.,n.a.,n.a.,n.a.,n.a.,n.a.,n.a.,n.a.,1,n.a.,n.a.,n.a.,n.a.,n.a.,n.a.
,MB AVIATION LLC,541 10TH ST NW,ATLANTA,United States of America,3030,3,n.a.,n.a.,n.a.,n.a.,n.a.,n.a.,n.a.,n.a.,n.a.,7,n.a.,n.a.,n.a.,n.a.,n.a.,n.a.,n.a.,n.a.,n.a.
141,MC CAIN ALIMENTAIRE,PARCD ENTREPRISES MOTTE BOIS,HARNES,France,1031,n.a.,230,223,305,433,375,324,308,n.a.,n.a.,n.a.,"1,065","1,068","1,105","1,120",779,770,n.a.,n.a.,n.a.
,MELVIN SIMON & ASSOCIATES INC,8765 PINE RIDGE DR,INDIANAPOLIS,United States of America,,n.a.,n.a.,n.a.,n.a.,n.a.,n.a.,n.a.,n.a.,n.a.,n.a.,n.a.,n.a.,n.a.,n.a.,n.a.,n.a.,n.a.,n.a.,n.a.,n.a.
,MENDOTA AIRCRAFT MANGEMENT,1601 HIGHWAY 13 E,BURNSVILLE,United States of America,2651,n.a.,3,n.a.,n.a.,n.a.,n.a.,n.a.,n.a.,n.a.,n.a.,n.a.,35,n.a.,n.a.,n.a.,n.a.,n.a.,n.a.,n.a.,n.a.
,MENU' - SOCIETA' A RESPONSABILITA' LIMITATA ABBREVIABILE IN: MENU' - S.R.L.,STS 12 102,MEDOLLA,Italy,1089,n.a.,85,n.a.,n.a.,n.a.,n.a.,n.a.,n.a.,n.a.,n.a.,n.a.,259,n.a.,n.a.,n.a.,n.a.,n.a.,n.a.,n.a.,n.a.
,"MERLE CO., LTD.",4,"SONGSHAN DIST., TAIPEI CITY",Taiwan,6619,n.a.,n.a.,n.a.,n.a.,n.a.,n.a.,n.a.,n.a.,n.a.,n.a.,n.a.,n.a.,n.a.,n.a.,n.a.,n.a.,n.a.,n.a.,n.a.,n.a.
217,MERYL FIBER,AVENUE DE L HERMITAGE,ST LAURENT BLANGY,France,2060,n.a.,n.a.,n.a.,n.a.,n.a.,n.a.,n.a.,n.a.,69,75,n.a.,n.a.,n.a.,n.a.,n.a.,n.a.,n.a.,n.a.,347,344
369,METZGER GMBH + CO. KG,BERLINER STR. 29,ESSLINGEN,Germany,4110,n.a.,n.a.,14,12,16,15,15,n.a.,n.a.,n.a.,n.a.,n.a.,30,30,30,30,n.a.,n.a.,n.a.,n.a.
347,MEYLAN 60,27 AVENUE DU GRANIER,MEYLAN,France,1712,n.a.,n.a.,n.a.,n.a.,n.a.,n.a.,n.a.,n.a.,n.a.,n.a.,n.a.,n.a.,n.a.,n.a.,n.a.,n.a.,n.a.,n.a.,n.a.,n.a.
,MINISTERE DE LA DEFENSE,GOVERNMENT BUILDING,ABIDJAN,Côte d'Ivoire,8422,n.a.,n.a.,n.a.,n.a.,n.a.,n.a.,n.a.,n.a.,n.a.,n.a.,n.a.,"1,000",n.a.,n.a.,n.a.,n.a.,n.a.,n.a.,n.a.,n.a.
562,MON FLER,D.29,P. VNIISSOK,Russian Federation,4778,n.a.,n.a.,n.a.,n.a.,n.a.,n.a.,n.a.,n.a.,n.a.,n.a.,n.a.,n.a.,n.a.,n.a.,n.a.,n.a.,n.a.,n.a.,n.a.,n.a.
421,MONCIA,6 RUE DE ROANNE,MONTCEAU LES MINES,France,3530,6,17,9,4,n.a.,n.a.,n.a.,n.a.,n.a.,n.a.,n.a.,n.a.,n.a.,n.a.,n.a.,n.a.,n.a.,n.a.,n.a.,n.a.
,MONDELANGE INDUSTRIES,Credit needed,Credit needed,Credit needed,Credit needed,n.a.,n.a.,n.a.,n.a.,n.a.,n.a.,n.a.,n.a.,n.a.,n.a.,n.a.,n.a.,n.a.,n.a.,n.a.,n.a.,n.a.,n.a.,n.a.,n.a.
407,MONS ENERGIE,37 AVENUE DE LATTRE DE TASSIGNY,ST ANDRE LEZ LILLE,France,3530,n.a.,7,10,11,8,8,7,7,7,7,n.a.,n.a.,n.a.,n.a.,n.a.,n.a.,n.a.,n.a.,n.a.,n.a.
,MONT BLANC AVIATION LTD.,"CONYERS, DILL & PEARMAN",HAMILTON,Bermuda,6420,n.a.,n.a.,n.a.,n.a.,n.a.,n.a.,n.a.,n.a.,n.a.,n.a.,n.a.,n.a.,n.a.,n.a.,n.a.,n.a.,n.a.,n.a.,n.a.,n.a.
486,MOUCHOT,25 RUE MARCEL MAILLARD,ANTONY,France,4334,n.a.,n.a.,n.a.,n.a.,n.a.,0,0,0,0,0,n.a.,n.a.,n.a.,n.a.,n.a.,n.a.,n.a.,3,3,4
305,MOULIN VIEUX,503 AV DU DAUPHINE,PONTCHARRA,France,1712,n.a.,n.a.,n.a.,n.a.,n.a.,n.a.,n.a.,n.a.,n.a.,n.a.,n.a.,n.a.,n.a.,n.a.,n.a.,n.a.,n.a.,n.a.,n.a.,n.a.
538,MULHOUSE ALSACE AGGLOMERATION,Credit needed,Credit needed,Credit needed,Credit needed,n.a.,n.a.,n.a.,n.a.,n.a.,n.a.,n.a.,n.a.,n.a.,n.a.,n.a.,n.a.,n.a.,n.a.,n.a.,n.a.,n.a.,n.a.,n.a.,n.a.
,NANCY ENROBES,ZONE INDUSTRIELLE FLEVILLE SUD,FLEVILLE DEVANT NANCY,France,2399,n.a.,2,3,4,6,5,7,6,n.a.,5,n.a.,1,2,2,n.a.,n.a.,3,3,n.a.,3
143,NAPHTACHIMIE,LAVERA,MARTIGUES,France,2014,n.a.,231,233,210,229,220,187,166,169,163,n.a.,485,478,474,488,n.a.,485,528,539,n.a.
,NATIXIS SA,30 AVENUE PIERRE MENDES FRANCE,PARIS,France,6419,n.a.,"8,811","8,799","7,591","6,870","6,934","7,747",n.a.,n.a.,n.a.,n.a.,"20,759","20,617","20,287","19,632","20,198","20,451",n.a.,n.a.,n.a.
35,NESTLE FRANCE,7 BOULEVARD PIERRE CARLE,NOISIEL,France,1083,n.a.,"1,981","2,017","1,992","2,012","2,016","2,047","1,853","1,787","2,004",n.a.,"3,049","3,072","3,080","3,097",n.a.,n.a.,n.a.,n.a.,"3,022"
137,NESTLE GRAND FROID,7 BOULEVARD PIERRE CARLE,NOISIEL,France,1052,n.a.,260,285,296,303,317,330,327,321,446,n.a.,576,624,641,n.a.,n.a.,n.a.,826,854,931
53,NESTLE PURINA PETCARE FRANCE,7 BOULEVARD PIERRE CARLE,NOISIEL,France,1092,n.a.,"1,043","1,094","1,045","1,011",964,907,869,826,894,n.a.,"1,851",n.a.,"1,864","1,834","1,791","1,721","1,698","1,639","1,564"
357,NESTOR INC,1080 MAIN ST,PAWTUCKET,United States of America,6203,n.a.,n.a.,16,n.a.,n.a.,n.a.,n.a.,n.a.,n.a.,n.a.,n.a.,n.a.,75,n.a.,n.a.,n.a.,n.a.,n.a.,n.a.,n.a.
,NEXT GENERATION ENTERPRISES,190 OBERLIN AVE N,LAKEWOOD,United States of America,4690,n.a.,n.a.,n.a.,n.a.,n.a.,n.a.,n.a.,n.a.,n.a.,0,n.a.,n.a.,n.a.,n.a.,n.a.,n.a.,n.a.,n.a.,n.a.,1
402,NIMERGIE,150 AVENUE AMEDEE BOLLE,NIMES,France,3530,n.a.,8,5,14,4,0,0,0,n.a.,n.a.,n.a.,n.a.,n.a.,n.a.,n.a.,n.a.,n.a.,n.a.,n.a.,n.a.
276,NIPRO PHARMAPACKAGING FRANCE,4 RUE DE LA VERRERIE,AUMALE,France,2319,n.a.,49,n.a.,45,n.a.,n.a.,41,21,38,37,n.a.,326,n.a.,310,n.a.,n.a.,234,267,269,276
513,"NISSAN NORTH AMERICA, INC",,,Brazil,,n.a.,n.a.,n.a.,n.a.,n.a.,n.a.,n.a.,n.a.,n.a.,n.a.,n.a.,n.a.,n.a.,n.a.,n.a.,n.a.,n.a.,n.a.,n.a.,n.a.
,NLMK STRASBOURG,1 RUE DU BASSIN DE L INDUSTRIE,STRASBOURG,France,2561,n.a.,n.a.,29,31,30,30,n.a.,31,26,45,n.a.,n.a.,n.a.,n.a.,n.a.,n.a.,n.a.,n.a.,n.a.,n.a.
,NOMAD AVIATION AG,LINDENSTRASSE 23,KLOTEN,Switzerland,5110,n.a.,n.a.,n.a.,n.a.,n.a.,n.a.,1,1,n.a.,n.a.,4,4,4,4,4,50,5,5,n.a.,n.a.
207,NORD ESTER,RUE G VANCAUWENBERGUE,DUNKERQUE,France,7219,n.a.,104,81,90,92,n.a.,108,76,78,98,n.a.,17,15,16,n.a.,n.a.,16,16,n.a.,n.a.
235,NORPAPER AVOT-VALLEE,71 RUE JEAN JAURES,BLENDECQUES,France,1712,n.a.,n.a.,76,68,67,69,78,66,49,60,n.a.,n.a.,171,n.a.,171,n.a.,165,n.a.,n.a.,165
306,NORPAPER NANTES,BOULEVARD BENONI GOULIN,NANTES,France,1712,n.a.,n.a.,n.a.,23,24,26,8,22,20,0,n.a.,n.a.,n.a.,n.a.,n.a.,77,74,75,n.a.,n.a.
138,NORSKE SKOG GOLBEY,ZONE INDUSTRIELLE III,GOLBEY,France,1712,n.a.,257,230,266,283,283,298,260,262,310,n.a.,374,n.a.,410,413,416,423,437,452,458
,NOUVELAIR TUNISIE. SA,,,Tunisia,,n.a.,n.a.,n.a.,n.a.,n.a.,n.a.,n.a.,n.a.,n.a.,n.a.,n.a.,n.a.,n.a.,n.a.,n.a.,n.a.,n.a.,n.a.,n.a.,n.a.
185,NOVACARB,34 RUE GILBERT BIZE,LANEUVEVILLE DEVANT NANCY,France,2013,n.a.,137,138,135,131,131,85,111,119,145,n.a.,304,304,308,n.a.,n.a.,n.a.,305,309,314
,NOVAPEX,21 ECULLY PARC,ECULLY,France,2014,n.a.,274,278,387,403,466,287,390,n.a.,n.a.,n.a.,194,n.a.,n.a.,n.a.,n.a.,n.a.,n.a.,n.a.,n.a.
422,NOVASERRE SA,1 RUE FERME DE MILLY,FOISSY SUR VANNE,France,113,n.a.,n.a.,n.a.,n.a.,n.a.,n.a.,n.a.,n.a.,n.a.,n.a.,n.a.,n.a.,n.a.,n.a.,n.a.,n.a.,n.a.,n.a.,n.a.,n.a.
,NOVOCERAM PRODUITS CERAMIQUES,ZONE INDUSTRIELLE ORTI,LAVEYRON,France,2331,n.a.,n.a.,n.a.,n.a.,n.a.,n.a.,n.a.,n.a.,n.a.,n.a.,n.a.,n.a.,n.a.,n.a.,n.a.,n.a.,n.a.,n.a.,n.a.,n.a.
379,NP ROLPIN,1964 RUE GRANDE LANDE,LABOUHEYRE,France,1621,n.a.,12,13,10,n.a.,n.a.,n.a.,n.a.,n.a.,n.a.,n.a.,118,119,114,n.a.,n.a.,n.a.,n.a.,n.a.,n.a.
428,NSO ENERGIE,37 AVENUE DE LATTRE DE TASSIGNY,ST ANDRE LEZ LILLE,France,3530,n.a.,5,6,8,13,4,0,0,n.a.,n.a.,n.a.,n.a.,n.a.,n.a.,n.a.,n.a.,n.a.,n.a.,n.a.,n.a.
178,NUFARM,28 BOULEVARD CAMELINAT,GENNEVILLIERS,France,2020,n.a.,141,133,121,123,124,116,122,127,123,n.a.,154,156,158,n.a.,186,n.a.,233,285,n.a.
177,NUTRIBIO,ZONE INDUSTRIELLE DE ROUVAL,DOULLENS,France,1086,n.a.,149,n.a.,143,179,176,182,115,118,107,n.a.,343,n.a.,390,451,403,n.a.,n.a.,n.a.,273
212,NYRSTAR FRANCE,RUE JEAN JACQUES ROUSSEAU,AUBY,France,2443,n.a.,99,121,119,122,121,120,116,231,233,n.a.,289,294,n.a.,n.a.,284,291,299,308,306
108,O-I MANUFACTURING FRANCE,64 BOULEVARD DU 11 NOVEMBRE 1918,VILLEURBANNE,France,2313,n.a.,396,404,402,413,410,397,388,401,454,n.a.,"1,903","1,900","1,976","1,988","2,006",n.a.,n.a.,"1,957","2,099"
,OAKMONT HOLDINGS LP,658 N HEILBRON DR,MEDIA,United States of America,6420,n.a.,n.a.,n.a.,n.a.,0,n.a.,n.a.,n.a.,n.a.,n.a.,n.a.,n.a.,n.a.,n.a.,1,n.a.,n.a.,n.a.,n.a.,n.a.
227,OCV CHAMBERY FRANCE,130 AVENUE DES FOLLAZ,CHAMBERY,France,2314,n.a.,86,82,75,67,55,66,65,58,96,n.a.,233,232,215,n.a.,n.a.,n.a.,279,n.a.,358
,OFTC INC,20 CURRIE ST,CHATHAM,Canada,7211,1,n.a.,n.a.,n.a.,n.a.,n.a.,n.a.,n.a.,n.a.,n.a.,7,n.a.,n.a.,n.a.,n.a.,n.a.,n.a.,n.a.,n.a.,n.a.
174,OMNOVA SOLUTIONS,ZONE INDUSTRIELLE DE COURTABOEUF II,LES ULIS,France,2017,n.a.,150,151,160,147,150,153,151,113,139,n.a.,263,272,277,264,266,279,279,300,320
,OMYA INTERNATIONAL AG,BASLERSTRASSE 42,OFTRINGEN,Switzerland,4675,n.a.,n.a.,n.a.,n.a.,12,12,2,2,59,n.a.,75,75,75,75,250,75,100,100,100,n.a.
,OMYA SAS,6 RUE PIERRE SEMARD,OMEY,France,811,n.a.,234,215,214,202,210,213,201,194,240,n.a.,n.a.,299,300,n.a.,268,286,291,326,n.a.
294,ONDULINE FRANCE,ZONE INDUSTRIELLE,YAINVILLE,France,2399,n.a.,37,36,43,46,46,50,47,42,43,n.a.,80,90,94,102,104,103,107,105,113
238,OPENSKIES,SILIC CASE POSTALE 40228,RUNGIS,France,5110,n.a.,n.a.,75,78,77,68,74,62,62,55,n.a.,n.a.,140,139,n.a.,n.a.,114,n.a.,n.a.,n.a.
,ORANGE,"78, RUE OLIVIER DE SERRES",PARIS,France,6190,n.a.,"41,701","40,827","40,119","41,668","44,415","46,577","47,358","45,413","48,303",n.a.,"155,202","156,191","156,233","165,488","170,596","171,949","168,694","164,651","186,275"
,ORIENT GLOBAL AVIATION PTE. LIMITED,MARKET STREET 63 #09-01,SINGAPORE,Singapore,7810,n.a.,n.a.,n.a.,n.a.,n.a.,n.a.,n.a.,n.a.,n.a.,n.a.,n.a.,n.a.,n.a.,n.a.,n.a.,n.a.,n.a.,n.a.,n.a.,n.a.
490,ORILLARD,53 CHEMIN DE PATOCHE,ST ANDRE DE CUBZAC,France,4321,n.a.,n.a.,n.a.,0,0,0,0,0,0,0,n.a.,n.a.,n.a.,n.a.,n.a.,n.a.,n.a.,n.a.,n.a.,n.a.
54,ORION ENGINEERED CARBONS S.A.,ROUTE DE TREVES 6,SENNINGERBERG,Luxembourg,2059,n.a.,"1,036","1,117","1,323","1,346","1,409",n.a.,n.a.,n.a.,n.a.,n.a.,"1,460","1,527","1,342",n.a.,n.a.,n.a.,n.a.,n.a.,n.a.
457,OUEST OM ENERGIE,2 RUE DE L UNION,CARRIERES SUR SEINE,France,3530,n.a.,2,3,3,4,3,2,3,7,3,n.a.,n.a.,n.a.,n.a.,n.a.,n.a.,n.a.,n.a.,n.a.,n.a.
224,OWENS CORNING FIBERGLAS FRANCE,,LAUDUN-L'ARDOISE,France,2314,n.a.,87,80,65,70,79,83,73,52,80,n.a.,285,270,260,261,281,n.a.,n.a.,n.a.,304
,OXOCHIMIE,LAVERA,MARTIGUES,France,2014,n.a.,39,25,24,24,32,24,53,47,57,n.a.,n.a.,n.a.,n.a.,n.a.,n.a.,n.a.,n.a.,n.a.,n.a.
263,PANNEAUX DE CORREZE,6 IMPASSE,USSEL,France,1621,n.a.,59,n.a.,n.a.,n.a.,n.a.,n.a.,n.a.,n.a.,n.a.,n.a.,89,n.a.,n.a.,n.a.,n.a.,n.a.,n.a.,n.a.,n.a.
288,PAPETERIE DE MANDEURE,14 RUE DE LA PAPETERIE,MANDEURE,France,1712,n.a.,41,40,39,38,36,39,40,37,37,n.a.,127,123,125,n.a.,130,127,128,132,128
211,PAPETERIE DE VOIRON ET DE LANCEY,27 AVENUE DU GRANIER,MEYLAN,France,1712,n.a.,n.a.,n.a.,n.a.,n.a.,n.a.,n.a.,n.a.,n.a.,n.a.,n.a.,n.a.,n.a.,n.a.,n.a.,n.a.,n.a.,n.a.,n.a.,n.a.
282,PAPETERIE DES CHATELLES,LES CHATELLES,RAON L ETAPE,France,1712,n.a.,n.a.,n.a.,n.a.,n.a.,n.a.,n.a.,n.a.,n.a.,n.a.,n.a.,n.a.,n.a.,n.a.,n.a.,n.a.,n.a.,n.a.,n.a.,n.a.
334,PAPETERIE DES DEUX GUIERS,RUE DE VERDUN,ENTRE DEUX GUIERS,France,1712,n.a.,n.a.,n.a.,n.a.,n.a.,n.a.,n.a.,n.a.,n.a.,n.a.,n.a.,n.a.,n.a.,n.a.,n.a.,n.a.,n.a.,n.a.,n.a.,n.a.
501,PAPETERIE DES GAVES,15 AVENUE LEONARD DE VINCI,PESSAC,France,1712,n.a.,0,0,0,0,0,0,0,n.a.,0,n.a.,n.a.,n.a.,n.a.,n.a.,n.a.,n.a.,n.a.,n.a.,n.a.
350,PAPETERIE RAON,RUE EMILE ZOLA,RAON-L'ETAPE,France,1712,n.a.,17,23,n.a.,n.a.,n.a.,n.a.,n.a.,n.a.,n.a.,n.a.,72,72,n.a.,n.a.,n.a.,n.a.,n.a.,n.a.,n.a.
,PAPETERIE SAINT MICHEL - GROUPE THIOLLET,AVENUE DE L INDUSTRIE,ST MICHEL,France,1712,n.a.,29,31,30,29,n.a.,22,n.a.,n.a.,n.a.,n.a.,65,65,64,63,n.a.,65,n.a.,n.a.,n.a.
325,PAPETERIE ZUBER RIEDER,RUE ERNEST ZUBER,BOUSSIERES,France,1712,n.a.,n.a.,n.a.,21,20,17,17,15,13,12,n.a.,n.a.,n.a.,91,n.a.,84,86,89,n.a.,n.a.
316,PAPETERIES CANSON,Credit needed,Credit needed,Credit needed,Credit needed,n.a.,n.a.,n.a.,n.a.,n.a.,n.a.,n.a.,n.a.,Credit needed,Credit needed,n.a.,n.a.,n.a.,n.a.,n.a.,n.a.,n.a.,n.a.,n.a.,Credit needed
283,PAPETERIES DE CRAN SA,25 AVENUE DE LA REPUBLIQUE,CRAN GEVRIER,France,1712,n.a.,n.a.,n.a.,n.a.,n.a.,n.a.,n.a.,n.a.,n.a.,n.a.,n.a.,n.a.,n.a.,n.a.,n.a.,n.a.,n.a.,n.a.,n.a.,n.a.
,PAPETERIES DE GIROUX,LIEU DIT GIROUX GARE,OLLIERGUES,France,1712,n.a.,11,11,11,10,10,11,10,6,9,n.a.,42,49,44,43,43,44,44,45,n.a.
417,PAPETERIES DE GROMELLE,ALLEE DE GROMELLE,ST SATURNIN LES AVIGNON,France,1712,n.a.,n.a.,n.a.,n.a.,n.a.,5,8,6,6,8,n.a.,n.a.,n.a.,n.a.,n.a.,n.a.,31,31,n.a.,n.a.
348,PAPETERIES DE LA GORGE,RUE DES PAPETERIES,DOMENE,France,1712,n.a.,n.a.,n.a.,n.a.,n.a.,n.a.,n.a.,n.a.,n.a.,n.a.,n.a.,n.a.,n.a.,n.a.,n.a.,n.a.,n.a.,n.a.,n.a.,n.a.
504,PAPETERIES DE MARESQUEL,Credit needed,Credit needed,Credit needed,Credit needed,n.a.,n.a.,n.a.,n.a.,n.a.,n.a.,Credit needed,Credit needed,Credit needed,Credit needed,n.a.,n.a.,n.a.,n.a.,n.a.,n.a.,n.a.,Credit needed,Credit needed,Credit needed
253,PAPETERIES DE SAINT GIRONS,LIEU DIT KERISOLE,QUIMPERLE,France,1712,n.a.,n.a.,n.a.,n.a.,n.a.,53,50,40,38,43,n.a.,n.a.,n.a.,n.a.,n.a.,304,297,n.a.,n.a.,n.a.
289,PAPETERIES DE TURCKHEIM,1 RUE DE LA PAPETERIE,TURCKHEIM,France,1712,n.a.,n.a.,n.a.,n.a.,n.a.,n.a.,n.a.,n.a.,28,n.a.,n.a.,n.a.,n.a.,n.a.,n.a.,n.a.,n.a.,n.a.,n.a.,n.a.
,PAPETERIES DE VEUZE,Credit needed,Credit needed,Credit needed,Credit needed,n.a.,n.a.,n.a.,n.a.,n.a.,n.a.,n.a.,n.a.,Credit needed,n.a.,n.a.,n.a.,n.a.,n.a.,n.a.,n.a.,n.a.,n.a.,n.a.,n.a.
,PAPETERIES DES VOSGES,34 RUE MAURICE MOUGEOT,LAVAL SUR VOLOGNE,France,1712,n.a.,42,45,44,45,52,50,44,37,39,n.a.,119,129,135,134,n.a.,124,119,113,103
296,PAPETERIES DU RHIN,ILE NAPOLEON,ILLZACH,France,1712,n.a.,36,36,36,34,35,35,27,21,25,n.a.,n.a.,n.a.,n.a.,n.a.,71,n.a.,n.a.,70,71
293,PAPETERIES ET CARTONNERIES LACAUX FRERES S.A,1 AVENUE DE LA VIENNE,BOSMIE-L'AIGUILLE,France,1721,n.a.,37,35,34,33,33,35,32,25,33,n.a.,156,156,153,153,n.a.,160,167,n.a.,178
131,PAPETERIES MATUSSIERE ET FOREST,Credit needed,Credit needed,Credit needed,Credit needed,n.a.,n.a.,n.a.,n.a.,n.a.,n.a.,n.a.,n.a.,n.a.,n.a.,n.a.,n.a.,n.a.,n.a.,n.a.,n.a.,n.a.,n.a.,n.a.,n.a.
239,PAPETERIES PALM SAS,AVENUE MONSEIGNEUR ROMERO,DESCARTES,France,1712,n.a.,76,80,78,74,62,76,63,n.a.,61,n.a.,121,119,122,126,125,125,124,120,117
483,PARDIES ENERGY,Credit needed,Credit needed,Credit needed,Credit needed,n.a.,n.a.,n.a.,Credit needed,Credit needed,Credit needed,n.a.,n.a.,n.a.,n.a.,n.a.,n.a.,n.a.,n.a.,n.a.,n.a.,n.a.,n.a.,n.a.,n.a.
,PAREFEUILLE PROVENCE,,FOURNES,France,2331,n.a.,29,27,n.a.,n.a.,n.a.,n.a.,n.a.,22,24,n.a.,137,n.a.,n.a.,n.a.,n.a.,n.a.,n.a.,n.a.,115
186,PARISOT,15 AVENUE JACQUES PARISOT,ST LOUP SUR SEMOUSE,France,3109,131,138,136,53,157,139,129,137,116,125,n.a.,562,584,651,618,709,645,632,644,726
536,PDL - PAPETERIES DU LEMAN,2301 RAVINE WAY,GLENVIEW,United States of America,,n.a.,n.a.,n.a.,n.a.,n.a.,n.a.,n.a.,n.a.,n.a.,n.a.,n.a.,n.a.,n.a.,n.a.,n.a.,n.a.,n.a.,n.a.,n.a.,n.a.
158,PDM INDUSTRIES,LIEU DIT KERISOLE,QUIMPERLE,France,1712,n.a.,n.a.,n.a.,n.a.,n.a.,152,134,119,107,123,n.a.,n.a.,n.a.,n.a.,n.a.,542,529,570,595,646
311,PERIGORD ENERGIE,RUE THOMAS EDISON,CANEJAN,France,3530,n.a.,30,33,34,55,66,58,57,55,68,n.a.,13,13,14,18,n.a.,17,19,21,n.a.
87,PETROINEOS MANUFACTURING FRANCE SAS,RUE DE LA BIENFAISANCE,MARTIGUES,France,1920,n.a.,567,567,488,501,545,452,683,546,707,n.a.,690,669,649,640,636,629,"1,197","1,216","1,269"
159,PETROPLUS RAFFINAGE PETIT COURONNE SAS,72 RUE ARISTIDE BRIAND,PETIT COURONNE,France,1920,n.a.,n.a.,n.a.,n.a.,n.a.,148,248,217,209,193,n.a.,n.a.,n.a.,n.a.,n.a.,n.a.,542,549,558,538
,PEUGEOT CITROEN AULNAY SNC,BOULEVARD ANDRE CITROEN,AULNAY SOUS BOIS,France,2910,n.a.,4,86,93,"1,478","1,151","1,326","1,794","1,745","1,959",n.a.,n.a.,611,n.a.,"3,507",n.a.,"4,100",n.a.,"4,715",n.a.
,PEUGEOT CITROEN MECANIQUE DE L'EST,ROUTE DES AYVELLES,VILLERS SEMEUSE,France,2932,n.a.,788,848,833,899,995,"1,094","1,076",957,"1,151",n.a.,"4,272","4,349","4,748","5,080",n.a.,n.a.,"6,392","6,397",n.a.
21,PEUGEOT CITROEN MULHOUSE SNC,ROUTE DE CHALAMPE,SAUSHEIM,France,2910,n.a.,n.a.,"2,806","2,732","2,700","2,809","4,126","3,510","3,132","3,433",n.a.,n.a.,n.a.,n.a.,n.a.,n.a.,"8,015",n.a.,n.a.,"7,679"
31,PEUGEOT CITROEN POISSY SNC,45 RUE JEAN PIERRE TIMBAUD,POISSY,France,2910,n.a.,"2,114","1,976","2,300",224,"2,607","2,426","2,379","1,748","2,035",n.a.,"5,638","5,209","5,726",n.a.,n.a.,n.a.,"5,800",n.a.,n.a.
52,PEUGEOT CITROEN RENNES SNC,USINE LA JANAIS ROUTE DE NANTES,CHARTRES DE BRETAGNE,France,2910,n.a.,"1,043","1,178","1,189","1,483","2,270","2,956","1,971",n.a.,"3,344",n.a.,"3,544","3,719",n.a.,n.a.,n.a.,n.a.,"5,533",n.a.,n.a.
14,PEUGEOT CITROEN SOCHAUX SNC,57 AVENUE DU GENERAL LECLERC,SOCHAUX,France,2910,n.a.,"4,480","4,683","4,096","3,814","4,408","5,010","4,736","3,488","3,533",n.a.,"7,347","7,274","7,309","8,030","8,830",n.a.,n.a.,n.a.,"8,495"
67,PHILIPS FRANCE,33 RUE DE VERDUN,SURESNES,France,2740,n.a.,752,"1,371","1,404","1,507","1,692","2,102","2,213","2,282","2,662",n.a.,909,"2,017",n.a.,n.a.,"2,656","3,122","3,434","3,796","4,103"
559,PIERROT SAS DI BALSAMO GIUSEPPE & C.,VIA MOLINO 3/5,CARDITO,Italy,4640,n.a.,n.a.,n.a.,n.a.,n.a.,n.a.,n.a.,n.a.,n.a.,n.a.,n.a.,n.a.,n.a.,n.a.,n.a.,n.a.,n.a.,n.a.,n.a.,n.a.
395,PIGEON CHAUX,LIEU DIT LA GUERINIERE,ARGENTRE DU PLESSIS,France,2352,n.a.,n.a.,n.a.,n.a.,n.a.,7,8,7,8,10,n.a.,n.a.,n.a.,n.a.,n.a.,n.a.,22,21,23,23
,PLACOPLATRE S.A.,"34, AVENUE FRANKLIN-ROOSEVELT",SURESNES,France,2892,n.a.,"1,036",517,"1,123","1,156",610,634,577,603,707,n.a.,n.a.,"1,691","1,598","1,619","1,999","1,685","1,831",n.a.,n.a.
274,PLAINE COMMUNE ENERGIE,84 RUE CHARLES MICHELS,ST DENIS,France,3530,n.a.,50,32,16,n.a.,n.a.,n.a.,n.a.,n.a.,n.a.,n.a.,n.a.,n.a.,n.a.,n.a.,n.a.,n.a.,n.a.,n.a.,n.a.
155,POCHET DU COURVAL,44 ALLEES LEON GAMBETTA,CLICHY,France,2313,n.a.,198,203,203,194,205,224,179,128,174,n.a.,"1,738","1,738","1,834","1,893",n.a.,n.a.,n.a.,"1,628","1,759"
503,POLIMERI EUROPA ELASTOMERES FRANCE,Credit needed,Credit needed,Credit needed,Credit needed,n.a.,n.a.,Credit needed,Credit needed,Credit needed,n.a.,n.a.,n.a.,n.a.,n.a.,n.a.,n.a.,n.a.,n.a.,n.a.,n.a.,n.a.,n.a.,n.a.,n.a.
,POLYCHIM INDUSTRIE,ZIP MARDYCK PORT 4810,LOON PLAGE,France,2016,n.a.,164,195,231,210,245,246,211,162,216,n.a.,80,79,79,78,78,79,79,76,70
528,POLYREY SAS,,,France,,n.a.,n.a.,n.a.,n.a.,n.a.,n.a.,n.a.,n.a.,n.a.,n.a.,n.a.,n.a.,n.a.,n.a.,n.a.,n.a.,n.a.,n.a.,n.a.,n.a.
214,PONT SUR SAMBRE POWER SAS,LIEU DIT LE RAYAGE DU MILIEU,PONT SUR SAMBRE,France,3511,n.a.,94,44,18,61,74,n.a.,199,110,6,n.a.,15,17,n.a.,n.a.,24,n.a.,n.a.,n.a.,n.a.
,PORT NEUF MIREUIL ENERGIES,15 B RUE CHEF DE BAIE,LA ROCHELLE,France,3530,n.a.,2,2,2,0,0,n.a.,n.a.,n.a.,n.a.,n.a.,n.a.,n.a.,n.a.,n.a.,n.a.,n.a.,n.a.,n.a.,n.a.
438,POTERIE DES TROIS-ILETS,POTERIE,ST-ESPRIT,Martinique (France),2332,n.a.,n.a.,n.a.,n.a.,n.a.,n.a.,3,4,5,7,n.a.,n.a.,n.a.,n.a.,n.a.,n.a.,n.a.,n.a.,n.a.,n.a.
489,POUILLON MYRIAM,Credit needed,Credit needed,Credit needed,Credit needed,n.a.,n.a.,n.a.,n.a.,n.a.,n.a.,n.a.,Credit needed,n.a.,n.a.,n.a.,n.a.,n.a.,n.a.,n.a.,n.a.,n.a.,n.a.,n.a.,n.a.
,POUPART LIMITED,LEVEL,LONDON,United Kingdom,4631,n.a.,559,598,501,391,352,353,327,293,240,n.a.,615,226,192,183,161,146,136,126,118
,POWER EASE INVESTMENT LIMITED,,,Hong Kong,,n.a.,n.a.,n.a.,n.a.,n.a.,n.a.,n.a.,n.a.,n.a.,n.a.,n.a.,n.a.,n.a.,n.a.,n.a.,n.a.,n.a.,n.a.,n.a.,n.a.
9,PPG INDUSTRIES INC,"1, PPG PLACE",PITTSBURGH,United States of America,2030,n.a.,"13,994","13,563","12,183","10,344","9,615","10,165","10,040","8,496","11,388",n.a.,"47,000","46,600","44,400","41,400","39,200","38,400","38,300","39,900","44,900"
,PREMIER AVIA JOINT STOCK COMPANY,"PER. BOBROV D.4, STR.3",MOSCOW,Russian Federation,5110,n.a.,3,3,4,5,7,n.a.,n.a.,n.a.,n.a.,n.a.,102,113,102,91,128,n.a.,n.a.,n.a.,n.a.
,PRIVATAIR S.A. - SUCURSAL EM PORTUGAL,"AVENIDA DO BRASIL, 15 1",LISBOA,Portugal,8211,n.a.,2,0,n.a.,n.a.,n.a.,n.a.,n.a.,n.a.,n.a.,n.a.,45,26,n.a.,n.a.,n.a.,n.a.,n.a.,n.a.,n.a.
,PRODEVA,,VATRY,France,1091,n.a.,8,7,9,8,10,n.a.,7,6,8,n.a.,20,n.a.,21,n.a.,n.a.,n.a.,20,20,19
249,PRODIA,,ST AMOUR,France,1041,n.a.,64,62,62,51,41,38,34,30,29,n.a.,18,17,17,n.a.,n.a.,n.a.,17,20,20
,PROVENCE ENROBES,QUARTIER DES AIGUILLES,GIGNAC LA NERTHE,France,2399,n.a.,13,12,14,0,13,0,11,n.a.,11,n.a.,3,5,5,5,n.a.,5,1,n.a.,n.a.
355,PROVENCE TOMATES,ZONE ARTISANALE DU ROUBIAN,TARASCON,France,1039,n.a.,n.a.,n.a.,13,16,13,12,13,n.a.,3,n.a.,n.a.,n.a.,n.a.,18,19,19,19,n.a.,2
463,PROVINCES ENERGIE,1 RUE DE LORRAINE,CHERBOURG EN COTENTIN,France,3530,n.a.,2,2,2,3,n.a.,n.a.,2,1,n.a.,n.a.,n.a.,n.a.,n.a.,n.a.,n.a.,n.a.,n.a.,n.a.,n.a.
2,PSA AUTOMOBILES SA,2 BOULEVARD DE L EUROPE,POISSY,France,2910,n.a.,"53,224","53,554","50,327","49,907","54,205","62,434","59,568","52,012","61,785",n.a.,"57,055","55,793","58,930","61,543","68,686","70,423","67,184","71,205","75,757"
,PULPE DE HAUTE PICARDIE,2 B GRANDE RUE,EPENANCOURT,France,1081,n.a.,9,10,9,11,10,8,7,8,6,n.a.,15,n.a.,15,n.a.,15,n.a.,n.a.,12,12
,PUNCH POWERGLIDE STRASBOURG,81 RUE DE LA ROCHELLE,STRASBOURG,France,2932,n.a.,405,n.a.,242,256,256,379,416,349,422,n.a.,978,n.a.,n.a.,n.a.,n.a.,n.a.,n.a.,"1,206",n.a.
,QATAR AMIRI FLIGHT,TECHNICAL BUILDING,DOHA,Qatar,5110,n.a.,28,n.a.,n.a.,n.a.,n.a.,n.a.,n.a.,n.a.,n.a.,n.a.,300,n.a.,n.a.,n.a.,n.a.,n.a.,n.a.,n.a.,n.a.
196,R D M LA ROCHETTE S A S,23 AVENUE MAURICE FRANCK,LA ROCHETTE,France,1712,n.a.,121,127,118,110,111,n.a.,116,102,n.a.,n.a.,325,327,341,n.a.,n.a.,n.a.,325,n.a.,n.a.
382,R ENERGIES,78 BOULEVARD DU GENERAL LECLERC,ROUBAIX,France,3530,n.a.,12,11,10,12,11,10,10,3,0,n.a.,n.a.,n.a.,n.a.,n.a.,n.a.,n.a.,n.a.,n.a.,n.a.
,RAGT SEMENCES S.A.S.,,,France,,n.a.,n.a.,n.a.,n.a.,n.a.,n.a.,n.a.,n.a.,n.a.,n.a.,n.a.,n.a.,n.a.,n.a.,n.a.,n.a.,n.a.,n.a.,n.a.,n.a.
506,RANGUEIL ENERGIE SERVICES,18 RUE THOMAS EDISON,CANEJAN,France,3511,n.a.,0,0,0,n.a.,n.a.,n.a.,n.a.,n.a.,n.a.,n.a.,n.a.,n.a.,n.a.,n.a.,n.a.,n.a.,n.a.,n.a.,n.a.
,RCR JETS AG,HINTERBERGSTRASSE 18,CHAM,Switzerland,5223,4,5,5,4,4,4,11,10,n.a.,n.a.,4,4,4,4,3,4,n.a.,n.a.,n.a.,n.a.
268,RDM BLENDECQUES,2 RUE DE L HERMITAGE,BLENDECQUES,France,1712,n.a.,55,57,58,59,62,64,58,55,81,n.a.,186,189,191,n.a.,n.a.,194,197,229,277
,RECIPHARM MONTS,18 RUE DE MONTBAZON,MONTS,France,2120,n.a.,n.a.,32,32,29,28,31,32,33,33,n.a.,n.a.,191,185,218,188,195,199,211,216
,RECYTECH SA,43 RUE DE NOYELLES,FOUQUIERES LES LENS,France,2443,n.a.,38,31,30,27,31,32,31,15,19,n.a.,48,48,47,n.a.,n.a.,n.a.,44,44,43
563,REFINA INVEST AG,OHNE DOMIZIL,GISWIL,Switzerland,6499,n.a.,n.a.,n.a.,n.a.,n.a.,n.a.,n.a.,n.a.,n.a.,n.a.,n.a.,n.a.,n.a.,n.a.,n.a.,n.a.,n.a.,n.a.,n.a.,n.a.
,REGEAL,3 AVENUE BERTIE ALBRECHT,PARIS,France,2442,n.a.,n.a.,n.a.,n.a.,n.a.,n.a.,72,n.a.,n.a.,n.a.,n.a.,n.a.,n.a.,n.a.,n.a.,n.a.,n.a.,n.a.,n.a.,n.a.
555,REGIE MUNICIP GAZ ELECTRICITE BONNEVILLE,Credit needed,Credit needed,Credit needed,Credit needed,n.a.,n.a.,n.a.,n.a.,n.a.,n.a.,n.a.,n.a.,n.a.,n.a.,n.a.,n.a.,n.a.,n.a.,n.a.,n.a.,n.a.,n.a.,n.a.,n.a.
,REGIE MUNICIPALE ELECTRICITE CREUTZWALD,Credit needed,Credit needed,Credit needed,Credit needed,n.a.,n.a.,n.a.,n.a.,n.a.,n.a.,n.a.,n.a.,n.a.,n.a.,n.a.,n.a.,n.a.,n.a.,n.a.,n.a.,n.a.,n.a.,n.a.,n.a.
539,REGIES MUNICIPALES,Credit needed,Credit needed,Credit needed,Credit needed,n.a.,n.a.,n.a.,n.a.,n.a.,n.a.,n.a.,n.a.,n.a.,n.a.,n.a.,n.a.,n.a.,n.a.,n.a.,n.a.,n.a.,n.a.,n.a.,n.a.
285,REGOURD AVIATION,21 AVENUE GEORGE V,PARIS,France,7735,n.a.,42,43,38,41,55,43,n.a.,n.a.,n.a.,n.a.,n.a.,56,47,159,n.a.,n.a.,n.a.,n.a.,n.a.
,RELATED COMPANIES LP,60 COLUMBUS CIR,NEW YORK,United States of America,6831,15,n.a.,n.a.,n.a.,n.a.,n.a.,n.a.,n.a.,n.a.,n.a.,375,n.a.,n.a.,n.a.,n.a.,n.a.,n.a.,n.a.,n.a.,n.a.
84,RENAULT CLEON,13 QUAI ALPHONSE LE GALLO,BOULOGNE BILLANCOURT,France,2910,n.a.,605,543,498,520,576,n.a.,463,449,537,n.a.,n.a.,n.a.,n.a.,n.a.,n.a.,n.a.,n.a.,n.a.,n.a.
104,RENAULT FLINS,13 QUAI ALPHONSE LE GALLO,BOULOGNE BILLANCOURT,France,2910,n.a.,n.a.,n.a.,356,413,454,n.a.,449,441,492,n.a.,n.a.,n.a.,n.a.,n.a.,n.a.,n.a.,n.a.,n.a.,n.a.
110,RENAULT SANDOUVILLE,ENTREE 13,BOULOGNE BILLANCOURT,France,2910,n.a.,356,n.a.,274,205,249,300,285,322,413,n.a.,n.a.,n.a.,n.a.,n.a.,n.a.,n.a.,n.a.,n.a.,n.a.
406,RENE JEAN MARCHAL,2 ROUTE DE SPADA,MAIZEY,France,113,n.a.,7,7,7,8,7,6,7,6,6,n.a.,49,38,48,n.a.,n.a.,49,49,n.a.,n.a.
27,RHODIA OPERATIONS,25 RUE DE CLICHY,PARIS,France,2014,n.a.,"2,330","2,381","2,387","2,470","2,675","2,736","2,169","1,492","2,301",n.a.,"4,244","4,302","4,561","4,682",n.a.,n.a.,n.a.,"3,624",n.a.
403,RIVE DROITE ENERGIE,RUE JEAN COCTEAU,CENON,France,3530,n.a.,8,8,7,8,10,7,8,8,n.a.,n.a.,n.a.,n.a.,n.a.,n.a.,n.a.,n.a.,n.a.,n.a.,n.a.
,ROCKWOOL FRANCE SAS,111 RUE DU CHATEAU DES RENTIERS,PARIS,France,2399,n.a.,287,292,285,292,282,260,228,226,246,n.a.,826,834,814,781,n.a.,n.a.,770,772,775
526,ROQUETTE FRERES S.A.,,,France,,n.a.,n.a.,n.a.,n.a.,n.a.,n.a.,n.a.,n.a.,n.a.,n.a.,n.a.,n.a.,n.a.,n.a.,n.a.,n.a.,n.a.,n.a.,n.a.,n.a.
398,ROQUETTE TEXTILES,Credit needed,Credit needed,Credit needed,Credit needed,n.a.,n.a.,n.a.,n.a.,n.a.,n.a.,Credit needed,n.a.,n.a.,n.a.,n.a.,n.a.,n.a.,n.a.,n.a.,n.a.,n.a.,n.a.,n.a.,n.a.
443,ROSEO,80 AVENUE DU GENERAL DE GAULLE,PUTEAUX,France,3530,n.a.,4,1,n.a.,n.a.,n.a.,n.a.,n.a.,n.a.,n.a.,n.a.,n.a.,n.a.,n.a.,n.a.,n.a.,n.a.,n.a.,n.a.,n.a.
209,"ROSSMANN,SPOL.S R.O.",NA PANKRACI 1683/127,PRAHA NUSLE (PRAHA 4),Czech Republic,4775,n.a.,102,100,97,100,110,101,101,92,88,n.a.,750,750,750,750,750,750,750,750,750
553,ROSSO JEAN-PIERRE HENRI,Credit needed,Credit needed,Credit needed,Credit needed,n.a.,n.a.,n.a.,n.a.,n.a.,n.a.,n.a.,n.a.,n.a.,n.a.,n.a.,n.a.,n.a.,n.a.,n.a.,n.a.,n.a.,n.a.,n.a.,n.a.
,ROUSSELOT ANGOULEME,RUE SAINT MICHEL A ANGOULEME,ANGOULEME,France,2059,n.a.,80,80,83,90,87,73,63,61,67,n.a.,109,n.a.,n.a.,135,n.a.,145,142,146,151
360,ROYAL AIR MAROC,609 5TH AVE,NEW YORK,United States of America,5110,15,n.a.,n.a.,n.a.,n.a.,n.a.,n.a.,n.a.,n.a.,n.a.,15,n.a.,n.a.,n.a.,n.a.,n.a.,n.a.,n.a.,n.a.,n.a.
389,S P T P,RUE DU CANAL,ST USAGE,France,1621,n.a.,n.a.,10,10,12,13,14,13,9,12,n.a.,n.a.,59,62,72,n.a.,80,39,32,30
,S.C.I.C.A ROYE DESHYDRATATION S.A.,,ROYE,France,,n.a.,n.a.,n.a.,n.a.,n.a.,n.a.,n.a.,n.a.,n.a.,n.a.,n.a.,n.a.,n.a.,n.a.,n.a.,n.a.,n.a.,n.a.,n.a.,n.a.
336,SA D'ECONOMIE MIXTE DE PRODUCTION SUCRIERE ET RHUMIERE DE LA MARTINIQUE,USINE DU GALION,ST-ESPRIT,Martinique (France),1081,n.a.,20,16,17,n.a.,14,12,15,n.a.,11,n.a.,n.a.,n.a.,n.a.,n.a.,n.a.,n.a.,n.a.,n.a.,n.a.
340,SA ETUD REALIS GESTION RESEAU CHALEUR ND,37 AVENUE DE LATTRE DE TASSIGNY,ST ANDRE LEZ LILLE,France,3530,n.a.,20,21,22,38,40,36,35,31,13,n.a.,n.a.,n.a.,n.a.,n.a.,n.a.,n.a.,n.a.,n.a.,n.a.
,SABLEREAU,8 RUE DU VIEUX COUVENT,MONTAIGU,France,3109,n.a.,n.a.,n.a.,n.a.,0,0,0,0,0,0,n.a.,n.a.,n.a.,n.a.,n.a.,n.a.,n.a.,n.a.,n.a.,n.a.
11,SAFRAN AIRCRAFT ENGINES,2 BD DU GENERAL MARTIAL VALIN,PARIS,France,3030,n.a.,n.a.,"9,158","7,702","6,703","6,417","5,515","5,319",n.a.,"5,043",n.a.,n.a.,"13,887","13,293","12,178","11,328","10,910","11,000","10,241","9,482"
30,SAFRAN LANDING SYSTEMS,INOVEL PARC SUD,VELIZY VILLACOUBLAY,France,3030,n.a.,"2,140","1,993","1,640","1,464","1,399","1,191",n.a.,n.a.,484,n.a.,"3,280","3,283","3,181",n.a.,n.a.,n.a.,n.a.,n.a.,"1,229"
202,SAICA PAPER FRANCE,RUE DE LA VALLEE,VENIZEL,France,1712,n.a.,107,112,107,106,96,101,89,57,102,n.a.,101,101,104,104,n.a.,n.a.,130,191,224
245,SAINT GOBAIN EUROCOUSTIC,BELLEVUE,GENOUILLAC,France,2399,n.a.,72,69,70,69,70,65,59,59,66,n.a.,221,195,228,190,n.a.,n.a.,179,185,193
93,SAINT GOBAIN GLASS FRANCE,LES MIROIRS COURBEVOIE,COURBEVOIE,France,2311,n.a.,529,493,489,499,480,496,448,383,480,n.a.,926,831,828,n.a.,n.a.,927,864,886,n.a.
71,SAINT GOBAIN PAM,21 AVENUE CAMILLE CAVALLIER,PONT A MOUSSON,France,2451,n.a.,697,819,879,767,769,881,"1,036",971,"1,148",n.a.,"2,255","2,346","2,388",n.a.,n.a.,"2,626","2,679","2,791",n.a.
85,SAINT LOUIS SUCRE,PARC DU MILLENAIRE 2,PARIS,France,1081,n.a.,n.a.,580,677,805,891,858,n.a.,n.a.,753,n.a.,n.a.,943,985,"1,016",n.a.,"1,134",n.a.,n.a.,"1,171"
179,SAINT-GOBAIN DENMARK A/S,ROBERT JACOBSENS VEJ 62 A,KOEBENHAVN S,Denmark,2364,n.a.,145,140,47,49,58,n.a.,n.a.,n.a.,n.a.,n.a.,498,486,170,190,213,n.a.,n.a.,n.a.,n.a.
99,SAINT-GOBAIN ISOVER,18 AVENUE D ALSACE,COURBEVOIE,France,2314,n.a.,459,459,485,466,457,463,387,363,401,n.a.,n.a.,"1,026","1,013",982,981,971,896,883,903
,SALEM AVIATION,UNIVERSAL WEATHER & AVIATION,HOUSTON,United States of America,,n.a.,n.a.,n.a.,n.a.,n.a.,n.a.,n.a.,n.a.,n.a.,n.a.,n.a.,n.a.,n.a.,n.a.,n.a.,n.a.,n.a.,n.a.,n.a.,n.a.
,SALZGITTER MASCHINENBAU AG,WINDMUEHLENBERGSTR. 20 -22,SALZGITTER,Germany,7010,n.a.,193,n.a.,n.a.,n.a.,n.a.,n.a.,n.a.,n.a.,n.a.,n.a.,"1,383","1,377",n.a.,n.a.,n.a.,n.a.,n.a.,n.a.,n.a.
521,SAM - SOCIETE DES ACIERS D'ARMATURE POUR LE BETON SAS,,,France,,n.a.,n.a.,n.a.,n.a.,n.a.,n.a.,n.a.,n.a.,n.a.,n.a.,n.a.,n.a.,n.a.,n.a.,n.a.,n.a.,n.a.,n.a.,n.a.,n.a.
215,SAM MONTEREAU,HAIE ZONE INDUSTRIELLE,VARENNES SUR SEINE,France,2410,n.a.,94,107,112,109,110,103,96,94,117,n.a.,307,315,317,319,n.a.,306,311,326,351
46,SANOFI CHIMIE,82 AVENUE RASPAIL,GENTILLY,France,2110,n.a.,"1,275","1,336","1,212","1,380","1,534","1,658","1,838","1,438","1,140",n.a.,"3,481","3,416","3,346",n.a.,"3,936","4,068","4,202","4,255","4,259"
24,SANOFI PASTEUR,14 ESPACE HENRY VALLEE,LYON,France,2120,n.a.,"2,611","2,455","2,087","2,100","2,097","1,824","1,950","1,705","1,543",n.a.,"6,392","6,436","6,019","5,923",n.a.,n.a.,"5,782","5,663","5,408"
373,SAPSA BEDDING SRL IN LIQUIDAZIONE,VIA ULRICO HOEPLI 3,MILANO,Italy,3103,n.a.,n.a.,12,16,22,24,29,33,38,48,n.a.,n.a.,113,114,120,124,135,147,154,176
380,SARCELLES ENERGIE,TOUR EUROPE,COURBEVOIE,France,3530,n.a.,12,12,11,13,14,13,15,11,14,n.a.,9,9,9,11,9,9,11,11,9
469,SARL BOUVIER,10 RUE DES MIGNOTTES,PARIS,France,5610,n.a.,1,1,n.a.,n.a.,n.a.,n.a.,n.a.,n.a.,n.a.,n.a.,n.a.,12,n.a.,n.a.,n.a.,n.a.,n.a.,n.a.,n.a.
491,SARL BURTIN,2 PLACE SAINT CLEMENT,MACON,France,4764,n.a.,n.a.,n.a.,n.a.,n.a.,n.a.,0,n.a.,n.a.,n.a.,n.a.,n.a.,n.a.,n.a.,n.a.,n.a.,n.a.,n.a.,n.a.,n.a.
,SARL HERMANT,8 CHEMIN DES CROIX,ARLEUX,France,4332,1,2,2,n.a.,2,2,2,2,2,2,10,11,10,n.a.,12,13,13,14,12,12
479,SARL LAVEDRINE,863 RUE FAIDHERBE,FOURNES EN WEPPES,France,5610,n.a.,n.a.,n.a.,n.a.,0,0,0,0,0,0,n.a.,n.a.,n.a.,n.a.,n.a.,n.a.,5,4,n.a.,3
,SARL LE RUYET,LIEU DIT SAINT SYMPHORIEN,INZINZAC LOCHRIST,France,4321,n.a.,n.a.,n.a.,n.a.,0,n.a.,0,0,0,0,n.a.,n.a.,n.a.,n.a.,n.a.,n.a.,n.a.,n.a.,n.a.,n.a.
436,SARL LORRAINE PROVENCE,ROUTE DE SPADA,MAIZEY,France,113,n.a.,n.a.,n.a.,n.a.,3,4,4,4,4,n.a.,n.a.,n.a.,n.a.,n.a.,n.a.,n.a.,n.a.,n.a.,n.a.,n.a.
492,SARL MARZAT,LE PONT DU NOBLE,REIGNAC,France,6201,n.a.,0,0,0,0,0,0,n.a.,n.a.,0,n.a.,n.a.,n.a.,n.a.,n.a.,n.a.,n.a.,n.a.,n.a.,1
,SARL MIL FRANCE,23 RUE DES NEMEAUX,CHATELLERAULT,France,5630,n.a.,n.a.,n.a.,n.a.,n.a.,n.a.,0,0,0,0,n.a.,n.a.,n.a.,n.a.,n.a.,n.a.,n.a.,n.a.,n.a.,n.a.
485,SARL QUERE,10 RUE DE L ABBE PORTE,LION SUR MER,France,4331,n.a.,n.a.,n.a.,0,0,0,0,n.a.,n.a.,n.a.,n.a.,n.a.,n.a.,n.a.,n.a.,n.a.,n.a.,n.a.,n.a.,n.a.
,SARVAL OUEST,GRANDE LANDE,ISSE,France,1013,n.a.,34,38,40,42,46,48,42,35,35,n.a.,112,n.a.,121,121,123,119,119,110,111
,SAS LAITERIE DU VAL D'ANCENIS,ZONE INDUSTRIELLE,ANCENIS,France,1051,n.a.,n.a.,66,65,65,n.a.,n.a.,n.a.,n.a.,240,n.a.,n.a.,564,566,n.a.,n.a.,n.a.,n.a.,n.a.,n.a.
23,SAUDI OGER COMPANY LIMITED,SAUDI OGER BUILDING,RIYADH (AL),Saudi Arabia,4120,n.a.,"2,846",n.a.,n.a.,n.a.,n.a.,n.a.,n.a.,n.a.,n.a.,n.a.,"45,000",n.a.,n.a.,n.a.,n.a.,n.a.,n.a.,n.a.,n.a.
,SAVENCIA FROMAGE & DAIRY BENELUX,AVENUE DE LA COURONNE 6,BRUXELLES,Belgium,4633,n.a.,158,166,165,162,143,117,114,81,82,n.a.,52,48,51,51,54,52,48,42,37
103,SAVERGLASS,3 PLACE DE LA GARE,FEUQUIERES,France,2313,n.a.,n.a.,404,392,387,371,337,285,243,301,n.a.,n.a.,"1,323",n.a.,"1,381","1,381","1,279","1,201","1,175","1,198"
364,SCA HYGIENE PRODUCTS OPERATIONS,ZONE INDUSTRIELLE DE LA SAUSSAYE,ST CYR EN VAL,France,1722,n.a.,15,23,36,47,54,54,51,39,49,n.a.,69,113,127,130,127,n.a.,n.a.,143,149
92,SCA TISSUE FRANCE,151 BOULEVARD VICTOR HUGO,ST OUEN,France,1722,n.a.,549,545,561,767,199,765,751,n.a.,934,n.a.,"1,728","2,058",n.a.,"1,984",n.a.,"2,259","2,000",n.a.,"2,315"
,SCI CAP DEA,Credit needed,Credit needed,Credit needed,Credit needed,n.a.,n.a.,n.a.,n.a.,n.a.,n.a.,n.a.,n.a.,n.a.,n.a.,n.a.,n.a.,n.a.,n.a.,n.a.,n.a.,n.a.,n.a.,n.a.,n.a.
552,SCI DUPERRIER,Credit needed,Credit needed,Credit needed,Credit needed,n.a.,n.a.,n.a.,n.a.,n.a.,n.a.,n.a.,n.a.,n.a.,n.a.,n.a.,n.a.,n.a.,n.a.,n.a.,n.a.,n.a.,n.a.,n.a.,n.a.
440,SCOTTO,ZONE CONCHYLICOLE,FRONTIGNAN,France,321,n.a.,4,4,4,3,2,4,4,4,4,n.a.,10,11,11,12,8,8,n.a.,8,n.a.
278,SECANIM BRETAGNE,LES VAUX,GUER,France,3822,n.a.,n.a.,n.a.,42,n.a.,n.a.,n.a.,n.a.,n.a.,39,n.a.,n.a.,n.a.,n.a.,n.a.,n.a.,n.a.,n.a.,n.a.,254
,SECANIM CENTRE,ROUTE DE NIORT,BENET,France,3832,n.a.,n.a.,41,40,n.a.,43,n.a.,n.a.,n.a.,33,n.a.,n.a.,159,168,n.a.,168,n.a.,n.a.,n.a.,133
,SECANIM SUD-EST,18 RUE,BAYET,France,3812,n.a.,n.a.,74,71,73,77,71,62,n.a.,62,n.a.,n.a.,272,288,288,283,284,284,n.a.,297
415,SEFIR,83 RUE CHARLES MICHELS,ST DENIS,France,3530,n.a.,7,6,7,14,9,n.a.,n.a.,n.a.,n.a.,n.a.,n.a.,n.a.,n.a.,n.a.,n.a.,n.a.,n.a.,n.a.,n.a.
300,SELIA,336 AVENUE DE PARIS,NIORT,France,3511,n.a.,33,4,1,0,0,0,n.a.,n.a.,n.a.,n.a.,1,1,1,n.a.,n.a.,n.a.,n.a.,n.a.,n.a.
,SEM ENERGIE,PLACE ALEXANDRE ISRAEL,TROYES,France,3530,n.a.,2,4,4,6,11,11,11,13,11,n.a.,n.a.,n.a.,n.a.,n.a.,n.a.,3,3,2,n.a.
451,SENS BIO ENERGIE SERVICES S B E S,ZUP DES GRAHUCHES,SENS,France,3530,n.a.,3,2,2,2,2,5,1,n.a.,n.a.,n.a.,n.a.,n.a.,n.a.,n.a.,n.a.,n.a.,n.a.,n.a.,n.a.
,SERLUX SA,"1-3, RUE FONTEBIERG",LIVANGE,Luxembourg,7729,n.a.,n.a.,n.a.,9,7,4,3,3,3,3,n.a.,14,13,12,8,6,2,n.a.,n.a.,n.a.
230,SERRES DES 3 MOULINS,Credit needed,Credit needed,Credit needed,Credit needed,n.a.,n.a.,n.a.,n.a.,Credit needed,Credit needed,Credit needed,n.a.,n.a.,n.a.,n.a.,n.a.,n.a.,n.a.,n.a.,n.a.,n.a.,n.a.,n.a.,n.a.
376,SERVICES ENERGETIQUES ET ENVIRONNEMENTAUX DE VANDOEUVRE EN ABREGE S E E V,AVENUE JEANNE D ARC,VANDOEUVRE LES NANCY,France,3530,n.a.,12,11,7,8,7,8,8,8,7,n.a.,n.a.,n.a.,n.a.,n.a.,n.a.,n.a.,n.a.,n.a.,n.a.
342,SETHELEC,RUE THOMAS EDISON,CANEJAN,France,3530,n.a.,19,21,32,49,77,74,78,84,105,n.a.,n.a.,n.a.,n.a.,n.a.,n.a.,n.a.,n.a.,n.a.,n.a.
465,SEVRAN ENERGIE BIOMASSE EN ABREGE SEBIO,1 AVENUE JEAN MOULIN,SEVRAN,France,3530,n.a.,2,8,6,7,6,n.a.,0,n.a.,n.a.,n.a.,n.a.,n.a.,n.a.,n.a.,n.a.,n.a.,n.a.,n.a.,n.a.
,SFERA JET,"NAB. KADASHEVSKAYA D. 26, FLOOR 3",MOSCOW,Russian Federation,5120,n.a.,n.a.,n.a.,2,0,0,0,0,n.a.,n.a.,n.a.,n.a.,n.a.,285,260,269,260,2,n.a.,n.a.
156,SGD S A,14 B TERRASSE BELLINI,PUTEAUX,France,2313,n.a.,197,383,388,366,360,344,370,314,429,n.a.,n.a.,"1,581",n.a.,n.a.,"1,643","1,555","1,684","1,717","1,733"
566,SHATTERPRUFE (PTY) LTD,P.O BOX 41294,BEDFORDVIEW,South Africa,2314,n.a.,n.a.,n.a.,n.a.,n.a.,n.a.,n.a.,n.a.,n.a.,n.a.,n.a.,n.a.,n.a.,"2,000",n.a.,n.a.,n.a.,n.a.,n.a.,n.a.
135,SICAL,"69, RUE DU DOCTEUR PONTIER",LUMBRES,France,1712,n.a.,n.a.,n.a.,227,220,212,209,194,178,207,n.a.,n.a.,n.a.,"1,978","1,943","1,991","1,855","1,788","1,764","1,759"
,SIDEFO,,FONTAINE LE DUN,France,1091,5,5,6,5,5,6,5,4,5,5,13,13,12,n.a.,n.a.,n.a.,n.a.,n.a.,12,12
,SIDESUP,12 RUE DU MOULIN,ENGENVILLE,France,1091,n.a.,9,10,11,13,13,11,8,6,9,n.a.,26,25,24,23,24,n.a.,20,21,n.a.
,SIGMA AVIATION SERVICES LIMITED,ORDMAN HOUSE,BRISTOL,United Kingdom,7810,n.a.,2,n.a.,n.a.,n.a.,n.a.,n.a.,n.a.,n.a.,n.a.,n.a.,n.a.,n.a.,n.a.,n.a.,n.a.,n.a.,n.a.,n.a.,n.a.
122,SILEC CABLE,6 RUE DE VARENNES PROLONGEE,MONTEREAU FAULT YONNE,France,2732,n.a.,317,330,353,421,451,448,438,387,468,n.a.,"1,139",n.a.,"1,104","1,144",n.a.,"1,117","1,233","1,263","1,306"
117,SIMOREP ET CIE,Credit needed,Credit needed,Credit needed,Credit needed,n.a.,n.a.,Credit needed,Credit needed,Credit needed,n.a.,n.a.,n.a.,n.a.,n.a.,n.a.,n.a.,n.a.,n.a.,n.a.,n.a.,n.a.,n.a.,n.a.,n.a.
,SINIAT,500 RUE MARCEL DEMONQUE,AVIGNON,France,2362,n.a.,357,350,368,414,463,385,359,353,409,n.a.,"1,037","1,152","1,250","1,408",n.a.,n.a.,"1,198","1,186","1,203"
,SINO JET MANAGEMENT LIMITED,18 HARBOUR ROAD,WAN CHAI,Hong Kong,5110,n.a.,n.a.,n.a.,n.a.,n.a.,n.a.,n.a.,n.a.,n.a.,n.a.,n.a.,64,64,64,n.a.,n.a.,n.a.,n.a.,n.a.,n.a.
,SIORAT,LE GRIFFOLET,USSAC,France,4211,n.a.,77,68,76,68,63,66,46,40,29,n.a.,n.a.,197,202,201,204,181,172,156,n.a.
,SITEK INSULATION,RUE DE LAUTERBOURG ALTENSTADT,WISSEMBOURG,France,2399,n.a.,20,17,n.a.,n.a.,n.a.,n.a.,n.a.,n.a.,n.a.,n.a.,127,n.a.,n.a.,n.a.,n.a.,n.a.,n.a.,n.a.,n.a.
,SKYLINER AVIATION LIMITED,14 HEATHWOOD POINT,LONDON,United Kingdom,,n.a.,n.a.,n.a.,n.a.,n.a.,n.a.,n.a.,n.a.,n.a.,n.a.,n.a.,n.a.,n.a.,n.a.,n.a.,n.a.,n.a.,n.a.,n.a.,n.a.
,SL MANAGEMENT LLC,788 MORRIS TPKE,SHORT HILLS,United States of America,8211,6,n.a.,n.a.,n.a.,n.a.,n.a.,n.a.,n.a.,n.a.,n.a.,75,n.a.,n.a.,n.a.,n.a.,n.a.,n.a.,n.a.,n.a.,n.a.
180,SMART FRANCE SAS,EUROPOLE DE SARREGUEMINES,HAMBACH,France,2910,n.a.,143,165,n.a.,139,111,96,50,140,125,n.a.,827,n.a.,n.a.,n.a.,n.a.,782,n.a.,n.a.,828
130,SMURFIT KAPPA CELLULOSE DU PIN,LIEU-DIT FACTURE,BIGANOS,France,1712,n.a.,n.a.,n.a.,n.a.,n.a.,n.a.,n.a.,n.a.,207,264,n.a.,n.a.,n.a.,n.a.,n.a.,n.a.,n.a.,n.a.,n.a.,n.a.
147,SMURFIT KAPPA PAPIER RECYCLE FRANCE,ALLEE DES FOUGERES,BIGANOS,France,1712,n.a.,n.a.,n.a.,n.a.,n.a.,n.a.,n.a.,n.a.,n.a.,163,n.a.,n.a.,n.a.,n.a.,n.a.,n.a.,n.a.,n.a.,n.a.,362
388,SNC COGELYO OUEST,ZAC DES COESMES,CESSON SEVIGNE,France,3511,n.a.,11,12,12,14,27,36,47,34,35,n.a.,n.a.,n.a.,n.a.,n.a.,n.a.,n.a.,n.a.,n.a.,n.a.
,SNC MATERIAUX ENROBES DU NORD,GARE D EAU,ANNAY,France,4211,n.a.,n.a.,n.a.,14,15,13,14,27,16,18,n.a.,n.a.,n.a.,55,n.a.,68,n.a.,80,n.a.,n.a.
527,SNC RENAULT DOUAI,,,France,,n.a.,n.a.,n.a.,n.a.,n.a.,n.a.,n.a.,n.a.,n.a.,n.a.,n.a.,n.a.,n.a.,n.a.,n.a.,n.a.,n.a.,n.a.,n.a.,n.a.
,SNF SAS,ZONE D AMENAGEMENT CONCERTE,ANDREZIEUX BOUTHEON,France,2016,n.a.,607,624,607,609,588,549,483,348,401,n.a.,"1,118","1,077","1,020",996,n.a.,n.a.,n.a.,n.a.,708
534,SOBEYS CAPITAL INC,1115 CARDIFF BLVD,MISSISSAUGA,Canada,,n.a.,n.a.,n.a.,n.a.,n.a.,n.a.,n.a.,n.a.,n.a.,n.a.,n.a.,n.a.,n.a.,n.a.,n.a.,n.a.,n.a.,n.a.,n.a.,n.a.
332,SOC CHAMBERIENNE DISTRIBUTION CHALEUR,ZONE INDUSTRIELLE BISSY,CHAMBERY,France,3530,n.a.,22,22,22,26,25,24,26,n.a.,26,n.a.,35,34,32,n.a.,32,33,n.a.,n.a.,34
234,SOC D' EXPLOITATION DE LA TOUR EIFFEL,TOUR EIFFEL CHAMPS DE MARS,PARIS,France,9103,n.a.,80,84,96,74,n.a.,74,68,66,64,n.a.,n.a.,n.a.,312,308,304,300,300,298,287
,SOC DES FOURS A CHAUX DE SORCY,JARDINS BOIELDIEU,PUTEAUX,France,2352,n.a.,30,31,32,33,42,47,43,33,49,n.a.,68,71,72,73,78,82,83,84,86
404,SOC EUROPEENNE DES CHAUX ET LIANTS,HAMEAU DE FLOSAILLES,ST SAVIN,France,2352,n.a.,8,9,8,8,9,10,10,8,10,n.a.,13,12,12,12,12,n.a.,n.a.,n.a.,14
,SOC NICOISE REALISATION THERMIQUE,33 BOULEVARD DE L ARIANE,NICE,France,3821,n.a.,43,43,43,36,38,36,32,34,28,n.a.,59,56,54,53,54,57,57,55,54
,SOCACHAL,SQUARE DE LA LIBERATION,CACHAN,France,3530,n.a.,5,5,5,5,5,4,n.a.,4,n.a.,n.a.,n.a.,1,n.a.,n.a.,n.a.,n.a.,n.a.,n.a.,n.a.
,SOCIETE ALSACIENNE DE RECYCLAGE DE MATERIAUX,9 ROUTE DU ROHRSCHOLLEN,STRASBOURG,France,2399,n.a.,n.a.,5,n.a.,10,n.a.,n.a.,1,1,1,n.a.,n.a.,n.a.,n.a.,n.a.,n.a.,n.a.,7,n.a.,6
,SOCIETE ANONYME D'ECONOMIE MIXTE POUR LA GESTION DE LA GEOTHERMIE ET DES RESAUX A MAISONS ALFORT,118 AVENUE DU GENERAL DE GAULLE,MAISONS ALFORT,France,3530,n.a.,7,7,8,8,7,7,6,8,6,n.a.,4,4,4,4,4,4,4,4,3
291,SOCIETE ANONYME DES PAPETERIES DE BEGLES,91 QUAI DU PRESIDENT WILSON,BEGLES,France,1712,n.a.,38,36,37,36,38,38,34,32,37,n.a.,n.a.,92,93,96,100,98,98,96,96
442,SOCIETE BLESOISE DE DISTRIBUTION DE CHALEUR,89 ROUTE DE CHATEAURENAULT,BLOIS,France,3530,n.a.,4,4,4,4,4,5,5,5,2,n.a.,n.a.,n.a.,n.a.,n.a.,n.a.,n.a.,n.a.,n.a.,4
473,SOCIETE CHIMIQUE DE OISSEL,TOUR COUPOLE,COURBEVOIE,France,2015,n.a.,1,1,2,3,5,5,3,4,32,n.a.,n.a.,n.a.,n.a.,n.a.,n.a.,n.a.,n.a.,n.a.,n.a.
,SOCIETE COOPERATIVE AGRICOLE ET VITICOLE BOURGOGNE DU SUD,RUE DES FRERES LUMIERE,CHALON SUR SAONE,France,4621,224,243,252,240,291,259,234,188,218,219,n.a.,n.a.,n.a.,n.a.,216,n.a.,n.a.,n.a.,n.a.,n.a.
425,SOCIETE D'ECONOMIE MIXTE POUR LA MAITRISE ET LA RECUPERATION DE L'ENERGIE THERMIQUE,PLACE DE L HOTEL DE VILLE,HEROUVILLE ST CLAIR,France,3530,5,n.a.,5,5,6,5,4,5,5,4,7,n.a.,6,7,8,7,8,8,9,8
444,SOCIETE D'EXPLOITATION DU CHAUFFAGE URBAIN D'AUTUN,SAINT PIERRE,AUTUN,France,3530,4,4,3,3,3,4,3,3,3,3,n.a.,n.a.,n.a.,n.a.,n.a.,n.a.,n.a.,n.a.,n.a.,n.a.
459,SOCIETE DE CHAUFFAGE DE MELUN MONTAIGU,IMMEUBLE LE WILSON IMM WILSON 2 70 80,PUTEAUX,France,3530,n.a.,2,4,1,1,1,1,3,3,3,n.a.,n.a.,n.a.,n.a.,n.a.,n.a.,n.a.,n.a.,n.a.,n.a.
317,SOCIETE DE CHAUFFAGE URBAIN DE CRETEIL,1 RUE DES ARCHIVES,CRETEIL,France,3530,n.a.,27,29,29,35,28,27,28,28,29,n.a.,n.a.,n.a.,n.a.,n.a.,n.a.,n.a.,n.a.,n.a.,n.a.
265,SOCIETE DE CHAUFFE DE COMBUSTIBLES DE REPARATIONS ET D APPAREILLAGES MECANIQUES,IMMEUBLE LE WILSON,PUTEAUX,France,3530,n.a.,58,66,0,94,141,112,109,125,124,n.a.,n.a.,n.a.,n.a.,184,287,290,298,304,310
405,SOCIETE DE CLIMATISATION DE SURESNES,TOUR EUROPE,COURBEVOIE,France,4671,n.a.,8,7,7,9,9,9,8,7,7,n.a.,n.a.,n.a.,n.a.,n.a.,n.a.,n.a.,n.a.,n.a.,n.a.
410,SOCIETE DE COGENERATION DU BOURRAY,2 RUE DE LA TOUCHE LAMBERT,CESSON SEVIGNE,France,3530,n.a.,7,9,10,10,11,9,9,10,10,n.a.,n.a.,n.a.,n.a.,n.a.,n.a.,n.a.,n.a.,n.a.,n.a.
,SOCIETE DE CONSTRUCTION ET D EXPLOITATION DE SILOS AU PORT RHENAN DE COLMAR NEUF BRISACH,1 PLACE DE LA GARE,COLMAR,France,161,n.a.,n.a.,2,n.a.,1,1,1,1,1,1,n.a.,n.a.,n.a.,n.a.,n.a.,n.a.,n.a.,n.a.,n.a.,n.a.
,SOCIETE DE DEVELOPPEMENT ENERGETIQUE DE LA VALLEE DE LA ROSSELLE,6 RUE DES TREZELOTS,PULNOY,France,3530,n.a.,3,2,2,4,5,5,5,5,6,n.a.,n.a.,n.a.,n.a.,n.a.,n.a.,n.a.,n.a.,n.a.,n.a.
,SOCIETE DE DISTRIBUTION DE CHA LEUR DE VITRY,131 RUE LEON GEFFROY,VITRY SUR SEINE,France,3530,n.a.,n.a.,n.a.,n.a.,n.a.,n.a.,n.a.,n.a.,n.a.,n.a.,n.a.,n.a.,n.a.,n.a.,n.a.,n.a.,n.a.,n.a.,n.a.,n.a.
386,SOCIETE DE DISTRIBUTION DE CHALEUR DE BAGNOLET - S D C B SAS,5 AVENUE DES ROSES,BAGNOLET,France,3530,n.a.,11,22,15,15,4,n.a.,n.a.,n.a.,n.a.,n.a.,n.a.,n.a.,n.a.,n.a.,n.a.,n.a.,n.a.,n.a.,n.a.
411,SOCIETE DE DISTRIBUTION DE CHALEUR DE FIRMINY,CHEMIN DE LA PATE,FIRMINY,France,3530,n.a.,7,7,7,8,8,7,7,7,8,n.a.,10,12,12,n.a.,10,11,n.a.,12,n.a.
467,SOCIETE DE DISTRIBUTION DE CHALEUR DE LIMOGES BEAUBREUIL,86 B BOULEVARD DU MAS BOUYOL,LIMOGES,France,3530,n.a.,2,2,2,2,4,2,2,2,2,n.a.,n.a.,n.a.,n.a.,n.a.,n.a.,n.a.,n.a.,n.a.,n.a.
409,SOCIETE DE DISTRIBUTION DE CHALEUR DU MONT-GAILLARD,ZAC DU PRESSOIR,LE HAVRE,France,3530,n.a.,7,7,19,9,7,7,7,6,6,n.a.,n.a.,n.a.,n.a.,n.a.,n.a.,n.a.,n.a.,n.a.,n.a.
,SOCIETE DEPALOR,CHEMIN DES DAMES,PHALSBOURG,France,1621,n.a.,0,1,4,46,60,57,n.a.,n.a.,n.a.,n.a.,n.a.,n.a.,n.a.,n.a.,n.a.,n.a.,n.a.,n.a.,n.a.
295,SOCIETE DES LUBRIFIANTS DE NANTERRE,171 AVENUE JULES QUENTIN,NANTERRE,France,1920,n.a.,n.a.,36,33,28,38,37,38,57,45,n.a.,n.a.,93,91,89,n.a.,n.a.,92,97,93
367,SOCIETE DIJONNAISE D'ENERGIE NOUVELLE,CHEMIN DE LA RENTE DE LA CRAS,DIJON,France,3530,n.a.,14,15,11,5,n.a.,n.a.,n.a.,n.a.,n.a.,n.a.,n.a.,n.a.,n.a.,n.a.,n.a.,n.a.,n.a.,n.a.,n.a.
371,SOCIETE DISTRIBUTION CHALEUR LIMOGES,CHAUFFERIE VAL DE L AURENCE,LIMOGES,France,3530,n.a.,14,13,12,13,13,10,8,8,9,n.a.,n.a.,n.a.,n.a.,n.a.,n.a.,n.a.,n.a.,n.a.,n.a.
,SOCIETE EUROPEENNE DE VEHICULES LEGERS DU NORD - SEVEL NORD,ZIN 3,LIEU ST AMAND,France,2910,n.a.,"1,360","1,141","1,105","1,046","1,037","1,255","1,222","1,169","2,098",n.a.,n.a.,"2,363","2,413","2,338","2,424","2,494","2,667","3,119","3,295"
,SOCIETE FROMAGERE DE BOUVRON,1 CHEMIN DE GAUTHERAIS,BOUVRON,France,1051,n.a.,n.a.,n.a.,n.a.,n.a.,n.a.,n.a.,n.a.,214,223,n.a.,n.a.,n.a.,n.a.,n.a.,n.a.,n.a.,n.a.,n.a.,n.a.
,SOCIETE FROMAGERE DE CHARCHIGNE,Credit needed,Credit needed,Credit needed,Credit needed,n.a.,Credit needed,n.a.,Credit needed,Credit needed,n.a.,n.a.,n.a.,n.a.,n.a.,n.a.,n.a.,n.a.,n.a.,n.a.,n.a.,n.a.,n.a.,n.a.,n.a.
,SOCIETE FROMAGERE DE DOMFRONT,Credit needed,Credit needed,Credit needed,Credit needed,n.a.,Credit needed,n.a.,Credit needed,Credit needed,n.a.,n.a.,n.a.,n.a.,n.a.,n.a.,n.a.,n.a.,n.a.,n.a.,n.a.,n.a.,n.a.,n.a.,n.a.
,SOCIETE FROMAGERE DE RODEZ,Credit needed,Credit needed,Credit needed,Credit needed,n.a.,Credit needed,n.a.,Credit needed,Credit needed,n.a.,n.a.,n.a.,n.a.,n.a.,n.a.,n.a.,n.a.,n.a.,n.a.,n.a.,n.a.,n.a.,n.a.,n.a.
,SOCIETE FROMAGERE DE SAINTE CECILE,Credit needed,Credit needed,Credit needed,Credit needed,n.a.,Credit needed,n.a.,Credit needed,Credit needed,n.a.,n.a.,n.a.,n.a.,n.a.,n.a.,n.a.,n.a.,n.a.,n.a.,n.a.,n.a.,n.a.,n.a.,n.a.
499,SOCIETE GARDANNAISE COGENERATION,184 COURS LA FAYETTE,LYON,France,3530,n.a.,n.a.,0,0,0,7,31,50,40,54,n.a.,n.a.,n.a.,n.a.,n.a.,n.a.,n.a.,n.a.,n.a.,n.a.
434,SOCIETE GEOTHERMALE DES RIVES DE MARNE,72 AVENUE JEAN BAPTISTE CLEMENT,BOULOGNE BILLANCOURT,France,3530,n.a.,5,4,4,7,n.a.,n.a.,n.a.,n.a.,n.a.,n.a.,n.a.,5,n.a.,n.a.,n.a.,n.a.,n.a.,n.a.,n.a.
,SOCIETE INDUSTRIELLE DE SAINT FLORENT EN ABREGEE SOCIETE INDUSTRIELLE DE ST FLORENT,Credit needed,Credit needed,Credit needed,Credit needed,n.a.,Credit needed,n.a.,Credit needed,Credit needed,n.a.,n.a.,n.a.,n.a.,n.a.,n.a.,n.a.,n.a.,n.a.,n.a.,n.a.,n.a.,n.a.,n.a.,n.a.
47,SOCIETE INDUSTRIELLE LESAFFRE,Credit needed,Credit needed,Credit needed,Credit needed,n.a.,n.a.,n.a.,n.a.,n.a.,n.a.,n.a.,n.a.,n.a.,n.a.,n.a.,n.a.,n.a.,n.a.,n.a.,n.a.,n.a.,n.a.,n.a.,n.a.
,SOCIETE INTERNATIONALE DE FORGEAGE ET DE MATRICAGE,6 RUE CONDORCET,CLERMONT FERRAND,France,2550,n.a.,28,28,27,28,26,21,19,19,20,n.a.,205,204,201,201,n.a.,180,176,176,174
,SOCIETE LAITIERE DE CLERMONT,2 RUE HENRI BREUIL,CLERMONT,France,1051,n.a.,n.a.,n.a.,n.a.,n.a.,n.a.,n.a.,n.a.,149,n.a.,n.a.,n.a.,n.a.,n.a.,n.a.,n.a.,n.a.,n.a.,n.a.,n.a.
,SOCIETE LAITIERE DE L'HERMITAGE,PLACE DE LA GARE,L'HERMITAGE,France,1051,n.a.,n.a.,n.a.,n.a.,n.a.,n.a.,n.a.,125,n.a.,115,n.a.,n.a.,n.a.,n.a.,n.a.,n.a.,n.a.,266,n.a.,n.a.
,SOCIETE LAITIERE DE PONTIVY,RUE CHARLES TELLIER,LE SOURN,France,1051,n.a.,n.a.,163,179,143,178,134,115,105,101,n.a.,n.a.,177,177,170,n.a.,n.a.,173,172,n.a.
173,SOCIETE LAITIERE DE RETIERS,FROMY,RETIERS,France,1091,n.a.,n.a.,n.a.,n.a.,n.a.,n.a.,n.a.,121,n.a.,136,n.a.,n.a.,n.a.,n.a.,n.a.,n.a.,n.a.,349,n.a.,401
,SOCIETE LAITIERE DE VITRE,LIEU DIT GUICHARDIERES,VITRE,France,1051,n.a.,n.a.,n.a.,n.a.,n.a.,n.a.,n.a.,190,187,194,n.a.,n.a.,n.a.,n.a.,n.a.,n.a.,n.a.,392,396,n.a.
,SOCIETE LAITIERE DU BOCAGE ORNAIS,BP 7,ST HILAIRE DE BRIOUZE,France,1051,n.a.,59,64,85,84,70,75,59,42,59,n.a.,53,55,58,n.a.,55,n.a.,55,n.a.,n.a.
,SOCIETE LILLOISE DE MATERIAUX ENROBES,PORT FLUVIAL,SANTES,France,2399,n.a.,n.a.,n.a.,n.a.,12,16,16,n.a.,11,12,n.a.,n.a.,n.a.,n.a.,7,n.a.,n.a.,n.a.,n.a.,n.a.
49,SOCIETE NATIONALE D'EXPLOITATION INDUSTRIELLE DES TABACS ET ALLUMETTES,143 BOULEVARD ROMAIN ROLLAND,PARIS,France,1200,n.a.,"1,090","1,107","1,089","1,225","1,211","1,150","1,128","1,177",921,n.a.,849,"1,024","1,121",n.a.,n.a.,"1,275","1,337","1,811","1,988"
524,SOCIETE NATIONALE DES CHEMINS DE FER FRANCAIS (SNCF),,PARIS,France,,n.a.,n.a.,n.a.,n.a.,n.a.,n.a.,n.a.,n.a.,n.a.,n.a.,n.a.,n.a.,n.a.,n.a.,n.a.,n.a.,n.a.,n.a.,n.a.,n.a.
554,SOCIETE NOUVELLE GREGOIRE,Credit needed,Credit needed,Credit needed,Credit needed,n.a.,n.a.,n.a.,n.a.,n.a.,n.a.,n.a.,n.a.,n.a.,n.a.,n.a.,n.a.,n.a.,n.a.,n.a.,n.a.,n.a.,n.a.,n.a.,n.a.
,SOCIETE PARISIENNE DE MATERIAUX ENROBES,2 RUE JEAN MERMOZ,MAGNY LES HAMEAUX,France,2399,n.a.,56,63,62,70,66,n.a.,58,56,58,n.a.,47,46,46,47,n.a.,n.a.,46,n.a.,42
525,SOCIETE PECHINEY ELECTROMETALLURGIE,,,France,,n.a.,n.a.,n.a.,n.a.,n.a.,n.a.,n.a.,n.a.,n.a.,n.a.,n.a.,n.a.,n.a.,n.a.,n.a.,n.a.,n.a.,n.a.,n.a.,n.a.
453,SOCIETE THERMIQUE DE BONDY S T B,31 RUE ANDREI SAKHAROV,BONDY,France,3530,n.a.,3,2,3,3,2,1,n.a.,n.a.,n.a.,n.a.,n.a.,n.a.,n.a.,n.a.,n.a.,n.a.,n.a.,n.a.,n.a.
430,SOCIETE THERMIQUE DE SALON DE PROVENCE,11 CHEMIN DES CANOURGUES,SALON DE PROVENCE,France,3530,n.a.,5,5,5,4,6,5,4,4,4,n.a.,n.a.,n.a.,n.a.,n.a.,n.a.,n.a.,n.a.,n.a.,n.a.
,SOCIETE VEHICULES AUTOMOBILES BATILLY,ZONE INDUSTRIELLE BATILLY,BATILLY,France,2910,n.a.,"1,690","1,591","1,404","1,243","1,365","1,429","1,095",842,"1,229",n.a.,n.a.,"2,013","2,130",n.a.,n.a.,"2,366","2,310",n.a.,n.a.
329,SOCLI,,IZAOURT,France,2352,n.a.,23,24,27,30,31,32,31,32,37,n.a.,65,67,74,78,77,76,76,81,80
,SOFAXIS,Credit needed,Credit needed,Credit needed,Credit needed,n.a.,n.a.,n.a.,n.a.,n.a.,n.a.,n.a.,n.a.,Credit needed,n.a.,n.a.,n.a.,n.a.,n.a.,n.a.,n.a.,n.a.,n.a.,n.a.,n.a.
133,SOFIDEL FRANCE,CHAUSSEE DU BAN LA DAME,FROUARD,France,1722,n.a.,269,281,268,257,253,233,195,176,179,n.a.,721,702,688,686,n.a.,568,555,n.a.,511
,SOFIVO,,CONDE SUR VIRE,France,1091,n.a.,n.a.,n.a.,n.a.,n.a.,n.a.,n.a.,n.a.,n.a.,n.a.,n.a.,n.a.,n.a.,n.a.,n.a.,n.a.,n.a.,n.a.,n.a.,n.a.
,SOFREC-SOC DES EMBALLAGES MOULES,48 RUE DU PONT DE LA SAULE,FERE CHAMPENOISE,France,1729,n.a.,n.a.,7,7,n.a.,9,9,8,7,7,n.a.,n.a.,83,n.a.,n.a.,n.a.,n.a.,84,72,74
450,SOISSONS ENERGIES & ENVIRONNEMENT,6 RUE DU PARC,OBERHAUSBERGEN,France,3530,n.a.,n.a.,3,3,3,3,4,1,0,0,n.a.,n.a.,n.a.,n.a.,n.a.,n.a.,n.a.,n.a.,n.a.,n.a.
,SOLAIPA,Credit needed,Credit needed,Credit needed,Credit needed,n.a.,Credit needed,n.a.,Credit needed,Credit needed,n.a.,n.a.,n.a.,n.a.,n.a.,n.a.,n.a.,n.a.,n.a.,n.a.,n.a.,n.a.,n.a.,n.a.,n.a.
216,SOLEVAL FRANCE,RESIDENCE LES PORTES DE L ATLANTIQUE,LE MANS,France,1041,n.a.,n.a.,n.a.,n.a.,n.a.,n.a.,76,62,33,n.a.,n.a.,n.a.,n.a.,n.a.,n.a.,n.a.,167,171,97,n.a.
75,SOLVAY ENERGY SERVICES,25 RUE DE CLICHY,PARIS,France,3523,n.a.,657,672,836,825,"1,109",523,422,477,671,n.a.,76,74,78,81,n.a.,57,44,36,n.a.
184,SOLVAY OPERATIONS FRANCE,25 RUE DE CLICHY,PARIS,France,2013,n.a.,138,127,136,126,144,n.a.,158,149,177,n.a.,370,378,381,419,n.a.,n.a.,427,422,n.a.
477,SOUCHE PARTICIPATION,Credit needed,Credit needed,Credit needed,Credit needed,n.a.,n.a.,n.a.,n.a.,n.a.,Credit needed,n.a.,n.a.,n.a.,n.a.,n.a.,n.a.,n.a.,n.a.,n.a.,n.a.,n.a.,n.a.,n.a.,n.a.
520,SOUGNEZ & COMPAGNIE,RUE DES ECOLES 89,HOTTON,Belgium,8553,n.a.,n.a.,n.a.,n.a.,n.a.,n.a.,n.a.,n.a.,n.a.,n.a.,n.a.,n.a.,n.a.,n.a.,n.a.,n.a.,n.a.,n.a.,n.a.,n.a.
,SOUTHERN CROSS INTERNATIONAL B.V.,BREDASEBAAN 2,BOSSCHENHOOFD,Netherlands,8559,n.a.,n.a.,n.a.,n.a.,n.a.,n.a.,n.a.,n.a.,n.a.,n.a.,n.a.,7,7,7,7,6,4,6,6,n.a.
517,SPECIALISED TRANSPORTATION LIMITED,"1ST FLOOR, VIKING HOUSE, ST PAUL'S SQUARE",RAMSEY,Isle Of Man (United Kingdom),,n.a.,n.a.,n.a.,n.a.,n.a.,n.a.,n.a.,n.a.,n.a.,n.a.,n.a.,n.a.,n.a.,n.a.,n.a.,n.a.,n.a.,n.a.,n.a.,n.a.
267,SPONTEX,420 RUE D ESTIENNE D ORVES,COLOMBES,France,4644,n.a.,56,62,89,84,92,92,4,4,4,n.a.,237,249,n.a.,255,n.a.,n.a.,n.a.,n.a.,n.a.
,STARJET AVIATION SARL,ROUTE DES RONQUOS 146,SION,Switzerland,5110,n.a.,n.a.,n.a.,n.a.,n.a.,n.a.,n.a.,n.a.,n.a.,n.a.,1,1,n.a.,n.a.,n.a.,n.a.,n.a.,n.a.,n.a.,n.a.
,STARLINK AVIATION,9025 AV RYAN,DORVAL,Canada,9311,n.a.,17,n.a.,n.a.,n.a.,n.a.,n.a.,n.a.,n.a.,n.a.,n.a.,175,n.a.,n.a.,n.a.,n.a.,n.a.,n.a.,n.a.,n.a.
,STARR EQUIPMENT CORP,90 PARK AVE,NEW YORK,United States of America,6910,n.a.,n.a.,n.a.,n.a.,n.a.,n.a.,n.a.,n.a.,n.a.,n.a.,n.a.,n.a.,n.a.,n.a.,n.a.,n.a.,n.a.,n.a.,n.a.,n.a.
205,STE BEARNAISE DE GESTION INDUSTRIELLE,RD 281 POLE 4,MOURENX,France,3530,n.a.,104,97,106,145,140,129,109,33,39,n.a.,270,278,286,n.a.,n.a.,n.a.,249,n.a.,205
337,STE D'IMPRESSION D'HEM,52 AVENUE HENRI DELECROIX,HEM,France,1330,n.a.,n.a.,n.a.,n.a.,n.a.,n.a.,n.a.,n.a.,n.a.,n.a.,n.a.,n.a.,n.a.,n.a.,n.a.,n.a.,n.a.,n.a.,n.a.,n.a.
,STE DES ENROBES MEDITERRANEENS,ROUTE DE PEZENAS,ST THIBERY,France,2399,n.a.,15,13,17,17,14,13,15,18,20,n.a.,5,n.a.,n.a.,n.a.,4,n.a.,4,4,n.a.
510,STE GENERALE DES PRODUITS ALIMENTAIRES,,RAOUED,Tunisia,,n.a.,n.a.,n.a.,n.a.,n.a.,n.a.,n.a.,n.a.,n.a.,n.a.,n.a.,n.a.,n.a.,n.a.,n.a.,n.a.,n.a.,n.a.,n.a.,n.a.
,STE INDUST TEINTURERIE CHAUSSEE ROMAINE,ZI ROUVROY MORCOURT,ROUVROY,France,1330,n.a.,n.a.,n.a.,n.a.,n.a.,n.a.,n.a.,n.a.,n.a.,n.a.,n.a.,n.a.,n.a.,n.a.,n.a.,n.a.,n.a.,n.a.,n.a.,n.a.
,STE LAITIERE DE MAYENNE,Credit needed,Credit needed,Credit needed,Credit needed,n.a.,Credit needed,n.a.,Credit needed,Credit needed,n.a.,n.a.,n.a.,n.a.,n.a.,n.a.,n.a.,n.a.,n.a.,n.a.,n.a.,n.a.,n.a.,n.a.,n.a.
511,STE POEY,,MONASTIR,Tunisia,,n.a.,n.a.,n.a.,n.a.,n.a.,n.a.,n.a.,n.a.,n.a.,n.a.,n.a.,n.a.,n.a.,n.a.,n.a.,n.a.,n.a.,n.a.,n.a.,n.a.
505,STE THERMIQUE INDUSTRIELLE TOULOISE STIT,15 ROUTE DE LENONCOURT,VARANGEVILLE,France,3530,n.a.,n.a.,0,1,0,0,0,2,4,4,n.a.,n.a.,n.a.,n.a.,n.a.,n.a.,n.a.,n.a.,n.a.,n.a.
,STEELCASE INC.,"901, 44TH STREET SOUTH EAST",GRAND RAPIDS,United States of America,3101,n.a.,"2,862","2,810","2,722","2,164","2,185","2,045","1,762","1,689","2,518",n.a.,"11,700","11,000","10,700","10,700","10,400","10,000","10,000","11,000","13,000"
,STEICO CASTELJALOUX,ROUTE DE COCUMONT,CASTELJALOUX,France,1621,n.a.,18,22,20,18,18,11,11,10,13,n.a.,64,76,78,n.a.,78,73,66,63,76
237,STERIMED SAS,ROUTE DE CERET,AMELIE LES BAINS PALALDA,France,1712,n.a.,n.a.,75,63,65,66,57,70,63,67,n.a.,n.a.,231,234,233,n.a.,n.a.,n.a.,n.a.,231
565,STMICROELECTRONICS SA,CH. DU CHAMP-DES-FILLES 39,PLAN-LES-OUATES,Switzerland,2611,n.a.,n.a.,n.a.,n.a.,n.a.,227,n.a.,68,n.a.,n.a.,35,35,35,35,200,200,350,65,65,n.a.
279,STOELZLE MASNIERES PARFUMERIE,ROUTE NATIONALE,MASNIERES,France,2313,n.a.,n.a.,45,n.a.,n.a.,n.a.,n.a.,n.a.,n.a.,n.a.,n.a.,n.a.,n.a.,n.a.,n.a.,n.a.,n.a.,n.a.,n.a.,n.a.
313,STORA ENSO CORBEHEM,5 RUE DE CORBEHEM,BREBIERES,France,1712,n.a.,29,68,22,155,194,213,197,0,252,n.a.,74,227,330,337,350,349,351,362,n.a.
59,STORENGY,12 RUE RAOUL NORDLING,BOIS COLOMBES,France,5210,n.a.,897,"1,018","1,303","1,240","1,032",917,891,n.a.,"1,016",n.a.,848,825,830,873,n.a.,931,936,n.a.,811
391,STRASBOURG ENERGIE,26 BOULEVARD DU PRESIDENT WILSON,STRASBOURG,France,3530,n.a.,9,9,9,13,17,14,15,17,14,n.a.,n.a.,n.a.,n.a.,n.a.,n.a.,n.a.,n.a.,n.a.,n.a.
284,SUCRERIE ET DISTILLERIE DE SOUPPES OUVRE FILS,27 RUE SAINT FERDINAND,PARIS,France,1081,n.a.,40,42,57,73,80,50,44,40,47,n.a.,134,134,142,n.a.,141,133,134,136,138
160,SWISS KRONO SAS,ROUTE DE CERDON,SULLY SUR LOIRE,France,1621,n.a.,175,172,174,214,244,n.a.,n.a.,n.a.,n.a.,n.a.,n.a.,n.a.,n.a.,505,n.a.,n.a.,n.a.,n.a.,n.a.
33,SYNERGIE SA,"11, AVENUE DU COLONEL BONNET",PARIS,France,7810,n.a.,"1,994","1,801","1,671","1,521","1,450","1,448","1,234",949,"1,205",n.a.,"57,324","51,383","48,870","44,822","43,740","44,975","39,014","30,479","39,010"
318,SYNTHOMER FRANCE,704 RUE PIERRE ET MARIE CURIE,RIBECOURT DRESLINCOURT,France,2017,n.a.,27,24,25,23,21,23,28,29,33,n.a.,114,115,124,n.a.,n.a.,n.a.,n.a.,182,194
,SYRAL HAUSSIMONT,23 ROUTE DE MONTEPREUX,HAUSSIMONT,France,1062,n.a.,n.a.,n.a.,37,32,36,31,23,25,21,n.a.,n.a.,n.a.,72,61,70,n.a.,n.a.,52,52
,TAA AVIATION LIMITED,APPLEBY,HAMILTON,Bermuda,5223,n.a.,n.a.,n.a.,n.a.,n.a.,n.a.,n.a.,n.a.,n.a.,n.a.,n.a.,n.a.,n.a.,n.a.,n.a.,n.a.,n.a.,n.a.,n.a.,n.a.
,TAG AVIATION SA,CHEMIN DES PAPILLONS 20,MEYRIN,Switzerland,7735,n.a.,n.a.,n.a.,229,n.a.,227,n.a.,n.a.,n.a.,n.a.,75,75,75,75,650,800,200,200,200,n.a.
,TAK AVIATION (UK) LIMITED,1 PARK ROAD,LONDON,United Kingdom,5110,n.a.,n.a.,n.a.,n.a.,n.a.,n.a.,n.a.,n.a.,n.a.,n.a.,n.a.,n.a.,n.a.,n.a.,n.a.,n.a.,n.a.,n.a.,n.a.,n.a.
,TAM LINHAS AEREAS S/A., R VERBO DIVINO 2001 ANDAR 3 4 5 6 8 10 12 13 15 16 17 CONJ 31 32 42 51 52 61 62 81 82 101 102 121 122 131 132 151 161 171 172,SAO PAULO,Brazil,5110,n.a.,291,n.a.,n.a.,n.a.,n.a.,n.a.,n.a.,n.a.,n.a.,n.a.,"1,001",n.a.,n.a.,n.a.,n.a.,n.a.,n.a.,n.a.,n.a.
354,TARANIS DU ROUVRAY,16 RUE GAILLON,PARIS,France,3511,n.a.,16,16,15,29,51,4,50,55,61,n.a.,21,21,23,26,n.a.,27,n.a.,25,n.a.
,TARGET CORP,"1000, NICOLLET MALL",MINNEAPOLIS,United States of America,4719,n.a.,"64,616","67,569","64,235","52,737","54,097","53,024","49,195","46,797","50,677",n.a.,"323,000","341,000","347,000","366,000","361,000","365,000","355,000","351,000","351,000"
308,TARNAISE DES PANNEAUX SAS,10 BOULEVARD PASTEUR,LABRUGUIERE,France,1621,n.a.,30,34,34,35,39,38,36,28,34,n.a.,117,120,120,n.a.,121,117,119,120,120
,TATA STEEL MAUBEUGE SAS,22 AVENUE DE L ABBE JEAN DE BECO,LOUVROIL,France,2410,n.a.,337,300,303,303,288,314,322,293,507,n.a.,471,484,464,n.a.,n.a.,480,502,515,530
,TEINTURES ET IMPRESSIONS DE LYON,1960 ROUTE DE FRANS,VILLEFRANCHE SUR SAONE,France,1812,n.a.,15,19,20,18,16,17,17,14,13,n.a.,n.a.,112,n.a.,n.a.,n.a.,n.a.,n.a.,n.a.,112
,TELEHOUSE INTERNATIONAL CORPORATION OF EUROPE LTD,CORIANDER AVENUE,LONDON,United Kingdom,6209,n.a.,154,148,192,132,128,108,93,76,61,n.a.,200,195,189,186,186,188,202,178,138
,TEMBEC TARTAS,1154 AVENUE DU GENERAL LECLERC,TARTAS,France,1711,n.a.,152,150,168,171,176,157,116,105,117,n.a.,303,303,293,292,285,286,285,n.a.,299
44,TEREOS FRANCE,11 RUE PASTEUR,ORIGNY STE BENOITE,France,1081,n.a.,"1,365","1,312","1,394","1,624",0,n.a.,n.a.,n.a.,n.a.,n.a.,"1,786","1,745","1,653",n.a.,n.a.,n.a.,n.a.,n.a.,n.a.
,TEREOS NUTRITION ANIMALE,11 RUE PASTEUR,ORIGNY STE BENOITE,France,1091,n.a.,42,n.a.,n.a.,n.a.,n.a.,n.a.,n.a.,n.a.,n.a.,n.a.,123,n.a.,n.a.,n.a.,n.a.,n.a.,n.a.,n.a.,n.a.
79,TEREOS STARCH & SWEETENERS EUROPE,ZONE INDUSTRIELLE PORTUAIRE,MARCKOLSHEIM,France,1062,n.a.,n.a.,601,557,649,338,592,444,473,422,n.a.,n.a.,n.a.,n.a.,n.a.,656,584,n.a.,n.a.,n.a.
,TERRE D ALLIANCES,76 AVENUE DE MARBOZ,BOURG EN BRESSE,France,4621,n.a.,190,225,215,258,234,n.a.,161,167,175,n.a.,n.a.,n.a.,438,430,n.a.,n.a.,n.a.,n.a.,n.a.
,THE ART TEACHERS LLC,13450 N HIGHWAY 183,AUSTIN,United States of America,,n.a.,n.a.,n.a.,n.a.,n.a.,n.a.,n.a.,n.a.,n.a.,n.a.,n.a.,n.a.,n.a.,n.a.,n.a.,n.a.,n.a.,n.a.,n.a.,n.a.
535,THE SCOTTS MIRACLE GRO,1411 SCOTT LAWN RD,MARYSVILLE,United States of America,,n.a.,n.a.,n.a.,n.a.,n.a.,n.a.,n.a.,n.a.,n.a.,n.a.,n.a.,n.a.,n.a.,n.a.,n.a.,n.a.,n.a.,n.a.,n.a.,n.a.
,THE TRUSTEE FOR AIRFLITE UNIT TRUST,,,Australia,9529,n.a.,n.a.,1,1,n.a.,n.a.,n.a.,n.a.,n.a.,n.a.,n.a.,n.a.,100,100,n.a.,n.a.,n.a.,n.a.,n.a.,n.a.
,THE YUCAIPA COMPANIES LLC,PO BOX 1167,GREAT BEND,United States of America,,n.a.,n.a.,n.a.,n.a.,n.a.,n.a.,n.a.,n.a.,n.a.,n.a.,n.a.,n.a.,n.a.,n.a.,n.a.,n.a.,375,n.a.,n.a.,n.a.
,THERMAL CERAMICS DE FRANCE,ZONE INDUSTRIELLE CENTRE VIE,ANDREZIEUX BOUTHEON,France,2314,n.a.,75,70,75,73,72,78,69,64,90,n.a.,331,328,456,461,478,493,488,499,499
420,THERMEVRA,ZONE INDUSTRIELLE EXTENSION 2,EVREUX,France,3530,n.a.,6,4,0,0,n.a.,n.a.,n.a.,n.a.,n.a.,n.a.,n.a.,n.a.,n.a.,n.a.,n.a.,n.a.,n.a.,n.a.,n.a.
,THERMO FISHER SCIENTIFIC INC.,"168, THIRD AVENUE",WALTHAM,United States of America,2651,n.a.,"17,336","15,583","13,911","9,492","9,482","8,933","7,774","6,880","7,543",n.a.,"55,000","52,000","51,000","50,000","38,900","39,300","37,200","35,000","34,500"
148,THERMODYN,480 ALLEE GUSTAVE EIFFEL,LE CREUSOT,France,2813,n.a.,213,230,256,269,289,240,276,256,265,n.a.,531,524,521,519,589,597,564,557,556
182,TORAY FILMS EUROPE,PLACE D ARMENIE,ST MAURICE DE BEYNOST,France,2221,n.a.,139,157,38,165,169,178,153,24,1,n.a.,452,461,453,449,448,509,472,128,6
,TORGOVO-PROMYSHLENNYI SOYUZ,"UL. YADRINTSEVSKAYA D. 19, OFFICE 1",NOVOSIBIRSK,Russian Federation,4612,n.a.,376,103,40,19,n.a.,n.a.,2,n.a.,0,n.a.,n.a.,184,165,146,n.a.,n.a.,3,n.a.,2
,TOTAL PETROCHEMICALS FRANCE,2 PLACE JEAN MILLIER,COURBEVOIE,France,2014,n.a.,"3,665","4,168","4,970","4,552","4,602","4,457","3,725","2,874","4,333",n.a.,n.a.,"1,282","1,371","1,489","1,687","2,005","1,894","2,029","2,203"
7,TOTAL RAFFINAGE FRANCE,LA DEFENSE,COURBEVOIE,France,1920,n.a.,"16,406","20,431","26,341","31,016",0,0,0,n.a.,n.a.,n.a.,n.a.,"3,845",n.a.,n.a.,n.a.,n.a.,n.a.,n.a.,n.a.
,TOUL POWER,875 RUE DE L ESCADRILLE DES CIGOGNES,TOUL,France,3511,n.a.,92,46,18,55,0,0,1,0,0,n.a.,n.a.,1,3,4,4,n.a.,n.a.,n.a.,n.a.
549,TOUR(S)HABITAT (OPH),Credit needed,Credit needed,Credit needed,Credit needed,n.a.,n.a.,n.a.,n.a.,n.a.,n.a.,n.a.,n.a.,n.a.,n.a.,n.a.,n.a.,n.a.,n.a.,n.a.,n.a.,n.a.,n.a.,n.a.,n.a.
,TOURAINE-ENROBES,LA HUAUDIERE,ESVRES,France,4673,n.a.,n.a.,5,6,7,7,7,5,n.a.,5,n.a.,n.a.,n.a.,n.a.,n.a.,n.a.,n.a.,n.a.,n.a.,n.a.
488,TOURRES ET CIE,Credit needed,Credit needed,Credit needed,Credit needed,n.a.,Credit needed,n.a.,Credit needed,Credit needed,n.a.,n.a.,n.a.,n.a.,n.a.,n.a.,n.a.,n.a.,n.a.,n.a.,n.a.,n.a.,n.a.,n.a.,n.a.
266,TOYO INK EUROPE SPECIALTY CHEMICALS,BOULEVARD DAMBOURNEY,OISSEL,France,2012,n.a.,57,30,27,29,26,22,22,n.a.,28,n.a.,148,107,94,n.a.,93,89,76,n.a.,n.a.
,TRADLUX SA,"17, RUE GLESENER",LUXEMBOURG,Luxembourg,4634,n.a.,n.a.,1,1,0,0,1,n.a.,n.a.,n.a.,n.a.,n.a.,n.a.,n.a.,n.a.,n.a.,n.a.,n.a.,n.a.,n.a.
,"TRANCHANT GAMING TECHNOLOGY,",,SAINT DENIS LA PLAINE (FR),France,,n.a.,n.a.,n.a.,n.a.,n.a.,n.a.,n.a.,n.a.,n.a.,n.a.,n.a.,n.a.,n.a.,n.a.,n.a.,n.a.,n.a.,n.a.,n.a.,n.a.
105,TRANSAVIA FRANCE,ZONE ORLYTECH ZONE ORLYTECH ORLY,PARAY VIEILLE POSTE,France,5110,n.a.,n.a.,397,329,281,233,172,n.a.,146,133,n.a.,n.a.,663,543,432,326,320,n.a.,276,260
,TRIAN FUND MANAGEMENT LP,280 PARK AVE,NEW YORK,United States of America,9499,3,n.a.,n.a.,n.a.,n.a.,n.a.,n.a.,n.a.,n.a.,n.a.,35,n.a.,n.a.,n.a.,n.a.,n.a.,n.a.,n.a.,n.a.,n.a.
,TRIMET FRANCE,ZONE INDUSTRIELLE LE PARQUET,ST JEAN DE MAURIENNE,France,2442,335,308,308,115,7,0,0,0,0,n.a.,599,570,560,486,n.a.,n.a.,n.a.,n.a.,n.a.,n.a.
484,TUNISAIR,BUILDING 558,HOUNSLOW,United Kingdom,5121,0,n.a.,n.a.,n.a.,n.a.,n.a.,n.a.,n.a.,n.a.,n.a.,2,n.a.,n.a.,n.a.,n.a.,n.a.,n.a.,n.a.,n.a.,n.a.
,TURNBERRY MANAGEMENT COMPANY LIMITED,5 KILEARN HOUSE,GLASGOW,United Kingdom,7022,n.a.,n.a.,0,n.a.,n.a.,n.a.,n.a.,n.a.,n.a.,n.a.,n.a.,n.a.,n.a.,n.a.,n.a.,n.a.,n.a.,n.a.,n.a.,n.a.
319,TWIN JET,AERODROME AIX LES MILLES,AIX EN PROVENCE,France,5110,n.a.,26,26,27,26,25,25,25,21,20,n.a.,54,n.a.,53,55,49,47,40,37,39
,UCLAB INDUSTRIE,Credit needed,Credit needed,Credit needed,Credit needed,n.a.,n.a.,n.a.,n.a.,Credit needed,n.a.,n.a.,n.a.,n.a.,n.a.,n.a.,n.a.,n.a.,n.a.,Credit needed,n.a.,n.a.,n.a.,n.a.,n.a.
113,UEM,2 PLACE DU PONTIFFROY,METZ,France,3514,n.a.,343,282,260,274,254,244,225,222,n.a.,n.a.,759,637,637,606,570,511,n.a.,n.a.,n.a.
,UNIFRAX FRANCE,17 RUE ANTOINE DURAFOUR,LORETTE,France,2320,n.a.,34,35,34,35,34,32,31,27,n.a.,n.a.,n.a.,n.a.,n.a.,120,n.a.,n.a.,125,134,n.a.
,UNILIN SAS,RUE DE BAZEILLES,BAZEILLES,France,1621,n.a.,154,153,142,135,139,129,116,n.a.,122,n.a.,202,203,210,217,220,221,221,n.a.,238
171,UNION FERMIERE MORBIHANNAISE,BELVAU,LOCMINE,France,1039,n.a.,n.a.,n.a.,136,118,n.a.,n.a.,n.a.,n.a.,n.a.,n.a.,n.a.,n.a.,n.a.,n.a.,n.a.,n.a.,n.a.,n.a.,n.a.
,UNION INVIVO,83 AVENUE DE LA GRANDE ARMEE,PARIS,France,4621,n.a.,"6,456","5,704","5,700","6,171","5,716","6,118",n.a.,"5,109","5,304",n.a.,"9,233","8,252","6,904","6,663","6,732","6,330",n.a.,n.a.,n.a.
,UNION VIENNE LOIRE,AVENUE THOMAS EDISON,CHASSENEUIL DU POITOU,France,4619,n.a.,10,10,n.a.,n.a.,n.a.,n.a.,n.a.,n.a.,n.a.,n.a.,1,n.a.,n.a.,n.a.,n.a.,n.a.,n.a.,n.a.,n.a.
86,UNIPER FRANCE POWER,9 RUE DU DEBARCADERE,COLOMBES,France,3511,n.a.,596,618,665,866,"1,231","1,384","1,412","1,281","1,422",n.a.,573,637,739,776,n.a.,825,836,n.a.,782
,UNITED TECHNOLOGIES CORPORATION,"10, FARM SPRINGS ROAD",FARMINGTON,United States of America,3030,n.a.,"54,306","51,528","47,690","41,041","43,738","43,090","39,102","36,391","42,480",n.a.,"202,000","197,000","211,000","212,000","218,000","199,900","208,200","206,700","223,100"
,UNITEDHEALTH GROUP INC.,UNITED HEALTH GROUP CENTER,MINNETONKA,United States of America,6500,n.a.,n.a.,n.a.,n.a.,n.a.,n.a.,n.a.,n.a.,n.a.,n.a.,n.a.,n.a.,n.a.,n.a.,"156,000","133,000","99,000","87,000","80,000","75,000"
537,UNIVERSITE DE RENNES I,Credit needed,Credit needed,Credit needed,Credit needed,n.a.,n.a.,n.a.,n.a.,n.a.,n.a.,n.a.,n.a.,n.a.,n.a.,n.a.,n.a.,n.a.,n.a.,n.a.,n.a.,n.a.,n.a.,n.a.,n.a.
124,UPM FRANCE SAS,134 RUE DANTON,LEVALLOIS PERRET,France,1712,n.a.,296,323,338,443,644,"1,032",873,862,"1,009",n.a.,310,620,788,935,"1,169","1,191","1,037",991,"1,019"
192,URSA FRANCE,ETAGE 5E BATIMENT B,NOISY LE GRAND,France,2314,n.a.,125,124,n.a.,127,129,118,112,112,115,n.a.,197,204,n.a.,193,193,193,184,140,180
,USINES COOPERATIVES DESHYDRATION VEXIN,,SAUSSAY LA CAMPAGNE,France,1091,n.a.,n.a.,n.a.,16,17,17,16,n.a.,n.a.,16,n.a.,n.a.,n.a.,n.a.,n.a.,n.a.,32,n.a.,n.a.,n.a.
,V & B FLIESEN GMBH,ROTENSTEINER WEG 1,MERZIG,Germany,2331,n.a.,n.a.,127,114,116,127,130,126,121,132,n.a.,n.a.,761,767,778,789,795,765,783,863
175,VALDUNES,RUE GUSTAVE DELORY,TRITH ST LEGER,France,3020,n.a.,n.a.,n.a.,n.a.,n.a.,123,125,127,132,113,n.a.,n.a.,n.a.,n.a.,n.a.,495,488,481,479,491
,VALLOUREC BEARING TUBES,RUE DE COURTANGIS,MONTBARD,France,2420,n.a.,50,60,88,82,86,121,85,31,98,n.a.,329,47,336,30,n.a.,340,328,247,265
,VALLOUREC DRILLING PRODUCTS FRANCE,5 RUE DES GUERINS,COSNE COURS SUR LOIRE,France,2420,n.a.,64,81,130,n.a.,139,125,99,139,273,n.a.,n.a.,455,474,n.a.,n.a.,476,567,n.a.,531
89,VALLOUREC TUBES FRANCE,27 AVENUE DU GENERAL LECLERC,BOULOGNE BILLANCOURT,France,2420,n.a.,563,613,964,"1,062","1,081","1,163",861,954,"1,611",n.a.,"1,929","2,341","2,464",n.a.,n.a.,"2,453","2,457","2,688",n.a.
,VALMONT INDUSTRIES INC,"1, VALMONT PLAZA",OMAHA,United States of America,2511,n.a.,"2,392","2,406","2,572","2,396","2,296","2,057","1,478","1,240","1,370",n.a.,"10,552","10,697","11,321","10,769","10,543","9,476","9,188","6,600","7,300"
362,VELCOREX SINCE 1828,14 RUE DU COMMANDANT MARCEAU,ST AMARIN,France,1320,n.a.,n.a.,n.a.,14,19,22,15,n.a.,n.a.,n.a.,n.a.,n.a.,n.a.,n.a.,n.a.,61,n.a.,n.a.,n.a.,n.a.
372,VELIDIS,80 AVENUE DU GENERAL DE GAULLE,PUTEAUX,France,3530,n.a.,13,13,14,16,16,14,15,13,6,n.a.,n.a.,n.a.,n.a.,n.a.,n.a.,n.a.,n.a.,n.a.,n.a.
387,VENISSIEUX ENERGIES,16 RUE ALBERT EINSTEIN,VENISSIEUX,France,3530,n.a.,11,9,0,0,0,0,0,0,n.a.,n.a.,n.a.,n.a.,n.a.,n.a.,n.a.,n.a.,n.a.,n.a.,n.a.
77,VERALLIA FRANCE,TOUR CARPE DIEM ESPLANADE NORD,COURBEVOIE,France,2313,n.a.,652,709,692,714,739,708,671,704,780,n.a.,"1,831",n.a.,"2,021","2,021",n.a.,"2,020","1,883","1,879","1,859"
269,VERRERIES BROSSE SAS,34 RUE THEODULE GERIN,VIEUX ROUEN SUR BRESLE,France,2313,n.a.,53,56,57,57,54,49,41,34,47,n.a.,325,341,339,357,366,325,292,290,293
73,VERSALIS FRANCE SAS,USINE DE DUNKERQUE,DUNKERQUE,France,2016,n.a.,671,653,828,757,873,777,708,n.a.,n.a.,n.a.,392,400,443,443,431,n.a.,444,n.a.,n.a.
392,VERSEO,1 AVENUE DU MARECHAL JUIN,VERSAILLES,France,3530,n.a.,10,11,10,12,20,n.a.,n.a.,n.a.,n.a.,n.a.,n.a.,n.a.,n.a.,n.a.,n.a.,n.a.,n.a.,n.a.,n.a.
286,VERTARIS,CENTR ALP,VOREPPE,France,1712,n.a.,n.a.,n.a.,n.a.,n.a.,n.a.,n.a.,31,n.a.,n.a.,n.a.,n.a.,n.a.,n.a.,n.a.,n.a.,n.a.,92,n.a.,n.a.
26,VICAT,TOUR MANHATTAN,PARIS,France,2351,n.a.,"2,474","2,481","2,453","2,313","2,306","2,283","2,050","1,914","2,072",n.a.,"8,009","7,852","7,854","7,712","7,685","7,387","7,040","6,712","6,836"
,VIETNAM AIRLINES JSC,200 NGUYEN SON STREET,HA NOI,Vietnam,5110,n.a.,"3,001","2,062","2,676","2,387","2,389","2,125","1,849","1,275","1,611",n.a.,"20,761","10,198",n.a.,n.a.,n.a.,n.a.,n.a.,n.a.,n.a.
,VIKING AVIATION LIMITED,GROUND FLOOR,DUBLIN 1,Ireland,,n.a.,n.a.,5,8,8,7,6,1,n.a.,n.a.,n.a.,n.a.,n.a.,n.a.,n.a.,n.a.,n.a.,n.a.,n.a.,n.a.
466,VILLAE,37 AVENUE DE LATTRE DE TASSIGNY,ST ANDRE LEZ LILLE,France,3530,n.a.,2,2,2,2,2,2,2,2,2,n.a.,n.a.,n.a.,n.a.,n.a.,n.a.,n.a.,n.a.,n.a.,n.a.
,VISKASE,134 RUE DANTON,LEVALLOIS PERRET,France,2221,n.a.,100,103,103,102,103,98,90,83,83,n.a.,580,617,625,625,n.a.,n.a.,610,n.a.,565
,VIVESCIA,2 RUE CLEMENT ADER,REIMS,France,4621,n.a.,"3,664","3,688","4,021","4,284","3,985","2,947","2,468","2,582","1,889",n.a.,n.a.,"7,254","7,561","8,072",n.a.,n.a.,n.a.,n.a.,n.a.
199,VOA-VERRERIE D'ALBI,ZONE INDUSTRIELLE DE ST JUERY,ALBI,France,2313,n.a.,115,103,108,107,105,106,92,90,93,n.a.,n.a.,n.a.,323,306,n.a.,338,304,299,296
,VOYAGE INTERNATIONAL LIMITED,OFFICE 363,SHEFFIELD,United Kingdom,4719,n.a.,n.a.,n.a.,n.a.,n.a.,n.a.,n.a.,n.a.,n.a.,n.a.,n.a.,n.a.,n.a.,n.a.,n.a.,n.a.,n.a.,n.a.,n.a.,n.a.
115,VULCAN INC,505 5TH AVE S,SEATTLE,United States of America,6831,292,n.a.,n.a.,n.a.,n.a.,n.a.,n.a.,n.a.,n.a.,n.a.,175,n.a.,n.a.,n.a.,n.a.,n.a.,n.a.,n.a.,n.a.,n.a.
321,VYNOVA MAZINGARBE SAS,CHEMIN DES SOLDATS,MAZINGARBE,France,2016,n.a.,26,26,26,26,28,30,30,31,37,n.a.,123,n.a.,119,121,124,125,48,27,25
476,WEIBLEN IMMEUBLES,3 AVENUE DU MARECHAL FOCH,MULHOUSE,France,6831,n.a.,n.a.,0,0,0,0,0,0,1,1,n.a.,n.a.,n.a.,n.a.,n.a.,n.a.,7,n.a.,n.a.,n.a.
136,WEPA FRANCE,AVENUE DE L EUROPE,BOUSBECQUE,France,1722,n.a.,261,259,171,166,174,186,179,151,28,n.a.,581,545,359,331,n.a.,n.a.,326,299,272
,WEPA TROYES,ROUTE N 60,TORVILLIERS,France,1722,n.a.,n.a.,n.a.,65,71,68,61,68,68,62,n.a.,n.a.,n.a.,170,168,166,n.a.,n.a.,185,178
,WEYLCHEM LAMOTTE,RUE DU FLOTTAGE,TROSLY BREUIL,France,2014,n.a.,144,156,159,157,160,170,153,138,172,n.a.,461,473,n.a.,441,904,492,466,446,451
533,WGL CAPITAL CORP,,,United States of America,,n.a.,n.a.,n.a.,n.a.,n.a.,n.a.,n.a.,n.a.,n.a.,n.a.,n.a.,n.a.,n.a.,n.a.,n.a.,n.a.,n.a.,n.a.,n.a.,n.a.
19,WIENERBERGER AG,WIENERBERGSTRASSE 11,VIENNA,Austria,2361,n.a.,"3,043","3,028","2,872","2,706","2,407","1,972","1,815","1,876","2,479",n.a.,"15,990","15,813","14,836","13,787","13,060","11,893","11,848","12,676","15,162"
109,WILLIAM SAURIN,65 B RUE LA FAYETTE,PARIS,France,1085,n.a.,n.a.,n.a.,n.a.,n.a.,n.a.,n.a.,304,315,371,n.a.,n.a.,n.a.,n.a.,n.a.,n.a.,n.a.,677,n.a.,741
,WILLIAMS SONOMA INC,"3250, VAN NESS AVENUE",SAN FRANCISCO,United States of America,4778,n.a.,"4,727","4,557","4,156","3,246","2,984","2,824","2,558","2,222","2,623",n.a.,"19,600","20,500","17,500","16,900","26,800","26,900","28,000","26,000","30,000"
,WINOA,528 AVENUE DE SAVOIE,LE CHEYLAS,France,2410,n.a.,80,86,91,n.a.,99,n.a.,97,69,138,n.a.,173,177,179,n.a.,173,n.a.,n.a.,178,184
,WORLD FUEL COMMODITIES SERVICES (IRELAND) LIMITED,6TH FLOOR,DUBLIN 4,Ireland,4612,n.a.,230,49,15,n.a.,n.a.,n.a.,n.a.,n.a.,n.a.,n.a.,4,n.a.,n.a.,n.a.,n.a.,n.a.,n.a.,n.a.,n.a.
97,XL AIRWAYS FRANCE,BATIMENT MARS CONTINENTAL SQUARE,TREMBLAY EN FRANCE,France,5110,n.a.,n.a.,n.a.,n.a.,392,399,402,369,324,360,n.a.,n.a.,n.a.,n.a.,n.a.,n.a.,n.a.,723,n.a.,n.a.
74,YARA FRANCE,77 ESPLANADE DU GENERAL DE GAULLE,PUTEAUX,France,2015,n.a.,663,968,863,962,"1,031",994,"1,194","1,211","2,370",n.a.,705,696,694,691,n.a.,692,720,759,787
,"YEUNG, LINDA",,,Australia,,n.a.,n.a.,n.a.,n.a.,n.a.,n.a.,n.a.,n.a.,n.a.,n.a.,n.a.,n.a.,n.a.,n.a.,n.a.,n.a.,n.a.,n.a.,n.a.,n.a.
,"YUM! BRANDS, INC.","1441, GARDINER LANE",LOUISVILLE,United States of America,5610,n.a.,"6,039","5,915","5,425","9,487","10,333","9,758","8,485","7,522","8,122",n.a.,"90,000","505,000","537,000","539,000","523,000","466,000","378,000","350,000","336,000"
,YYA AVIATION LTD.,APPLEBY,HAMILTON,Bermuda,5223,n.a.,n.a.,n.a.,n.a.,n.a.,n.a.,n.a.,n.a.,n.a.,n.a.,n.a.,n.a.,n.a.,n.a.,n.a.,n.a.,n.a.,n.a.,n.a.,n.a.