,Company name,"Street, no., building etc, line 1",City,Country,"NACE Rev. 2
Core code (4 digits)","Operating
revenue
(Turnover)
m EUR
2017","Operating
revenue
(Turnover)
m EUR
2016","Operating
revenue
(Turnover)
m EUR
2015","Operating
revenue
(Turnover)
m EUR
2014","Operating
revenue
(Turnover)
m EUR
2013","Operating
revenue
(Turnover)
m EUR
2012","Operating
revenue
(Turnover)
m EUR
2011","Operating
revenue
(Turnover)
m EUR
2010","Operating
revenue
(Turnover)
m EUR
2009","Operating
revenue
(Turnover)
m EUR
2008","Number of employees
2017","Number of employees
2016","Number of employees
2015","Number of employees
2014","Number of employees
2013","Number of employees
2012","Number of employees
2011","Number of employees
2010","Number of employees
2009","Number of employees
2008"
532.,A. AGRATI S.P.A.,VIA PIAVE 28,VEDUGGIO CON COLZANO,Italy,2594,n.a.,500,405,376,337,327,362,n.a.,n.a.,n.a.,n.a.,"2,360","1,904","1,881","1,869","1,781","1,760",n.a.,n.a.,n.a.
406.,A.MERATI E C. - CARTIERA DI LAVENO - SOCIETA' PER AZIONI,VIA SILVIO PELLICO 5,LAVENO-MOMBELLO,Italy,1712,n.a.,51,51,49,43,40,41,33,25,30,n.a.,66,64,63,65,63,63,66,73,81
168.,A.S.M. VOGHERA S.P.A.,VIA CESARE POZZONI 2,VOGHERA,Italy,3520,n.a.,68,89,74,89,80,77,125,123,110,n.a.,323,368,317,258,257,268,277,265,258
45.,A2A AMBIENTE S.P.A.,VIA ALESSANDRO LAMARMORA 230,BRESCIA,Italy,3821,n.a.,368,381,401,317,112,105,111,111,59,n.a.,748,738,731,346,164,163,161,194,91
899.,A2A CALORE & SERVIZI S.R.L.,VIA ALESSANDRO LAMARMORA 230,BRESCIA,Italy,3511,n.a.,227,240,250,320,314,291,273,278,133,n.a.,339,332,342,340,331,324,327,327,212
179.,A2A ENERGIEFUTURE S.P.A.,CSO DI PORTA VITTORIA 4,MILANO,Italy,3511,n.a.,112,n.a.,n.a.,n.a.,n.a.,n.a.,n.a.,n.a.,n.a.,n.a.,307,n.a.,n.a.,n.a.,n.a.,n.a.,n.a.,n.a.,n.a.
793.,A2A GENCOGAS S.P.A.,CSO DI PORTA VITTORIA 4,MILANO,Italy,3511,n.a.,96,34,38,47,58,63,42,46,0,n.a.,172,39,40,38,37,37,96,37,33
507.,A2L ENERGY S.R.L.,VIA GIOVANNI FALCONE E PAOLO BORSEL,NOVATE MILANESE,Italy,7112,n.a.,6,0,1,0,n.a.,n.a.,n.a.,n.a.,n.a.,n.a.,6,6,n.a.,n.a.,n.a.,n.a.,n.a.,n.a.,n.a.
63.,AB MAURI ITALY S.P.A.,VIA MILANO 42,CASTEGGIO,Italy,1089,n.a.,64,61,50,51,58,62,72,74,17,n.a.,176,177,161,167,178,163,154,n.a.,80
761.,ABBERTON LIMITED,07557772: CH DEFAULT ADDRESS,CARDIFF,United Kingdom,,n.a.,n.a.,n.a.,n.a.,n.a.,n.a.,n.a.,n.a.,n.a.,n.a.,n.a.,n.a.,n.a.,n.a.,n.a.,n.a.,n.a.,n.a.,n.a.,n.a.
98.,ABBVIE S.R.L., S.R. 148 PONTINA KM. 52 SNC,APRILIA,Italy,2120,n.a.,"1,097","1,097",952,824,442,n.a.,n.a.,n.a.,n.a.,n.a.,"1,255","1,304","1,273","1,209","1,232",n.a.,n.a.,n.a.,n.a.
54.,ABET LAMINATI S.P.A.,VLE INDUSTRIA 21,BRA,Italy,2221,n.a.,134,128,121,124,128,133,136,114,152,n.a.,655,631,648,663,689,707,718,758,784
682.,ACCIAIERIA ARVEDI S.P.A.,VIA GAETANO DONIZETTI 20,MILANO,Italy,2410,n.a.,"1,600","1,618","1,645","1,751","1,719","1,813","1,360",727,870,n.a.,"1,446","1,427","1,414","1,393","1,364","1,313","1,232","1,014",858
546.,ACCIAIERIE BERTOLI SAFAU S.P.A.,VIA BUTTRIO 28,POZZUOLO DEL FRIULI,Italy,2410,722,605,680,766,670,894,825,445,696,997,"1,100","1,080","1,062","1,037","1,039","1,046","1,011",955,"1,055","1,116"
452.,ACCIAIERIE DI CALVISANO S.P.A.,VIA JOHN KENNEDY 101/A,CALVISANO,Italy,2410,n.a.,124,115,114,127,178,215,182,136,331,n.a.,109,108,106,117,123,126,266,143,134
875.,ACCIAIERIE DI SICILIA S.P.A.,STS PASSO CAVALIERE 1/A,CATANIA,Italy,2410,n.a.,102,103,106,134,159,168,133,103,224,n.a.,186,187,194,200,200,190,179,164,136
82.,ACCIAIERIE DI VERONA S.P.A., INDUSTRIALE SNC,OSOPPO,Italy,2410,n.a.,233,n.a.,n.a.,n.a.,n.a.,n.a.,n.a.,n.a.,n.a.,n.a.,403,n.a.,n.a.,n.a.,n.a.,n.a.,n.a.,n.a.,n.a.
355.,ACCIAIERIE VALBRUNA S.P.A.,VIA ALESSANDRO VOLTA 4,BOLZANO,Italy,2410,n.a.,709,833,841,752,920,"1,000",879,551,"1,046",n.a.,"2,412","2,412","2,406","2,387","2,616","2,579","2,610","2,736","2,690"
352.,ACCIAIERIE VENETE S.P.A.,RIV FRANCIA 9/11,PADOVA,Italy,2410,n.a.,636,698,746,786,784,985,761,340,996,n.a.,"1,152","1,123","1,038","1,106","1,094",n.a.,n.a.,"1,124","1,136"
659.,ACEA AMBIENTE S.R.L.,VIA GIORDANO BRUNO 7,TERNI,Italy,3511,n.a.,97,76,74,69,63,38,1,1,2,n.a.,200,126,112,110,121,100,17,17,23
255.,ACEA PRODUZIONE S.P.A.,PLE OSTIENSE 2,ROMA,Italy,3511,n.a.,53,60,56,62,55,26,n.a.,n.a.,n.a.,n.a.,83,76,24,78,77,77,n.a.,n.a.,n.a.
292.,ACEGASAPSAMGA S.P.A.,VIA DEL TEATRO 5,TRIESTE,Italy,3600,n.a.,489,504,495,562,626,585,506,477,481,n.a.,"1,771","1,748","1,935","1,849","1,876","1,757","1,735","1,364","1,705"
166.,ACQUA MINERALE SAN BENEDETTO S.P.A.,VLE KENNEDY 65,SCORZE,Italy,1107,n.a.,704,733,682,696,746,732,678,673,676,n.a.,"1,071","1,060","1,082","1,083","1,079","1,103","1,099","1,142","1,233"
515.,ACQUI ENERGIA S.P.A.,VIA VIVARO 2,ALBA,Italy,3530,n.a.,4,4,4,5,4,3,2,0,n.a.,n.a.,2,2,2,1,1,n.a.,n.a.,n.a.,n.a.
747.,ACSM-AGAM S.P.A.,VIA CANOVA 3,MONZA,Italy,3522,n.a.,205,221,215,261,262,218,214,214,155,n.a.,413,433,462,463,446,469,424,426,287
603.,ADDA ONDULATI SOCIETA' PER AZIONI,VIA DELLA REPUBBLICA 6,ANNONE DI BRIANZA,Italy,1721,n.a.,46,46,44,42,46,53,45,33,43,n.a.,180,175,177,182,180,179,178,174,175
440.,ADRIA POWER S.R.L.,VIA GRANAROLO 175/3,FAENZA,Italy,3511,n.a.,n.a.,0,0,0,0,0,0,0,3,n.a.,n.a.,n.a.,n.a.,n.a.,n.a.,n.a.,n.a.,n.a.,n.a.
718.,AEM GESTIONI SRL,,,Italy,,n.a.,n.a.,n.a.,n.a.,n.a.,n.a.,n.a.,n.a.,n.a.,n.a.,n.a.,n.a.,n.a.,n.a.,n.a.,n.a.,n.a.,n.a.,n.a.,n.a.
545.,AEROPORTI DI ROMA S.P.A IN FORMA ABBREVIATA ADR S.P.A,VIA DELL'AEROPORTO DI FIUMICINO 32,FIUMICINO,Italy,5223,n.a.,"1,237","1,024",816,703,625,641,615,578,585,n.a.,"3,039","2,808","2,365","2,152","2,318","2,399","2,356","2,352","2,327"
383.,AFL S.P.A.,VIA RUBINI 44,DONGO,Italy,2451,n.a.,n.a.,n.a.,n.a.,n.a.,n.a.,n.a.,n.a.,n.a.,n.a.,n.a.,n.a.,n.a.,n.a.,n.a.,n.a.,n.a.,n.a.,n.a.,n.a.
299.,AFV ACCIAIERIE BELTRAME S.P.A.,VLE DELLA SCIENZA 81,VICENZA,Italy,2410,n.a.,923,"1,043","1,085","1,045","1,342","1,586","1,136",876,"2,039",n.a.,"1,983","1,998","2,168","2,356","2,518","2,613","2,605","2,725","2,706"
540.,AGC FLAT GLASS ITALIA S.R.L.,VIA GENOVA 31,CUNEO,Italy,2311,n.a.,324,279,254,271,209,224,201,189,240,n.a.,597,561,285,675,680,675,689,758,775
789.,AGRICOLA INDUSTRIALE DELLA FAELLA S.P.A.,LOC PRATIGLIOLMI 12,CASTELFRANCO PIANDISCO,Italy,2332,n.a.,6,5,8,7,6,10,10,10,12,n.a.,79,81,84,85,84,86,88,91,91
644.,AGRICOLA TRE VALLI - SOCIETA' COOPERATIVA,VIA VALPANTENA 18/G,VERONA,Italy,1012,n.a.,"2,107","3,105","3,135","3,251","3,136","2,940","2,510","2,290","2,386",n.a.,"6,812","6,760","6,613","6,284","6,161","6,067","5,977","5,163","5,699"
353.,AGRICONSERVE REGA SOCIETA' COOPERATIVA AGRICOLA,VIA VECCHIA STRIANO 3,SARNO,Italy,1030,n.a.,19,21,20,17,14,15,9,0,n.a.,n.a.,47,46,54,47,70,26,n.a.,n.a.,n.a.
1.,AGUSTAWESTLAND S.P.A.,PZA MONTE GRAPPA 4,ROMA,Italy,3030,n.a.,16,"2,832","2,858","2,859","2,877","2,486","2,401","2,460","2,279",n.a.,n.a.,"5,685","5,918","5,947","5,822","5,739","5,730","5,742","5,554"
583.,AHLSTROM ITALY S.P.A.,VIA STURA 98,MATHI,Italy,1712,n.a.,127,124,121,71,n.a.,n.a.,n.a.,n.a.,n.a.,n.a.,307,301,332,298,n.a.,n.a.,n.a.,n.a.,n.a.
650.,AHLSTROM TURIN SPA,,,Italy,,n.a.,n.a.,n.a.,n.a.,n.a.,n.a.,n.a.,n.a.,n.a.,n.a.,n.a.,n.a.,n.a.,n.a.,n.a.,n.a.,n.a.,n.a.,n.a.,n.a.
639.,AIC GLOBAL HOLDINGS INC,1375 KERNS RD,BURLINGTON,Canada,6420,n.a.,n.a.,n.a.,n.a.,n.a.,n.a.,n.a.,n.a.,n.a.,n.a.,n.a.,n.a.,n.a.,n.a.,n.a.,n.a.,n.a.,n.a.,n.a.,n.a.
188.,AIR ITALY S.P.A.,VIA GUSTAVO MORENO,SOMMA LOMBARDO,Italy,5110,n.a.,105,13,111,127,222,213,n.a.,181,169,n.a.,444,429,397,409,450,467,n.a.,515,331
439.,AIR LIQUIDE ITALIA PRODUZIONE SRL,VIA CALABRIA 31,MILANO,Italy,2011,n.a.,301,312,339,373,397,378,189,156,195,n.a.,221,212,206,202,204,200,135,139,139
473.,ALBANIAN AIRLINES,"SHESHI AVNI RUSTEMI, PALLATI TEUTA CONSTRUCTION, KATI 1",TIRANA,Albania,4690,n.a.,n.a.,n.a.,n.a.,n.a.,n.a.,n.a.,n.a.,n.a.,n.a.,n.a.,n.a.,n.a.,n.a.,n.a.,130,n.a.,n.a.,n.a.,n.a.
39.,ALBERIO S.P.A.,STR DI MEZZO 69,CIRIMIDO,Italy,1041,n.a.,46,41,44,39,47,42,38,28,31,n.a.,51,47,48,48,46,45,44,42,41
25.,ALCANTARA S.P.A.,VIA MECENATE 86,MILANO,Italy,1395,n.a.,192,169,36,111,108,98,80,66,85,n.a.,569,517,493,422,391,371,352,354,367
539.,ALCE S.P.A.,VIA TORRE 7,SAN MICHELE MONDOVI,Italy,1712,n.a.,1,1,1,1,6,7,6,15,38,n.a.,1,33,62,71,76,81,91,102,107
542.,ALCOA TRASFORMAZIONI S.R.L. CON UNICO SOCIO,PZA GIUSEPPE MISSORI 2,MILANO,Italy,2442,n.a.,72,183,157,161,328,431,360,319,502,n.a.,153,301,703,793,806,843,934,"1,094","1,174"
677.,ALCOPLUS SPA,VIA CONVERTITE 8,FAENZA,Italy,4638,n.a.,n.a.,n.a.,n.a.,n.a.,n.a.,38,30,32,38,n.a.,n.a.,n.a.,n.a.,n.a.,n.a.,2,3,10,27
139.,ALENIA AERMACCHI S.P.A.,PZA MONTE GRAPPA 4,ROMA,Italy,3030,n.a.,10,"3,509","3,531","3,228","2,779","2,192","2,505","2,480","2,494",n.a.,n.a.,"10,409","10,602","10,382","10,758","9,484",n.a.,n.a.,n.a.
209.,ALESSANDRIA CALORE S.R.L.,CSO NINO BIXIO 8,ALBA,Italy,3530,n.a.,2,1,0,0,n.a.,n.a.,n.a.,n.a.,n.a.,n.a.,n.a.,n.a.,n.a.,n.a.,n.a.,n.a.,n.a.,n.a.,n.a.
144.,ALFA ACCIAI S.P.A.,VIA SAN POLO 152,BRESCIA,Italy,2410,n.a.,461,462,504,561,642,620,512,380,915,n.a.,679,675,654,683,746,760,767,827,815
783.,ALITALIA - SOCIETA' AEREA ITALIANA S.P.A.,VIA ALBERTO NASSETTI PAL.ALFA S.N.,FIUMICINO,Italy,5110,n.a.,n.a.,"3,145",n.a.,n.a.,n.a.,n.a.,n.a.,n.a.,n.a.,n.a.,n.a.,"10,134",n.a.,n.a.,n.a.,n.a.,n.a.,n.a.,n.a.
825.,ALMA PETROLI - S.P.A.,VIA DI ROMA 67,RAVENNA,Italy,1920,n.a.,58,42,87,100,131,103,110,87,125,n.a.,80,79,79,81,82,82,81,82,76
118.,ALPERIA ECOPLUS SRL,VIA DODICIVILLE 8,BOLZANO,Italy,3530,n.a.,19,5,6,6,6,6,0,0,0,n.a.,26,n.a.,n.a.,n.a.,n.a.,n.a.,n.a.,n.a.,n.a.
330.,ALPIQ VERCELLI S.R.L.,VIA GIORGIO STEPHENSON 73,MILANO,Italy,3510,n.a.,0,0,0,5,8,5,2,9,9,n.a.,n.a.,n.a.,n.a.,n.a.,n.a.,n.a.,n.a.,n.a.,n.a.
641.,ALSTOM FERROVIARIA S.P.A.,VIA OTTAVIO MORENO 23,SAVIGLIANO,Italy,3020,n.a.,921,870,"1,038",926,827,"1,147","1,128",954,903,n.a.,"2,118","2,053","2,080","2,247","2,337","2,511","2,631","2,739","2,767"
527.,ALTAECO SPA,VIA GIOVANNI PASCOLI 4,VITTUONE,Italy,2331,n.a.,28,30,30,34,37,42,41,38,50,n.a.,332,365,353,357,362,368,374,387,429
437.,AMBIENTE S.P.A.,VIA DAVIDE BERTOLOTTI 7,TORINO,Italy,3810,n.a.,15,15,11,9,8,9,10,11,8,n.a.,23,30,29,29,31,29,39,38,39
647.,AMGA SERVICE S.R.L.,VIA PER BUSTO ARSIZIO 53,LEGNANO,Italy,6832,n.a.,n.a.,n.a.,n.a.,5,5,5,4,5,5,n.a.,n.a.,n.a.,n.a.,12,13,14,18,19,19
479.,AMRASH PTY. LTD.,"SE 1 L 21, 307 QUEEN ST",BRISBANE CITY,Australia,,n.a.,n.a.,n.a.,n.a.,n.a.,n.a.,n.a.,n.a.,n.a.,n.a.,n.a.,n.a.,3,3,3,n.a.,n.a.,n.a.,n.a.,n.a.
585.,ANIELLO LONGOBARDI S.R.L,VIA ACHILLE GRANDI,SCAFATI,Italy,1039,n.a.,16,21,19,18,13,18,16,17,19,n.a.,46,57,62,61,43,51,40,63,161
419.,ANSALDO ENERGIA S.P.A.,VIA NICOLA LORENZI 8,GENOVA,Italy,2811,n.a.,"1,375","1,063","1,272","1,253","1,346",n.a.,n.a.,n.a.,n.a.,n.a.,"4,227","3,620","3,801","3,229","3,310",n.a.,n.a.,n.a.,n.a.
295.,ANSALDOBREDA S.P.A.,VIA LOUIS BLERIOT 82,NAPOLI,Italy,3020,n.a.,47,28,684,460,488,277,622,572,665,n.a.,239,278,"2,203","2,275","2,252","2,151","2,244","2,425","2,417"
468.,ANTONIO COCCO,VIA GIOVANNI CODAGNELLO 13,PIACENZA,Italy,4511,n.a.,0,0,0,0,n.a.,n.a.,n.a.,n.a.,n.a.,n.a.,1,1,1,1,n.a.,n.a.,n.a.,n.a.,n.a.
667.,ANTONIO PETTI FU PASQUALE S.P.A.,VIA SAN CLEMENTE 16,NOCERA SUPERIORE,Italy,1039,n.a.,199,164,161,179,183,167,161,204,186,n.a.,244,237,217,250,279,263,174,172,275
529.,AOM CONSERVE ALIMENTARI SOCIETA' COOPERATIVA AGRICOLA, INDUSTRIALE SNC,TERMOLI,Italy,0120,n.a.,6,8,6,6,0,0,0,0,n.a.,n.a.,40,15,56,45,2,n.a.,n.a.,n.a.,n.a.
357.,API RAFFINERIA DI ANCONA - SOCIETA PER AZIONI,VIA FLAMINIA 685,FALCONARA MARITTIMA,Italy,1920,n.a.,179,190,151,76,133,137,141,n.a.,216,n.a.,372,378,385,389,399,414,444,n.a.,417
572.,APRICA S.P.A.,VIA ALESSANDRO LAMARMORA 230,BRESCIA,Italy,3811,n.a.,105,100,96,196,228,251,235,144,139,n.a.,727,686,621,673,713,688,691,562,558
32.,AQUAFIL S.P.A.,VIA LINFANO 9,ARCO,Italy,7490,n.a.,0,n.a.,n.a.,n.a.,n.a.,n.a.,n.a.,n.a.,n.a.,n.a.,n.a.,n.a.,n.a.,n.a.,n.a.,n.a.,n.a.,n.a.,n.a.
180.,AR INDUSTRIE ALIMENTARI S.P.A.,VIA BATTIMELLI 25,SANT'ANTONIO ABATE,Italy,1039,n.a.,2,48,51,67,90,n.a.,261,281,266,n.a.,83,164,187,253,310,n.a.,714,660,702
142.,ARCELORMITTAL PIOMBINO S.P.A.,VIA PASQUALE VILLARI 39,FIRENZE,Italy,2410,n.a.,386,378,313,293,326,347,429,386,453,n.a.,631,657,664,674,688,709,739,787,806
491.,ARCONIC INC.,"390, PARK AVENUE",NEW YORK,United States of America,2442,n.a.,"11,758","11,402","10,330","16,701","17,963","19,284","15,718","12,800","19,330",n.a.,"41,500","60,000","59,000","60,000","61,000","61,000","59,000","59,000","87,000"
594.,AREA INDUSTRIE CERAMICHE S.R.L. - IN CONCORDATO PREVENTIVO,LOC SELCIATELLA SNC,ANAGNI,Italy,2331,n.a.,1,1,0,0,4,11,11,9,n.a.,n.a.,n.a.,18,18,97,98,100,107,n.a.,n.a.
636.,ARIETE S.R.L.,VIA GINO PALUMBO 37,CAVA DE' TIRRENI,Italy,1722,n.a.,20,19,17,18,17,14,12,12,3,n.a.,23,25,24,25,27,24,27,n.a.,n.a.
377.,ARKEMA S.R.L.,VIA PREGNANA 63,RHO,Italy,2016,n.a.,351,370,383,323,259,263,263,173,474,n.a.,512,492,510,439,361,391,387,392,420
92.,ARPA INDUSTRIALE S.P.A.,VIA GIOVANNI PIUMATI 91,BRA,Italy,2221,n.a.,115,101,n.a.,80,70,77,74,61,n.a.,n.a.,402,400,n.a.,401,415,436,444,443,n.a.
500.,ARTENIUS ITALIA SPA,VIA ENRICO FERMI 46,SAN GIORGIO DI NOGARO,Italy,2016,n.a.,n.a.,n.a.,n.a.,n.a.,174,177,174,121,139,n.a.,n.a.,n.a.,n.a.,n.a.,114,117,117,119,120
79.,ASFO S.P.A.,VIA VINCENZO GIOBERTI 1,MILANO,Italy,2550,n.a.,98,129,112,108,117,112,77,65,147,n.a.,387,381,353,347,343,307,190,190,192
642.,ASO FORGE S.R.L.,VIA SERIOLA 122,OSPITALETTO,Italy,2550,n.a.,39,n.a.,n.a.,n.a.,n.a.,n.a.,n.a.,n.a.,n.a.,n.a.,61,n.a.,n.a.,n.a.,n.a.,n.a.,n.a.,n.a.,n.a.
326.,ASO SIDERURGICA SPA,VIA SERIOLA 122,OSPITALETTO,Italy,2410,n.a.,93,158,186,169,182,150,94,86,198,n.a.,164,318,301,306,202,188,163,159,158
403.,ASO SPS S.P.A.,VIA ANTONIO SALIERI 32,OPPEANO,Italy,2410,n.a.,n.a.,n.a.,n.a.,n.a.,n.a.,n.a.,n.a.,n.a.,n.a.,n.a.,n.a.,n.a.,n.a.,n.a.,n.a.,n.a.,n.a.,n.a.,n.a.
47.,ASSOCOGEN VICENZA S.R.L.,VIA ENRICO FERMI 134,VICENZA,Italy,2711,n.a.,n.a.,n.a.,n.a.,n.a.,n.a.,n.a.,n.a.,n.a.,n.a.,n.a.,n.a.,n.a.,n.a.,n.a.,n.a.,n.a.,n.a.,n.a.,n.a.
745.,ATICARTA S.R.L. A SOCIO UNICO IN LIQUIDAZIONE,VIA DI SOTTO 3/A,PESCARA,Italy,,n.a.,n.a.,n.a.,0,0,0,0,0,0,0,n.a.,n.a.,n.a.,n.a.,n.a.,n.a.,n.a.,n.a.,n.a.,n.a.
626.,ATTIANESE S.P.A.,VIA NAZIONALE SN,NOCERA SUPERIORE,Italy,1030,n.a.,83,73,56,58,56,40,38,44,6,n.a.,127,91,84,93,41,62,54,54,n.a.
689.,AVI.COOP SOCIETA' COOPERATIVA AGRICOLA IN BREVE: AVI.COOP S.C.A. OVVERO: AVI.COOP SOC. COOP. AGR.,VIA DEL RIO 336,CESENA,Italy,1012,n.a.,447,474,468,493,333,301,268,266,247,n.a.,"3,030","3,001","2,912","2,790","2,532","2,403","2,342","2,342","2,157"
171.,AVIATION CORPORATION MAYAK-AVIA LIMITED LIABILITY COMPANY,"PR-KT VERNADSKOGO D.24, OFFICE 3",MOSCOW,Russian Federation,4614,n.a.,n.a.,1,2,1,0,n.a.,n.a.,n.a.,n.a.,n.a.,n.a.,22,22,11,2,n.a.,n.a.,n.a.,n.a.
289.,AVINO E ANNUNZIATA SERVICE S.P.A. IN LIQUIDAZIONE,VIA LUIGI GUERRASIO 147,CASTEL SAN GIORGIO,Italy,1039,n.a.,n.a.,n.a.,13,n.a.,n.a.,n.a.,n.a.,n.a.,n.a.,n.a.,n.a.,n.a.,17,n.a.,n.a.,n.a.,n.a.,n.a.,n.a.
771.,"AZIENDA MULTISERVIZI IGIENE AMBIENTALE TORINO S.P.A., SIGLABILE AMIAT S.P.A.",VIA GERMAGNANO 50,TORINO,Italy,3821,n.a.,192,201,196,196,199,199,216,219,194,n.a.,"1,590","1,673","1,810","1,797","1,874","1,973","2,025","2,070","2,079"
596.,AZIENDA PUBBLISERVIZI BRUNICO, ANELLO NORD 19,BRUNICO,Italy,3511,n.a.,42,41,42,45,n.a.,n.a.,n.a.,n.a.,n.a.,n.a.,48,47,45,44,n.a.,n.a.,n.a.,n.a.,n.a.
751.,BALMORAL AIR PTY. LTD.,L 100 PACIFIC HWY 3,ST LEONARDS,Australia,5110,n.a.,n.a.,n.a.,n.a.,n.a.,n.a.,n.a.,n.a.,n.a.,n.a.,n.a.,n.a.,3,3,n.a.,n.a.,n.a.,n.a.,n.a.,n.a.
566.,BARILLA G. E R. FRATELLI - SOCIETA' PER AZIONI,VIA MANTOVA 166,PARMA,Italy,1073,n.a.,"2,510","2,504","2,481","2,461","2,443","2,393","2,322","2,370","2,464",n.a.,"4,073","3,993","4,066","4,203","4,184","4,117","4,337","4,386","4,430"
612.,BARTOLI S.P.A.,VIA VOLTERRANA 9,FIRENZE,Italy,4519,n.a.,30,20,20,14,16,21,21,14,24,n.a.,13,12,13,14,13,13,13,14,13
617.,BAS POWER S.R.L.,"VIA MAURO CODUSSI, 46",BERGAMO,Italy,3511,n.a.,n.a.,n.a.,n.a.,n.a.,n.a.,n.a.,n.a.,n.a.,17,n.a.,n.a.,n.a.,n.a.,n.a.,n.a.,n.a.,n.a.,n.a.,n.a.
177.,BASELL POLIOLEFINE ITALIA S.R.L.,VIA SOPERGA 14/A,MILANO,Italy,2016,n.a.,"1,007","1,030","1,095","1,070","1,043","1,118","1,146",780,"1,195",n.a.,"1,017","1,021","1,020","1,082","1,137","1,171","1,289","1,198","1,202"
306.,BASF ITALIA S.P.A.,VIA G.MARCONATO 8,CESANO MADERNO,Italy,4618,n.a.,"1,750","1,653",582,545,512,575,434,225,394,n.a.,"1,252","1,277","1,031","1,071","1,075","1,002",985,601,657
34.,BELAVIA-BELARUSIAN AIRLINES,DE CUSERSTRAAT 93,AMSTERDAM,Netherlands,5100,n.a.,n.a.,n.a.,n.a.,n.a.,n.a.,n.a.,n.a.,n.a.,n.a.,n.a.,n.a.,n.a.,n.a.,2,n.a.,1,n.a.,1,n.a.
275.,BELLE AIR,"SHESHI SKENDERBEJ, PALLATI I KULTURES",TIRANA,Albania,4690,n.a.,n.a.,n.a.,n.a.,n.a.,n.a.,n.a.,68,68,n.a.,n.a.,n.a.,n.a.,n.a.,n.a.,n.a.,n.a.,n.a.,n.a.,n.a.
64.,BELLE AIR EUROPE S.R.L.,PLE SANDRO SORDONI,FALCONARA MARITTIMA,Italy,5110,n.a.,n.a.,n.a.,n.a.,46,46,29,3,0,n.a.,n.a.,n.a.,n.a.,n.a.,189,95,71,35,n.a.,n.a.
634.,BENETTON GROUP S.R.L.,VIA VILLA MINELLI 1,PONZANO VENETO,Italy,4690,n.a.,"1,151","1,209","1,319","1,204","1,408","1,601","1,644","1,701","1,789",n.a.,"3,211","3,065","3,011","1,916","1,450","1,279","1,223","1,139","1,296"
46.,BERCO S.P.A.,VIA I MAGGIO 237,COPPARO,Italy,2840,n.a.,296,343,327,335,465,480,321,188,553,n.a.,"1,949","1,937","2,121","2,234","2,639","2,681","2,883","3,008","3,142"
418.,BERTOCCI MONTAGGI - SOCIETA' A RESPONSABILITA' LIMITATA,VIA OMBRONE 6,PIOMBINO,Italy,2511,n.a.,4,4,6,8,9,9,8,7,7,n.a.,40,28,27,29,30,31,n.a.,n.a.,n.a.
350.,BG ITALIA POWER S.R.L.,VIA TORTONA 25,MILANO,Italy,3511,n.a.,0,0,1,9,271,320,290,261,314,n.a.,2,1,2,3,5,7,7,8,10
174.,BIEFFE MEDITAL S.P.A.,VIA NUOVA PROVINCIALE S.N.C.,GROSOTTO,Italy,2120,n.a.,116,100,75,65,76,79,68,69,61,n.a.,523,496,392,385,390,386,405,442,467
427.,BIELLA POWER S.R.L. IN LIQUIDAZIONE,VIA MONTALBINO 3/5,MILANO,Italy,3511,n.a.,n.a.,n.a.,0,0,2,1,2,1,2,n.a.,n.a.,n.a.,n.a.,n.a.,n.a.,n.a.,n.a.,n.a.,n.a.
669.,BIO ENERGIA GUARCINO S.R.L.,VIA MADONNA DI LORETO 2,GUARCINO,Italy,3511,n.a.,n.a.,31,33,23,16,28,13,0,0,n.a.,n.a.,3,2,2,2,2,n.a.,n.a.,n.a.
809.,BIOMASSE CROTONE S.P.A.,STS 106 SNC,CROTONE,Italy,3511,n.a.,48,54,53,49,6,0,n.a.,n.a.,n.a.,n.a.,25,24,23,22,25,30,n.a.,n.a.,n.a.
931.,BIOMASSE ITALIA S.P.A.,STS 106,STRONGOLI,Italy,3511,n.a.,85,84,79,80,n.a.,82,78,95,107,n.a.,42,41,39,38,n.a.,77,88,93,93
109.,BIONDANI T.M.G. SPA,VIA BARTOLOMEO BACILIERI 6,VERONA,Italy,6810,n.a.,6,5,5,6,6,9,9,14,n.a.,n.a.,28,28,31,33,35,41,47,46,n.a.
481.,BIOPOWER SARDEGNA S.R.L.,VIA DODICIVILLE 8,BOLZANO,Italy,3511,n.a.,46,49,38,42,30,n.a.,41,28,0,n.a.,n.a.,n.a.,n.a.,n.a.,n.a.,n.a.,1,n.a.,n.a.
392.,BIPAN S.P.A.,VIA SANTA MARIA 32,BICINICCO,Italy,1621,n.a.,109,105,101,86,92,96,91,80,108,n.a.,195,197,191,187,191,196,200,201,199
744.,BIRAGHI - S.P.A.,VIA CUNEO 1,CAVALLERMAGGIORE,Italy,1051,n.a.,117,114,127,121,114,117,99,75,98,n.a.,152,145,146,138,137,139,139,133,130
370.,BIRRA FORST S.P.A.,VIA VENOSTA 8,LAGUNDO,Italy,1105,n.a.,181,162,155,140,135,132,125,122,118,n.a.,730,465,453,431,408,414,441,432,453
743.,BIRRA PERONI S.R.L.,VIA RENATO BIROLLI 8,ROMA,Italy,1105,n.a.,290,367,357,357,361,509,501,501,522,n.a.,717,710,729,750,742,739,735,n.a.,784
556.,BISAZZA S.P.A. (UNIPERSONALE),VLE MILANO 56,MONTECCHIO MAGGIORE,Italy,2319,n.a.,33,33,37,42,46,52,54,55,105,n.a.,89,94,105,119,137,171,228,263,266
100.,BLUE PANORAMA AIRLINES S.P.A.,VLE DELLE ARTI 123,FIUMICINO,Italy,5110,n.a.,44,n.a.,n.a.,n.a.,n.a.,n.a.,n.a.,n.a.,n.a.,n.a.,487,n.a.,n.a.,n.a.,n.a.,n.a.,n.a.,n.a.,n.a.
864.,BOFFALORA ENERGIA S.R.L.,VIA OSTIENSE 333,ROMA,Italy,3511,n.a.,n.a.,n.a.,n.a.,n.a.,n.a.,n.a.,58,12,n.a.,n.a.,n.a.,n.a.,n.a.,n.a.,n.a.,n.a.,n.a.,n.a.,n.a.
84.,BOLTON ALIMENTARI S.P.A.,VIA LUIGI EINAUDI 18,CERMENATE,Italy,1013,n.a.,762,724,736,729,607,577,534,536,521,n.a.,797,740,771,757,628,625,612,573,602
894.,BONAZZI ANTONIO,VIA BROLO 5,CAZZANO SANT'ANDREA,Italy,1623,n.a.,n.a.,n.a.,0,n.a.,n.a.,n.a.,n.a.,n.a.,n.a.,n.a.,n.a.,n.a.,1,1,n.a.,n.a.,n.a.,n.a.,n.a.
701.,BONOLLO ENERGIA SPA,VIA FRATTA ROTONDA VADO LARGO 10,ANAGNI,Italy,7210,n.a.,18,20,18,21,19,17,3,0,0,n.a.,2,2,2,2,2,2,2,2,n.a.
679.,BORMIO S.R.L.,VIA FIUME 40,PONTE LAMBRO,Italy,1721,n.a.,8,9,8,8,8,9,8,5,8,n.a.,23,24,23,24,26,24,26,26,24
549.,BORMIOLI LUIGI S.P.A.,VIA EUROPA 72/A,PARMA,Italy,2313,n.a.,n.a.,n.a.,230,215,211,208,192,132,193,n.a.,n.a.,n.a.,"1,076","1,080","1,082","1,067",n.a.,"1,092","1,080"
22.,BORMIOLI ROCCO S.P.A.,VLE MARTIRI DELLA LIBERTA' 1,FIDENZA,Italy,2313,n.a.,461,490,512,569,558,268,n.a.,n.a.,n.a.,n.a.,"2,027","2,156","2,271","2,653","2,583","2,590",n.a.,n.a.,n.a.
851.,BOSTON TAPES S.P.A.,STP CELLOLE PIEDIMONTE,SESSA AURUNCA,Italy,3299,n.a.,56,55,52,47,46,44,40,30,43,n.a.,118,118,118,124,124,130,107,110,111
923.,BRA ENERGIA S.P.A.,VIA GUGLIELMO MARCONI 89,BRA,Italy,3530,n.a.,2,2,1,0,0,n.a.,n.a.,n.a.,n.a.,n.a.,n.a.,n.a.,n.a.,n.a.,n.a.,n.a.,n.a.,n.a.,n.a.
676.,BRACCO IMAGING S.P.A.,VIA EGIDIO FOLLI 50,MILANO,Italy,2110,n.a.,n.a.,n.a.,903,892,900,799,781,725,652,n.a.,n.a.,n.a.,"2,505","2,513","2,513","2,335","2,012","1,915","1,924"
646.,BRANDUZZO LATERIZI S.R.L.,VIA FORNACI DI BRANDUZZO 53/C,CASTELLETTO DI BRANDUZZO,Italy,2332,n.a.,2,2,2,3,3,3,3,4,6,n.a.,26,30,31,33,34,35,39,40,39
550.,BREDINA S.R.L.,VIA GUGLIELMO MARCONI 45/47,ODOLO,Italy,2450,n.a.,1,4,16,20,25,30,28,19,42,n.a.,21,29,32,32,33,34,37,48,49
702.,BRIANZA ENERGIA AMBIENTE S.P.A. (B.E.A. S.P.A.),VIA GAETANA AGNESI 272,DESIO,Italy,3832,n.a.,8,10,19,21,20,18,16,16,15,n.a.,26,26,26,60,58,56,54,27,53
886.,BRIDGESTONE ITALIA MANUFACTURING S.P.A.,VIA DELLE MARGHERITE 40,MODUGNO,Italy,2211,n.a.,83,92,94,384,423,527,429,383,402,n.a.,582,729,802,"1,069","1,107","1,112","1,105","1,091","1,090"
843.,BUNGE ITALIA S.P.A.,VIA BAIONA 203,RAVENNA,Italy,1041,n.a.,594,n.a.,n.a.,n.a.,n.a.,n.a.,n.a.,n.a.,n.a.,n.a.,201,n.a.,n.a.,n.a.,n.a.,n.a.,n.a.,n.a.,n.a.
821.,BURGO GROUP S.P.A.,VIA PIAVE 1,ALTAVILLA VICENTINA,Italy,1712,n.a.,"1,982","2,213","2,251","2,376","2,615","2,564","2,380","2,037","2,499",n.a.,"3,684","3,679","4,124","4,495","4,612","4,767","4,808","4,984","5,299"
212.,BUZZI UNICEM S.P.A.,VIA LUIGI BUZZI 6,CASALE MONFERRATO,Italy,2351,n.a.,"2,713","2,720","2,608","2,860","2,890","2,888","2,757","2,810","3,618",n.a.,"10,114",n.a.,"9,854","10,629","10,894","11,089","11,238","11,625","11,771"
756.,C.A.S. SPA IN LIQUIDAZIONE,VIA BORGONOVO 1101,CASTAGNARO,Italy,0161,0,0,0,1,8,24,25,30,33,49,4,4,4,24,68,92,98,101,117,127
230.,C.O.I.M. S.P.A. - CHIMICA ORGANICA INDUSTRIALE MILANESE,VIA ALESSANDRO MANZONI 28,SETTIMO MILANESE,Italy,2220,n.a.,730,762,744,393,704,659,575,401,445,n.a.,931,902,870,438,825,786,755,739,695
59.,CABLEAIR INC,1749 W 16TH ST,UPLAND,United States of America,,n.a.,n.a.,n.a.,n.a.,n.a.,n.a.,n.a.,n.a.,n.a.,n.a.,n.a.,n.a.,n.a.,n.a.,n.a.,n.a.,n.a.,n.a.,n.a.,n.a.
890.,CABOT ITALIANA S.P.A.,VIA BAIONA 190,RAVENNA,Italy,2059,n.a.,25,29,29,27,35,136,121,80,117,n.a.,76,74,74,73,72,95,114,115,119
892.,CAFFARO BRESCIA S.R.L.,VIA DEL BRENNERO 48,PISA,Italy,2010,n.a.,17,17,15,18,19,15,n.a.,n.a.,n.a.,n.a.,56,51,56,59,59,59,n.a.,n.a.,n.a.
625.,CAL.ME.- CALCE MERIDIONALE S.P.A.- IN SIGLA CAL.ME. S.P.A.,VIA CADUTI SUL LAVORO 9,CATANZARO,Italy,2352,n.a.,n.a.,n.a.,41,52,74,97,89,92,n.a.,n.a.,n.a.,n.a.,75,74,89,76,106,n.a.,n.a.
354.,CALCARTA SOCIETA' A RESPONSABILITA' LIMITATA,VIA DI PIZZORNA 551,BORGO A MOZZANO,Italy,1722,n.a.,10,10,10,10,10,10,9,7,8,n.a.,20,17,18,17,17,16,15,16,14
628.,CALCE BARATTONI S.P.A.,VIA LAGO DI ALLEGHE 45,SCHIO,Italy,2352,n.a.,10,9,9,5,4,5,5,4,4,n.a.,15,16,13,12,11,8,9,n.a.,8
766.,CALCE PIASCO S.R.L.,VIA VENASCA 38,PIASCO,Italy,2352,n.a.,2,2,2,2,3,2,2,2,3,n.a.,15,15,13,16,18,18,n.a.,n.a.,n.a.
816.,CALCEMENTI JONICI S.R.L.,CNT LIMARRI,SIDERNO,Italy,2332,n.a.,6,5,6,5,9,9,9,11,16,n.a.,42,49,59,58,58,66,71,74,93
302.,CALCIDRATA SPA,VIA VALSUGANA 6,CAGLIARI,Italy,2352,n.a.,9,9,8,10,10,11,14,18,21,n.a.,24,24,25,25,25,24,24,30,36
782.,CALCISERNIA S.P.A.,VIA GIOVANNI BERTA 199,ISERNIA,Italy,2352,n.a.,6,5,5,5,5,6,7,9,9,n.a.,17,18,19,19,19,21,21,21,22
934.,CALENIA ENERGIA - SOCIETA' PER AZIONI,VIA ENRICO ALBARETO 21 - NERO,GENOVA,Italy,3511,n.a.,75,82,84,79,93,89,96,107,82,n.a.,33,33,33,34,34,34,35,n.a.,35
281.,CALISPA SOCIETA' PER AZIONI,VIA RICCARDO CIANCIO 12,CASTEL SAN GIORGIO,Italy,1039,n.a.,25,21,22,11,11,n.a.,21,27,26,n.a.,30,97,125,37,50,n.a.,16,16,16
336.,CAMBI LUIGI & C. S.R.L.,VIA ADRIANO ZARINI 229,PRATO,Italy,1330,n.a.,12,6,n.a.,n.a.,n.a.,n.a.,n.a.,n.a.,n.a.,n.a.,96,87,n.a.,n.a.,n.a.,n.a.,n.a.,n.a.,n.a.
61.,CANDEGGIO FRATELLI ZACCARIA S.P.A.,VIA DEL GHEZZO 18,TREZZO SULL'ADDA,Italy,1330,n.a.,4,3,4,4,3,4,4,4,5,n.a.,35,35,34,34,34,35,n.a.,45,51
526.,CANDIANI S.P.A.,VIA ARESE 85,ROBECCHETTO CON INDUNO,Italy,1310,n.a.,88,97,109,97,106,115,119,106,161,n.a.,622,648,642,623,628,644,661,667,665
409.,CANDY HOOVER GROUP S.R.L.,VIA COMOLLI 16,BRUGHERIO,Italy,2751,n.a.,477,438,361,332,299,350,n.a.,n.a.,507,n.a.,n.a.,n.a.,n.a.,n.a.,n.a.,860,n.a.,n.a.,917
597.,CARBOTERMO S.P.A.,VIA GALLARATE 126,MILANO,Italy,7490,n.a.,69,76,78,84,87,78,73,66,66,n.a.,172,180,154,148,143,139,120,106,101
430.,CARGILL S.R.L.,VIA GIUSEPPE RIPAMONTI 89,MILANO,Italy,1062,n.a.,644,680,700,715,719,662,554,568,517,n.a.,679,713,714,742,805,713,730,730,660
640.,CARGOITALIA S.R.L. IN LIQUIDAZIONE,VLE ANGELO FILIPPETTI 26,MILANO,Italy,7735,n.a.,0,n.a.,1,0,1,73,73,9,0,n.a.,n.a.,n.a.,n.a.,39,54,47,98,68,10
257.,CARGOLUX ITALIA S.P.A.,VIA FRATELLI CAIROLI 2,BRESCIA,Italy,5121,n.a.,152,139,133,111,98,86,79,27,0,n.a.,111,99,66,39,11,39,12,9,n.a.
261.,CARLSBERG ITALIA S.P.A.,VIA RAMAZZOTTI 12,LAINATE,Italy,1105,n.a.,154,150,142,158,159,149,162,n.a.,148,n.a.,155,147,150,147,154,162,219,n.a.,304
916.,CARMAGNOLA ENERGIA S.R.L,VIA VIVARO 2,ALBA,Italy,3530,n.a.,3,2,2,2,1,0,n.a.,n.a.,n.a.,n.a.,n.a.,n.a.,n.a.,n.a.,n.a.,n.a.,n.a.,n.a.,n.a.
713.,CARMINE TAGLIAMONTE & C. - S.R.L. - IN LIQUIDAZIONE,VIA FEUDO 2,SANT'EGIDIO DEL MONTE ALBINO,Italy,1039,n.a.,n.a.,n.a.,n.a.,n.a.,0,11,8,10,9,n.a.,n.a.,n.a.,n.a.,n.a.,11,14,n.a.,n.a.,n.a.
244.,CARNIVAL CORPORATION,,,Panama,5010,n.a.,"15,410","14,854","12,724","11,368","11,845","11,770","11,132","8,770","11,529",n.a.,"12,600","12,400","10,100","9,700","13,700","14,300","14,200",n.a.,n.a.
918.,CARROZZERIA BERTONE S.P.A.,VIA NUCCIO BERTONE 2,GRUGLIASCO,Italy,2910,n.a.,n.a.,n.a.,n.a.,n.a.,n.a.,n.a.,n.a.,n.a.,n.a.,n.a.,n.a.,n.a.,n.a.,n.a.,n.a.,n.a.,n.a.,n.a.,n.a.
662.,"CARTERA DE INVERSIONES , VENEZOLANAS C.A.",,,Venezuela,,n.a.,n.a.,n.a.,n.a.,n.a.,n.a.,n.a.,n.a.,n.a.,n.a.,n.a.,n.a.,n.a.,n.a.,n.a.,n.a.,n.a.,n.a.,n.a.,n.a.
345.,CARTESAR - S.P.A.,VIA FRATTE 3,PELLEZZANO,Italy,1712,n.a.,32,37,33,30,30,29,25,19,20,n.a.,45,47,44,43,43,43,42,42,42
569.,CARTIERA BONATI E C.,STR ARGINI PARMA 40/A,PARMA,Italy,1721,n.a.,0,0,0,0,0,0,0,0,2,n.a.,n.a.,n.a.,n.a.,n.a.,n.a.,n.a.,n.a.,n.a.,23
912.,CARTIERA BORMIDA S.P.A. - IN LIQUIDAZIONE,BGA VALLE,MURIALDO,Italy,1712,n.a.,n.a.,n.a.,n.a.,n.a.,n.a.,8,13,8,13,n.a.,n.a.,n.a.,n.a.,n.a.,n.a.,41,40,42,46
850.,CARTIERA CA-MA - S.R.L.,VIA MATTEO GIANOLIO 31,VIGEVANO,Italy,1712,n.a.,16,16,15,14,12,17,14,12,15,n.a.,60,61,61,61,64,55,64,63,54
678.,CARTIERA CAPOSTRADA S.P.A.,VIA DEI BARBI 32,PISTOIA,Italy,1712,n.a.,11,10,9,8,7,8,8,6,7,n.a.,22,21,20,22,21,21,20,20,22
574.,CARTIERA CONFALONE S.P.A.,VIA S.PIETRO 147,MAIORI,Italy,1720,n.a.,38,40,36,34,32,31,29,26,27,n.a.,80,75,75,70,68,65,53,60,56
800.,CARTIERA DEL BORGO S.R.L.,VIA GUGLIELMO MARCONI 16,BARGA,Italy,1712,n.a.,3,0,n.a.,n.a.,n.a.,n.a.,n.a.,n.a.,n.a.,n.a.,21,n.a.,n.a.,n.a.,n.a.,n.a.,n.a.,n.a.,n.a.
21.,CARTIERA DEL CHIESE S.P.A.,VIA TITO SPERI 61,MONTICHIARI,Italy,1712,n.a.,73,71,71,63,62,67,60,41,53,n.a.,142,146,139,138,131,137,129,118,118
303.,CARTIERA DEL MAGLIO S.R.L. IN LIQUIDAZIONE,VIA CARTIERA 94,SASSO MARCONI,Italy,1712,n.a.,0,0,0,0,0,0,1,0,6,n.a.,n.a.,n.a.,n.a.,n.a.,n.a.,n.a.,79,1,n.a.
33.,CARTIERA DEL VIGNALETTO S.R.L.,FRZ S.MARIA LOC.TRE PONTI,ZEVIO,Italy,1712,n.a.,72,73,n.a.,n.a.,n.a.,n.a.,n.a.,n.a.,n.a.,n.a.,174,176,n.a.,n.a.,n.a.,n.a.,n.a.,n.a.,n.a.
508.,CARTIERA DELL'ADDA SRL,GAL DEL CORSO 2,MILANO,Italy,1712,n.a.,51,4,n.a.,n.a.,n.a.,n.a.,n.a.,n.a.,n.a.,n.a.,91,83,n.a.,n.a.,n.a.,n.a.,n.a.,n.a.,n.a.
512.,CARTIERA DELLA BASILICA S.R.L.,ZIN INDUSTRIALE SC,BORGO A MOZZANO,Italy,1712,n.a.,19,17,16,14,12,12,11,11,11,n.a.,64,65,62,53,46,47,44,n.a.,44
694.,CARTIERA DELLA MADONNINA SOCIETA' A RESPONSABILITA' LIMITATA IN LIQUIDAZIONE ABBREVIABILE IN: CARTIERA DELLA MADONNINA S.R.L. IN LIQUIDAZIONE,VLE SAN CONCORDIO 738,LUCCA,Italy,1720,n.a.,n.a.,n.a.,0,0,0,0,0,9,23,n.a.,n.a.,n.a.,n.a.,n.a.,n.a.,n.a.,n.a.,n.a.,23
173.,CARTIERA DELLE ALPI S.R.L. IN LIQUIDAZIONE,VIA MONTE ROSA 21,MILANO,Italy,1712,n.a.,0,0,0,2,7,n.a.,n.a.,n.a.,n.a.,n.a.,n.a.,n.a.,6,26,21,n.a.,n.a.,n.a.,n.a.
865.,CARTIERA DI BOSCO MARENGO SOCIETA' PER AZIONI,VIA CASALCERMELLI 11,BOSCO MARENGO,Italy,1712,n.a.,35,34,31,30,28,29,25,11,22,n.a.,42,38,36,37,34,33,36,38,38
312.,CARTIERA DI CAGLIARI S.R.L.,STR SANTADI STRADARIO 06877,ASSEMINI,Italy,1711,n.a.,n.a.,n.a.,0,0,0,14,11,4,0,n.a.,n.a.,n.a.,2,2,16,17,16,16,n.a.
294.,CARTIERA DI CARBONERA S.P.A.,VIA CASTELLANA 90,ISTRANA,Italy,1712,n.a.,67,79,72,73,65,77,71,52,67,n.a.,56,56,55,54,54,52,52,54,54
739.,CARTIERA DI CONSELICE S.R.L.,VIA SELICE 289/291,CONSELICE,Italy,1712,n.a.,n.a.,n.a.,n.a.,n.a.,n.a.,0,0,0,-1,n.a.,n.a.,n.a.,n.a.,n.a.,n.a.,n.a.,n.a.,11,n.a.
459.,CARTIERA DI FERRARA SPA,"VIA MARCONI,69",FERRARA,Italy,1712,n.a.,n.a.,n.a.,n.a.,n.a.,n.a.,n.a.,n.a.,n.a.,n.a.,n.a.,n.a.,n.a.,n.a.,n.a.,n.a.,n.a.,n.a.,n.a.,n.a.
483.,CARTIERA DI MODENA S.P.A. IN LIQUIDAZIONE,VIA MARCORA GIUSEPPE 11,MILANO,Italy,1711,n.a.,n.a.,n.a.,n.a.,n.a.,n.a.,n.a.,0,0,0,n.a.,n.a.,n.a.,n.a.,n.a.,n.a.,n.a.,n.a.,n.a.,n.a.
393.,CARTIERA DI MOMO S.P.A.,VIA VALSESIA 22,MOMO,Italy,1712,n.a.,37,36,36,35,31,30,26,20,22,n.a.,86,75,75,82,81,82,90,90,94
827.,CARTIERA DI NAVE S.P.A.,VIA TRENTO 86,NAVE,Italy,1712,n.a.,9,9,9,8,9,9,9,7,8,n.a.,46,48,46,47,45,45,42,36,29
413.,CARTIERA DI PORPORANO S.R.L.,VIA MARIO PERNIS 23/A,PARMA,Italy,1712,n.a.,4,4,4,4,4,4,4,2,4,n.a.,14,11,10,14,13,15,n.a.,14,12
328.,CARTIERA DI PRATOLUNGO S.R.L.,VIA DELLE CARTIERE 198,VILLA BASILICA,Italy,1712,n.a.,18,17,16,15,5,0,0,0,0,n.a.,22,22,20,20,8,n.a.,n.a.,n.a.,n.a.
287.,CARTIERA DI RIVALTA S.R.L.,VIA DON CESARE SCALA 51,BRENTINO BELLUNO,Italy,1712,n.a.,6,n.a.,n.a.,n.a.,n.a.,n.a.,n.a.,n.a.,n.a.,n.a.,25,n.a.,n.a.,n.a.,n.a.,n.a.,n.a.,n.a.,n.a.
520.,CARTIERA DI RIVIGNANO S.P.A.,FRZ SIVIGLIANO,RIVIGNANO,Italy,1712,n.a.,n.a.,n.a.,n.a.,n.a.,n.a.,n.a.,n.a.,n.a.,17,n.a.,n.a.,n.a.,n.a.,n.a.,n.a.,n.a.,n.a.,n.a.,63
55.,CARTIERA DI SANTARCANGELO S.R.L. - IN LIQUIDAZIONE,VLE VENEZIA 201,UDINE,Italy,1700,n.a.,n.a.,n.a.,n.a.,n.a.,n.a.,n.a.,n.a.,n.a.,0,n.a.,n.a.,n.a.,n.a.,n.a.,n.a.,n.a.,n.a.,n.a.,n.a.
356.,CARTIERA DI VERONA - S.R.L.,VIA MASSIMILIANO DI PALOMBARA 14,ROMA,Italy,1721,n.a.,n.a.,26,23,7,1,0,0,0,1,n.a.,n.a.,56,57,46,46,1,n.a.,n.a.,n.a.
451.,CARTIERA DI VOGHERA S.R.L.,VIA CASTELLANA 90,ISTRANA,Italy,1712,n.a.,n.a.,n.a.,0,0,0,0,0,1,9,n.a.,n.a.,n.a.,15,15,15,n.a.,n.a.,14,32
122.,CARTIERA ETRURIA S.R.L.,VIA MOLIN NUOVO 28/30,EMPOLI,Italy,1712,n.a.,n.a.,n.a.,n.a.,0,0,0,0,0,8,n.a.,n.a.,n.a.,n.a.,n.a.,n.a.,n.a.,n.a.,n.a.,n.a.
514.,CARTIERA EUROTEC SRL,LOC LOCALITA' GNOCCONI SNC,FABBRICHE DI VERGEMOLI,Italy,1712,n.a.,n.a.,n.a.,7,0,1,0,n.a.,n.a.,n.a.,n.a.,n.a.,n.a.,23,n.a.,n.a.,n.a.,n.a.,n.a.,n.a.
584.,CARTIERA FRANCESCANTONIO CERRONE - S.P.A.,VIA DELLE ANTICHITA' 1,AQUINO,Italy,1712,n.a.,23,21,21,22,20,23,21,19,22,n.a.,43,46,27,28,28,47,43,39,42
402.,CARTIERA GALLIERA S.R.L.,VIA I MAGGIO 21,GALLIERA VENETA,Italy,1712,n.a.,n.a.,41,23,35,n.a.,n.a.,n.a.,n.a.,n.a.,n.a.,n.a.,128,51,88,n.a.,n.a.,n.a.,n.a.,n.a.
387.,CARTIERA GIACOSA - S.P.A.,VIA RIVERA 2,FRONT,Italy,1710,n.a.,42,35,35,27,25,29,34,26,39,n.a.,78,77,75,76,81,82,84,83,86
651.,CARTIERA GIORGIONE S.P.A.,BGO PADOVA 112,CASTELFRANCO VENETO,Italy,1712,n.a.,63,60,58,57,54,61,51,36,39,n.a.,61,61,59,60,60,61,61,60,58
407.,CARTIERA GIUSTA SOCIETA' A RESPONSABILITA' LIMITATA,VIA SANDRO PERTINI SNC,ALTOPASCIO,Italy,1720,n.a.,18,18,17,18,18,17,6,n.a.,n.a.,n.a.,24,24,23,23,23,23,20,n.a.,n.a.
348.,CARTIERA GRILLO SOCIETA' A RESPONSABILITA' LIMITATA,VIA ACQUASANTA 20,GENOVA,Italy,1712,n.a.,10,9,n.a.,n.a.,n.a.,n.a.,n.a.,n.a.,n.a.,n.a.,35,34,n.a.,n.a.,n.a.,n.a.,n.a.,n.a.,n.a.
807.,CARTIERA LUCCHESI LEONELLO - S.R.L. IN LIQUIDAZIONE,VIA DEL FANUCCHI 21/23,CAPANNORI,Italy,1712,n.a.,n.a.,n.a.,n.a.,n.a.,n.a.,8,10,7,7,n.a.,n.a.,n.a.,n.a.,n.a.,n.a.,23,23,20,20
767.,CARTIERA MANTOVANA S.R.L.,VIA PRINCIPE AMEDEO DI SAVOIA 17,MANTOVA,Italy,1712,n.a.,9,7,7,6,6,6,5,5,5,n.a.,41,40,30,30,30,29,32,33,28
376.,CARTIERA MARCHIGIANA S.R.L.,VIA ENRICO FERMI,MONTELUPONE,Italy,1712,n.a.,11,10,10,9,13,12,9,7,8,n.a.,48,48,49,49,53,52,50,44,47
760.,CARTIERA OLONA S.R.L.,"VIA G.GALILEI, 6/8",GORLA MINORE,Italy,,n.a.,n.a.,n.a.,n.a.,n.a.,n.a.,n.a.,n.a.,n.a.,n.a.,n.a.,n.a.,n.a.,n.a.,n.a.,n.a.,n.a.,n.a.,n.a.,n.a.
225.,CARTIERA PARTENOPE S.P.A.,CSO SALVATORE D'AMATO 3,ARZANO,Italy,1712,n.a.,23,50,50,38,35,35,34,30,35,n.a.,48,56,52,50,46,50,55,51,59
119.,CARTIERA PIERETTI S.R.L.,VIA DEI MASINI 95/97,CAPANNORI,Italy,1712,n.a.,14,14,14,14,14,16,13,11,12,n.a.,36,34,34,33,33,33,33,33,29
362.,CARTIERA PIRINOLI - SOCIETA' COOPERATIVA SIGLABILE CARTIERA PIRINOLI S.C.,VIA ROMA 64,CUNEO,Italy,1712,n.a.,29,8,0,n.a.,n.a.,n.a.,n.a.,n.a.,n.a.,n.a.,84,78,n.a.,n.a.,n.a.,n.a.,n.a.,n.a.,n.a.
922.,CARTIERA PONTE D'ORO ANSALCARTA S.R.L.,VIA DELLE CARTIERE 271,VILLA BASILICA,Italy,1712,n.a.,16,15,16,14,15,13,12,11,12,n.a.,29,29,28,27,27,27,29,28,n.a.
114.,CARTIERA S.ROCCO S.P.A.,VIA DELLE CARTIERE 76,VILLA BASILICA,Italy,1712,n.a.,15,16,15,15,16,15,13,13,15,n.a.,34,31,31,30,30,30,31,30,30
367.,CARTIERA SAN GIORGIO - SOCIETA' A RESPONSABILITA' LIMITATA,VIA BRIGATA LIGURIA 3/1 A,GENOVA,Italy,1712,n.a.,22,23,22,21,19,17,18,16,16,n.a.,24,25,26,26,26,25,26,25,29
447.,CARTIERA SAN LORENZO S.R.L.,CSO SILVANO FEDI 24,PISTOIA,Italy,1721,n.a.,26,27,25,26,22,23,21,16,18,n.a.,26,26,26,26,25,24,24,23,23
203.,CARTIERA SAN MARTINO S.P.A.,VIA FERRAZZE 15/A,BROCCOSTELLA,Italy,1720,n.a.,12,11,12,11,12,14,13,11,14,n.a.,53,54,55,55,55,55,56,61,61
484.,CARTIERA SANTA LIDA S.P.A. IN LIQUIDAZIONE,PZA FONTANA 1,MILANO,Italy,1712,n.a.,n.a.,0,0,0,0,1,2,19,40,n.a.,n.a.,3,3,3,3,3,110,143,87
929.,CARTIERA TORRE MONDOVI' SOCIETA' PER AZIONI,VIA GIACOMO BOSSO 3,TORRE MONDOVI,Italy,1712,n.a.,12,11,11,10,9,10,8,7,8,n.a.,22,22,21,18,18,18,n.a.,n.a.,21
548.,CARTIERA VAL POSINA S.R.L.,VIA FRATTA 2/B,LEGNAGO,Italy,1712,n.a.,n.a.,n.a.,n.a.,n.a.,n.a.,n.a.,n.a.,n.a.,25,n.a.,n.a.,n.a.,n.a.,n.a.,n.a.,n.a.,n.a.,n.a.,n.a.
264.,CARTIERA VERDE ROMANELLO S.R.L. IN LIQUIDAZIONE,PZA CONTE CAMILLO BENSO DI CAVOUR,MILANO,Italy,1720,n.a.,n.a.,n.a.,n.a.,0,4,59,58,70,81,n.a.,n.a.,n.a.,n.a.,129,144,150,206,217,215
878.,CARTIERE CARIOLARO SRL IN LIQUIDAZIONE,VIA PROVINCIALE 45,CARMIGNANO DI BRENTA,Italy,1712,n.a.,1,-4,0,1,10,27,27,37,44,n.a.,n.a.,n.a.,60,69,86,104,126,101,146
218.,CARTIERE CARRARA S.P.A.,VLE SPARTACO LAVAGNINI 41,FIRENZE,Italy,1712,n.a.,240,178,166,128,99,95,89,63,58,n.a.,449,325,259,225,230,196,161,101,89
270.,CARTIERE DEL GARDA S.P.A.,VLE ROVERETO 15,RIVA DEL GARDA,Italy,1700,n.a.,270,284,283,261,281,279,271,224,257,n.a.,481,487,495,500,510,501,506,506,539
245.,CARTIERE DEL MEDITERRANEO S.R.L. IN LIQUIDAZIONE,VIA DEI CARRARI 24,SALERNO,Italy,1712,n.a.,n.a.,18,2,n.a.,n.a.,n.a.,n.a.,n.a.,n.a.,n.a.,n.a.,42,34,n.a.,n.a.,n.a.,n.a.,n.a.,n.a.
888.,CARTIERE DEL POLESINE S.P.A.,VLE STAZIONE 1,LOREO,Italy,1712,n.a.,94,95,89,88,79,86,80,52,70,n.a.,160,2,151,150,150,150,149,152,150
462.,CARTIERE DELLA VALTELLINA S.R.L. IN LIQUIDAZIONE,VIA CAPPUCCINI 4,MILANO,Italy,1720,n.a.,n.a.,n.a.,n.a.,0,n.a.,0,0,0,11,n.a.,n.a.,n.a.,n.a.,n.a.,n.a.,1,1,65,83
123.,CARTIERE DI GUARCINO S.P.A.,VIA MADONNA DI LORETO 2,GUARCINO,Italy,1712,n.a.,66,66,61,56,61,51,39,28,29,n.a.,173,172,171,168,163,144,125,121,120
334.,CARTIERE DI TREVI S.P.A.,VIA CLITUNNO 4,TREVI,Italy,1712,n.a.,22,22,21,21,21,21,19,11,17,n.a.,47,49,48,48,53,56,56,52,50
614.,CARTIERE ERMOLLI S.P.A.,VIA GIORGIO ERMOLLI 62,MOGGIO UDINESE,Italy,1710,n.a.,64,64,62,62,59,58,51,37,48,n.a.,190,190,186,186,180,178,242,269,293
874.,CARTIERE MODESTO CARDELLA SPA,TRA II DI VIA DELL'ACQUACALDA 20,LUCCA,Italy,1712,n.a.,52,60,51,58,46,51,48,30,40,n.a.,91,92,92,91,93,94,92,92,90
735.,CARTIERE PAOLO PIGNA - SOCIETA' PER AZIONI,VIA DANIELE PESENTI 1,ALZANO LOMBARDO,Italy,1712,n.a.,32,44,58,47,66,75,81,77,109,n.a.,161,325,376,187,422,443,n.a.,n.a.,n.a.
136.,CARTIERE RODOLFO REGUZZONI - S.R.L.,VIA VALEGGIO 41,TORINO,Italy,1710,n.a.,0,0,0,1,2,2,2,2,2,n.a.,n.a.,3,5,9,10,11,n.a.,10,11
154.,CARTIERE SACI S.P.A.,STR DELLA FERRIERA 17,VERONA,Italy,1712,n.a.,63,n.a.,n.a.,n.a.,n.a.,n.a.,n.a.,n.a.,n.a.,n.a.,136,n.a.,n.a.,n.a.,n.a.,n.a.,n.a.,n.a.,n.a.
158.,CARTIERE VILLA LAGARINA SPA,VIA ANTONIO PESENTI 1,VILLA LAGARINA,Italy,1711,n.a.,130,130,124,106,100,100,93,67,69,n.a.,88,73,74,75,77,83,86,84,84
251.,CARTITALIA S.R.L.,VIA CASTELLANA 90,ISTRANA,Italy,1712,n.a.,41,45,39,37,35,38,36,24,31,n.a.,30,29,29,29,29,30,30,29,29
322.,CARTONIFICIO DI ISOVERDE SOCIETA' A RESPONSABILITA' LIMITATA,VIA FIESCHI 1/20,GENOVA,Italy,1712,n.a.,0,0,0,0,0,0,0,0,3,n.a.,n.a.,n.a.,1,1,1,1,3,5,12
69.,CARTONIFICIO SANDRESCHI S.R.L.,VIA DELLE CARTIERE 1,VILLA BASILICA,Italy,1721,n.a.,12,12,12,12,11,12,11,8,10,n.a.,26,26,26,22,23,25,25,24,24
332.,CARTONSTRONG ITALIA S.R.L.,VIA BARADELLO 15,MONZA,Italy,1729,n.a.,85,91,89,81,76,93,22,n.a.,n.a.,n.a.,123,124,124,131,147,166,143,n.a.,n.a.
86.,CARVAL CARTIERA DI VALLETROMPIA S.R.L.,VIA GEROLAMO SANGERVASIO 28,CONCESIO,Italy,1712,n.a.,8,8,7,7,7,7,7,7,7,n.a.,32,33,32,32,32,32,n.a.,n.a.,n.a.
551.,CARVICO - S.P.A.,VIA DON ANGELO PEDRINELLI 96,CARVICO,Italy,1320,n.a.,105,101,99,100,98,93,105,82,179,n.a.,318,316,313,310,308,302,299,336,643
127.,CASA OLEARIA ITALIANA SOCIETA' PER AZIONI IN SIGLA CASA OLEARIA ITALIANA S.P.A.,VIA ORTI 1/A,SAN PIETRO DI MORUBIO,Italy,1041,n.a.,363,347,346,377,370,280,175,121,124,n.a.,30,30,30,31,32,30,29,30,31
6.,CASALGRANDE PADANA S.P.A.,STS 467 73,CASALGRANDE,Italy,2331,n.a.,206,188,184,185,191,196,190,193,215,n.a.,650,605,606,595,598,601,601,595,595
423.,CASALINO CARTA S.R.L.,AAA NUOVA ZONA INDUSTRIALE SNC,ROCCA GRIMALDA,Italy,1720,n.a.,10,9,8,8,5,6,5,5,5,n.a.,14,14,14,15,13,18,19,17,n.a.
305.,CASAR S.R.L., S.S. N. 196/D KM 7 155,SERRAMANNA,Italy,0120,n.a.,20,19,21,18,15,18,18,19,20,n.a.,71,56,61,65,60,71,72,71,103
232.,CASTAGNA S.R.L.,VIA KURZE WAND 9,DOBBIACO,Italy,2363,n.a.,1,1,1,1,2,2,1,2,2,n.a.,5,5,5,5,6,6,7,8,7
189.,CAV. UFF. PIETRO GRIMALDI - S.R.L.,VIA GIUSEPPE MAZZINI 288,SANT'EGIDIO DEL MONTE ALBINO,Italy,1030,n.a.,5,6,5,5,3,2,3,3,3,n.a.,16,24,26,24,20,20,21,30,28
857.,CAVIRO DISTILLERIE S.R.L.,VIA CONVERTITE 8,FAENZA,Italy,0121,n.a.,81,76,86,106,97,55,56,50,66,n.a.,171,172,169,135,156,152,148,143,137
616.,CBCOTTI - S.R.L.,VIA FRATELLI BUSCETTO 36,NOCERA INFERIORE,Italy,1039,n.a.,9,12,12,13,11,13,10,10,13,n.a.,51,62,50,50,60,61,62,66,69
60.,CDM PAPER GROUP SOCIETA' PER AZIONI,LOC SALANETTI 1,CAPANNORI,Italy,1722,n.a.,n.a.,n.a.,n.a.,n.a.,n.a.,n.a.,n.a.,n.a.,84,n.a.,n.a.,n.a.,n.a.,n.a.,n.a.,n.a.,n.a.,n.a.,148
917.,CE.LA.M. (CERAMICHE LATERIZI MERIDIONALI) S.R.L. IN LIQUIDAZIONE,VIA SAN ROCCO 45,LUCERA,Italy,2332,n.a.,0,0,0,0,0,6,5,6,10,n.a.,n.a.,n.a.,4,4,45,48,42,41,40
581.,CEB S.P.A.,VIA FRACANZANA 9/S.S.11,MONTEBELLO VICENTINO,Italy,2511,n.a.,11,11,9,9,9,8,7,5,8,n.a.,50,49,49,4,43,43,n.a.,n.a.,n.a.
421.,CELLULOSA 2000 - S.P.A.,STS 106 ZONA INDUSTRIAL,CROTONE,Italy,1711,n.a.,n.a.,n.a.,n.a.,n.a.,n.a.,n.a.,n.a.,n.a.,n.a.,n.a.,n.a.,n.a.,n.a.,n.a.,n.a.,n.a.,n.a.,n.a.,n.a.
85.,CEMENTERIA COSTANTINOPOLI S.R.L.,VIA S.S.93 KM 74.,BARILE,Italy,2351,n.a.,41,40,38,37,36,39,35,42,32,n.a.,106,102,105,104,108,111,110,107,107
852.,CEMENTERIA DI MONSELICE SPA,RIV ALBERTINO MUSSATO 97,PADOVA,Italy,2351,n.a.,33,35,35,38,34,38,34,45,51,n.a.,92,92,94,109,143,164,180,190,198
729.,CEMENTERIE ALDO BARBETTI - SOCIETA' PER AZIONI,CSO GIUSEPPE GARIBALDI 81,GUBBIO,Italy,2351,n.a.,87,88,87,63,189,152,200,204,210,n.a.,349,354,372,200,"1,362","1,438","1,386","1,285","1,218"
48.,CEMENTI MOCCIA S.P.A.,VIA GALILEO FERRARIS 101,NAPOLI,Italy,2351,n.a.,15,15,21,15,22,19,16,29,38,n.a.,24,23,24,72,100,104,106,108,114
478.,CEMENTIR ITALIA S.P.A.,CSO DI FRANCIA 200,ROMA,Italy,2351,n.a.,81,94,84,112,133,136,134,169,225,n.a.,368,377,402,472,520,516,517,526,554
44.,CEMENTIR SACCI S.P.A.,CSO DI FRANCIA 200,ROMA,Italy,2351,n.a.,25,n.a.,n.a.,n.a.,n.a.,n.a.,n.a.,n.a.,n.a.,n.a.,360,n.a.,n.a.,n.a.,n.a.,n.a.,n.a.,n.a.,n.a.
414.,CEMENTIZILLO S.P.A.,RIV ALBERTINO MUSSATO 97,PADOVA,Italy,2351,n.a.,90,96,104,105,131,135,111,122,145,n.a.,307,358,397,412,447,484,372,406,n.a.
860.,CEMIN S.R.L.,VIA UGO FOSCOLO 23,DOMUSNOVAS,Italy,4221,n.a.,2,3,3,4,4,4,3,1,2,n.a.,11,12,13,12,18,18,28,n.a.,5
906.,CENTRALE DEL LATTE DI ROMA S.P.A.,VIA FONDI DI MONASTERO 262,ROMA,Italy,1051,n.a.,117,119,126,130,131,137,163,143,152,n.a.,169,171,175,179,179,180,179,184,n.a.
146.,CENTRO ENERGIA FERRARA S.R.L.,VIA ANDREA DORIA 41/G,ROMA,Italy,3511,n.a.,3,10,28,37,50,21,102,97,117,n.a.,2,13,23,23,23,22,23,23,23
661.,CENTRO ENERGIA TEVEROLA S.R.L.,VIA ANDREA DORIA 41/G,ROMA,Italy,3511,n.a.,2,1,2,3,2,6,99,94,118,n.a.,n.a.,n.a.,n.a.,2,6,15,23,22,22
630.,CERAMICA DEL CONCA - S.P.A.,VIA CROCE 8,SAN CLEMENTE,Italy,2331,n.a.,171,129,117,103,n.a.,n.a.,n.a.,n.a.,n.a.,n.a.,379,274,280,210,n.a.,n.a.,n.a.,n.a.,n.a.
620.,CERAMICA MANDRIO CORREGGIO C.M.C. S.P.A.,VIA FARMACISTA 11,CORREGGIO,Italy,6820,n.a.,9,12,12,11,12,13,12,12,12,n.a.,38,40,40,38,41,40,40,41,41
831.,CERAMICA MEDITERRANEA S.P.A.,ZIN INDUSTRIALE S.S. 126 KM 95,GUSPINI,Italy,2331,n.a.,22,22,17,20,18,19,22,21,18,n.a.,104,96,94,91,99,103,102,101,108
351.,CERAMICA SANT'AGOSTINO - S.P.A.,VIA STATALE,TERRE DEL RENO,Italy,2331,n.a.,60,57,54,61,55,66,62,57,70,n.a.,304,299,320,327,334,336,347,364,379
90.,CERAMICA VALSECCHIA S.P.A.,VIA RADICI NORD 90/A,CASTELLARANO,Italy,2331,n.a.,24,23,21,19,9,15,16,16,19,n.a.,76,71,66,68,61,58,61,68,63
342.,CERAMICHE ATLAS CONCORDE S.P.A.,VIA DEL CANALETTO 141,FIORANO MODENESE,Italy,2331,n.a.,n.a.,293,287,258,233,213,207,184,250,n.a.,n.a.,674,653,638,612,587,581,637,632
152.,CERAMICHE CAESAR S.P.A.,VIA DEL CANALETTO 49,FIORANO MODENESE,Italy,2331,n.a.,n.a.,158,142,129,125,131,137,126,167,n.a.,n.a.,425,423,425,431,437,442,431,464
200.,CERAMICHE CCV CASTELVETRO S.P.A.,VIA STATALE 569/173,CASTELVETRO DI MODENA,Italy,2331,n.a.,59,57,51,45,43,43,45,39,50,n.a.,170,170,174,177,175,179,179,193,224
762.,CERAMICHE GARDENIA ORCHIDEA S.P.A.,VIA DEL CANALETTO 27,FIORANO MODENESE,Italy,2331,n.a.,83,50,56,47,62,73,73,71,92,n.a.,257,256,265,326,335,340,338,381,390
368.,CERAMICHE MARCA CORONA S.P.A.,VLE EMILIA ROMAGNA 7,SASSUOLO,Italy,2331,n.a.,n.a.,78,79,71,75,75,69,55,70,n.a.,n.a.,230,226,218,220,224,227,241,248
36.,CERAMICHE MOMA - S.P.A.,VIA PANARIA BASSA 17/A,FINALE EMILIA,Italy,2331,n.a.,69,60,50,44,47,47,45,41,43,n.a.,158,151,150,134,162,173,171,163,163
385.,CERAMICHE REFIN S.P.A.,VIA I MAGGIO 22,CASALGRANDE,Italy,2331,n.a.,n.a.,83,83,72,62,61,58,50,70,n.a.,n.a.,193,195,188,191,194,192,199,199
96.,CERAMICHE SERRA S.P.A.,VIA ESTENSE 10589,SERRAMAZZONI,Italy,2331,n.a.,29,27,25,24,23,22,21,21,22,n.a.,61,59,56,56,57,57,57,55,59
172.,CERAMICHE SETTECENTO VALTRESINARO S.P.A.,VIA DEL CROCIALE 21,FIORANO MODENESE,Italy,2331,n.a.,16,16,18,17,17,15,14,15,23,n.a.,105,103,104,109,109,111,119,127,130
541.,CEREAL DOCKS MARGHERA S.R.L.,BNA MOLINI 30,VENEZIA,Italy,1041,n.a.,18,7,10,12,11,6,n.a.,n.a.,n.a.,n.a.,35,35,35,34,45,35,n.a.,n.a.,n.a.
600.,CEREAL DOCKS S.P.A.,VIA CA' MARZARE 3,CAMISANO VICENTINO,Italy,1041,n.a.,618,505,551,525,544,459,343,337,366,n.a.,156,145,135,125,119,115,74,65,52
186.,CERINDUSTRIES S.P.A.,VIA EMILIA PONENTE 1000,CASTEL BOLOGNESE,Italy,2331,n.a.,45,42,44,45,54,55,52,19,12,n.a.,207,209,220,227,224,235,272,156,37
543.,CHAM PAPER GROUP ITALIA S.P.A.,VIA ROMA 67,CARMIGNANO DI BRENTA,Italy,1710,n.a.,180,179,167,166,153,146,148,119,124,n.a.,334,336,333,334,338,344,345,345,335
249.,CHEMTURA MANUFACTURING ITALY S.R.L.,VIA DELLA MOSCOVA 3,MILANO,Italy,2059,n.a.,n.a.,0,1,2,8,8,9,9,10,n.a.,n.a.,1,6,8,54,55,56,59,112
398.,CHIMICA POMPONESCO S.P.A.,VIA DELLE INDUSTRIE 1,POMPONESCO,Italy,2010,n.a.,77,83,83,87,88,89,70,62,90,n.a.,126,125,121,124,127,131,125,116,114
381.,CIPRO GEST S.R.L.,CNT C.DA CANNE MASCHE SNC,TERMINI IMERESE,Italy,3821,n.a.,4,3,1,0,0,1,4,4,7,n.a.,47,64,63,63,67,67,74,77,79
297.,CNH AMERICA LLC,UNICITY INTERGRATED LOGISTICS,WINNIPEG,Canada,2892,n.a.,n.a.,n.a.,n.a.,n.a.,n.a.,n.a.,n.a.,n.a.,n.a.,n.a.,n.a.,n.a.,n.a.,n.a.,n.a.,n.a.,n.a.,n.a.,n.a.
887.,CO-VER POWER TECHNOLOGY S.R.L.,VIA QUARANTADUE MARTIRI 165,VERBANIA,Italy,3530,n.a.,10,9,12,13,13,11,11,10,11,n.a.,13,10,10,15,11,12,14,5,n.a.
28.,COEM S.P.A.,VIA CAMEAZZO 25,FIORANO MODENESE,Italy,2331,n.a.,69,64,59,59,55,54,48,40,51,n.a.,269,263,254,253,252,250,248,247,265
19.,COGENPOWER SRL,CSO RE UMBERTO 54,TORINO,Italy,4321,n.a.,n.a.,5,4,4,4,4,4,5,4,n.a.,n.a.,4,5,5,6,6,n.a.,14,12
199.,COGNE ACCIAI SPECIALI S P A,"CALLE CORRO (BX), 326",GRANOLLERS,Spain,4672,n.a.,n.a.,n.a.,n.a.,n.a.,n.a.,n.a.,n.a.,n.a.,n.a.,n.a.,n.a.,n.a.,n.a.,n.a.,n.a.,n.a.,n.a.,n.a.,n.a.
635.,COLACEM S.P.A.,VIA DELLA VITTORINA 60,GUBBIO,Italy,2351,n.a.,229,252,266,289,299,362,361,359,476,n.a.,908,943,"1,012","1,024","1,033","1,028","1,059","1,100","1,093"
169.,COLGATE - PALMOLIVE ITALIA S.R.L.,VLE ALEXANDRE GUSTAVE EIFFEL 15,ROMA,Italy,2042,n.a.,64,67,65,62,60,57,59,62,57,n.a.,461,471,474,477,480,n.a.,519,523,524
14.,COLONY ADVISORS LLC,66-1685 KOHALA MOUNTAIN RD,KAMUELA,United States of America,6831,n.a.,n.a.,n.a.,n.a.,n.a.,n.a.,n.a.,0,n.a.,n.a.,n.a.,n.a.,n.a.,n.a.,n.a.,n.a.,n.a.,1,n.a.,n.a.
375.,COLUMBIAN CARBON EUROPA SRL,VIA SAN CASSIANO 140,TRECATE,Italy,2010,n.a.,53,48,60,58,15,79,59,41,67,n.a.,79,83,83,81,80,79,78,75,84
307.,COLUMBUS SRL,STR BARGHETTO 9/A,PARMA,Italy,1039,n.a.,40,45,46,38,41,45,46,58,52,n.a.,121,82,79,77,77,69,69,76,150
404.,COMET S.P.A.,VIA MICHELINO 105,BOLOGNA,Italy,4643,n.a.,774,733,662,661,682,755,790,643,703,n.a.,"2,017","1,998","1,840","1,812","1,775","1,740","1,801","1,871","1,970"
68.,COMOCALOR S.P.A.,VIA PIETRO STAZZI 2,COMO,Italy,3530,n.a.,n.a.,4,4,5,5,5,6,6,6,n.a.,n.a.,5,5,6,5,5,5,5,5
823.,COMPAGNIA ELETTRICA LOMBARDA S.P.A. IN LIQUIDAZIONE, FORO BUONAPARTE 31,MILANO,Italy,4321,n.a.,n.a.,n.a.,n.a.,n.a.,0,1,0,0,4,n.a.,n.a.,n.a.,n.a.,n.a.,n.a.,n.a.,n.a.,n.a.,n.a.
153.,COMPAGNIA MERCANTILE D'OLTREMARE - S.R.L.,CSO GIUSEPPE GARIBALDI 148,SALERNO,Italy,1000,n.a.,24,26,19,18,20,16,15,19,25,n.a.,154,132,105,113,47,120,108,108,11
221.,COMPAGNIA PER L'ELETTRICITA' E L'ACQUACOLTURA S.R.L.,VIA RESSEL 2/D,GORIZIA,Italy,3511,n.a.,0,1,1,1,0,1,2,3,4,n.a.,1,1,1,1,2,4,2,3,7
811.,CONDINO ENERGIA S.R.L.,VIA ROMA 153,BORGO CHIESE,Italy,3510,n.a.,9,9,10,11,11,9,8,8,10,n.a.,6,6,6,6,6,6,6,6,6
93.,CONDITALIA S.P.A.,VIA GIUSEPPE GARIBALDI 114,NOCERA SUPERIORE,Italy,1039,n.a.,n.a.,10,9,7,8,8,7,7,7,n.a.,n.a.,21,18,17,4,7,n.a.,n.a.,n.a.
835.,CONSORZIO CARTIERE IN TIVOLI,VIA FUCILARI 86,TIVOLI,Italy,4649,n.a.,51,42,43,41,31,n.a.,n.a.,n.a.,n.a.,n.a.,22,1,1,n.a.,n.a.,n.a.,n.a.,n.a.,n.a.
143.,CONSORZIO CASALASCO DEL POMODORO SOCIETA' AGRICOLA COOPERATIVA,STP 32,RIVAROLO DEL RE ED UNITI,Italy,0163,n.a.,269,275,209,208,243,254,218,218,216,n.a.,845,796,592,612,583,581,568,548,539
707.,CONTOURGLOBAL SOLUTIONS (ITALY) S.R.L.,VIA CUSANI 5,MILANO,Italy,3511,n.a.,8,7,8,9,9,7,5,0,0,n.a.,9,9,9,8,13,14,n.a.,n.a.,n.a.
686.,COOPERATIVA CERAMICA D'IMOLA SOCIETA' COOPERATIVA IN BREVE COOPERATIVA CERAMICA D'IMOLA S.C.,VLE VITTORIO VENETO 13,IMOLA,Italy,2331,n.a.,244,246,252,248,263,275,277,282,399,n.a.,"1,361","1,419","1,550","1,648","1,847","1,842","1,960","2,041","2,230"
461.,COPPOLA - S.P.A.,VIA DE RISI 13,SCAFATI,Italy,1039,n.a.,32,33,29,24,21,22,18,19,24,n.a.,103,93,83,81,80,78,71,74,76
719.,CORDEN PHARMA LATINA SOCIETA' PER AZIONI IN BREVE CORDEN PHARMA LATINA S.P.A.,VIA MURILLO,SERMONETA,Italy,2110,n.a.,91,86,94,84,n.a.,81,50,n.a.,n.a.,n.a.,574,522,515,579,n.a.,702,783,n.a.,n.a.
76.,CORNING PHARMACEUTICAL GLASS S.P.A.,VIA MONTELUNGO 4,PISA,Italy,2319,n.a.,33,35,32,33,32,30,36,33,36,n.a.,123,122,117,114,111,109,111,114,110
66.,COTONIFICIO ALBINI S.P.A.,VIA DOTTOR SILVIO ALBINI 1,ALBINO,Italy,1320,n.a.,142,143,147,135,136,141,125,103,133,n.a.,759,744,735,732,740,792,836,849,808
633.,COTTO PETRUS S.R.L.,VIA MOLINO ROTEGLIA 4,CASTELLARANO,Italy,2331,n.a.,31,20,3,3,5,5,5,5,7,n.a.,12,8,5,19,20,20,20,20,20
316.,COTTOSENESE S.P.A,VIA DELLE FORNACI 55/A,SAN QUIRICO D'ORCIA,Italy,2332,n.a.,8,10,11,11,11,12,15,15,19,n.a.,39,39,39,66,70,77,83,94,100
165.,CPL CONCORDIA SOC.COOP,,,Poland,,n.a.,n.a.,n.a.,n.a.,n.a.,n.a.,n.a.,n.a.,n.a.,n.a.,n.a.,n.a.,n.a.,n.a.,n.a.,n.a.,n.a.,n.a.,n.a.,n.a.
573.,CT SPA LLC,2600 DODGE ST,DUBUQUE,United States of America,,n.a.,n.a.,n.a.,n.a.,n.a.,n.a.,n.a.,n.a.,n.a.,n.a.,n.a.,n.a.,n.a.,n.a.,n.a.,n.a.,n.a.,n.a.,n.a.,n.a.
772.,D. & D. S.R.L. PRODOTTI CONSERVATI,VIA NAZIONALE 130,MERCOGLIANO,Italy,4639,n.a.,6,8,6,3,3,0,0,0,0,n.a.,45,46,34,5,48,n.a.,n.a.,n.a.,n.a.
805.,DALMINE S.P.A.,PZA CADUTI 6 LUGLIO 1944 1,DALMINE,Italy,2420,n.a.,756,792,"1,186","1,146","1,278","1,227","1,026",947,"1,706",n.a.,"2,003","2,267","2,314","2,296","2,506","2,535","2,699",n.a.,n.a.
655.,DANESI LATERTECH S.P.A.,VIA AMILCARE PONCHIELLI 7,MILANO,Italy,2332,n.a.,2,4,5,6,9,14,13,7,6,n.a.,19,24,37,53,57,59,69,31,31
586.,DANIELI & C. OFFICINE MECCANICHE SPA,P.O. BOX113,BUTTRIO,Italy,2891,"2,491","2,508","2,766","3,055","3,033","2,419","3,146","2,422","2,074","2,674","9,419","9,419","10,954","11,424","10,944","10,037","9,392","8,663","7,974","7,748"
862.,DAVIA SRL,STR. CIMPULUI NR. 4,HARSOVA,Romania,,n.a.,n.a.,n.a.,n.a.,n.a.,n.a.,n.a.,n.a.,n.a.,n.a.,n.a.,n.a.,n.a.,n.a.,n.a.,n.a.,n.a.,n.a.,n.a.,n.a.
730.,DE CLEMENTE CONSERVE S.P.A.,LOC CASA MANDRIZZO VIA CANFORA SNC,FISCIANO,Italy,1030,n.a.,60,65,65,62,57,62,56,54,46,n.a.,163,148,137,128,130,123,115,96,90
571.,DE TOMASO AUTOMOBILI S.P.A. - I N L I Q U I D A Z I O N E,VIA GIOVANNI MARCH 14/A,LIVORNO,Italy,2910,n.a.,n.a.,n.a.,n.a.,n.a.,n.a.,24,17,0,0,n.a.,n.a.,n.a.,n.a.,n.a.,n.a.,"1,067","1,064",n.a.,n.a.
555.,DELIA A/S,HARBOUR HOUSE,KOEBENHAVN OE,Denmark,7735,n.a.,4,8,3,3,3,n.a.,n.a.,n.a.,n.a.,n.a.,0,n.a.,n.a.,0,n.a.,n.a.,n.a.,n.a.,n.a.
267.,DEROMA S.P.A.,VIA PASUBIO 17,MALO,Italy,2341,n.a.,n.a.,n.a.,n.a.,50,55,54,68,66,80,n.a.,n.a.,n.a.,n.a.,785,898,956,985,"1,032","1,729"
241.,DESCO S.P.A.,STR SECONDARIA A3 SNC,PONTINIA,Italy,1039,n.a.,9,9,9,7,7,8,8,8,8,n.a.,16,15,13,14,15,15,15,15,23
438.,DI LEO NOBILE - S.P.A. INDUSTRIA CONSERVE ALIMENTARI,VIA S.SALVATORE 20,CASTEL SAN GIORGIO,Italy,1039,n.a.,11,12,13,15,11,13,10,11,11,n.a.,33,40,42,43,41,42,26,46,28
378.,DI MUZIO LATERIZI S.R.L.,VIA NAZIONI UNITE 2,ALANNO,Italy,2332,n.a.,6,6,7,8,8,9,7,8,12,n.a.,17,18,18,19,21,19,21,24,24
776.,DISTER ENERGIA S.P.A.,VIA GRANAROLO 231,FAENZA,Italy,3511,n.a.,23,35,28,17,20,23,37,36,4,n.a.,30,30,29,28,29,24,20,14,n.a.
260.,DISTER S.P.A.,"VIA GRANAROLO,231",FAENZA,Italy,1102,n.a.,n.a.,n.a.,n.a.,n.a.,n.a.,n.a.,n.a.,32,68,n.a.,n.a.,n.a.,n.a.,n.a.,n.a.,n.a.,n.a.,62,73
480.,DISTILLERIA BERTOLINO S.P.A.,VLE DEI PLATANI 101,PARTINICO,Italy,1101,n.a.,5,5,6,10,18,6,12,19,10,n.a.,31,31,31,29,23,26,30,29,22
472.,DISTILLERIE BONOLLO S.P.A.,VIA MOSCA 5,FORMIGINE,Italy,1101,n.a.,45,48,49,61,51,n.a.,n.a.,n.a.,n.a.,n.a.,135,125,141,130,n.a.,n.a.,n.a.,n.a.,n.a.
588.,DISTILLERIE G. DI LORENZO S.R.L.,VIA DELLA DISTILLERIA 11,PERUGIA,Italy,1101,n.a.,14,14,15,20,19,17,16,20,16,n.a.,37,35,39,42,44,37,33,36,34
72.,DOLE FOODS PRIVATE LIMITED,"55, BHIKU BUILDING,VEER SAVARKAR MARG",MUMBAI,India,1051,n.a.,n.a.,n.a.,n.a.,n.a.,n.a.,n.a.,n.a.,n.a.,n.a.,n.a.,n.a.,n.a.,n.a.,n.a.,n.a.,n.a.,n.a.,n.a.,n.a.
219.,DOLOMITE FRANCHI S.P.A.,VIA CORSICA 14,BRESCIA,Italy,2320,n.a.,42,38,41,42,50,47,46,34,43,n.a.,186,185,192,194,199,199,193,188,203
147.,DOMUS LINEA SRL,VIA DELLA CHIUSA 16,RUBIERA,Italy,2332,n.a.,9,10,10,10,8,12,13,13,13,n.a.,64,68,70,73,71,73,77,78,79
30.,DONATI LATERIZI - S.R.L.,VIA ANTONIO MEUCCI 28,SAN GIULIANO TERME,Italy,2332,n.a.,7,8,9,10,15,12,13,16,22,n.a.,23,23,22,60,71,73,76,82,83
424.,DS SMITH PAPER ITALIA S.R.L.,VLE PASUBIO 6,MILANO,Italy,1712,178,178,179,10,n.a.,n.a.,n.a.,n.a.,n.a.,n.a.,193,198,193,16,n.a.,n.a.,n.a.,n.a.,n.a.,n.a.
749.,DUFERDOFIN - NUCOR S.R.L.,VIA GENERALE ARMANDO DIAZ 248,SAN ZENO NAVIGLIO,Italy,2410,n.a.,405,386,383,327,n.a.,501,384,223,743,n.a.,717,690,682,679,n.a.,732,778,800,813
490.,E.ON CONNECTING ENERGIES ITALIA S.R.L.,VIA AMERIGO VESPUCCI 2,MILANO,Italy,3511,n.a.,29,9,1,0,n.a.,n.a.,n.a.,n.a.,n.a.,n.a.,55,19,13,2,n.a.,n.a.,n.a.,n.a.,n.a.
204.,E.ON PRODUZIONE CENTRALE LIVORNO FERRARIS SPA,,,Italy,,n.a.,n.a.,n.a.,n.a.,n.a.,n.a.,n.a.,n.a.,n.a.,n.a.,n.a.,n.a.,n.a.,n.a.,n.a.,n.a.,n.a.,n.a.,n.a.,n.a.
201.,E.ON PRODUZIONE S.P.A.,VIA AMERIGO VESPUCCI 2,MILANO,Italy,3511,n.a.,2,568,"1,165","1,603","1,688","1,959","2,503","2,231","2,321",n.a.,317,272,520,539,488,620,699,898,"1,033"
126.,ECO & POWER AMBROSIANA S.R.L.,VIA AMILCARE PONCHIELLI 7,MILANO,Italy,3513,n.a.,9,4,3,4,6,9,10,11,12,n.a.,30,29,30,32,33,39,44,43,42
504.,ECOLOGIA AMBIENTE S.R.L.,VIA ELENA CASATI 12,COMO,Italy,3800,n.a.,6,6,5,5,4,5,4,4,4,n.a.,19,21,21,25,25,3,25,26,24
576.,ECOSESTO S.P.A.,CNT CANCELLO MAGDALONE,RENDE,Italy,3511,n.a.,22,24,24,26,25,27,8,19,28,n.a.,22,23,23,42,41,46,47,47,47
798.,ECOTERMICA EPOREDIESE S.R.L.,CSO RE UMBERTO 1,TORINO,Italy,3511,n.a.,3,3,3,3,3,1,0,0,0,n.a.,1,1,1,1,1,1,n.a.,n.a.,n.a.
128.,EDILCALCE VIOLA OLINDO E FIGLI SOCIETA' PER AZIONI,VIA BORGO SAN GIOVANNI 11,FOLIGNO,Italy,2352,n.a.,8,9,12,15,18,24,23,20,21,n.a.,37,40,43,54,61,64,72,71,72
663.,EDISO S.R.L. IN LIQUIDAZIONE,VIA VITTORIO VENETO 25,NOGAROLE ROCCA,Italy,4120,n.a.,n.a.,0,0,0,0,0,0,0,0,n.a.,n.a.,n.a.,n.a.,n.a.,n.a.,n.a.,n.a.,n.a.,n.a.
842.,EDISON S.P.A.,FORO BUONAPARTE 31,MILANO,Italy,3511,n.a.,"11,266","12,117","12,580","13,050","12,844","12,033","11,084","9,384","11,750",n.a.,n.a.,"3,066","3,101","3,240","3,248","3,764","3,939","2,961","2,961"
50.,EGIDIO GALBANI SOCIETA' A RESPONSABILITA' LIMITATA IN BREVE EGID IO GALBANI S.R.L. O E.GA. S.R.L.,VIA FLAVIO GIOIA 8,MILANO,Italy,1051,n.a.,820,843,928,938,913,959,896,818,887,n.a.,"1,675","1,683","1,772","1,829","1,869","1,841","1,880","1,860","1,861"
134.,ELCOGRAF S.P.A.,VIA ARNOLDO MONDADORI 15,VERONA,Italy,1812,n.a.,174,165,193,233,272,289,294,311,374,n.a.,935,964,926,977,"1,055","1,071","1,057","1,257","1,272"
558.,ELECTROLUX ITALIA S.P.A.,CSO LINO ZANUSSI 24,PORCIA,Italy,2751,n.a.,891,910,917,902,920,900,930,"1,034","1,256",n.a.,"4,561","4,606","4,788","5,089","5,246","5,498","5,785","6,319","7,002"
449.,ELETTRA PRODUZIONE S.R.L. IN LIQUIDAZIONE,VIA ANTONIO DA RECANATE 2,MILANO,Italy,3511,n.a.,1,3,82,148,150,156,152,129,188,n.a.,26,50,55,59,61,60,59,56,56
390.,EMBRACO EUROPE S.R.L.,PZA SOLFERINO 20,TORINO,Italy,2813,n.a.,383,387,375,397,401,341,337,246,290,n.a.,"2,755","2,629","2,642","2,627","2,569","2,469","2,410","2,306","2,793"
286.,EMILCERAMICA S.R.L.,VIA GHIAROLA NUOVA 29,FIORANO MODENESE,Italy,2331,n.a.,0,n.a.,n.a.,n.a.,n.a.,n.a.,n.a.,n.a.,n.a.,n.a.,n.a.,n.a.,n.a.,n.a.,n.a.,n.a.,n.a.,n.a.,n.a.
608.,EMILIANA CONSERVE SOCIETA' AGRICOLA S.P.A.,VIA ANTONIO VIVALDI 7,BUSSETO,Italy,1039,69,70,68,61,62,64,55,55,n.a.,52,142,142,138,135,131,134,119,98,n.a.,136
315.,EMMEGI AGRO-INDUSTRIALE S.R.L.,VIA PIETRO NENNI 22,FELINO,Italy,1032,n.a.,n.a.,n.a.,n.a.,n.a.,n.a.,n.a.,n.a.,n.a.,n.a.,n.a.,n.a.,n.a.,n.a.,n.a.,n.a.,n.a.,n.a.,n.a.,n.a.
474.,EN PLUS S.R.L.,VIA GIORGIO STEPHENSON 73,MILANO,Italy,3511,n.a.,46,48,51,48,50,42,0,0,0,n.a.,n.a.,n.a.,n.a.,n.a.,n.a.,n.a.,n.a.,n.a.,n.a.
733.,ENEL PRODUZIONE S.P.A.,VLE REGINA MARGHERITA 125,ROMA,Italy,3511,n.a.,"4,628","5,050","5,702","8,136","7,211","7,372","6,878","6,990","11,895",n.a.,"4,333","4,729","5,233","5,464","5,729","5,953","6,129","6,507","8,702"
553.,ENERCELL S.P.A. - IN LIQUIDAZIONE,VIA MATTEO BANDELLO 5,MILANO,Italy,3530,n.a.,n.a.,n.a.,n.a.,n.a.,n.a.,n.a.,n.a.,n.a.,n.a.,n.a.,n.a.,n.a.,n.a.,n.a.,n.a.,n.a.,n.a.,n.a.,n.a.
24.,ENERCHIVASSO S.P.A.,VIA REISERA 74/BIS,SETTIMO TORINESE,Italy,3530,n.a.,n.a.,0,0,0,0,0,0,n.a.,0,n.a.,n.a.,n.a.,n.a.,n.a.,n.a.,n.a.,n.a.,n.a.,n.a.
826.,ENERGIE DE LA VALLEE S.R.L.,FRZ CERVINIA VIA BOB SNC,VALTOURNENCHE,Italy,7490,n.a.,0,0,0,0,0,0,n.a.,n.a.,n.a.,n.a.,n.a.,n.a.,n.a.,n.a.,n.a.,n.a.,n.a.,n.a.,n.a.
417.,ENERGIE S.R.L.,VIA PIANA SANT'ANGELO 202,SAN SALVO,Italy,4511,n.a.,n.a.,n.a.,18,10,6,6,6,2,0,n.a.,n.a.,n.a.,13,12,14,10,n.a.,n.a.,n.a.
787.,ENERGONUT S.P.A.,VLE CARLO BERTI PICHAT 2/4,BOLOGNA,Italy,3511,n.a.,n.a.,n.a.,n.a.,n.a.,27,47,10,16,13,n.a.,n.a.,n.a.,n.a.,n.a.,26,26,26,25,23
615.,ENERPRINT S.R.L.,VIA FORTUNATO POSTIGLIONE 14,MONCALIERI,Italy,1812,n.a.,n.a.,n.a.,n.a.,7,3,n.a.,n.a.,n.a.,n.a.,n.a.,n.a.,n.a.,n.a.,15,13,n.a.,n.a.,n.a.,n.a.
687.,ENGIE PRODUZIONE S.P.A.,VLE AVIGNONE 12,ROMA,Italy,3511,n.a.,32,29,49,54,77,372,434,333,415,n.a.,48,49,52,54,75,94,160,158,161
777.,ENGIE RETI CALORE S.R.L.,VLE FULVIO TESTI 280,MILANO,Italy,3530,n.a.,13,12,15,18,18,15,10,11,13,n.a.,n.a.,n.a.,19,18,16,14,11,10,4
578.,ENGIE SERVIZI S.P.A.,VLE GIORGIO RIBOTTA 31,ROMA,Italy,4321,n.a.,605,680,757,896,924,904,826,739,382,n.a.,"1,998","1,892","1,837","1,898","2,014","2,141","2,222","2,096","1,489"
279.,ENI S.P.A.,PIAZZALE ENRICO MATTEI 1,ROMA,Italy,0610,n.a.,"56,679","69,362","94,226","116,084","131,369","108,616","99,479","84,345","108,868",n.a.,"33,536","29,053","29,403","83,887","77,838","78,686","79,941","78,417","78,880"
250.,ENIPOWER MANTOVA S.P.A.,PZA EZIO VANONI 1,SAN DONATO MILANESE,Italy,3511,n.a.,205,235,260,274,268,236,172,104,92,n.a.,51,50,50,50,50,49,53,53,55
516.,ENIPOWER SPA,PZA EZIO VANONI 1,SAN DONATO MILANESE,Italy,3511,n.a.,660,782,884,989,"1,091",935,925,804,8,n.a.,331,369,418,459,459,456,n.a.,434,n.a.
214.,EP PRODUZIONE S.P.A.,VIA ANDREA DORIA 41/G,ROMA,Italy,3511,n.a.,887,502,n.a.,n.a.,n.a.,n.a.,n.a.,n.a.,n.a.,n.a.,267,212,n.a.,n.a.,n.a.,n.a.,n.a.,n.a.,n.a.
23.,EPICA S.R.L.,STR FOSSO CAVONE 26,PESCARA,Italy,4674,n.a.,41,40,41,37,39,42,40,36,40,n.a.,164,163,168,147,143,151,153,141,126
435.,ERG POWER - S.R.L.,VIA DE MARINI 1,GENOVA,Italy,3511,n.a.,123,124,131,129,143,133,135,n.a.,n.a.,n.a.,n.a.,n.a.,n.a.,n.a.,n.a.,n.a.,n.a.,n.a.,n.a.
705.,ERGOSUD S.P.A.,VIA ANDREA DORIA 41/G,ROMA,Italy,3511,n.a.,63,58,64,67,66,142,61,7,14,n.a.,34,35,36,38,36,36,36,29,n.a.
846.,ESSELUNGA SPA,VIA VITTOR PISANI 20,MILANO,Italy,4711,n.a.,"8,688","8,315","7,917","7,781","7,679","7,307","6,994","6,552","6,435",n.a.,"22,741","21,930","21,135","20,605","20,221","19,685","19,322","19,232","18,654"
683.,ESSITY SWITZERLAND AG,PARKSTRASSE 1 B,SCHENKON,Switzerland,4645,n.a.,n.a.,n.a.,n.a.,224,227,n.a.,34,67,n.a.,75,75,75,75,75,15,n.a.,40,40,n.a.
220.,ESSO ITALIANA S.R.L.,VLE CASTELLO DELLA MAGLIANA 25,ROMA,Italy,4671,n.a.,"11,664","13,301","15,386","16,247","17,177","15,956","13,792","11,722","16,226",n.a.,"1,229","1,215","1,265","1,260","1,246","1,241","1,273","1,293","1,183"
252.,ETHIOPIAN AIRLINES,BP 1326,DOUALA,Cameroon,4950,n.a.,2,n.a.,n.a.,n.a.,n.a.,n.a.,n.a.,n.a.,n.a.,n.a.,8,n.a.,n.a.,n.a.,n.a.,n.a.,n.a.,n.a.,n.a.
319.,EUGEA MEDITERRANEA S.P.A.,STR CONSORZIATA,LAVELLO,Italy,1039,n.a.,21,27,27,25,28,29,26,29,39,n.a.,25,25,24,24,24,116,25,32,125
183.,EURAL GNUTTI S.P.A.,VIA SANT'ANDREA 3,ROVATO,Italy,2440,n.a.,200,229,211,n.a.,n.a.,n.a.,n.a.,n.a.,n.a.,n.a.,424,429,421,n.a.,n.a.,n.a.,n.a.,n.a.,n.a.
446.,EUROCARTIERA DEI F.LLI LIGUORI S.R.L.,VIA CONSOLE CESARIO 3,NAPOLI,Italy,1722,n.a.,n.a.,n.a.,n.a.,n.a.,n.a.,19,20,6,0,n.a.,n.a.,n.a.,n.a.,n.a.,n.a.,24,n.a.,n.a.,n.a.
692.,EUROFIBRE S.P.A.,VIA GIUSEPPE VERDI 67,MINERBE,Italy,2314,n.a.,15,17,16,15,16,20,22,21,30,n.a.,102,106,118,118,117,n.a.,119,114,114
883.,EUROFLY SERVICE - S.P.A.,VLE DELL' AVIAZIONE 65,MILANO,Italy,5110,n.a.,34,38,40,44,46,47,43,n.a.,n.a.,n.a.,66,65,82,87,94,98,66,n.a.,n.a.
42.,EUROGRAVURE S.P.A.,PZA GIACOMO MATTEOTTI 20,BERGAMO,Italy,1812,n.a.,49,56,65,66,68,66,61,54,73,n.a.,162,172,180,177,173,173,171,185,186
12.,EUROPAPER - S.P.A.,ND ND ND,FIVIZZANO,Italy,1722,n.a.,28,30,29,35,30,32,30,27,31,n.a.,35,35,35,34,33,33,33,33,33
832.,EUROPEA - S.P.A. IN LIQUIDAZIONE,STR PROV.LE 193/BIS PV-AL SNC,FERRERA ERBOGNONE,Italy,1030,n.a.,n.a.,n.a.,n.a.,n.a.,n.a.,n.a.,n.a.,n.a.,68,n.a.,n.a.,n.a.,n.a.,n.a.,n.a.,n.a.,n.a.,n.a.,35
709.,EUROPIZZI S.R.L.,VIA PROVINCIALE 455,URGNANO,Italy,1330,n.a.,15,16,15,15,17,17,19,18,19,n.a.,112,114,118,120,133,143,149,150,151
273.,EUROTINTORIA S.R.L. IN LIQUIDAZIONE,VIA DEI FOSSI 14/B,PRATO,Italy,1330,n.a.,n.a.,1,9,10,10,10,8,8,12,n.a.,n.a.,2,82,82,85,87,86,93,106
148.,EVOLVE S.R.L.,VIA GIANFRANCO MALIPIERO 20,MILANO,Italy,3530,24,22,18,19,16,16,14,18,20,20,35,31,27,26,27,34,33,25,25,22
814.,EVRAZ PALINI E BERTOLI S.R.L.,VIA ENRICO FERMI 28,SAN GIORGIO DI NOGARO,Italy,2550,n.a.,33,0,0,137,245,278,225,169,320,n.a.,105,105,129,132,142,142,142,147,143
26.,F. DIVELLA S.P.A.,LGO DOMENICO DIVELLA 1,RUTIGLIANO,Italy,1073,n.a.,307,326,315,310,305,279,242,224,248,n.a.,349,351,352,346,341,330,318,307,283
324.,F.B.M. FORNACI BRIZIARELLI MARSCIANO - S.P.A.,VIA XXIV MAGGIO 1,MARSCIANO,Italy,2332,n.a.,39,46,42,49,45,55,60,64,81,n.a.,267,279,324,346,356,369,379,389,397
517.,F.D.G. S.P.A. IN LIQUIDAZIONE IN AMMINISTRAZIONE STRAORDINARIA,VIA BELTRAMI 66,GOZZANO,Italy,1320,n.a.,n.a.,n.a.,n.a.,n.a.,n.a.,n.a.,n.a.,n.a.,n.a.,n.a.,n.a.,n.a.,n.a.,n.a.,n.a.,n.a.,n.a.,n.a.,n.a.
195.,F.I.S. - FABBRICA ITALIANA SINTETICI S.P.A.,VLE MILANO 26,MONTECCHIO MAGGIORE,Italy,2110,n.a.,495,354,276,337,337,261,202,192,174,n.a.,"1,191",984,856,777,687,657,633,603,605
535.,F.LLI DE CECCO DI FILIPPO - FARA SAN MARTINO - S.P.A.,VIA FILIPPO DE CECCO,FARA SAN MARTINO,Italy,1073,n.a.,448,416,404,415,432,373,343,303,321,n.a.,802,793,784,809,799,781,741,479,462
318.,F.LLI GIOVANNINI S.P.A.,STR NAZIONALE FLAMINIA 55,FANO,Italy,2451,n.a.,6,6,7,6,6,8,6,3,11,n.a.,26,26,28,30,31,31,31,35,37
885.,F.P.D. S.R.L.,VIA DELLE INDUSTRIE 1,FISCIANO,Italy,1039,n.a.,7,9,10,11,11,11,8,9,10,n.a.,20,22,20,24,23,24,n.a.,n.a.,102
13.,FACI S.P.A.,VIA PRIVATA DEVOTO 36,CARASCO,Italy,2014,n.a.,44,n.a.,n.a.,n.a.,n.a.,n.a.,n.a.,n.a.,n.a.,n.a.,151,n.a.,n.a.,n.a.,n.a.,n.a.,n.a.,n.a.,n.a.
552.,FANTONI S.P.A.,VIA EUROPA UNITA 1,OSOPPO,Italy,1621,n.a.,325,329,328,318,322,301,291,234,330,n.a.,962,944,986,965,959,949,974,"1,121","1,230"
799.,FASSA S.R.L.,VIA LAZZARIS 3,SPRESIANO,Italy,2369,n.a.,326,317,302,294,315,336,305,292,323,n.a.,972,952,898,828,888,919,892,844,819
510.,FATTORIE OSELLA S.P.A.,VLO SANT'ABBONDIO 6,CARAMAGNA PIEMONTE,Italy,1051,n.a.,59,58,63,59,57,58,55,49,52,n.a.,143,145,147,146,150,155,156,147,145
618.,FAVINI S.R.L.,VIA ALCIDE DE GASPERI 26,ROSSANO VENETO,Italy,1712,n.a.,156,158,156,130,119,n.a.,123,102,72,n.a.,508,508,503,493,492,n.a.,486,479,476
162.,FEDRIGONI S.P.A.,VLE DEL PIAVE 3,VERONA,Italy,1712,n.a.,653,618,617,562,561,561,277,246,273,n.a.,"1,553","1,498","1,526","1,508","1,536",n.a.,758,758,764
448.,FEGER DI GERARDO FERRAIOLI - S.P.A.,VIA NAZIONALE 236,ANGRI,Italy,1039,n.a.,58,60,57,54,52,49,51,49,58,n.a.,71,52,51,50,50,51,55,55,61
470.,FELICE CONSERVE S.R.L.,VLE ROMA 73,SAN MARZANO SUL SARNO,Italy,1039,n.a.,14,15,17,17,16,13,12,13,16,n.a.,57,27,57,59,59,29,n.a.,n.a.,n.a.
233.,FENICE - S.P.A.,VIA DEL LAVORO 1,VALDAGNO,Italy,2059,n.a.,26,26,25,24,24,25,23,22,22,n.a.,110,103,101,101,100,101,102,105,110
103.,FER-PAR S.R.L.,VIA CARLO NICOLA PASINI 11,LONATO DEL GARDA,Italy,7010,n.a.,3,0,0,0,0,n.a.,n.a.,n.a.,n.a.,n.a.,93,n.a.,n.a.,n.a.,n.a.,n.a.,n.a.,n.a.,n.a.
396.,FERALPI SIDERURGICA S.P.A.,VIA AURELIO SAFFI 15,BRESCIA,Italy,2450,n.a.,938,921,969,914,"1,129","1,129",832,663,"1,599",n.a.,"1,351","1,242","1,210",371,"1,266","1,262","1,297","1,353","1,328"
695.,FERRANIA TECHNOLOGIES S.P.A. IN LIQUIDAZIONE,VIA XXV APRILE 15/6,GENOVA,Italy,2059,n.a.,12,7,8,6,7,9,17,17,21,n.a.,41,42,41,113,70,105,342,177,221
210.,FERRARA FOOD S.P.A.,VIA BENEDETTO CROCE 7,CESENA,Italy,1039,n.a.,25,35,27,20,25,28,20,19,0,n.a.,16,24,31,24,14,14,15,12,n.a.
140.,FERRARI F.LLI LUNELLI S.P.A (IN BREVE FERRARI S.P.A.),VIA DEL PONTE 15,TRENTO,Italy,1102,n.a.,69,60,53,52,54,58,56,54,59,n.a.,113,117,103,100,99,95,97,97,92
442.,FERRERO - SOCIETA' PER AZIONI,PLE PIETRO FERRERO SNC,ALBA,Italy,1082,"1,450","3,029","3,083","2,934","2,938","2,901","2,717","2,496","2,427","2,433",48,"4,811","6,384","6,200","6,114","6,095","5,938","5,931","5,949","5,593"
660.,FERRERO INDUSTRIALE ITALIA S.R.L.,PLE PIETRO FERRERO 1,ALBA,Italy,1082,549,124,n.a.,n.a.,n.a.,n.a.,n.a.,n.a.,n.a.,n.a.,"4,354","1,227",n.a.,n.a.,n.a.,n.a.,n.a.,n.a.,n.a.,n.a.
570.,FERRIERA VALSABBIA S.P.A.,VIA GUGLIELMO MARCONI 13,ODOLO,Italy,2410,n.a.,245,261,253,252,270,331,234,203,533,n.a.,264,264,285,291,304,308,331,355,357
786.,FERRIERA VALSIDER S.P.A.,VIA ANTONIO SALIERI 36,OPPEANO,Italy,2430,n.a.,351,364,378,368,375,397,301,164,367,n.a.,144,144,144,140,141,139,131,123,118
599.,FERRIERE NORD S.P.A.,LOC ZONA INDUSTRIALE SNC,OSOPPO,Italy,2410,n.a.,825,857,895,840,942,975,789,624,"1,211",n.a.,941,919,888,874,867,860,861,898,915
27.,FERROSIDER S.P.A.,VIA DOMENICO GHIDONI 169,OSPITALETTO,Italy,2410,n.a.,120,116,134,137,140,149,112,82,167,n.a.,110,106,104,106,103,101,93,100,106
681.,FIAT GROUP AUTOMOBILES S.P.A.,,,Italy,,n.a.,n.a.,n.a.,n.a.,n.a.,n.a.,n.a.,n.a.,n.a.,n.a.,n.a.,n.a.,n.a.,n.a.,n.a.,n.a.,n.a.,n.a.,n.a.,n.a.
129.,FIDIA FARMACEUTICI S.P.A.,VIA PONTE DELLA FABBRICA 3/A,ABANO TERME,Italy,2110,n.a.,242,219,366,133,310,412,414,345,386,n.a.,853,"1,107",555,488,"1,489","1,675","1,719","1,566","1,600"
748.,FIDIAS MANIFATTURE TESSILI - S.R.L. IN LIQUIDAZIONE,VIA EUGENIO GESTRI 4/6,PRATO,Italy,1330,n.a.,1,n.a.,1,4,6,6,6,7,10,n.a.,n.a.,n.a.,7,25,29,39,48,53,80
936.,FINANZIARIA BOLOGNA METROPOLITANA S.P.A.,PZA DELLA COSTITUZIONE 5/C,BOLOGNA,Italy,7490,n.a.,12,7,7,8,8,8,8,11,10,n.a.,24,25,26,26,26,27,27,25,22
106.,FINCIBEC - S.P.A.,VIA VALLE D'AOSTA 47,SASSUOLO,Italy,2331,n.a.,78,73,73,69,69,70,65,64,91,n.a.,385,397,406,416,438,447,453,466,485
246.,FINMECCANICA S.P.A.,,,Italy,,n.a.,n.a.,n.a.,n.a.,n.a.,n.a.,n.a.,n.a.,n.a.,n.a.,n.a.,n.a.,n.a.,n.a.,n.a.,n.a.,n.a.,n.a.,n.a.,n.a.
511.,FIUME SANTO S.P.A.,LOC FIUME SANTO - CABU ASPRU SNC,SASSARI,Italy,3511,n.a.,80,35,n.a.,n.a.,n.a.,n.a.,n.a.,n.a.,n.a.,n.a.,192,193,n.a.,n.a.,n.a.,n.a.,n.a.,n.a.,n.a.
99.,FLORIM CERAMICHE SPA,350 ENTERPRISE ST,OCOEE,United States of America,,n.a.,n.a.,n.a.,n.a.,n.a.,n.a.,n.a.,n.a.,n.a.,n.a.,n.a.,n.a.,n.a.,n.a.,n.a.,n.a.,n.a.,n.a.,n.a.,n.a.
698.,FOC CISCATO S.P.A.,VIA PASIN 1,VELO D'ASTICO,Italy,2550,n.a.,32,34,48,52,54,50,31,40,71,n.a.,163,185,188,188,178,166,153,157,150
531.,FOMAS S.P.A.,VIA VINCENZO GIOBERTI 1,MILANO,Italy,2550,n.a.,135,149,155,140,135,148,127,317,343,n.a.,371,368,368,367,370,367,371,378,352
499.,FOMEC S.P.A.,CSO INGHILTERRA 40,MONDOVI,Italy,2550,n.a.,14,16,15,14,18,18,14,12,29,n.a.,50,50,47,44,43,41,40,41,40
283.,FONDERIA DI TORBOLE S.P.A.,PLE DELLA REPUBBLICA 2,BERGAMO,Italy,2451,n.a.,120,90,79,69,61,68,58,40,n.a.,n.a.,468,298,300,300,303,308,310,316,n.a.
844.,FONTANA LUIGI S.P.A.,VIA L.E W.FONTANA 9,VEDUGGIO CON COLZANO,Italy,2500,n.a.,149,159,155,138,155,171,135,91,167,n.a.,405,419,435,436,437,430,413,402,417
882.,FORGE MONCHIERI S.P.A.,VIA INDUSTRIALE 3,CIVIDATE CAMUNO,Italy,2550,n.a.,57,73,48,53,54,58,46,61,100,n.a.,118,101,98,97,102,90,83,84,78
280.,FORGES S.P.A.,VIA DELL'ARTIGIANATO 57,CIVIDALE DEL FRIULI,Italy,2550,n.a.,29,34,47,42,42,41,31,27,52,n.a.,98,97,96,89,83,70,65,64,60
563.,FORGIA DI BOLLATE S.P.A.,STP 4 9,CANNETO SULL'OGLIO,Italy,2550,n.a.,43,53,48,52,61,19,5,1,0,n.a.,127,120,115,110,104,42,26,19,n.a.
269.,FORGIATURA A. VIENNA S.R.L.,VIA OSPIATE 46/48,RHO,Italy,2550,n.a.,74,n.a.,n.a.,n.a.,n.a.,n.a.,n.a.,n.a.,n.a.,n.a.,137,n.a.,n.a.,n.a.,n.a.,n.a.,n.a.,n.a.,n.a.
580.,FORGIATURA MORANDINI SRL,VIA DELL'INDUSTRIA SNC,CIVIDATE CAMUNO,Italy,2550,n.a.,90,99,98,109,111,104,94,120,151,n.a.,156,145,145,138,128,112,123,112,95
502.,FORGITAL ITALY S.P.A.,VIA GIUSEPPE SPEZZAPRIA 1,VELO D'ASTICO,Italy,2550,n.a.,341,n.a.,n.a.,n.a.,n.a.,n.a.,n.a.,n.a.,n.a.,n.a.,"1,042",n.a.,n.a.,n.a.,n.a.,n.a.,n.a.,n.a.,n.a.
671.,FORNACE CENTRALE - S.R.L.,VIA VISAN 35,MALO,Italy,2332,n.a.,3,3,3,4,5,5,4,5,7,n.a.,22,22,23,23,23,21,22,23,26
205.,FORNACE DI BALDICHIERI S.R.L.,VIA NAZIONALE 71/A,BALDICHIERI D'ASTI,Italy,2332,n.a.,0,1,1,2,2,2,1,1,2,n.a.,n.a.,11,11,11,12,12,n.a.,12,11
467.,FORNACE DI DOSSON DI RACHELLO & C. S.P.A.,VIA SANTI 77,CASIER,Italy,6810,n.a.,n.a.,n.a.,n.a.,3,5,5,3,5,8,n.a.,n.a.,n.a.,n.a.,n.a.,17,17,17,17,17
753.,FORNACE DI FOSDONDO SOCIETA' COOPERATIVA,VIA FOSDONDO 55,CORREGGIO,Italy,2332,n.a.,1,n.a.,n.a.,n.a.,n.a.,n.a.,n.a.,n.a.,n.a.,n.a.,7,n.a.,n.a.,n.a.,n.a.,n.a.,n.a.,n.a.,n.a.
684.,FORNACE MOSSO PAOLO S.R.L.,VIA ASTI 15,SANTENA,Italy,2332,n.a.,2,3,3,4,5,6,6,7,6,n.a.,6,12,23,28,28,29,n.a.,n.a.,n.a.
518.,FORNACE SAN LORENZO S.P.A.,VIA GIARDINI 35,FIORANO MODENESE,Italy,2332,n.a.,0,0,1,1,2,2,1,2,3,n.a.,2,2,11,13,15,15,11,14,15
366.,FORNACE TORRICELLA LATERIZI SRL,VIA RODI 27,BRESCIA,Italy,2332,n.a.,3,3,3,3,2,n.a.,n.a.,n.a.,n.a.,n.a.,11,12,11,13,13,n.a.,n.a.,n.a.,n.a.
704.,FORNACI BAGLIONI S.R.L. IN LIQUIDAZIONE,VIA VALDASCIONE 37,LATERINA,Italy,2332,n.a.,n.a.,n.a.,n.a.,n.a.,0,0,1,1,1,n.a.,n.a.,n.a.,n.a.,n.a.,24,24,n.a.,n.a.,n.a.
455.,FORNACI CALCE GRIGOLIN S.P.A.,VIA EX BOMBARDIERI 14,SUSEGANA,Italy,2352,n.a.,91,96,99,n.a.,n.a.,n.a.,n.a.,n.a.,n.a.,n.a.,241,234,242,n.a.,n.a.,n.a.,n.a.,n.a.,n.a.
73.,FORNACI D.C.B. - PIERINO BRANELLA S.P.A.,VIA DI VALLE RICCA 305,ROMA,Italy,2332,n.a.,6,6,5,6,8,9,7,8,12,n.a.,53,54,54,54,57,n.a.,61,60,62
57.,FORNACI DEL FAGARE' S.R.L.,VIA BOSCO DEL FAGARE' 10,CORNUDA,Italy,2332,n.a.,1,0,1,1,1,1,1,2,3,n.a.,8,9,8,9,13,15,n.a.,15,16
80.,FORNACI DEL SILE S.R.L.,VIA TREPONTI 63,RONCADE,Italy,2332,n.a.,1,1,1,1,2,2,2,2,2,n.a.,10,10,10,11,11,10,10,11,13
930.,FORNACI IONICHE - S.R.L.,VIA SAN ROCCO 45,LUCERA,Italy,2332,n.a.,6,7,6,9,5,6,4,5,5,n.a.,41,40,38,34,33,33,34,36,35
71.,FORNACI LATERIZI DANESI S.P.A.,VIA AMILCARE PONCHIELLI 7,MILANO,Italy,2361,n.a.,23,23,28,40,54,68,62,74,106,n.a.,97,103,128,223,243,248,261,260,274
710.,FORNACI S.P.A.,VIA PER FORNACI 16,FAGNANO OLONA,Italy,1710,n.a.,7,8,8,7,8,8,9,9,12,n.a.,39,39,41,42,45,45,46,46,45
486.,FORNACI ZULIAN S.R.L.,VIA CADUTI SUL LAVORO 11,FONTANIVA,Italy,2352,n.a.,9,9,12,12,13,10,10,3,0,n.a.,18,20,23,23,22,21,19,4,1
611.,FORONI S.P.A.,VIA AMBROGIO COLOMBO 285,GORLA MINORE,Italy,2410,n.a.,83,107,146,139,200,196,152,89,160,n.a.,189,194,195,181,191,193,187,190,191
722.,FORT CALUMET CO,929 W ADAMS ST,CHICAGO,United States of America,7732,31,n.a.,n.a.,n.a.,n.a.,n.a.,n.a.,n.a.,n.a.,n.a.,175,n.a.,n.a.,n.a.,n.a.,n.a.,n.a.,n.a.,n.a.,n.a.
432.,FOSCHETTI PAOLO SRL,VIA SANT'ORSOLA 45/49,BRESCIA,Italy,2352,n.a.,1,2,3,2,3,3,2,2,3,n.a.,4,5,5,6,6,7,n.a.,n.a.,7
444.,FRANCHINI ACCIAI S.P.A.,VIA IV NOVEMBRE 9/17,MAIRANO,Italy,2550,n.a.,39,49,56,63,61,63,51,65,113,n.a.,152,148,137,106,102,100,100,101,101
160.,FRANCO TOSI MECCANICA S.P.A.,PZA MONUMENTO 12,LEGNANO,Italy,2811,n.a.,41,30,n.a.,n.a.,n.a.,n.a.,n.a.,n.a.,n.a.,n.a.,190,174,n.a.,n.a.,n.a.,n.a.,n.a.,n.a.,n.a.
731.,FRANZESE S.P.A.,VIA CIRCUMVALLAZIONE 75,PALMA CAMPANIA,Italy,5610,n.a.,79,86,82,73,63,56,60,59,74,n.a.,115,153,112,128,208,126,120,124,126
871.,FRATELLI LONGOBARDI - S.R.L.,VIA DELLE INDUSTRIE,SCAFATI,Italy,1000,n.a.,12,15,14,13,14,12,9,10,14,n.a.,60,61,60,74,43,41,38,42,46
290.,FRATI LUIGI S.P.A.,VIA XX SETTEMBRE 58,POMPONESCO,Italy,1621,n.a.,295,283,287,266,271,284,243,207,293,n.a.,774,783,786,794,805,808,803,792,790
653.,FRI-EL ACERRA - S.R.L.,PZA DEL GRANO 3,BOLZANO,Italy,3511,n.a.,85,106,100,98,95,87,89,35,0,n.a.,24,24,24,25,25,25,24,24,24
919.,FRIGO STEFANO,VIA VECCHIO MULINO 14,PESCHIERA DEL GARDA,Italy,3320,n.a.,0,0,0,n.a.,n.a.,n.a.,n.a.,n.a.,n.a.,n.a.,1,1,1,1,n.a.,n.a.,n.a.,n.a.,n.a.
582.,FRUTTAGEL SOCIETA' COOPERATIVA AGRICOLA PER AZIONI IN SIGLA FRUTT AGEL S.C.P.A.,VIA NULLO BALDINI 26,ALFONSINE,Italy,1032,n.a.,132,144,133,129,128,128,119,119,126,n.a.,862,880,865,923,871,905,352,867,752
513.,G.S. SERVIZI SOCIETA' CONSORTILE A R. L.,PZA DEI CINQUECENTO S.N.,ROMA,Italy,4120,n.a.,13,11,11,10,7,n.a.,n.a.,n.a.,n.a.,n.a.,105,99,110,45,45,n.a.,n.a.,n.a.,n.a.
254.,GABRIEL CALDEIRA CORAZZA, R PEDRO DE OLIVEIRA COSTA 478 APT 42,PRESIDENTE PRUDENTE,Brazil,8559,n.a.,n.a.,n.a.,n.a.,n.a.,n.a.,n.a.,n.a.,n.a.,n.a.,n.a.,n.a.,n.a.,n.a.,n.a.,n.a.,n.a.,n.a.,n.a.,n.a.
610.,GEDEAM TOURISM SA,"23, RUE BEAUMONT",LUXEMBOURG,Luxembourg,5100,n.a.,n.a.,n.a.,n.a.,n.a.,n.a.,0,1,n.a.,n.a.,n.a.,n.a.,n.a.,n.a.,n.a.,n.a.,n.a.,n.a.,n.a.,n.a.
643.,GELSIA S.R.L.,VIA PALESTRO 33,SEREGNO,Italy,3523,n.a.,171,194,203,256,226,180,188,5,5,n.a.,106,103,109,104,100,94,104,n.a.,51
840.,GEMMO S.P.A.,VLE DELL'INDUSTRIA 2,ARCUGNANO,Italy,4321,n.a.,n.a.,n.a.,n.a.,n.a.,n.a.,n.a.,n.a.,n.a.,n.a.,n.a.,n.a.,n.a.,n.a.,n.a.,n.a.,n.a.,n.a.,n.a.,n.a.
737.,GESTA S.P.A.,VIA ROCHDALE 5,REGGIO NELL'EMILIA,Italy,8110,n.a.,57,62,74,83,84,101,118,60,50,n.a.,192,191,200,195,253,101,214,139,149
534.,GEVER S.P.A.,VIA PIAVE 1,ALTAVILLA VICENTINA,Italy,2895,n.a.,0,0,0,8,14,9,11,8,12,n.a.,n.a.,n.a.,n.a.,57,59,59,60,60,59
859.,GIAGUARO - S.P.A.,VIA INGEGNO,SARNO,Italy,1039,n.a.,197,193,184,173,138,133,115,116,127,n.a.,457,430,376,361,375,454,412,265,232
194.,GIOVANNI CRESPI S.P.A.,VIA PASUBIO 38,LEGNANO MILANO,Italy,2016,n.a.,n.a.,n.a.,n.a.,n.a.,n.a.,172,164,160,220,n.a.,n.a.,n.a.,n.a.,n.a.,n.a.,"1,116","1,163","1,180","1,292"
373.,GIUSTINO DI MUZIO S.R.L.,VIA NAZIONI UNITE 2,ALANNO,Italy,6820,n.a.,1,1,1,1,1,1,1,1,1,n.a.,5,7,7,7,7,8,n.a.,n.a.,6
288.,GLAXOSMITHKLINE S.P.A.,VIA ALEXANDER FLEMING 2,VERONA,Italy,4646,n.a.,646,635,708,846,840,904,"1,033","1,136","1,119",n.a.,908,899,936,967,"1,058","1,176","1,703","2,092","2,236"
505.,GLOBAL MANAGEMENT Y CONSULTING S A S,2 66 EN 01 P 03,SANTA MARTA,Colombia,7022,n.a.,n.a.,n.a.,n.a.,n.a.,n.a.,n.a.,n.a.,n.a.,n.a.,n.a.,n.a.,n.a.,n.a.,n.a.,n.a.,n.a.,n.a.,n.a.,n.a.
904.,GNL ITALIA SPA,PZA SANTA BARBARA 7,SAN DONATO MILANESE,Italy,5222,n.a.,21,29,28,31,35,45,42,42,38,n.a.,72,72,75,78,78,71,76,n.a.,90
135.,GOLD ART CERAMICA S.P.A.,VIA GIARDINI NORD 231/233,PAVULLO NEL FRIGNANO,Italy,2331,n.a.,78,70,70,65,70,70,66,60,65,n.a.,302,307,323,260,316,294,322,275,276
298.,GOLDEN LADY COMPANY SOCIETA' PER AZIONI,VIA GIACOMO LEOPARDI 3/5,CASTIGLIONE DELLE STIVIERE,Italy,1431,n.a.,233,294,341,355,424,445,435,406,472,n.a.,"1,253","2,792","2,947","2,434","2,193","2,568","2,650","2,722","2,840"
125.,GRAL INDUSTRIALE S.R.L. IN LIQUIDAZIONE,VIA CHIAVICA DI LEGNO S.N.,ALFONSINE,Italy,2332,n.a.,n.a.,1,1,4,0,n.a.,n.a.,n.a.,n.a.,n.a.,n.a.,9,8,9,10,n.a.,n.a.,n.a.,n.a.
715.,GRANAROLO FRANCE,28 PLACE SAINT THIEBAULT,METZ,France,4633,n.a.,n.a.,7,2,1,n.a.,2,2,2,1,n.a.,n.a.,n.a.,n.a.,n.a.,n.a.,n.a.,13,n.a.,n.a.
211.,GRANITIFIANDRE SOCIETA' PER AZIONI,VIA RADICI NORD 112,CASTELLARANO,Italy,2331,n.a.,293,298,241,204,213,105,n.a.,108,138,n.a.,898,896,914,844,874,438,n.a.,449,443
410.,GRANITO FORTE S.P.A.,CNT ZONA INDUSTRIALE 7,FRESAGRANDINARIA,Italy,2331,n.a.,45,43,40,36,35,34,36,30,30,n.a.,211,127,130,131,110,70,80,79,74
226.,GRASTIM J.V. S.R.L.,VIA NUOVA MARINA 5,NAPOLI,Italy,3320,n.a.,25,23,21,22,14,18,18,13,8,n.a.,20,17,15,16,14,10,n.a.,n.a.,n.a.
881.,GRAZIELLA S.P.A.,VIA PROVINCIALE SARNO-NOCERA 6,SAN VALENTINO TORIO,Italy,1039,n.a.,9,12,11,7,7,10,9,8,11,n.a.,52,17,14,12,12,14,13,17,18
812.,GRECI - INDUSTRIA ALIMENTARE - SOCIETA' PER AZIONI,VIA TRAVERSANTE 58,PARMA,Italy,4639,n.a.,73,72,72,60,74,82,78,83,86,n.a.,198,189,130,326,354,390,n.a.,173,213
602.,GRUP.PA. - S.R.L.,VIA DANIMARCA 1,FOGGIA,Italy,2352,n.a.,n.a.,1,2,2,2,2,3,3,3,n.a.,n.a.,9,10,10,10,10,n.a.,14,17
67.,GRUPPO C.B.S. S.R.L.,STR CIRCONDARIALE NORD EST S.N.,SASSUOLO,Italy,2320,n.a.,23,12,22,32,30,39,46,50,68,n.a.,38,102,162,185,186,222,238,265,302
235.,GRUPPO CERAMICHE GRESMALT S.P.A.,STS 467 45,CASALGRANDE,Italy,2331,n.a.,119,100,88,84,93,73,66,61,71,n.a.,334,318,311,319,321,344,256,243,236
401.,GRUPPO CERAMICHE RICCHETTI S.P.A.,STRADA DELLE FORNACI 20,MODENA,Italy,2331,n.a.,168,185,189,188,192,195,200,198,245,n.a.,"1,072","1,162","1,284","1,415","1,493","1,559","1,646","1,789","1,945"
791.,GRUPPO CORDENONS S.P.A.,VIA NICCOLO' MACHIAVELLI 38,MILANO,Italy,1712,n.a.,86,87,84,74,74,74,78,58,83,n.a.,273,268,264,258,257,264,273,258,265
903.,GRUPPO MAURO SAVIOLA S.R.L.,VLE LOMBARDIA 29,VIADANA,Italy,1621,n.a.,260,259,247,242,243,288,0,n.a.,n.a.,n.a.,596,615,642,673,690,724,n.a.,n.a.,n.a.
774.,GRUPPO ROMANI S.P.A.,VIA ALESSANDRO VOLTA 9 23/25,CASALGRANDE,Italy,2331,n.a.,n.a.,98,99,101,114,116,98,91,103,n.a.,n.a.,475,536,564,578,521,461,462,443
797.,GRUPPO SERENI SRL,VIA CADEFERRO 60,MARTIGNANA DI PO,Italy,0812,n.a.,1,4,4,5,7,9,8,7,10,n.a.,4,28,33,36,46,55,57,61,61
828.,GRUPPO STABILA S.R.L.,VIA CAPITERLINA 141,ISOLA VICENTINA,Italy,2332,n.a.,n.a.,n.a.,n.a.,14,24,n.a.,n.a.,n.a.,n.a.,n.a.,n.a.,n.a.,n.a.,49,47,n.a.,n.a.,n.a.,n.a.
11.,GRUPPO TROMBINI SRL IN LIQUIDAZIONE,VIA CLASSICANA 313,RAVENNA,Italy,1621,n.a.,2,0,2,31,8,n.a.,n.a.,n.a.,n.a.,n.a.,3,3,136,268,280,n.a.,n.a.,n.a.,n.a.
609.,GUERRATO S.P.A.,VLE DELLE INDUSTRIE 8,ROVIGO,Italy,4322,n.a.,89,91,95,111,96,84,103,82,75,n.a.,263,245,196,213,249,224,234,218,204
359.,HANS ZIPPERLE - S.P.A.,VIA MAX VALIER 3,MERANO,Italy,1032,67,73,62,68,62,68,54,50,57,80,191,190,188,176,177,175,169,169,179,180
785.,HEINEKEN ITALIA SPA,LOC AUTOPORTO 11,POLLEIN,Italy,1105,n.a.,817,853,812,787,818,792,766,736,780,n.a.,"1,017",970,962,974,961,942,909,932,941
51.,HEINZ ITALIA S.P.A.,STR MIGLIARA 45,LATINA,Italy,6920,n.a.,344,370,400,275,446,447,23,23,26,n.a.,547,717,763,905,966,809,104,103,116
763.,HENKEL ITALIA OPERATIONS S.R.L.,VIA CARLO AMORETTI 78,MILANO,Italy,2010,n.a.,673,"1,002",970,995,"1,083","1,087","1,042",993,854,n.a.,504,"1,046","1,086","1,156","1,209","1,233","1,298","1,356","1,314"
855.,HERA SPA,VIALE CARLO BERTI PICHAT 2/4,BOLOGNA,Italy,3513,n.a.,"4,864","4,818","4,514","4,851","4,696","4,316","3,879","4,287","3,789",n.a.,"8,374","8,426","4,189","8,219","6,539","6,513","6,516","6,481","6,749"
229.,HEXION ITALIA S.R.L.,VIA GIUSEPPE MAZZINI 104,SOLBIATE OLONA,Italy,2059,n.a.,65,66,77,76,61,65,57,38,70,n.a.,164,152,151,150,145,142,137,140,145
420.,HIGH POWER S.P.A.,CSO STATI UNITI 53,TORINO,Italy,2821,n.a.,19,20,18,21,22,22,25,8,6,n.a.,13,13,13,14,14,14,39,n.a.,n.a.
429.,HOLCIM (ITALIA) S.P.A.,CSO MAGENTA 56,MILANO,Italy,7010,n.a.,119,n.a.,n.a.,n.a.,n.a.,n.a.,n.a.,n.a.,326,n.a.,363,n.a.,n.a.,n.a.,n.a.,n.a.,n.a.,n.a.,666
837.,HPS SRL,VLE ANTONIO CIAMARRA 259,ROMA,Italy,8299,n.a.,n.a.,16,5,0,0,0,0,0,0,n.a.,n.a.,28,28,n.a.,n.a.,n.a.,n.a.,n.a.,n.a.
185.,HUNTSMAN P&A ITALY S.R.L.,LOC CASONE SNC,SCARLINO,Italy,2013,n.a.,315,235,250,243,286,305,230,175,163,n.a.,309,359,375,357,368,365,751,385,391
711.,HUNTSMAN PIGMENTS S.P.A.,VIA GUGLIELMO REISS ROMOLI 44/12,TORINO,Italy,2059,n.a.,65,75,76,79,62,69,64,52,51,n.a.,221,228,205,196,186,181,178,162,174
601.,HUVEPHARMA ITALIA SOCIETA' A RESPONSABILITA' LIMITATA,VIA ROBERTO LEPETIT 142,GARESSIO,Italy,2110,n.a.,25,n.a.,n.a.,n.a.,n.a.,n.a.,n.a.,n.a.,n.a.,n.a.,141,n.a.,n.a.,n.a.,n.a.,n.a.,n.a.,n.a.,n.a.
301.,I.C.A.B. S.R.L.,VIA CARDINALE PORTANOVA 162,REGGIO DI CALABRIA,Italy,4637,n.a.,0,n.a.,0,0,0,0,0,0,1,n.a.,3,n.a.,4,4,4,4,3,3,5
778.,I.C.O. INDUSTRIA CARTONE ONDULATO S.R.L.,VIA MARISA BELLISARIO 460,PIANELLA,Italy,1721,n.a.,73,71,82,61,54,60,52,50,58,n.a.,328,340,344,345,194,n.a.,170,166,171
815.,IBS- S.R.L.,VIA STATONIA 19,ROMA,Italy,4120,n.a.,1,1,1,1,2,1,2,1,2,n.a.,4,4,4,4,4,3,n.a.,n.a.,4
238.,ICARLI S.R.L.,VIA ANGELO VELO 3,FONTANIVA,Italy,4690,n.a.,0,1,0,0,0,0,0,n.a.,n.a.,n.a.,n.a.,n.a.,n.a.,n.a.,n.a.,n.a.,n.a.,n.a.,n.a.
714.,IDEAL CART S.P.A.,VIA MURILLO,SERMONETA,Italy,1712,n.a.,19,20,19,18,16,20,18,17,19,n.a.,24,24,27,29,29,29,28,39,26
796.,IDEAL STANDARD INDUSTRIALE S.R.L.,VIA DOMODOSSOLA 19,MILANO,Italy,2814,n.a.,69,66,73,76,78,81,84,101,125,n.a.,886,861,"1,222","1,304","1,308","1,408",n.a.,"1,547","1,641"
311.,IDROBLINS S.R.L.,VIA MONVISO 2,SALUZZO,Italy,3511,n.a.,14,14,14,15,14,14,5,11,12,n.a.,18,19,18,18,18,17,17,16,16
198.,IES ITALIANA ENERGIA E SERVIZI S.P.A.,STR CIPATA 79,MANTOVA,Italy,1920,n.a.,"1,581","1,957","1,891","3,113","3,383","3,079","2,500","2,015","2,455",n.a.,120,221,264,400,420,428,433,400,394
845.,ILA LATERIZI S.R.L.,VIA MELO DA BARI 227,BARI,Italy,2332,n.a.,7,6,5,5,1,n.a.,n.a.,n.a.,n.a.,n.a.,55,57,58,64,63,n.a.,n.a.,n.a.,n.a.
116.,ILAS ALVEOLATER S.R.L. IN LIQUIDAZIONE,VIA SAN ROCCO 45,LUCERA,Italy,2332,n.a.,0,0,n.a.,0,4,4,5,7,9,n.a.,1,1,n.a.,38,40,40,41,43,40
861.,INALCA SOCIETA' PER AZIONI,VIA SPILAMBERTO 30/C,CASTELVETRO DI MODENA,Italy,1010,n.a.,"1,756","1,490","1,511","1,555","1,590","1,440","1,235","1,171","1,172",n.a.,"4,801","3,193","2,832","2,791","2,695","2,548","2,367","2,325","2,085"
340.,INDENA SPA,VLE ORTLES 12,MILANO,Italy,2120,n.a.,172,155,142,126,132,128,102,111,118,n.a.,476,464,469,472,453,455,459,476,493
654.,INDUSTRIA CALCE CASERTANA S.R.L.,VIA SALVO D'ACQUISTO,CURTI,Italy,2352,n.a.,n.a.,11,12,10,12,13,10,7,10,n.a.,n.a.,51,48,53,52,52,44,37,39
853.,INDUSTRIA CALCE FRANCESCO VOZZA S.R.L.,VIA APPIA ANTICA 12,CASAGIOVE,Italy,2352,n.a.,n.a.,n.a.,n.a.,n.a.,1,1,0,0,1,n.a.,n.a.,n.a.,n.a.,n.a.,2,3,7,n.a.,6
501.,INDUSTRIA CARTARIA PIERETTI S.P.A.,VIA DEL FANUCCIO 128,CAPANNORI,Italy,1712,n.a.,55,53,51,53,51,55,46,35,44,n.a.,110,110,107,107,107,101,98,96,92
197.,INDUSTRIA CEMENTI GIOVANNI ROSSI S.P.A.,VIA CAORSANA 14,PIACENZA,Italy,2351,n.a.,130,131,136,135,145,180,179,220,264,n.a.,381,418,470,481,497,527,550,572,595
770.,INDUSTRIA CHIMICA VALENZANA - I.C.V. S.P.A.,VIA DESMAN 428,BORGORICCO,Italy,2014,n.a.,7,3,7,13,15,15,9,11,12,n.a.,26,28,29,29,30,34,35,37,39
623.,INDUSTRIA ITALIANA LATERIZI S.R.L.,VIA DON PRIMO MAZZOLARI 30,SIRMIONE,Italy,2332,n.a.,0,0,2,3,n.a.,n.a.,n.a.,n.a.,n.a.,n.a.,n.a.,n.a.,3,33,n.a.,n.a.,n.a.,n.a.,n.a.
7.,INDUSTRIE CARTARIE TRONCHETTI FRANCE,100 RUE DES CAMELIAS,PANNES,France,1722,n.a.,115,102,94,85,68,20,0,0,0,n.a.,n.a.,n.a.,163,150,n.a.,n.a.,3,n.a.,n.a.
29.,INDUSTRIE CERAMICHE PIEMME S.P.A.,VIA DEL CROCIALE 42/44,FIORANO MODENESE,Italy,2331,n.a.,100,94,88,91,85,85,80,71,77,n.a.,338,334,337,338,361,368,360,281,169
914.,INDUSTRIE MATILDICHE S.R.L.,STS 467 45,CASALGRANDE,Italy,2331,n.a.,0,n.a.,n.a.,n.a.,n.a.,n.a.,n.a.,n.a.,n.a.,n.a.,56,n.a.,n.a.,n.a.,n.a.,n.a.,n.a.,n.a.,n.a.
779.,INDUSTRIE PICA S.P.A. - IN LIQUIDAZIONE,STR DI MONTEFELTRO 83,PESARO,Italy,2332,n.a.,7,13,15,18,17,31,35,41,56,n.a.,49,186,204,244,278,299,331,387,434
880.,INDUSTRIE RIUNITE ODOLESI I.R.O. S.P.A.,VIA BRESCIA 12,ODOLO,Italy,2410,n.a.,132,134,139,164,192,193,161,109,266,n.a.,187,197,210,214,216,214,218,226,227
876.,INEOS MANUFACTURING ITALIA S.P.A.,VIA PIAVE 6,ROSIGNANO MARITTIMO,Italy,4669,n.a.,32,31,34,34,36,35,36,35,38,n.a.,180,180,185,194,193,195,193,186,185
454.,INFINEUM ITALIA S.R.L.,STR DI SCORRIMENTO 2,VADO LIGURE,Italy,2059,n.a.,965,935,889,869,838,719,614,513,531,n.a.,209,201,197,195,199,201,197,197,197
795.,INNOVATEC S.P.A.,VIA PRIVATA BENSI GIOVANNI 12/3,MILANO,Italy,3512,n.a.,44,25,21,2,n.a.,n.a.,n.a.,n.a.,n.a.,n.a.,62,91,53,50,n.a.,n.a.,n.a.,n.a.,n.a.
895.,IPLOM S.P.A.,VIA CARLO NAVONE 3/B,BUSALLA,Italy,1920,n.a.,326,772,"1,010","1,190","1,767","1,709","1,107",710,"1,083",n.a.,246,252,254,253,254,257,259,214,217
477.,IREN AMBIENTE S.P.A.,STR BORGOFORTE 22,PIACENZA,Italy,3821,n.a.,258,253,170,97,97,107,58,11,12,n.a.,639,588,363,151,176,188,189,75,75
734.,IREN ENERGIA S.P.A.,CSO SVIZZERA 95,TORINO,Italy,7110,n.a.,884,769,773,958,892,744,654,606,560,n.a.,505,539,460,439,373,373,424,483,492
132.,IRENE S.R.L. IN LIQUIDAZIONE,VIA BISCEGLIE 95,MILANO,Italy,3511,n.a.,0,n.a.,13,1,2,8,57,37,48,n.a.,n.a.,n.a.,n.a.,n.a.,n.a.,n.a.,n.a.,n.a.,n.a.
475.,ISAB S.R.L.,STS EX 114 SNC,PRIOLO GARGALLO,Italy,1920,n.a.,"3,445","3,846","5,471","2,177","2,248","2,144","1,940","1,411",99,n.a.,"1,066","1,070",998,929,953,"1,019","1,095","1,071","1,071"
361.,ISTITUTO POLIGRAFICO E ZECCA DELLO STATO - SOCIETA' PER AZIONI IN BREVE IPZS S.P.A.,VIA SALARIA 691,ROMA,Italy,1812,n.a.,n.a.,368,381,368,404,481,485,506,551,n.a.,n.a.,"1,746","1,856","1,805","1,858","1,931","2,183","2,426","2,549"
768.,ITAL BIO GREEN S.R.L.,CNT ROSA MARINA -GRAND HOTEL SNC,OSTUNI,Italy,5600,n.a.,2,2,2,2,2,2,2,8,10,n.a.,n.a.,n.a.,n.a.,n.a.,n.a.,n.a.,n.a.,5,4
175.,ITAL GREEN ENERGY S.R.L.,VIA ORTI 1/A,SAN PIETRO DI MORUBIO,Italy,3511,n.a.,193,198,199,213,249,263,241,167,144,n.a.,13,13,13,16,17,17,19,19,19
755.,ITAL GREEN OIL S.R.L.,VIA ORTI 1/A,SAN PIETRO DI MORUBIO,Italy,1041,n.a.,93,86,85,76,64,1,2,13,11,n.a.,41,36,34,31,25,11,5,10,14
56.,ITALCALCE S.R.L.,CNT SALISANO 1,TERRACINA,Italy,0811,n.a.,3,4,4,5,5,6,6,6,6,n.a.,23,22,23,25,27,28,n.a.,n.a.,n.a.
820.,ITALCEMENTI S.P.A.,VIA G CAMOZZI 124,BERGAMO,Italy,2351,n.a.,n.a.,"4,332","4,188","4,277","4,525","4,758","4,825","5,041","5,836",n.a.,n.a.,"17,525","17,779","18,434","18,886","19,896","20,763","21,155","22,243"
88.,ITALFOND S.P.A.,VIA INDUSTRIALE 1,BAGNOLO MELLA,Italy,2410,n.a.,92,110,117,114,135,129,116,74,129,n.a.,128,126,126,113,110,101,91,87,80
693.,ITALGEN S.P.A.,VIA SAN BERNARDINO 149/A,BERGAMO,Italy,3511,n.a.,57,68,73,80,82,58,48,47,61,n.a.,96,93,91,96,100,97,95,98,113
746.,ITALGHISA S.P.A.,VIA ANTONIO GRAMSCI 184,BAGNOLO MELLA,Italy,4672,n.a.,6,n.a.,n.a.,n.a.,n.a.,n.a.,n.a.,n.a.,n.a.,n.a.,n.a.,n.a.,n.a.,n.a.,n.a.,n.a.,n.a.,n.a.,n.a.
909.,ITALGRANITI GROUP - S.P.A.,VIA RADICI IN PIANO 355,FORMIGINE,Italy,2331,n.a.,79,75,72,68,83,88,5,0,n.a.,n.a.,226,221,210,208,221,226,n.a.,n.a.,n.a.
488.,ITALIA ZUCCHERI S.P.A.,VIA MORA 56,MINERBIO,Italy,1081,n.a.,n.a.,n.a.,n.a.,n.a.,n.a.,n.a.,127,155,151,n.a.,n.a.,n.a.,n.a.,n.a.,n.a.,n.a.,196,251,351
317.,ITALIAN BIO PRODUCTS S.R.L.,SVC RIBROCCA 11,TORTONA,Italy,2059,n.a.,26,23,16,9,1,0,0,0,0,n.a.,106,77,68,51,43,n.a.,n.a.,n.a.,n.a.
337.,ITALIAN FOOD S.P.A. IN LIQUIDAZIONE,VIA SAN QUINTINO 28,TORINO,Italy,1072,n.a.,n.a.,n.a.,n.a.,n.a.,n.a.,14,13,13,14,n.a.,n.a.,n.a.,n.a.,n.a.,n.a.,107,130,153,n.a.
223.,ITALIANA COKE S.R.L.,VIA SAN VINCENZO 2,GENOVA,Italy,1910,127,86,97,106,143,171,181,117,164,100,229,231,234,235,235,229,220,n.a.,219,216
627.,ITS ARTEA S.R.L.,PZA DELLA CONCILIAZIONE 2,MILANO,Italy,1392,n.a.,3,4,5,5,7,10,10,9,5,n.a.,3,4,4,6,7,14,40,56,58
308.,J.P.INDUSTRIES S.P.A.,VIA DANTE ALIGHIERI 284,FABRIANO,Italy,2751,n.a.,28,26,26,33,26,0,2,0,0,n.a.,685,686,695,705,354,1,n.a.,n.a.,n.a.
161.,JESI ENERGIA S.P.A., FORO BUONAPARTE 31,MILANO,Italy,4120,n.a.,0,0,0,2,8,17,182,95,130,n.a.,n.a.,1,7,13,16,16,17,17,15
544.,JINDAL SAW ITALIA SPA,VIA KARL LUDWIG VON BRUCK 32,TRIESTE,Italy,2451,n.a.,25,23,18,18,15,39,0,n.a.,n.a.,n.a.,74,75,102,109,211,108,n.a.,n.a.,n.a.
856.,KAUPE AVIATION LTD,C/O ARNOLD LEGAL AG,ZUG,Switzerland,6499,n.a.,n.a.,1,0,4,0,11,10,n.a.,n.a.,4,4,4,4,4,4,n.a.,n.a.,n.a.,n.a.
910.,KIMBERLY-CLARK S.R.L.,VIA ERNESTO LUGARO 15,TORINO,Italy,1722,n.a.,186,185,197,223,247,242,241,245,286,n.a.,398,393,376,502,569,572,578,617,619
274.,KLOPMAN INTERNATIONAL S.R.L.,VIA ARMANDO VONA 34,FROSINONE,Italy,1310,119,119,n.a.,117,116,105,139,103,78,135,382,379,n.a.,386,402,424,427,453,494,n.a.
117.,KME ITALY S.P.A.,VIA GIORGIO SAVIANE 6,FIRENZE,Italy,2444,n.a.,425,337,395,454,545,625,658,448,664,n.a.,581,873,939,985,"1,195","1,210","1,210",n.a.,"1,278"
231.,KNAUF DI KNAUF S.R.L. S.A.S.,VIA LIVORNESE 20,CASTELLINA MARITTIMA (PI),Italy,,n.a.,n.a.,n.a.,n.a.,n.a.,n.a.,n.a.,n.a.,n.a.,n.a.,n.a.,n.a.,n.a.,n.a.,n.a.,n.a.,n.a.,n.a.,n.a.,n.a.
598.,KND AIRCRAFT LEASING LLP,GROUND FLOOR,WILMSLOW,United Kingdom,,n.a.,n.a.,n.a.,n.a.,n.a.,n.a.,n.a.,n.a.,n.a.,n.a.,n.a.,n.a.,n.a.,n.a.,n.a.,n.a.,n.a.,n.a.,n.a.,n.a.
868.,KROTON GRES 2000 INDUSTRIE CERAMICHE S.R.L.,NAPO TORRIANI 1,MI146,Italy,,n.a.,n.a.,n.a.,n.a.,n.a.,n.a.,n.a.,n.a.,n.a.,n.a.,n.a.,n.a.,n.a.,n.a.,n.a.,n.a.,n.a.,n.a.,n.a.,n.a.
138.,LA CESENATE CONSERVE ALIMENTARI S.P.A.,VIA CERVESE 364,CESENA,Italy,1039,n.a.,40,37,32,28,26,26,24,21,23,n.a.,32,30,28,28,26,28,33,24,22
105.,LA DORIA S.P.A.,VIA NAZIONALE 320,ANGRI,Italy,1039,n.a.,663,759,642,617,590,499,453,456,460,n.a.,328,755,457,394,365,328,315,n.a.,n.a.
347.,LA PERLA CONSERVE S.R.L. IN LIQUIDAZIONE,VIA BATTIMELLI 26,SANT'ANTONIO ABATE,Italy,1039,n.a.,n.a.,-15,-1,17,36,50,18,17,2,n.a.,n.a.,8,38,21,27,48,41,n.a.,n.a.
884.,LA TORRENTE SRL.,VIA PALUDICELLA 3,SANT'ANTONIO ABATE,Italy,1039,n.a.,22,22,22,22,19,21,19,20,21,n.a.,65,97,95,94,89,89,87,79,n.a.
224.,LACTO SIERO ITALIA S.P.A.,VIA FLAVIO GIOIA 8,MILANO,Italy,1051,n.a.,32,36,54,58,58,45,33,16,29,n.a.,58,59,59,57,56,54,54,47,46
110.,LAMBERTI S.P.A.,VIA PIAVE 18,ALBIZZATE,Italy,2059,n.a.,456,515,551,557,472,409,382,289,390,n.a.,"1,366","1,342","1,341","1,325","1,234","1,168","1,193","1,193","1,250"
228.,LAMINAM S.P.A.,VIA GHIAROLA NUOVA 258,FIORANO MODENESE,Italy,2331,n.a.,71,48,42,32,27,26,20,12,20,n.a.,251,135,112,108,108,95,86,91,85
764.,LAMINAZIONE ACCIAI SPECIALI S.P.A.,VIA MICHELANGELO BUONARROTI 5,GHEDI,Italy,2434,n.a.,23,22,23,26,62,47,31,11,45,n.a.,45,46,46,48,48,50,61,64,66
321.,LAMINAZIONE SOTTILE SPA,"AVENIDA DIAGONAL, 640 3",BARCELONA,Spain,4672,n.a.,n.a.,n.a.,n.a.,n.a.,n.a.,n.a.,n.a.,n.a.,n.a.,n.a.,n.a.,n.a.,n.a.,n.a.,n.a.,n.a.,n.a.,n.a.,n.a.
443.,LANEROSSI FILATI S.R.L.,VLE TRIESTE 62,MONTECCHIO MAGGIORE,Italy,1310,n.a.,n.a.,n.a.,n.a.,n.a.,n.a.,n.a.,n.a.,n.a.,n.a.,n.a.,n.a.,n.a.,n.a.,n.a.,n.a.,n.a.,n.a.,n.a.,n.a.
216.,LATERIFICIO MERIDIONALE SRL,VIA PER PIETRAMONTECORVINO KM. 0,LUCERA,Italy,2332,n.a.,4,4,5,6,6,6,7,8,8,n.a.,24,24,22,18,27,27,n.a.,28,n.a.
920.,LATERIZI FAUCI PRODUZIONE S.R.L.,VIA ENRICO ALBANESE 114,PALERMO,Italy,2332,n.a.,7,4,4,0,n.a.,n.a.,n.a.,n.a.,n.a.,n.a.,32,32,19,n.a.,n.a.,n.a.,n.a.,n.a.,n.a.
854.,LATERIZI REATO S.R.L.,VIA GUGLIELMO MARCONI 1130,SAN MARTINO DI VENEZZE,Italy,3511,n.a.,0,1,1,1,2,1,2,4,n.a.,n.a.,4,4,13,4,18,18,n.a.,n.a.,n.a.
560.,LATERIZI VALPESCARA - SOCIETA' A RESPONSABILITA' LIMITATA,VIA ATERNO 259,CHIETI,Italy,2332,n.a.,3,3,3,4,5,5,4,5,7,n.a.,21,21,22,23,23,23,n.a.,n.a.,n.a.
808.,LATERLITE S.P.A.,VIA VITTORIO VENETO 30,SOLIGNANO,Italy,2399,n.a.,61,62,61,65,69,78,81,83,92,n.a.,191,190,195,213,231,242,247,504,221
873.,LATERMONT S.R.L. IN LIQUIDAZIONE,VIA SAN ROCCO 45,LUCERA,Italy,2332,n.a.,0,0,0,0,4,5,3,6,7,n.a.,1,n.a.,1,29,29,33,28,29,29
309.,LATTERIA SORESINA SOCIETA' COOPERATIVA AGRICOLA,VIA DEI MILLE 13/17,SORESINA,Italy,1051,n.a.,325,314,329,316,298,n.a.,n.a.,n.a.,230,n.a.,554,537,523,511,475,n.a.,n.a.,n.a.,386
227.,LATTERIE VICENTINE SOCIETA' COOPERATIVA AGRICOLA,VIA SAN BENEDETTO 19,BRESSANVIDO,Italy,1051,n.a.,69,70,73,68,77,79,73,68,74,n.a.,102,102,97,94,105,109,121,120,124
234.,LAVERDA SPA,,,Italy,,n.a.,n.a.,n.a.,n.a.,n.a.,n.a.,n.a.,n.a.,n.a.,n.a.,n.a.,n.a.,n.a.,n.a.,n.a.,n.a.,n.a.,n.a.,n.a.,n.a.
291.,LE DUE VALLI S.R.L.,STR ARGINE MEZZANO 34,OSTELLATO,Italy,1039,17,15,13,12,13,17,16,21,12,4,23,15,23,23,21,18,18,21,17,12
847.,LE SPECIALITA' ITALIANE S.R.L.,VLE ANTONIO GRAMSCI 17/B,NAPOLI,Italy,1039,n.a.,28,27,21,11,0,n.a.,n.a.,n.a.,n.a.,n.a.,77,77,102,151,n.a.,n.a.,n.a.,n.a.,n.a.
17.,LEALI STEEL S.P.A.,VIA PUISLE 4,BORGO VALSUGANA,Italy,2410,n.a.,n.a.,146,121,51,n.a.,n.a.,n.a.,n.a.,n.a.,n.a.,n.a.,235,235,105,n.a.,n.a.,n.a.,n.a.,n.a.
207.,LEDOGA S.R.L.,VIA TORRE 7,SAN MICHELE MONDOVI,Italy,2012,n.a.,56,54,52,54,60,62,51,45,41,n.a.,97,87,117,114,88,78,71,73,59
699.,LENNAR CORP,SUITE 400,MIAMI,United States of America,4110,"10,673","10,296","8,955","6,232","4,365","3,161","2,307","2,365","2,076","3,595","9,111","8,335","7,749","6,825","5,741","4,722","4,062","4,087","3,835","4,913"
818.,LEONARDO ENERGIA SOCIETA' CONSORTILE A R.L.,VIA DELL'AEROPORTO DI FIUMICINO 32,FIUMICINO,Italy,3511,n.a.,21,23,25,27,29,24,22,17,0,n.a.,n.a.,n.a.,n.a.,n.a.,n.a.,n.a.,n.a.,n.a.,n.a.
496.,LEONARDO S.P.A.,PIAZZA MONTE GRAPPA 4,ROMA,Italy,3030,n.a.,"12,099","13,599","14,814","14,473","17,269","17,772","19,264","18,947","15,739",n.a.,"45,631","47,156","54,380","56,282","67,408","70,474","75,197","73,056","73,398"
374.,LEONE LA FERLA S.P.A.,CNT PETRARO SS 114,MELILLI,Italy,2352,n.a.,4,4,4,4,5,4,4,4,5,n.a.,15,15,15,15,15,15,14,15,15
75.,LESAFFRE ITALIA S.P.A.,PLE ZUCCHERIFICIO 2,SISSA TRECASALI,Italy,1089,n.a.,58,56,55,55,55,54,55,60,60,n.a.,137,136,133,133,135,135,140,138,157
533.,LFOUNDRY S.R.L.,VIA ANTONIO PACINOTTI 7,AVEZZANO,Italy,2611,n.a.,151,224,201,162,241,265,245,232,341,n.a.,"1,535","1,525","1,552","1,571","1,758","1,709",n.a.,"1,958","1,999"
589.,LINDE GAS MILAZZO SRL,"CSO ITALIA,207",CATANIA,Italy,2050,n.a.,n.a.,n.a.,n.a.,n.a.,n.a.,n.a.,n.a.,n.a.,n.a.,n.a.,n.a.,n.a.,n.a.,n.a.,n.a.,n.a.,n.a.,n.a.,n.a.
310.,LINEA RETI E IMPIANTI S.R.L.,VLE TRENTO E TRIESTE 38,CREMONA,Italy,3513,n.a.,59,64,65,69,84,85,84,91,96,n.a.,158,161,254,250,299,314,315,343,342
137.,LINIFICIO E CANAPIFICIO NAZIONALE S.R.L.,LGO SANTA MARGHERITA 1,VALDAGNO,Italy,1310,n.a.,49,45,40,37,40,39,31,23,48,n.a.,907,959,829,n.a.,809,958,814,906,"1,041"
31.,LIRI INDUSTRIALE SPA IN LIQUIDAZIONE,"STR VERNEA,2",NICHELINO,Italy,2221,n.a.,n.a.,n.a.,n.a.,n.a.,n.a.,n.a.,n.a.,n.a.,57,n.a.,n.a.,n.a.,n.a.,n.a.,n.a.,n.a.,n.a.,n.a.,514
506.,LLC GLOBUS,UL. FRUNZE 4,OB,Russian Federation,5110,n.a.,430,234,226,305,282,206,157,136,90,n.a.,"1,184","1,173","1,162","1,151","1,140","1,129","1,118","1,109","1,100"
276.,LODATO GENNARO & C. - S.P.A.,VIA SANDRO PERTINI 11,CASTEL SAN GIORGIO,Italy,1030,n.a.,1,3,10,20,30,43,44,50,46,n.a.,31,40,53,58,63,111,111,121,97
150.,LORO PIANA S.P.A.,CSO PIETRO ROLANDI 10,QUARONA,Italy,1410,n.a.,519,528,533,510,490,450,350,283,370,n.a.,"1,566","1,485","1,432","1,373","1,332","1,306","1,264","1,267","1,287"
790.,LUCART SPA,VIA CIARPI 77,PORCARI,Italy,1712,n.a.,365,359,352,366,250,245,248,225,240,n.a.,"1,007",990,938,887,621,615,598,605,609
243.,LUCCHINI MAME' FORGE S.P.A.,VIA DELLE CAVE 1,CIVIDATE CAMUNO,Italy,2550,n.a.,36,8,n.a.,n.a.,n.a.,n.a.,n.a.,n.a.,n.a.,n.a.,243,195,n.a.,n.a.,n.a.,n.a.,n.a.,n.a.,n.a.
658.,LUCCHINI RS S.P.A.,VIA GUGLIELMO OBERDAN 6/A,BRESCIA,Italy,3020,n.a.,405,404,379,281,269,310,269,249,312,n.a.,"1,212","1,773","1,462","1,396","1,388","1,388","1,312","1,268","1,222"
213.,LUCKY FIVES INC,49 MERCATOR DR,GREENWOOD,United States of America,5610,n.a.,0,n.a.,n.a.,n.a.,n.a.,n.a.,n.a.,n.a.,n.a.,n.a.,7,n.a.,n.a.,n.a.,n.a.,n.a.,n.a.,n.a.,n.a.
457.,M-NICE LIMITED,"BRIDGE CHAMBERS, WEST QUAY",RAMSEY,Isle Of Man (United Kingdom),,n.a.,n.a.,n.a.,n.a.,n.a.,n.a.,n.a.,n.a.,n.a.,n.a.,n.a.,n.a.,n.a.,n.a.,n.a.,n.a.,n.a.,n.a.,n.a.,n.a.
469.,M.C. LIRI CARTIERA S.R.L.,VIA ROMA 230,ISOLA DEL LIRI,Italy,1712,n.a.,n.a.,5,0,n.a.,n.a.,n.a.,n.a.,n.a.,n.a.,n.a.,n.a.,19,n.a.,n.a.,n.a.,n.a.,n.a.,n.a.,n.a.
89.,M.I.T.I. MANIFATTURA ITALIANA TESSUTI INDEMAGLIABILI S.P.A.,VIA PAPA GIOVANNI XXIII 320,URGNANO,Italy,1391,n.a.,34,33,35,33,31,36,36,32,n.a.,n.a.,143,140,143,143,190,199,221,236,n.a.
924.,MAGNETI MARELLI S.P.A.,VLE ALDO BORLETTI 61/63,CORBETTA,Italy,2931,n.a.,"1,190","1,187","1,051","1,010","1,036","1,057","1,061","1,019","1,210",n.a.,"4,910","4,760","4,587","4,360","4,290","4,168","4,079","3,951","3,910"
388.,MANAGEMENT SERVICES INC,115 N NEIL ST,CHAMPAIGN,United States of America,8211,n.a.,n.a.,n.a.,2,n.a.,n.a.,n.a.,n.a.,n.a.,n.a.,n.a.,n.a.,n.a.,15,n.a.,n.a.,n.a.,n.a.,n.a.,n.a.
339.,MANITALIDEA SPA,VIA GIUSEPPE DI VITTORIO 29,IVREA,Italy,8299,n.a.,308,315,269,139,202,150,114,110,92,n.a.,"5,158","4,899","4,858","2,854","2,554","1,933","1,758",725,228
759.,MANUTENCOOP FACILITY MANAGEMENT SOCIETA' PER AZIONI,VIA UBALDO POLI 4,ZOLA PREDOSA,Italy,8110,n.a.,929,956,974,"1,082","1,073","1,069","1,139","1,151",691,n.a.,"16,315","16,179","16,268","13,744","14,592","13,685",n.a.,"12,166","12,609"
648.,MARANGONI S.P.A.,VIA DEL GARDA 6,ROVERETO,Italy,2211,n.a.,239,342,367,415,478,504,403,323,n.a.,n.a.,"1,472","1,661","1,934","2,157","2,223","2,246","2,216","1,932",n.a.
400.,MARANGONI TYRE - S.P.A. - IN LIQUIDAZIONE,VIA ANTICOLANA 32,ANAGNI,Italy,2211,n.a.,1,0,2,39,83,122,88,69,74,n.a.,1,1,1,421,414,451,446,465,488
565.,MARCEGAGLIA CARBON STEEL S.P.A.,VIA BRESCIANI 16,GAZOLDO DEGLI IPPOLITI,Italy,2420,n.a.,"2,272",346,n.a.,n.a.,n.a.,n.a.,n.a.,n.a.,n.a.,n.a.,"2,738","2,734",n.a.,n.a.,n.a.,n.a.,n.a.,n.a.,n.a.
606.,MARCEGAGLIA PLATES S.P.A.,VIA BRESCIANI 16,GAZOLDO DEGLI IPPOLITI,Italy,2420,n.a.,169,25,n.a.,n.a.,n.a.,n.a.,n.a.,n.a.,n.a.,n.a.,83,82,n.a.,n.a.,n.a.,n.a.,n.a.,n.a.,n.a.
53.,MARCEGAGLIA SPECIALTIES S.P.A.,VIA BRESCIANI 16,GAZOLDO DEGLI IPPOLITI,Italy,2420,n.a.,"1,015",141,n.a.,n.a.,n.a.,n.a.,n.a.,n.a.,n.a.,n.a.,746,729,n.a.,n.a.,n.a.,n.a.,n.a.,n.a.,n.a.
866.,MARTINI & ROSSI - S.P.A.,PZA LUIGI ROSSI 2,CHIERI,Italy,1104,n.a.,300,287,315,334,326,364,367,332,337,n.a.,351,353,364,369,375,389,396,369,384
554.,MARZOTTO S.P.A.,VIA GIUSEPPE PARINI 6,COLOGNO MONZESE,Italy,4673,n.a.,n.a.,n.a.,n.a.,n.a.,4,6,7,9,12,n.a.,n.a.,n.a.,n.a.,n.a.,8,12,13,12,14
422.,MARZOTTO WOOL MANUFACTURING S.R.L.,LGO SANTA MARGHERITA 1,VALDAGNO,Italy,1320,n.a.,239,236,n.a.,n.a.,n.a.,n.a.,n.a.,n.a.,n.a.,n.a.,"1,771","1,703",n.a.,n.a.,n.a.,n.a.,n.a.,n.a.,n.a.
111.,MASCIONI S.P.A.,VIA GIACOMO MASCIONI 4,CUVIO,Italy,1330,n.a.,39,n.a.,n.a.,n.a.,n.a.,n.a.,n.a.,n.a.,n.a.,n.a.,292,n.a.,n.a.,n.a.,n.a.,n.a.,n.a.,n.a.,n.a.
58.,MASSMUTUAL LIFE,125 E PINE ST,BIG RAPIDS,United States of America,,n.a.,n.a.,n.a.,n.a.,n.a.,n.a.,n.a.,n.a.,n.a.,n.a.,n.a.,n.a.,n.a.,n.a.,n.a.,n.a.,n.a.,n.a.,n.a.,n.a.
20.,MATER-BIOTECH S.P.A.,VIA GIACOMO FAUSER 8,NOVARA,Italy,2014,n.a.,8,4,2,3,2,n.a.,n.a.,n.a.,n.a.,n.a.,53,37,27,28,27,n.a.,n.a.,n.a.,n.a.
524.,MATRICA S.P.A., INDUSTRIALE LA MARINELLA SNC,PORTO TORRES,Italy,2059,n.a.,8,13,14,4,2,0,n.a.,n.a.,n.a.,n.a.,101,99,78,93,23,n.a.,n.a.,n.a.,n.a.
18.,MAZZUCCHELLI 1849 S.P.A.,VIA SANTINO E POMPEO MAZZUCCHELLI,CASTIGLIONE OLONA,Italy,2680,n.a.,85,90,83,78,99,105,75,60,79,n.a.,474,471,469,491,473,468,350,375,385
564.,MERIDIAN AIR COMPANY,PR. UNIVERSITETSKII D. 9,MOSCOW,Russian Federation,5121,n.a.,9,5,5,6,n.a.,7,5,3,5,n.a.,179,168,157,146,n.a.,155,144,133,130
833.,MERIDIANA FLY S.P.A., DIREZIONALE AEROPORTO COSTA SMERAL,OLBIA,Italy,5110,n.a.,409,46,483,520,580,646,645,n.a.,n.a.,n.a.,"1,280","1,110","1,319","1,259","1,475",n.a.,"1,517",n.a.,n.a.
727.,MERIDIONAL BETON S.R.L. SOCIETA' IN LIQUIDAZIONE,VIA FONTANELLE 14,CAPACCIO PAESTUM,Italy,2363,n.a.,n.a.,n.a.,n.a.,0,1,n.a.,n.a.,n.a.,n.a.,n.a.,n.a.,n.a.,n.a.,2,2,n.a.,n.a.,n.a.,n.a.
494.,META S.P.A.,VIA CESARE RAZZABONI 80,MODENA,Italy,3511,n.a.,n.a.,n.a.,n.a.,n.a.,n.a.,n.a.,n.a.,n.a.,n.a.,n.a.,n.a.,n.a.,n.a.,n.a.,n.a.,n.a.,n.a.,n.a.,n.a.
773.,METAENERGIAPRODUZIONE S.R.L.,VIA BARBERINI 86,ROMA,Italy,3511,n.a.,3,1,0,n.a.,n.a.,n.a.,n.a.,n.a.,n.a.,n.a.,4,5,n.a.,n.a.,n.a.,n.a.,n.a.,n.a.,n.a.
408.,METALCAM S.P.A.,VIA LEONARDO DA VINCI 3,BRENO,Italy,2550,n.a.,76,102,121,114,115,111,89,95,165,n.a.,257,267,325,320,340,325,325,336,339
35.,METAN ALPI SESTRIERE TELERISCALDAMENTO S.R.L.,VIA BARDONECCHIA 5,TORINO,Italy,3511,n.a.,12,13,14,17,16,13,0,n.a.,n.a.,n.a.,13,12,13,12,13,12,n.a.,n.a.,n.a.
206.,METINVEST TRAMETAL S.P.A.,VIA XII OTTOBRE 3,GENOVA,Italy,2410,n.a.,367,404,402,414,399,472,363,206,390,n.a.,275,275,273,268,260,250,245,246,216
458.,MINERMIX S.R.L.,CNT MATARANO 3/A,FASANO,Italy,2352,n.a.,14,10,14,15,22,20,16,14,20,n.a.,66,67,68,19,66,63,64,66,71
765.,MIRAGE GRANITO CERAMICO S.P.A.,VIA GIARDINI NORD 225,PAVULLO NEL FRIGNANO,Italy,2331,n.a.,n.a.,149,135,113,101,100,96,83,102,n.a.,n.a.,340,321,295,305,296,277,295,301
343.,MIROGLIO S.P.A.,VIA SANTA MARGHERITA 23,ALBA,Italy,7010,n.a.,645,652,669,833,880,"1,046","1,025",915,"1,009",n.a.,"7,331","7,658","7,865","12,527","13,295","13,177","12,943","11,219","11,428"
738.,MIROGLIO TEXTILE S.R.L.,VIA SANTA MARGHERITA 23,ALBA,Italy,1330,n.a.,112,133,132,134,138,168,178,159,0,n.a.,520,520,551,616,724,872,910,"1,037",n.a.
313.,MISTRAL AIR S.R.L,VLE EUROPA 190,ROMA,Italy,5100,n.a.,86,116,130,103,109,110,85,55,57,n.a.,144,229,187,159,132,109,111,122,127
108.,MOCCIA INDUSTRIA S.R.L.,VIA GALILEO FERRARIS 101,NAPOLI,Italy,2332,n.a.,9,12,11,10,10,9,10,11,13,n.a.,40,39,52,51,56,63,64,65,64
631.,MODUS F.M. S.P.A.,LRE PAPA GIOVANNI XXIII 22,PESCARA,Italy,4322,n.a.,27,26,20,13,9,5,3,2,1,n.a.,126,133,105,87,65,52,n.a.,n.a.,n.a.
675.,MONDIALCARTA - S.P.A.,LOC RENACCIO,BORGO A MOZZANO,Italy,1712,n.a.,39,41,39,40,36,41,36,23,30,n.a.,59,60,58,58,57,55,55,54,56
932.,MONDO ENERGIA SPA,,,Italy,,n.a.,n.a.,n.a.,n.a.,n.a.,n.a.,n.a.,n.a.,n.a.,n.a.,n.a.,n.a.,n.a.,n.a.,n.a.,n.a.,n.a.,n.a.,n.a.,n.a.
411.,MOSAICO S.R.L. - SOCIETA' UNIPERSONALE,VIA PIAVE 1,ALTAVILLA VICENTINA,Italy,1712,n.a.,316,309,312,0,0,0,0,0,0,n.a.,856,851,859,n.a.,n.a.,n.a.,n.a.,n.a.,n.a.
810.,MOSCATI ENERGIA S.R.L.,VIA ANTINIANA 53,POZZUOLI,Italy,3511,n.a.,7,7,7,8,7,2,0,0,n.a.,n.a.,9,10,10,9,6,6,n.a.,n.a.,n.a.
130.,MSC AVIATION SA,CHEMIN RIEU 12-14,GENEVE,Switzerland,5110,n.a.,n.a.,n.a.,n.a.,n.a.,12,n.a.,n.a.,n.a.,n.a.,35,35,35,35,35,4,n.a.,n.a.,n.a.,n.a.
750.,MUNKSJO ITALIA S.R.L.,VIA SUSA 31,TORINO,Italy,4619,n.a.,n.a.,n.a.,1,1,1,1,1,1,1,n.a.,n.a.,n.a.,3,3,3,4,3,3,4
712.,MUNKSJO PAPER S.P.A. - IN LIQUIDAZIONE,VIA GUGLIELMO MARCONI 50,BESOZZO,Italy,1712,n.a.,0,0,0,0,0,0,0,1,17,n.a.,n.a.,n.a.,n.a.,n.a.,n.a.,n.a.,1,41,134
157.,MUTTI S.P.A.,VIA I MAGGIO 63,PODENZANO,Italy,4941,n.a.,n.a.,n.a.,32,36,39,40,39,48,73,n.a.,n.a.,n.a.,29,24,27,32,30,67,87
192.,NATIONAL CONSERVE S.R.L. IN LIQUIDAZIONE,VIA GIUSEPPE MAZZINI 160,SANT'EGIDIO DEL MONTE ALBINO,Italy,1030,n.a.,n.a.,n.a.,n.a.,n.a.,n.a.,9,7,7,7,n.a.,n.a.,n.a.,n.a.,n.a.,n.a.,n.a.,n.a.,n.a.,n.a.
775.,NEOS S.P.A.,VIA DELLA CHIESA 68,SOMMA LOMBARDO,Italy,5110,n.a.,274,269,252,248,252,228,186,168,162,n.a.,507,454,415,420,407,384,372,410,378
202.,NEW LIVINGSTON - SOCIETA' PER AZIONI,VIA PAPA GIOVANNI XXIII 206,CARDANO AL CAMPO,Italy,5110,n.a.,0,1,72,94,47,n.a.,n.a.,n.a.,n.a.,n.a.,78,151,181,225,119,n.a.,n.a.,n.a.,n.a.
915.,NEWLAT SPA,VIA J. F. KENNEDY 16,REGGIO EMILIA,Italy,1051,n.a.,n.a.,n.a.,n.a.,n.a.,n.a.,391,262,261,198,n.a.,n.a.,n.a.,n.a.,n.a.,n.a.,945,887,830,749
803.,NLMK VERONA S.P.A.,VIA ANTONIO SALIERI 22,OPPEANO,Italy,2410,n.a.,237,242,282,234,246,263,204,146,303,n.a.,271,267,259,255,258,263,263,261,225
806.,NORTHWESTERN MUTUAL LIFE INS CO,,,United States of America,,n.a.,n.a.,n.a.,n.a.,n.a.,n.a.,n.a.,n.a.,n.a.,n.a.,n.a.,n.a.,n.a.,n.a.,n.a.,n.a.,n.a.,n.a.,n.a.,n.a.
691.,NOVACETA ENERGIA S.R.L. IN LIQUIDAZIONE,VLE PIEMONTE 66,MAGENTA,Italy,3511,n.a.,n.a.,n.a.,n.a.,n.a.,n.a.,n.a.,0,0,4,n.a.,n.a.,n.a.,n.a.,n.a.,n.a.,n.a.,n.a.,n.a.,19
382.,NOVARETI S.P.A.,VIA ALESSANDRO MANZONI 24,ROVERETO,Italy,3522,n.a.,85,80,82,82,82,76,71,8,8,n.a.,216,215,213,210,206,207,209,9,10
900.,NOVARTIS FARMA SPA,LGO UMBERTO BOCCIONI 1,ORIGGIO,Italy,2120,n.a.,"1,453","1,432","1,444","1,395","1,331","1,414","1,366","1,227","1,135",n.a.,"1,972","1,869","2,155","2,126","2,080","2,015","2,100","2,046","2,031"
896.,NOVEL S.P.A.,VIA GIORGIO STEPHENSON 73,MILANO,Italy,3510,n.a.,9,10,12,18,14,20,5,16,16,n.a.,n.a.,n.a.,n.a.,n.a.,n.a.,n.a.,n.a.,n.a.,n.a.
284.,NOVOLEGNO S.P.A.,VIA PROVINCIALE 207,MONTEFREDANE,Italy,1621,n.a.,26,37,37,36,35,33,38,30,49,n.a.,123,131,127,125,126,127,134,145,149
726.,NUNKI STEEL S.P.A.,VIA ENRICO FERMI 33,SAN GIORGIO DI NOGARO,Italy,2410,n.a.,65,78,72,69,61,56,7,2,1,n.a.,87,83,84,81,73,68,42,36,32
742.,NUOVA CARTIERA DELLA TOSCANA S.R.L.,VIA DELLE CARTIERE 25,VILLA BASILICA,Italy,1721,n.a.,10,10,10,10,10,11,11,10,10,n.a.,17,17,17,17,18,18,14,18,17
476.,NUOVA RIWAL CERAMICHE S.R.L.,VIA GHIAROLA NUOVA 101,FIORANO MODENESE,Italy,2331,n.a.,95,90,85,89,93,95,88,76,100,n.a.,412,415,439,447,461,473,494,522,548
164.,NUOVA SOLMINE S.P.A.,LOC CASONE,SCARLINO,Italy,0890,n.a.,75,92,84,76,80,79,65,57,11,n.a.,102,104,114,115,113,116,114,131,34
557.,NUOVO PIGNONE INTERNATIONAL S.R.L.,VIA FELICE MATTEUCCI 2,FIRENZE,Italy,2811,n.a.,"3,514","3,957","3,815","3,634","3,943","3,547","3,230","3,125","3,196",n.a.,"2,055","2,062","2,070","2,068","2,133","2,147","4,765","4,392","4,278"
736.,NUOVO ZUCCHERIFICIO DEL MOLISE S.R.L.,STS 87 SANNITICA SNC,TERMOLI,Italy,1081,n.a.,n.a.,n.a.,n.a.,61,68,n.a.,n.a.,n.a.,n.a.,n.a.,n.a.,n.a.,n.a.,65,140,n.a.,n.a.,n.a.,n.a.
784.,NUZZOLESE IMPIANTI S.R.L.,VIA GENOVA 51,VOLPIANO,Italy,4322,n.a.,1,1,1,1,1,1,1,1,1,n.a.,10,10,7,7,5,7,5,5,3
112.,NYLSTAR S.R.L.,VIA FRIULI 55,CESANO MADERNO,Italy,2060,n.a.,n.a.,n.a.,n.a.,n.a.,n.a.,n.a.,n.a.,n.a.,n.a.,n.a.,n.a.,n.a.,n.a.,n.a.,n.a.,n.a.,n.a.,n.a.,n.a.
441.,O-I MANUFACTURING ITALY S.P.A.,VIA I MAGGIO 18,ORIGGIO,Italy,2313,n.a.,940,450,410,299,461,478,n.a.,n.a.,n.a.,n.a.,"1,451","1,892","1,428","1,427","2,116","1,961",n.a.,n.a.,n.a.
240.,OAK MANAGEMENT CORP,1 GORHAM IS,WESTPORT,United States of America,8211,6,n.a.,n.a.,n.a.,n.a.,n.a.,n.a.,n.a.,n.a.,n.a.,75,n.a.,n.a.,n.a.,n.a.,n.a.,n.a.,n.a.,n.a.,n.a.
902.,OFAR S.P.A.,VIA DELL'INDUSTRIA 5,VISANO,Italy,2550,n.a.,59,74,85,78,87,71,52,67,131,n.a.,183,183,181,165,150,134,136,137,138
389.,OLEIFICIO SAN GIORGIO S.P.A.,VIA ETTORE MAJORANA 19,SAN GIORGIO DI NOGARO,Italy,1041,n.a.,58,46,71,43,84,75,26,1,0,n.a.,35,33,32,27,22,13,4,n.a.,1
222.,OLICAR - SOCIETA' PER AZIONI,"VIA DON ORIONE,39",BRA,Italy,3530,n.a.,n.a.,n.a.,n.a.,n.a.,n.a.,n.a.,n.a.,n.a.,n.a.,n.a.,n.a.,n.a.,n.a.,n.a.,n.a.,n.a.,n.a.,n.a.,n.a.
77.,OLON S.P.A.,STP RIVOLTANA,RODANO,Italy,2110,n.a.,329,n.a.,n.a.,n.a.,n.a.,n.a.,n.a.,n.a.,n.a.,n.a.,"1,341",n.a.,n.a.,n.a.,n.a.,n.a.,n.a.,n.a.,n.a.
493.,OLT OFF SHORE LNG TOSCANA SPA,VIA PASSIONE 8,MILANO,Italy,5222,n.a.,110,91,50,39,21,15,1,1,0,n.a.,18,18,19,22,20,14,8,6,n.a.
344.,OMVP SRL,,,Italy,,n.a.,n.a.,n.a.,n.a.,n.a.,n.a.,n.a.,n.a.,n.a.,n.a.,n.a.,n.a.,n.a.,n.a.,n.a.,n.a.,n.a.,n.a.,n.a.,n.a.
703.,ONDULINE ITALIA S.R.L.,VIA DELLA SIBOLLA 52-53,ALTOPASCIO,Italy,2332,n.a.,10,10,11,19,20,22,23,22,27,n.a.,21,23,54,65,73,85,82,n.a.,106
688.,OPERA GROUP S.R.L.,VIA MARTINELLA 74,MARANELLO,Italy,2331,n.a.,69,62,61,58,60,64,63,59,61,n.a.,236,223,218,214,219,224,240,256,259
579.,ORION ENGINEERED CARBONS S.A.,ROUTE DE TREVES 6,SENNINGERBERG,Luxembourg,2059,n.a.,"1,036","1,117","1,323","1,346","1,409",n.a.,n.a.,n.a.,n.a.,n.a.,"1,460","1,527","1,342",n.a.,n.a.,n.a.,n.a.,n.a.,n.a.
49.,ORMEA SOCIETA' COOPERATIVA SOCIALE O.N.L.U.S.,VIA GATTICO 9,ROMA,Italy,8891,n.a.,n.a.,0,1,1,1,1,1,1,1,n.a.,n.a.,16,15,17,18,17,18,18,73
2.,ORSA S.R.L.,VIA AMBROGIO COLOMBO 60,GORLA MINORE,Italy,2000,n.a.,0,23,24,27,29,30,28,25,35,n.a.,n.a.,101,113,131,131,142,143,145,156
167.,ORTOFRUITS 85 - SOC. COOP. A R.L.,VIA GIACOMO BUDETTI 128,PONTECAGNANO FAIANO,Italy,1030,0,0,0,-1,7,14,11,11,9,7,1,2,2,4,48,48,105,n.a.,5,n.a.
464.,OSCAR FOR PORCELAIN AND CERAMIC PRODUCTION S.R.L.,VIA RADICI IN PIANO 422,SASSUOLO,Italy,2331,n.a.,19,6,n.a.,n.a.,n.a.,n.a.,n.a.,n.a.,n.a.,n.a.,93,90,n.a.,n.a.,n.a.,n.a.,n.a.,n.a.,n.a.
37.,OSPEDALE SAN RAFFAELE S.R.L.,VIA OLGETTINA 60,MILANO,Italy,8610,n.a.,603,596,573,552,349,n.a.,n.a.,n.a.,n.a.,n.a.,"4,131","3,961","3,890","3,682","3,805",n.a.,n.a.,n.a.,n.a.
629.,OTTANA ENERGIA SOCIETA' PER AZIONI- S.P.A. OPPURE IN FORMA ABBREVIATA: OTTANA ENERGIA S.P.A,STP 17 SNC,OTTANA,Italy,3511,n.a.,41,57,61,82,92,115,95,96,83,n.a.,85,90,90,92,91,95,112,96,97
933.,OTTANA POLIMERI S.R.L.,ZIN S.P. 17 KM.18 S.N.C.,OTTANA,Italy,2220,n.a.,1,2,32,154,137,57,25,n.a.,n.a.,n.a.,72,78,93,109,118,122,122,n.a.,n.a.
841.,OXON ITALIA - S.P.A.,VIA CARROCCIO 8,MILANO,Italy,2010,n.a.,212,200,160,176,146,141,123,152,163,n.a.,243,239,223,222,220,197,202,205,210
624.,P.R.I.M.A. S.R.L.,VIA DEL CARPINO NERO 3,MONTEVIALE,Italy,4676,n.a.,31,29,25,21,18,16,12,10,8,n.a.,17,17,14,16,16,14,13,6,9
794.,PANARIAGROUP INDUSTRIE CERAMICHE S.P.A.,VIA PANARIA BASSA 22A,FINALE EMILIA,Italy,2331,n.a.,390,353,301,281,288,297,289,290,335,n.a.,"1,656","1,590","1,558","1,589","1,627",n.a.,"1,675","1,741","1,818"
911.,PAPERGROUP S.P.A.,VIA TAZIO NUVOLARI 23,CAPANNORI,Italy,1722,n.a.,n.a.,59,55,54,53,54,51,43,44,n.a.,n.a.,150,129,129,131,131,126,119,124
453.,PAPIRO SARDA S.R.L.,LOC GROGASTU ZONA INDUSTRIAL,ASSEMINI,Italy,1721,n.a.,7,6,6,5,5,6,5,4,4,n.a.,15,15,14,14,13,13,13,13,17
716.,PAPIRO SUD - S.R.L. (INDUSTRIE CARTARIE) IN LIQUIDAZIONE,VIA GIUSEPPE TAGLIAMONTE 2,TORRE ANNUNZIATA,Italy,1712,n.a.,n.a.,n.a.,n.a.,2,2,26,22,9,9,n.a.,n.a.,n.a.,n.a.,n.a.,1,5,4,3,2
320.,PARA' S.P.A.,VIA FERRUCCIO RADAELLI 56,PONTIROLO NUOVO,Italy,1392,n.a.,75,72,73,73,73,80,74,67,90,n.a.,342,347,354,361,367,371,366,364,371
706.,PARMALAT S.P.A.,VIA GUGLIELMO SILVA 9,MILANO,Italy,1051,n.a.,"6,530","6,459","5,586","5,405","5,270","4,588","4,475","4,423","3,940",n.a.,"26,180","27,592","16,472","16,352","15,645","13,932","13,930","13,788","14,168"
621.,PECOS - S.P.A. IN LIQUIDAZIONE,VIA FERROVIA,CASTEL SAN GIORGIO,Italy,1060,n.a.,n.a.,0,0,0,0,n.a.,7,11,14,n.a.,n.a.,n.a.,n.a.,17,17,n.a.,18,17,23
509.,PERANO ENRICO & FIGLI - S.P.A.,VIA ARMANDO DIAZ 68,SAN VALENTINO TORIO,Italy,1000,n.a.,15,18,16,11,12,11,10,9,10,n.a.,38,45,13,45,36,30,39,34,32
482.,PETROFF AIR,PR-KT SOLNTSEVSKII D.15,MOSCOW,Russian Federation,5121,n.a.,n.a.,n.a.,n.a.,0,0,0,1,1,0,n.a.,n.a.,n.a.,n.a.,21,21,21,21,28,19
178.,PETRONAS LUBRICANTS ITALY S.P.A.,VIA SANTENA 1,VILLASTELLONE,Italy,1920,n.a.,974,975,962,937,954,711,873,729,157,n.a.,"1,445","1,414","1,400","1,399",695,n.a.,689,"1,261",689
81.,PIAGGIO & C. S.P.A.,VIA RINALDO PIAGGIO 25,PONTEDERA,Italy,3091,n.a.,"1,422","1,401","1,304","1,272","1,468","1,639","1,606","1,623","1,704",n.a.,"6,706","7,053","7,510","7,688","8,129","3,810","7,529","7,300","6,208"
425.,PICHI,RUE DES BEGARDS 2,LIEGE,Belgium,5610,n.a.,n.a.,n.a.,n.a.,n.a.,n.a.,n.a.,n.a.,n.a.,n.a.,n.a.,6,7,7,6,5,4,4,4,4
87.,PILKINGTON ITALIA S.P.A.,VIA ZONA INDUSTRIALE,SAN SALVO,Italy,2312,n.a.,472,451,446,456,469,553,553,481,456,n.a.,"2,324","2,351","2,427","2,427","2,485","2,385","2,277","2,268","2,364"
236.,PIONEER HI-BRED ITALIA SEMENTI S.R.L.,VIA PROVINCIALE 42-44,SISSA TRECASALI,Italy,1061,n.a.,26,23,24,19,15,14,12,10,17,n.a.,86,87,96,96,86,75,71,74,69
613.,PIRELLI INDUSTRIE PNEUMATICI S.R.L.,VIA BRESCIA 8,SETTIMO TORINESE,Italy,2211,n.a.,193,189,174,159,187,321,227,134,63,n.a.,"1,528","1,534","1,572","1,600","1,571","1,280","1,307",763,586
278.,PIV 1905 S.R.L.,VIA GIOSUE' CARDUCCI 8,MILANO,Italy,1310,n.a.,n.a.,n.a.,n.a.,n.a.,n.a.,n.a.,2,4,0,n.a.,n.a.,n.a.,n.a.,n.a.,n.a.,n.a.,72,73,n.a.
781.,PKARTON S.P.A. - IN LIQUIDAZIONE,VIA ULRICO HOEPLI 3,MILANO,Italy,1720,n.a.,n.a.,n.a.,n.a.,n.a.,25,59,54,44,43,n.a.,n.a.,n.a.,n.a.,n.a.,146,155,144,149,148
187.,PM3 S.R.L.,STR DELLA FERRIERA 17,VERONA,Italy,1712,n.a.,19,17,7,n.a.,n.a.,n.a.,n.a.,n.a.,n.a.,n.a.,46,44,43,n.a.,n.a.,n.a.,n.a.,n.a.,n.a.
666.,POLIOLI S.P.A.,VIA LORENZO PEROSI 40,TORTONA,Italy,2059,n.a.,27,24,17,11,9,n.a.,n.a.,n.a.,n.a.,n.a.,74,74,104,102,88,n.a.,n.a.,n.a.,n.a.
412.,POLIS MANIFATTURE CERAMICHE S.P.A.,STC PAVESA 24,GONZAGA,Italy,2331,n.a.,57,48,45,41,41,43,40,36,46,n.a.,255,248,194,217,220,209,224,239,252
562.,POLYNT S.P.A.,VIA ENRICO FERMI 51,SCANZOROSCIATE,Italy,2010,n.a.,635,655,695,636,703,683,616,424,435,n.a.,"1,202","1,211","1,201","1,203","1,230","1,232","1,220","1,217",915
333.,POMIDORO S.R.L.,VIA CASA ATTANASIO 306,SANT'ANTONIO ABATE,Italy,1039,n.a.,n.a.,n.a.,6,4,0,n.a.,n.a.,n.a.,n.a.,n.a.,n.a.,n.a.,6,n.a.,n.a.,n.a.,n.a.,n.a.,n.a.
384.,POMILIA SPA,VLE CROCE 41,NOCERA SUPERIORE,Italy,1039,n.a.,10,11,11,11,9,11,12,14,15,n.a.,19,56,20,55,58,71,58,78,82
102.,POMODORO 43044 SRL,VIA TRAVERSETOLO 28,MONTECHIARUGOLO,Italy,,n.a.,n.a.,n.a.,n.a.,n.a.,n.a.,n.a.,n.a.,n.a.,n.a.,n.a.,n.a.,n.a.,n.a.,n.a.,n.a.,n.a.,n.a.,n.a.,n.a.
395.,PONTENOSSA S.P.A,VIA VINCENZO VIVIANI 8,MILANO,Italy,2443,n.a.,50,42,42,36,40,40,40,36,27,n.a.,74,78,70,74,78,79,79,80,75
434.,PORTOVESME S.R.L.,PLE DEI CADUTI DELLA MONTAGNOLA 72,ROMA,Italy,2443,n.a.,609,591,510,374,248,249,247,232,450,n.a.,644,662,675,707,671,647,649,667,n.a.
717.,POWERFLOR S.R.L.,STP 55 MOLFETTA-BITONTO KM. 2+430,MOLFETTA,Italy,3511,n.a.,66,69,71,75,74,66,2,0,0,n.a.,19,19,19,19,19,19,18,1,1
415.,PRATO NEVOSO TERMOENERGY SOCIETA' A RESPONSABILITA' LIMITATA SIGLABILE PRANETERM S.R.L.,VIA MONTE MORO SNC,FRABOSA SOTTANA,Italy,3511,n.a.,3,3,3,4,5,4,3,1,0,n.a.,2,3,3,2,3,3,3,2,n.a.
338.,PRIMA VERA S.P.A.,VIA GIOVANNI DA UDINE 15,MILANO,Italy,8110,n.a.,n.a.,n.a.,96,101,97,85,76,47,26,n.a.,n.a.,n.a.,262,226,188,164,153,112,65
521.,PRINCES INDUSTRIE ALIMENTARI S.R.L.,CSO VITTORIO EMANUELE 23,ANGRI,Italy,1039,n.a.,n.a.,179,194,191,n.a.,n.a.,n.a.,n.a.,n.a.,n.a.,n.a.,718,642,667,n.a.,n.a.,n.a.,n.a.,n.a.
40.,PROCTER & GAMBLE ITALIA S.P.A.,VLE GIORGIO RIBOTTA 11,ROMA,Italy,2041,118,115,124,126,136,167,165,166,160,171,672,660,687,832,927,944,962,968,983,"1,057"
9.,PROFILGLASS S.P.A.,VIA MEDA 28,FANO,Italy,2442,n.a.,470,442,375,342,317,295,278,207,253,n.a.,618,555,485,485,481,474,456,437,470
522.,PROGETTO CARTA SRL - IN LIQUIDAZIONE,VIA PRETORIANA 45,ASCOLI PICENO,Italy,1712,n.a.,n.a.,n.a.,4,5,3,0,n.a.,n.a.,n.a.,n.a.,n.a.,n.a.,30,30,23,n.a.,n.a.,n.a.,n.a.
360.,R.D.M. OVARO S.P.A.,VIA CARTIERA 27,OVARO,Italy,1712,n.a.,44,43,44,44,22,0,0,0,0,n.a.,154,157,156,156,156,n.a.,n.a.,n.a.,n.a.
559.,RADICI CHIMICA S.P.A.,VIA GIUSEPPE VERDI 11,BERGAMO,Italy,2059,n.a.,238,331,338,346,345,419,267,171,206,n.a.,328,331,329,327,324,8,307,308,314
141.,RADICI TESSUTI S.R.L. IN LIQUIDAZIONE,VIA CA' ANTONELLI 55,GANDINO,Italy,1320,n.a.,n.a.,0,0,0,0,0,0,0,2,n.a.,n.a.,n.a.,n.a.,n.a.,n.a.,n.a.,n.a.,n.a.,67
156.,RADICI YARN S.P.A.,VIA GIUSEPPE VERDI 11,BERGAMO,Italy,2016,n.a.,172,180,198,200,211,221,186,111,304,n.a.,360,365,372,446,469,501,524,548,14
433.,RADICIFIL S.P.A.,VIA GIUSEPPE VERDI 11,BERGAMO,Italy,2060,n.a.,138,150,160,159,155,165,131,86,1,n.a.,274,271,266,263,259,244,228,246,n.a.
38.,RAFFINERIA DI GELA S.P.A.,CNT PIANA DEL SIGNORE SNC,GELA,Italy,1920,n.a.,25,32,178,447,507,641,674,512,650,n.a.,456,636,"1,020","1,020","1,221","1,221","1,322","1,387","1,270"
151.,RAFFINERIA DI MILAZZO SOCIETA' CONSORTILE PER AZIONI (IN BREVE RAFFINERIA DI MILAZZO S.C.P.A. ),CNT MANGIAVACCA SN,MILAZZO,Italy,1920,n.a.,545,549,710,n.a.,n.a.,n.a.,n.a.,n.a.,n.a.,n.a.,626,622,620,n.a.,n.a.,n.a.,n.a.,n.a.,n.a.
680.,RAFFINERIA DI ROMA SPA,VIA DI MALAGROTTA 226,ROMA,Italy,1920,n.a.,33,34,38,37,124,n.a.,140,136,146,n.a.,87,126,126,130,235,n.a.,260,266,272
460.,RAFFMETAL S.P.A.,VIA MALPAGA 82,CASTO,Italy,2442,n.a.,383,435,423,382,374,394,331,193,332,n.a.,339,332,319,312,300,287,265,260,251
869.,RAIPAPER S.R.L.,VIA MERGELLINA 220,NAPOLI,Italy,1710,n.a.,9,9,9,9,8,8,1,n.a.,n.a.,n.a.,52,48,49,45,37,43,n.a.,n.a.,n.a.
265.,RAPTOR GROUP HOLDINGS LP,50 ROWES WHARF,BOSTON,United States of America,6420,n.a.,n.a.,n.a.,1,n.a.,n.a.,n.a.,n.a.,n.a.,n.a.,n.a.,n.a.,n.a.,n.a.,n.a.,n.a.,n.a.,n.a.,n.a.,n.a.
700.,"RAVENNA SERVIZI INDUSTRIALI SOCIETA' CONSORTILE PER AZIONI O, IN FORMA ABBREVIATA, RSI S.C.P.A.",VIA BAIONA 107,RAVENNA,Italy,7490,n.a.,0,23,26,27,29,26,25,26,25,n.a.,n.a.,133,132,132,133,133,133,132,130
379.,RCR CRISTALLERIA ITALIANA SPA,,,Italy,,n.a.,n.a.,n.a.,n.a.,n.a.,n.a.,n.a.,n.a.,n.a.,n.a.,n.a.,n.a.,n.a.,n.a.,n.a.,n.a.,n.a.,n.a.,n.a.,n.a.
788.,RDB TERRECOTTE S.R.L.,VIA DELL'EDILIZIA 1,PONTENURE,Italy,2332,n.a.,n.a.,n.a.,n.a.,n.a.,n.a.,7,8,9,11,n.a.,n.a.,n.a.,n.a.,n.a.,n.a.,33,55,55,65
829.,REA DALMINE S.P.A.,VIA DOSSI S.N.C.,DALMINE,Italy,3800,n.a.,20,19,19,25,25,22,28,38,39,n.a.,41,42,43,38,34,35,37,38,42
898.,REAGENS S.P.A.,VIA CODRONCHI 4,SAN GIORGIO DI PIANO,Italy,2059,n.a.,220,206,190,184,188,161,158,129,148,n.a.,364,351,345,338,327,324,325,322,326
720.,REGGIANI TESSILE SPA,"CSO DI PORTA ROMANA,3",MILANO,Italy,1413,n.a.,n.a.,n.a.,n.a.,n.a.,n.a.,n.a.,n.a.,3,11,n.a.,n.a.,n.a.,n.a.,n.a.,n.a.,n.a.,n.a.,57,82
170.,RENO DE MEDICI S.P.A.,VIALE ISONZO 25,MILANO,Italy,1712,n.a.,485,445,440,486,478,521,518,447,462,n.a.,"1,536","1,166","1,192","1,303","1,349","1,502","1,595","1,618","1,641"
74.,RETE FERROVIARIA ITALIANA - SOCIETA' PER AZIONI IN SIGLA RFI S .P.A.,PZA DELLA CROCE ROSSA 1,ROMA,Italy,4900,n.a.,"3,374","3,105","2,962","3,142","3,054","2,873","3,028","3,598","3,949",n.a.,"25,382","25,545","26,369","27,299","27,101","28,120","30,814","32,260","33,543"
593.,RHODIA ITALIA SPA,,,Italy,,n.a.,n.a.,n.a.,n.a.,n.a.,n.a.,n.a.,n.a.,n.a.,n.a.,n.a.,n.a.,n.a.,n.a.,n.a.,n.a.,n.a.,n.a.,n.a.,n.a.
817.,RIESCO S.R.L.,VIA SASSOFERRATO 1,MILANO,Italy,3530,n.a.,13,3,0,n.a.,n.a.,n.a.,n.a.,n.a.,n.a.,n.a.,42,37,n.a.,n.a.,n.a.,n.a.,n.a.,n.a.,n.a.
587.,RIFINIZIONE FIN-MODE - S.R.L. IN LIQUIDAZIONE,VIA DEL MOLINUZZO 65/H,PRATO,Italy,1320,n.a.,n.a.,n.a.,n.a.,n.a.,n.a.,n.a.,6,7,8,n.a.,n.a.,n.a.,n.a.,n.a.,n.a.,n.a.,66,68,70
519.,RIFINIZIONE S. STEFANO S.P.A.,VIA AREZZO 35,PRATO,Italy,1330,n.a.,18,18,19,18,17,17,16,11,18,n.a.,151,151,145,144,145,144,144,151,154
124.,RING MILL S.P.A.,VIA VALERIANA 103,DUBINO,Italy,2550,n.a.,87,98,97,90,102,112,92,111,167,n.a.,213,211,207,203,205,203,208,n.a.,n.a.
536.,RINO MASTROTTO GROUP S.P.A.,VIA DELL'ARTIGIANATO 100,TRISSINO,Italy,1511,n.a.,250,259,263,286,281,300,248,196,258,n.a.,787,793,830,883,982,987,920,785,768
724.,RISO SCOTTI ENERGIA S.R.L. IN LIQUIDAZIONE,VIA MONSIGNORE GIUSEPPE BALLERINI,PAVIA,Italy,3511,n.a.,n.a.,0,0,0,0,0,12,13,14,n.a.,n.a.,n.a.,7,n.a.,3,10,13,10,12
131.,RISO TICINO SOC. COOP.,VIA CASCINA GRUA SNC,LOMELLO,Italy,1061,n.a.,35,40,42,43,41,40,44,48,44,n.a.,31,33,37,37,36,36,37,38,39
107.,RISPOLI LUIGI & C. - S.R.L.,VIA GIUSEPPE MAZZINI 3,ALTAVILLA SILENTINA,Italy,1030,n.a.,7,7,6,7,5,5,6,5,6,n.a.,21,12,19,18,13,19,25,20,21
52.,RIVA ACCIAIO S.P.A.,VLE CERTOSA 249,MILANO,Italy,2410,n.a.,438,650,788,743,913,"1,076",846,532,"1,254",n.a.,899,"1,324","1,401","1,397","1,372","1,402","1,481","1,554","1,563"
176.,RIZZICONI ENERGIA - SOCIETA' PER AZIONI,VIA ENRICO ALBARETO 21 - NERO,GENOVA,Italy,3511,n.a.,70,69,72,67,79,74,81,79,24,n.a.,29,29,29,30,31,32,n.a.,34,31
901.,ROCCA PAPER MILL S.R.L.,VIA MUSSA 30,PIOMBINO DESE,Italy,1712,n.a.,24,26,23,16,n.a.,n.a.,n.a.,n.a.,n.a.,n.a.,34,34,35,33,n.a.,n.a.,n.a.,n.a.,n.a.
752.,ROCHESTER AVIATION INC,1205 SCOTTSVILLE RD,ROCHESTER,United States of America,3030,3,n.a.,n.a.,n.a.,n.a.,n.a.,n.a.,n.a.,n.a.,n.a.,15,n.a.,n.a.,n.a.,n.a.,n.a.,n.a.,n.a.,n.a.,n.a.
741.,RODACCIAI S.P.A.,VIA AURELIO SAFFI 34,MILANO,Italy,2410,n.a.,n.a.,297,309,n.a.,n.a.,n.a.,n.a.,n.a.,n.a.,n.a.,n.a.,604,631,n.a.,n.a.,n.a.,n.a.,n.a.,n.a.
685.,RODOLFI MANSUETO S.P.A.,STR DI QUALATICO 14,COLLECCHIO,Italy,1039,n.a.,n.a.,73,70,58,n.a.,n.a.,n.a.,n.a.,n.a.,n.a.,n.a.,210,178,165,n.a.,n.a.,n.a.,n.a.,n.a.
891.,ROHM AND HAAS ITALIA S.R.L.,VIA FRANCESCO ALBANI 65,MILANO,Italy,2000,n.a.,36,40,38,37,33,33,48,52,57,n.a.,215,223,223,43,177,31,294,396,468
670.,RONDINE - S.P.A.,VIA EMILIA OVEST 53/A,RUBIERA,Italy,2331,n.a.,110,89,80,71,64,65,57,46,70,n.a.,282,283,292,287,274,294,296,206,234
595.,ROONEY HOLDINGS INC,5601 S 122ND EAST AVE,TULSA,United States of America,4120,3,n.a.,n.a.,n.a.,n.a.,n.a.,n.a.,n.a.,n.a.,n.a.,"3,500",n.a.,n.a.,n.a.,n.a.,n.a.,n.a.,n.a.,n.a.,n.a.
607.,ROP AVIATION INC,35 E 62ND ST,NEW YORK,United States of America,,n.a.,n.a.,n.a.,n.a.,n.a.,n.a.,n.a.,n.a.,n.a.,n.a.,n.a.,n.a.,n.a.,n.a.,n.a.,n.a.,n.a.,n.a.,n.a.,n.a.
217.,ROQUETTE ITALIA S.P.A.,VIA SERRAVALLE 26,CASSANO SPINOLA,Italy,1062,n.a.,423,413,427,443,436,439,354,351,425,n.a.,474,474,471,474,473,456,461,465,472
732.,ROSEN - ROSIGNANO ENERGIA SPA,VIA PIAVE 6,ROSIGNANO MARITTIMO,Italy,3511,n.a.,229,270,280,340,342,308,290,225,311,n.a.,39,43,43,44,43,42,42,42,38
757.,ROSSIFLOOR S.P.A.,VIA VITTORIO VENETO 13,MARANO VICENTINO,Italy,1393,n.a.,n.a.,27,20,19,16,16,17,14,21,n.a.,n.a.,132,116,104,118,120,122,131,137
196.,RUBIERA SPECIAL STEEL S.P.A.,VIA VALERIANA 103,DUBINO,Italy,2410,n.a.,74,78,76,9,n.a.,n.a.,n.a.,n.a.,n.a.,n.a.,110,103,99,90,n.a.,n.a.,n.a.,n.a.,n.a.
489.,S. GIULIANO S.R.L.,PZA MARTIRI DELLA LIBERTA' 4,NOVARA,Italy,6820,n.a.,0,0,0,0,0,0,0,0,0,n.a.,n.a.,n.a.,n.a.,n.a.,n.a.,n.a.,n.a.,n.a.,n.a.
463.,S.AN.GE. S.C. A R.L.,VLE SARCA 336,MILANO,Italy,4120,n.a.,14,14,15,14,13,26,12,0,0,n.a.,n.a.,n.a.,n.a.,n.a.,n.a.,n.a.,n.a.,n.a.,n.a.
445.,S.EL.IS. LAMPEDUSA S.P.A.,VLE STRASBURGO 189,PALERMO,Italy,3510,n.a.,9,11,13,15,14,12,11,11,12,n.a.,32,31,33,33,36,35,37,40,7
62.,S.ENE.CA. SOCIETA' ENERGIA CAREGGI S.R.L.,VIA GIOVANNI DEL PIAN DEI CARPINI,FIRENZE,Italy,4120,n.a.,29,29,30,22,9,8,7,6,6,n.a.,n.a.,n.a.,n.a.,n.a.,n.a.,n.a.,n.a.,n.a.,n.a.
5.,S.I.A.I. S.R.L. SEMPLIFICATA,VIA DELL'AGRICOLTURA SNC,VITERBO,Italy,4779,n.a.,0,0,0,n.a.,n.a.,n.a.,n.a.,n.a.,n.a.,n.a.,4,4,n.a.,n.a.,n.a.,n.a.,n.a.,n.a.,n.a.
416.,S.I.C.E.T. - S.R.L.,VIA AOSTA 71,IVREA,Italy,4120,n.a.,3,4,2,4,4,4,6,5,4,n.a.,14,13,14,14,18,18,n.a.,22,18
672.,S.I.M.A.V. - S.P.A.,"VIA ETTORE DE SONNAZ,19",TORINO,Italy,2829,n.a.,n.a.,n.a.,n.a.,n.a.,n.a.,n.a.,n.a.,n.a.,n.a.,n.a.,n.a.,n.a.,n.a.,n.a.,n.a.,n.a.,n.a.,n.a.,n.a.
728.,S.I.RE. S.P.A.,STS 10 S.N.C.,ARENA PO,Italy,2220,n.a.,32,33,28,23,17,14,10,6,8,n.a.,33,33,28,30,30,27,20,n.a.,12
561.,S.MED.E. PANTELLERIA S.P.A.,VLE STRASBURGO 189,PALERMO,Italy,3510,n.a.,11,14,16,16,16,15,13,11,15,n.a.,45,45,46,47,47,47,47,47,48
830.,S.N.F. STAZIONI NORD FACILITY S.C. A R.L.,VIA DEI VILLINI 3/A,ROMA,Italy,4120,n.a.,15,10,10,9,7,n.a.,n.a.,n.a.,n.a.,n.a.,81,72,76,72,57,n.a.,n.a.,n.a.,n.a.
4.,S.P.A. SICULO EMILIANA PER LA PRODUZIONE DI CARTA E CARTONI S.A.C.C.A.,VIA PASTERIA 17,CALATABIANO,Italy,1712,n.a.,6,7,6,6,5,5,5,3,5,n.a.,19,19,18,19,18,18,19,14,17
3.,"S.T.S. SOCIETA' CONSORTILE TRASPORTI SFUSI A RESPONSABILITA' LIMITATA, IN SIGLA S.T.S. S.R.L.",VIA PER OSPEDALETTO 20,CASTEL IVANO,Italy,4941,n.a.,14,13,13,13,14,13,13,11,12,n.a.,6,6,6,6,6,6,n.a.,6,6
758.,SAAR DEPOSITI PORTUALI SPA, PONTE PALEOCAPA,GENOVA,Italy,5210,n.a.,15,11,12,11,11,13,9,11,9,n.a.,47,46,45,44,43,40,39,38,36
239.,SACAL - SOCIETA' ALLUMINIO CARISIO - S.P.A.,STR COMPLANARE 10,CARISIO,Italy,2442,n.a.,87,138,126,118,120,138,123,61,155,n.a.,117,114,109,107,107,109,102,104,118
649.,SACCI - SOCIETA' A RESPONSABILITA' LIMITATA IN LIQUIDAZIONE,VLE DI VILLA MASSIMO 47,ROMA,Italy,2361,n.a.,n.a.,68,107,116,144,191,184,n.a.,n.a.,n.a.,n.a.,419,488,608,655,669,304,n.a.,n.a.
592.,SADAM ABRUZZO SPA,VIA DEGLI AGRESTI 4,BOLOGNA,Italy,2893,n.a.,n.a.,n.a.,n.a.,n.a.,n.a.,n.a.,n.a.,n.a.,n.a.,n.a.,n.a.,n.a.,n.a.,n.a.,n.a.,n.a.,n.a.,n.a.,n.a.
83.,SADAM CASTIGLIONESE SPA,VIA AGRESTI 4,BOLOGNA,Italy,1081,n.a.,n.a.,n.a.,n.a.,n.a.,n.a.,n.a.,n.a.,n.a.,n.a.,n.a.,n.a.,n.a.,n.a.,n.a.,n.a.,n.a.,n.a.,n.a.,n.a.
248.,SADAM ISZ SPA,VIA TOGLIATTI 58,VILLASOR,Italy,1081,n.a.,n.a.,n.a.,n.a.,n.a.,n.a.,n.a.,n.a.,n.a.,n.a.,n.a.,n.a.,n.a.,n.a.,n.a.,n.a.,n.a.,n.a.,n.a.,n.a.
181.,SADAM S.P.A.,VIA DEGLI AGRESTI 4/E 6,BOLOGNA,Italy,1081,n.a.,212,355,325,346,455,440,367,326,409,n.a.,127,286,384,411,454,505,525,562,666
41.,SADEPAN CHIMICA S.R.L.,VLE LOMBARDIA 29,VIADANA,Italy,2016,n.a.,151,155,162,177,178,203,0,n.a.,n.a.,n.a.,129,120,125,134,148,152,n.a.,n.a.,n.a.
133.,SAFTA S.P.A.,VIA CARLO MUSSA 266,CASTELLAZZO BORMIDA,Italy,2222,n.a.,128,118,122,116,112,111,96,86,99,n.a.,355,344,332,317,310,303,304,313,308
325.,SAINT-GOBAIN GLASS ITALIA S.P.A.,VIA PONTE A PIGLIERI 2,PISA,Italy,2310,n.a.,131,121,115,108,97,107,94,90,160,n.a.,377,359,364,358,357,356,336,299,385
590.,SAINT-GOBAIN PPC ITALIA S.P.A.,VIA ETTORE ROMAGNOLI 6,MILANO,Italy,2030,n.a.,232,231,225,228,237,273,208,131,167,n.a.,616,619,656,679,685,734,288,374,342
104.,SAIT ABRASIVI S.P.A.,VIA LUIGI RASPINI 21,SETTIMO TORINESE,Italy,2391,n.a.,74,74,77,78,76,81,78,66,89,n.a.,332,333,340,337,337,349,351,349,369
253.,SAME DEUTZ-FAHR ITALIA S.P.A.,VLE FRANCESCO CASSANI 15,TREVIGLIO,Italy,2830,n.a.,916,917,874,879,799,792,654,578,789,n.a.,"1,324","1,317","1,281","1,277","1,249","1,197","1,253",n.a.,"1,439"
652.,SAMPOL ITALIA S.R.L.,VIA ELEONORA DUSE 53,ROMA,Italy,4321,n.a.,8,8,7,3,0,n.a.,n.a.,n.a.,n.a.,n.a.,8,8,9,6,n.a.,n.a.,n.a.,n.a.,n.a.
619.,SAN DOMENICO VETRARIA S.P.A.,VIA SAN DOMENICO,OTTAVIANO,Italy,2310,n.a.,33,32,32,25,26,27,25,25,29,n.a.,88,89,89,93,89,92,89,n.a.,85
604.,SAN PELLEGRINO S.R.L.,STR DI VAGNO 15,NARNI,Italy,3511,n.a.,2,2,2,3,3,3,1,0,0,n.a.,n.a.,n.a.,n.a.,n.a.,n.a.,n.a.,n.a.,n.a.,n.a.
282.,SANDOZ INDUSTRIAL PRODUCTS S.P.A.,CSO VERONA 165,ROVERETO,Italy,2110,n.a.,90,84,80,76,76,70,60,61,62,n.a.,153,158,162,158,151,155,160,158,159
159.,SANGALLI VETRO MANFREDONIA S.P.A.,VIA CONEGLIANO 75/G,SUSEGANA,Italy,2311,n.a.,n.a.,n.a.,118,111,116,120,77,0,n.a.,n.a.,n.a.,n.a.,368,375,373,311,258,227,n.a.
492.,SANOFI S.P.A.,VLE LUIGI BODIO 37/B,MILANO,Italy,2120,n.a.,"1,597","1,607","1,611","1,550","1,461","1,511","1,480","1,466","1,450",n.a.,"2,116","2,332","2,358","2,452","2,691","2,949","2,559","2,641","2,883"
870.,SANPAOLINA SRL IN LIQUIDAZIONE,VIA DANTE ALIGHIERI 149,SCAFATI,Italy,1039,n.a.,0,0,0,0,1,12,16,20,21,n.a.,n.a.,1,3,2,3,121,127,247,128
363.,SAPIO PRODUZIONE IDROGENO OSSIGENO SRL,VIA SAN MAURILIO 13,MILANO,Italy,2011,n.a.,241,239,235,250,257,269,245,226,272,n.a.,616,628,625,657,661,672,681,688,709
801.,SARDA LATERIZI S.R.L.,ZIN - VIA PIGAFETTA 1,PORTO TORRES,Italy,2332,n.a.,2,0,2,3,3,4,5,5,7,n.a.,n.a.,n.a.,22,32,37,37,37,40,42
723.,SARL ORI MARTIN FRANCE,22 B RUE DUPONT DES LOGES,METZ,France,4672,n.a.,n.a.,1,1,1,1,n.a.,0,0,0,n.a.,n.a.,n.a.,n.a.,n.a.,n.a.,n.a.,n.a.,n.a.,n.a.
897.,SARLUX S.R.L.,STS 195,SARROCH,Italy,1920,n.a.,904,"1,292",803,679,623,553,546,500,750,n.a.,"1,171","1,172","1,095",509,2,2,9,14,24
145.,SASOL ITALY ENERGIA S.R.L.,CNT MARCELLINO SNC,AUGUSTA,Italy,3511,18,2,0,0,0,n.a.,n.a.,n.a.,n.a.,n.a.,n.a.,n.a.,n.a.,n.a.,n.a.,n.a.,n.a.,n.a.,n.a.,n.a.
331.,SASOL ITALY S.P.A.,VIA VITTOR PISANI 20,MILANO,Italy,1920,"1,113",865,"1,079",n.a.,n.a.,n.a.,n.a.,n.a.,n.a.,n.a.,615,620,646,n.a.,n.a.,n.a.,n.a.,n.a.,n.a.,n.a.
256.,SAVOIA ITALIA S.P.A.,VIA GHIAROLA NUOVA 77,FIORANO MODENESE,Italy,2331,n.a.,32,30,29,28,33,36,35,33,37,n.a.,123,122,128,137,143,144,138,133,144
487.,SCA PACKAGING ITALIA SPA,VIA DEL FRIZZONE SNC,PORCARI,Italy,,n.a.,n.a.,n.a.,n.a.,n.a.,n.a.,n.a.,n.a.,n.a.,n.a.,n.a.,n.a.,n.a.,n.a.,n.a.,n.a.,n.a.,n.a.,n.a.,n.a.
43.,SCARLINO ENERGIA S.R.L.,VIA BENEDETTO VARCHI 34,FIRENZE,Italy,3511,n.a.,n.a.,n.a.,n.a.,n.a.,n.a.,16,21,20,3,n.a.,n.a.,n.a.,n.a.,n.a.,n.a.,60,60,60,63
456.,SCIANATICO LATERIZI S.R.L.,VIA MELO DA BARI 227,BARI,Italy,2332,n.a.,5,4,4,4,0,n.a.,n.a.,n.a.,n.a.,n.a.,40,49,49,49,46,n.a.,n.a.,n.a.,n.a.
697.,SEA ENERGIA S.P.A.,PRE AEROPORTO MILANO LINATE,SEGRATE,Italy,3511,n.a.,46,49,53,59,72,63,53,46,50,n.a.,29,29,28,28,26,26,25,23,24
327.,SEA SOCIETA' ELETTRICA DI FAVIGNANA S.P.A.,VIA EMERICO AMARI 8,PALERMO,Italy,2733,n.a.,8,7,8,10,10,9,8,8,7,n.a.,42,41,41,37,37,35,n.a.,n.a.,41
465.,SEDAMYL S.P.A.,VIA MONVISO 24,SALUZZO,Italy,1062,n.a.,223,209,201,218,n.a.,n.a.,n.a.,n.a.,n.a.,n.a.,169,170,83,165,n.a.,n.a.,n.a.,n.a.,n.a.
346.,SEI ENERGIA S.P.A.,VIA GENOVA 66,RIVOLI,Italy,3523,n.a.,n.a.,12,21,24,23,20,22,32,32,n.a.,n.a.,15,29,33,30,31,27,45,56
495.,SEI SERVIZI ENERGETICI INTEGRATI S.R.L.,VIA GIUSEPPE TALIERCIO 3,MANTOVA,Italy,3522,n.a.,28,28,28,32,33,30,29,28,28,n.a.,46,48,45,44,45,44,43,41,41
792.,SERRAVALLE ENERGY S.R.L.,VIA ALESSANDRO MANZONI SNC,PETILIA POLICASTRO,Italy,3511,n.a.,17,16,0,0,0,0,0,n.a.,n.a.,n.a.,43,43,n.a.,n.a.,n.a.,n.a.,n.a.,n.a.,n.a.
907.,SERVICIOS AEREOS SUDAMERICANOS SA,AV BERNARDINO RIVADAVIA 2057 4 B,BUENOS AIRES,Argentina,5110,n.a.,n.a.,n.a.,n.a.,n.a.,n.a.,n.a.,n.a.,n.a.,n.a.,n.a.,15,n.a.,n.a.,n.a.,n.a.,n.a.,n.a.,n.a.,n.a.
242.,SERVIZI A RETE S.R.L.,CNT PEDEMURO SAN BIAGIO 72,VICENZA,Italy,3511,n.a.,57,57,55,61,61,58,53,56,81,n.a.,140,138,144,146,152,148,153,150,n.a.
838.,SERVIZI MILAZZO S.R.L.,CNT MANGIAVACCA SN,MILAZZO,Italy,2011,n.a.,57,75,14,n.a.,n.a.,n.a.,n.a.,n.a.,n.a.,n.a.,17,17,17,n.a.,n.a.,n.a.,n.a.,n.a.,n.a.
485.,SET S.P.A.,VIA GIULIO UBERTI 37,MILANO,Italy,3511,n.a.,97,72,64,75,128,159,115,104,194,n.a.,29,29,29,29,29,29,29,29,12
300.,SEVES SOCIETA' PER AZIONI,VIA REGINALDO GIULIANI 360,FIRENZE,Italy,2310,n.a.,n.a.,n.a.,296,329,376,383,386,376,429,n.a.,n.a.,n.a.,"2,408",253,"3,019","3,331",278,278,"4,414"
849.,SICA - S.R.L.,VIA MARTIRI DELLA LOGGIA 51,SAN MARZANO SUL SARNO,Italy,1039,n.a.,32,31,31,24,19,21,15,17,16,n.a.,43,52,56,52,52,131,30,69,28
120.,SICEM - SAGA S.P.A.,VIA NAZARIO SAURO 7,PARMA,Italy,0210,n.a.,44,44,46,48,45,44,43,26,37,n.a.,77,75,76,78,78,78,74,n.a.,76
605.,SICHENIA GRUPPO CERAMICHE S.P.A.,VIA TOSCANA 12,SASSUOLO,Italy,2331,n.a.,n.a.,33,23,23,37,47,44,49,65,n.a.,n.a.,221,246,288,316,335,357,361,374
364.,SICIT 2000 S.P.A.,VIA ARZIGNANO 80,CHIAMPO,Italy,2014,n.a.,47,41,38,34,30,28,25,21,29,n.a.,95,89,85,84,78,69,67,67,69
431.,SIDERFORGEROSSI GROUP S.P.A.,VIA CARTIERA DI MEZZO 38,ARSIERO,Italy,2550,n.a.,152,194,212,n.a.,n.a.,n.a.,n.a.,n.a.,n.a.,n.a.,"1,095","1,103","1,173",n.a.,n.a.,n.a.,n.a.,n.a.,n.a.
690.,SIFAGEST S.C.A.R.L.,VIA DELLA PILA 119,VENEZIA,Italy,3700,n.a.,13,12,13,23,24,16,11,n.a.,n.a.,n.a.,31,31,32,72,72,74,n.a.,n.a.,n.a.
191.,SILA S.R.L.,VIA ENRICO FERMI 1,NOALE,Italy,1091,n.a.,15,17,16,13,12,11,9,7,7,n.a.,37,33,29,34,29,23,n.a.,18,18
754.,SILSTON SPA,LOC FORNACI MUCCI,PIENZA,Italy,2332,n.a.,n.a.,n.a.,n.a.,n.a.,n.a.,n.a.,n.a.,n.a.,n.a.,n.a.,n.a.,n.a.,n.a.,n.a.,n.a.,n.a.,n.a.,n.a.,n.a.
115.,SIMA CERAMICHE S.R.L.,VIA VIGNOLA 37,MARANELLO,Italy,2331,n.a.,5,4,4,4,4,5,5,5,6,n.a.,26,26,26,26,32,33,n.a.,n.a.,n.a.
372.,SINTERAMA S.P.A.,VIA GRAMSCI 5,SANDIGLIANO,Italy,1310,n.a.,131,128,128,134,122,130,117,87,114,n.a.,898,998,994,"1,044",889,742,766,776,798
802.,SIRAM S.P.A.,VIA BISCEGLIE 95,MILANO,Italy,4322,n.a.,543,591,615,732,774,777,652,658,646,n.a.,"2,061","2,145","2,180","2,512","2,698","2,681","2,696","2,643","2,647"
65.,SIRIO S.P.A.,VLE DELL'AVIAZIONE 65,MILANO,Italy,5110,n.a.,n.a.,66,75,73,80,77,71,71,73,n.a.,n.a.,106,116,93,107,133,138,135,118
657.,SISECAM FLAT GLASS ITALY S.R.L.,VIA JACOPO LINUSSIO 2,SAN GIORGIO DI NOGARO,Italy,2311,n.a.,16,n.a.,n.a.,n.a.,n.a.,n.a.,n.a.,n.a.,n.a.,n.a.,152,n.a.,n.a.,n.a.,n.a.,n.a.,n.a.,n.a.,n.a.
10.,SITIP S.P.A.,VIA VALL'ALTA 13,CENE,Italy,1391,n.a.,77,82,72,93,109,124,109,90,122,n.a.,573,595,624,658,725,741,752,825,888
341.,SKF INDUSTRIE S.P.A.,VIA DELL'ARCIVESCOVADO 1,TORINO,Italy,2815,n.a.,"1,030","1,024",986,989,979,"1,025",945,721,984,n.a.,"2,944","2,967","3,047","3,095","3,067","2,836","2,815","2,890","2,968"
101.,SLIM ALUMINIUM S.P.A.,PLE DELL'ALLUMINIO,CISTERNA DI LATINA,Italy,2442,n.a.,181,172,176,157,163,191,170,101,152,n.a.,394,393,393,404,425,434,454,466,466
819.,SMEC - S.R.L.,VIA GREGORIO VII SNC,GIOIA TAURO,Italy,4511,n.a.,1,1,1,1,1,3,3,3,3,n.a.,6,3,4,3,3,5,5,4,4
877.,SMURFIT KAPPA ITALIA S.P.A.,VIA VINCENZO MONTI 12,MILANO,Italy,1721,n.a.,578,575,525,501,501,540,497,426,513,n.a.,"1,711","1,701","1,718","1,702","1,727","1,730","1,718",n.a.,n.a.
926.,SNAIDERO RINO S.P.A.,VLE RINO SNAIDERO CAVALIERE DEL LAV,MAJANO,Italy,3102,n.a.,n.a.,106,168,166,176,178,180,185,228,n.a.,n.a.,841,"1,055","1,064",473,n.a.,470,470,470
824.,SNAM S.P.A.,PIAZZA SANTA BARBARA 7,SAN DONATO MILANESE,Italy,4950,n.a.,"2,616","4,112","4,022","3,982","4,075","3,694","3,508","2,468","1,910",n.a.,"2,883","6,303","6,072","6,045","6,051","6,112","6,104","6,187",n.a.
637.,SO.CAR.PI. S.R.L.,VIA DELLA TORBOLA 33,VILLA BASILICA,Italy,1712,n.a.,17,16,16,17,17,16,11,10,12,n.a.,22,22,21,21,21,23,19,20,20
436.,SO.LA.VA. S.P.A.,VIA URBINESE 45/F,CASTELFRANCO PIANDISCO,Italy,2332,n.a.,3,5,5,5,5,8,8,8,11,n.a.,46,48,1,52,52,52,53,54,54
97.,SOC FINANCIERE INVESTISS RESTAURATION,CHATEAU PLAISANCE,LANGOIRAN,France,6420,n.a.,n.a.,n.a.,n.a.,n.a.,n.a.,n.a.,n.a.,n.a.,n.a.,n.a.,n.a.,n.a.,n.a.,n.a.,n.a.,n.a.,n.a.,n.a.,n.a.
304.,SOCIETA TRENTINA LIEVITI STL SPA,"VIA DEL BRENNERO,43",TRENTO,Italy,4636,n.a.,n.a.,n.a.,n.a.,n.a.,n.a.,n.a.,n.a.,n.a.,n.a.,n.a.,n.a.,n.a.,n.a.,n.a.,n.a.,n.a.,n.a.,n.a.,n.a.
262.,SOCIETA' CALCE RAFFINATA DI SAVIGNANO SUL PANARO A R.L.,VIA GHIARELLA 9,SAVIGNANO SUL PANARO,Italy,2352,n.a.,1,1,1,1,1,1,1,1,1,n.a.,5,5,5,5,5,5,5,5,5
394.,SOCIETA' ELETTRICA LIPARESE S.R.L.,VIA FRANCESCO CRISPI 86,LIPARI,Italy,3510,n.a.,9,12,n.a.,13,14,12,13,10,11,n.a.,44,45,n.a.,44,42,43,43,42,43
632.,SOCIETA' IMPIANTI ELETTRICI - S.R.L.,LOC LE GORREY 15,DONNAS,Italy,4222,n.a.,2,3,4,4,5,4,4,4,4,n.a.,19,36,40,37,39,39,n.a.,n.a.,n.a.
182.,SOCIETE DES AUTOCARS DE L'ILE DE BEAUTE,CHEMIN D ACQUALONGA,AJACCIO,France,4939,n.a.,n.a.,n.a.,n.a.,n.a.,n.a.,n.a.,n.a.,n.a.,n.a.,n.a.,n.a.,n.a.,n.a.,n.a.,n.a.,n.a.,n.a.,n.a.,n.a.
725.,SOCIETE SAPI,ZONE INDUSTRIELLE,ABBEVILLE,France,4649,n.a.,25,24,n.a.,n.a.,n.a.,n.a.,n.a.,n.a.,n.a.,n.a.,n.a.,n.a.,n.a.,n.a.,n.a.,n.a.,n.a.,n.a.,n.a.
263.,SOF S.P.A.,VIA GIOVANNI DEL PIAN DEI CARPINI,FIRENZE,Italy,4322,n.a.,33,28,25,20,20,23,26,20,10,n.a.,200,140,117,99,98,108,79,60,34
921.,SOFFASS - SOCIETA' PER AZIONI,VIA FOSSANUOVA 59,PORCARI,Italy,1700,n.a.,473,232,227,227,225,234,222,212,238,n.a.,"1,021",380,380,380,377,380,372,372,n.a.
804.,SOLANA FRANCE,86 RUE DE FAGNIERES,CHALONS EN CHAMPAGNE,France,4621,n.a.,2,2,2,1,n.a.,n.a.,n.a.,n.a.,n.a.,n.a.,n.a.,n.a.,2,2,n.a.,n.a.,n.a.,n.a.,n.a.
645.,SOLVAY CHIMICA ITALIA SPA,VIA PIAVE 6,ROSIGNANO MARITTIMO,Italy,2013,n.a.,361,296,342,335,329,308,294,292,348,n.a.,606,474,462,629,656,665,689,721,734
149.,SOLVAY SOLUTIONS ITALIA S.P.A.,VIA MILANO 78/80,BOLLATE,Italy,2059,n.a.,150,150,142,130,132,128,117,105,236,n.a.,185,199,191,195,196,194,191,293,404
428.,SOLVAY SPECIALTY POLYMERS ITALY S.P.A.,VLE LOMBARDIA 20,BOLLATE,Italy,2013,n.a.,893,841,708,666,618,402,361,215,332,n.a.,"1,115","1,119","1,090","1,078",976,849,827,854,913
121.,SONOCO ALCORE DEMOLLI SRL,,,Italy,,n.a.,n.a.,n.a.,n.a.,n.a.,n.a.,n.a.,n.a.,n.a.,n.a.,n.a.,n.a.,n.a.,n.a.,n.a.,n.a.,n.a.,n.a.,n.a.,n.a.
863.,SORGENIA POWER S.P.A.,VIA ALESSANDRO ALGARDI 4,MILANO,Italy,3511,n.a.,202,278,334,560,574,408,267,267,451,n.a.,55,53,55,57,57,48,37,23,22
721.,SORGENIA PUGLIA S.P.A.,VIA ALESSANDRO ALGARDI 4,MILANO,Italy,3511,n.a.,167,106,136,210,195,252,193,39,48,n.a.,19,19,19,19,19,19,18,19,17
530.,SPRAY DRY S.P.A.,VIA EMILIA OVEST 53/A,RUBIERA,Italy,4673,n.a.,32,25,19,17,18,19,15,19,27,n.a.,24,24,25,25,25,27,28,28,25
391.,SRB S.P.A.,VIA FIUME PICCOLO 10,BRINDISI,Italy,1081,n.a.,144,149,172,251,283,216,22,0,1,n.a.,127,133,112,93,92,94,66,1,1
293.,STAR STABILIMENTO ALIMENTATE SPA,,,Italy,,n.a.,n.a.,n.a.,n.a.,n.a.,n.a.,n.a.,n.a.,n.a.,n.a.,n.a.,n.a.,n.a.,n.a.,n.a.,n.a.,n.a.,n.a.,n.a.,n.a.
780.,STATE FARM MUTUAL AUTOMOBILE INSURANCE COMPANY,ONE STATE FARM PLAZA,BLOOMINGTON,United States of America,6511,n.a.,"38,701","35,019","30,864","25,864","25,950","25,741","24,663","22,598","23,244",n.a.,n.a.,n.a.,n.a.,n.a.,n.a.,n.a.,n.a.,n.a.,n.a.
638.,STEFANA S.R.L. IN LIQUIDAZIONE,VIA CRETA 21,BRESCIA,Italy,2410,n.a.,17,27,225,435,399,448,337,273,601,n.a.,301,621,700,693,702,698,716,748,733
497.,STERILTOM ASEPTIC - SYSTEM S.R.L. OPPURE: STERILTOM S.R.L.,VLE PASSEGGIO PUBBLICO 76,PIACENZA,Italy,1039,n.a.,58,57,52,41,41,43,38,39,35,n.a.,306,270,223,187,230,251,192,61,160
696.,STMICROELECTRONICS S.R.L.,VIA CAMILLO OLIVETTI 2,AGRATE BRIANZA,Italy,2610,n.a.,"1,484","1,447","1,359","1,440","1,374","1,419","1,327",989,"1,264",n.a.,"9,839","9,781","9,583","9,464","8,761","8,658","8,087",n.a.,"8,163"
498.,STRYKER CORPORATION,"2825, AIRVIEW BOULEVARD",KALAMAZOO,United States of America,3250,"10,376","10,744","9,136","7,969","6,541","6,561","6,420","5,475","4,667","4,827","33,000","33,000","27,000","26,000","25,000","22,010","21,241","20,036","18,582","17,594"
547.,STUDIUM POWER & SERVICE SCARL,VIA FERRANTE IMPARATO 495,NAPOLI,Italy,7022,n.a.,10,10,10,11,12,11,10,10,10,n.a.,34,34,35,35,35,35,n.a.,n.a.,n.a.
259.,SYMAX,32333 AURORA RD,SOLON,United States of America,7022,n.a.,n.a.,n.a.,n.a.,n.a.,n.a.,n.a.,n.a.,n.a.,n.a.,15,n.a.,n.a.,n.a.,n.a.,n.a.,n.a.,n.a.,n.a.,n.a.
15.,TAMARETE ENERGIA S.R.L.,CNT TAMARETE SNC,ORTONA,Italy,3511,n.a.,19,20,17,17,3,0,0,0,0,n.a.,n.a.,1,1,1,1,n.a.,n.a.,n.a.,n.a.
525.,TAMOIL RAFFINAZIONE S.P.A.,PLE CADUTI DEL LAVORO 30,CREMONA,Italy,5210,n.a.,18,18,21,22,17,54,122,117,137,n.a.,46,50,52,149,200,274,301,311,n.a.
538.,TECHNOLOGIE ET EXPLOITATION INFORMATIQUE,13 QUAI ALPHONSE LE GALLO,BOULOGNE BILLANCOURT,France,6203,n.a.,n.a.,19,19,19,1,n.a.,26,27,28,n.a.,n.a.,n.a.,n.a.,n.a.,n.a.,n.a.,n.a.,n.a.,n.a.
113.,TECNOPARCO VALBASENTO S.P.A.,VIA POMARICO S.N.C.,PISTICCI,Italy,3800,n.a.,40,49,57,65,57,43,51,49,34,n.a.,96,105,105,105,104,105,107,111,120
450.,TECNOVALORE S.R.L.,VIA FEDRO 2,MILANO,Italy,4322,n.a.,14,13,14,1,16,19,17,15,11,n.a.,20,15,15,15,15,15,14,15,11
329.,TEKFOR S.P.A.,VIA MARTIN LUTHER KING 6,AVIGLIANA,Italy,2510,n.a.,140,145,161,154,161,181,76,84,120,n.a.,797,803,858,914,927,663,391,451,246
266.,TEKSID ALUMINUM S.R.L.,VIA UMBERTO II 5,CARMAGNOLA,Italy,2442,n.a.,194,175,134,106,91,110,117,92,130,n.a.,996,859,812,800,809,823,830,840,959
314.,TERMICA CELANO S.R.L.,VIA DEGLI AGRESTI 6,BOLOGNA,Italy,3511,n.a.,0,3,7,22,45,120,100,92,111,n.a.,6,11,16,16,17,17,17,17,16
769.,TERMICA COLLEFERRO S.P.A.,VIA DEGLI AGRESTI 4/E 6,BOLOGNA,Italy,3511,n.a.,30,17,17,25,23,11,9,0,n.a.,n.a.,14,14,14,13,13,12,5,n.a.,n.a.
889.,TERMICA COLOGNO SRL, FORO BUONAPARTE 31,MILANO,Italy,3530,n.a.,1,2,2,13,45,39,34,34,42,n.a.,n.a.,n.a.,n.a.,n.a.,n.a.,n.a.,n.a.,n.a.,n.a.
872.,TERMICA MILAZZO SRL,CNT MANGIAVACCA SNC,MILAZZO,Italy,3511,n.a.,70,91,112,136,134,129,195,119,128,n.a.,n.a.,n.a.,n.a.,n.a.,n.a.,n.a.,n.a.,n.a.,n.a.
323.,TERMINALE GNL ADRIATICO SOCIETA' A RESPONSABILITA' LIMITATA IN FORMA ABBREVIATA TERMINALE GNL ADRIATICO S.R.L.,PZA SIGMUND FREUD 1,MILANO,Italy,5222,n.a.,236,263,230,221,232,239,229,36,0,n.a.,110,110,111,124,107,118,91,85,77
215.,TERNI BIOMASSA S.R.L.,VIA BRIGATA EBRAICA 50,RAVENNA,Italy,3821,n.a.,1,1,0,0,0,0,n.a.,n.a.,n.a.,n.a.,10,10,5,n.a.,n.a.,n.a.,n.a.,n.a.,n.a.
674.,TERNI EN.A. S.P.A.,VIA GIORDANO BRUNO 7,TERNI,Italy,3511,n.a.,n.a.,n.a.,n.a.,n.a.,n.a.,n.a.,14,27,24,n.a.,n.a.,n.a.,n.a.,n.a.,n.a.,n.a.,33,35,34
656.,TERREAL ITALIA S.R.L.,STR ALLA NUOVA FORNACE SN,VALENZA,Italy,2332,n.a.,21,24,24,24,25,32,32,30,39,n.a.,151,158,167,176,183,185,203,213,223
740.,TERRECOTTE S.R.L.,VIA PORTICO 47,ORIO AL SERIO,Italy,2341,n.a.,3,2,2,3,2,3,2,2,1,n.a.,4,4,4,4,3,3,3,n.a.,n.a.
184.,TESSITURA MONTI S.P.A.,VIA SALTORE,MASERADA SUL PIAVE,Italy,1320,n.a.,68,70,74,75,77,86,80,64,91,n.a.,312,310,318,320,388,457,535,624,624
190.,TIME WARNER CABLE ENTERPRISES LLC,4404 WHIPPLE AVE NW,CANTON,United States of America,6020,n.a.,n.a.,n.a.,n.a.,n.a.,n.a.,n.a.,n.a.,n.a.,n.a.,n.a.,n.a.,n.a.,n.a.,n.a.,n.a.,n.a.,n.a.,n.a.,n.a.
879.,TINTORIA CRESPI GIOVANNI E C. - S.R.L.,VIA SILVIO PELLICO 4/6,BUSTO ARSIZIO,Italy,1300,n.a.,7,8,9,9,9,11,11,9,10,n.a.,82,83,95,92,90,103,101,85,101
426.,TINTORIA RIFINIZIONE NUOVE IDEE S.R.L. IN LIQUIDAZIONE,VIA ARRIGO SIMINTENDI 29,PRATO,Italy,6820,n.a.,1,1,7,10,10,12,11,10,11,n.a.,n.a.,43,70,71,81,85,84,84,82
277.,TIRRENO POWER S.P.A.,VIA BARBERINI 47,ROMA,Italy,3511,n.a.,748,440,703,997,"1,413","1,364","1,298","1,253","1,513",n.a.,371,386,456,522,526,536,526,591,620
925.,TITLEMAX AVIATION,1005 BOB HARMON RD,SAVANNAH,United States of America,6491,n.a.,n.a.,n.a.,n.a.,n.a.,n.a.,n.a.,n.a.,n.a.,n.a.,n.a.,n.a.,n.a.,n.a.,n.a.,n.a.,n.a.,n.a.,n.a.,n.a.
369.,TOLENTINO S.R.L.,VIA CASTELLANA 90,ISTRANA,Italy,1710,n.a.,38,39,34,35,33,36,33,20,31,n.a.,38,36,37,37,38,37,37,37,37
397.,TOPPETTI 2 S.R.L.,VIA ALESSANDRO CANOBBIO 34,VERONA,Italy,2332,n.a.,27,29,32,n.a.,n.a.,n.a.,n.a.,n.a.,n.a.,n.a.,90,97,98,n.a.,n.a.,n.a.,n.a.,n.a.,n.a.
91.,TOSCOPAPER S.P.A.,VIA S.S 12 DETTA VIA DEL BRENNERO,LUCCA,Italy,1712,n.a.,20,20,19,18,15,16,12,8,11,n.a.,32,30,29,28,28,29,28,28,n.a.
528.,TRAFILERIE CARLO GNUTTI - S.P.A.,VIA SAN BERNARDINO 23/A,CHIARI,Italy,2434,473,481,467,520,510,494,611,456,393,688,447,461,463,463,465,474,476,481,490,522
272.,TRAVI E PROFILATI DI PALLANZENO S.R.L.,VIA SEMPIONE 7,PALLANZENO,Italy,2410,n.a.,298,295,293,265,334,212,168,123,266,n.a.,395,367,359,361,366,185,191,202,183
836.,TRELLEBORG WHEEL SYSTEMS ITALIA S.P.A.,VIA NAZIONALE TIBURTINA 143,TIVOLI,Italy,2211,n.a.,155,169,186,199,192,169,119,121,146,n.a.,685,650,613,580,572,570,533,536,502
371.,TRENITALIA S.P.A.,PZA DELLA CROCE ROSSA 1,ROMA,Italy,4900,n.a.,"5,442","5,996","6,022","5,929","5,908","6,089","6,078","6,094","6,218",n.a.,"31,376","31,723","31,754","33,792","35,876","37,662","39,667","42,174","48,971"
94.,TRENORD S.R.L.,PLE LUIGI CADORNA 14,MILANO,Italy,4910,n.a.,781,783,748,755,729,676,614,73,n.a.,n.a.,"4,129","4,193","4,209","4,217","4,117","3,977",n.a.,"3,830",n.a.
16.,TRENTOFRUTTA S.P.A.,VIA ALCIDE DE GASPERI 130,TRENTO,Italy,1039,n.a.,48,38,26,29,32,36,34,35,62,n.a.,109,101,90,97,97,89,94,96,94
471.,TRIGNO ENERGY S.R.L. - SOCIETA' UNIPERSONALE,ZIN INDUSTRIALE,SAN SALVO,Italy,4321,n.a.,29,25,30,29,30,31,28,23,32,n.a.,17,16,16,14,14,14,15,15,13
591.,TRINITY BROADCASTING OF NY INC,11 MERRITT BLVD,FISHKILL,United States of America,6020,n.a.,n.a.,n.a.,n.a.,n.a.,n.a.,n.a.,n.a.,n.a.,2,n.a.,n.a.,n.a.,n.a.,n.a.,n.a.,n.a.,n.a.,n.a.,35
813.,TRISTONE FLOWTECH ITALY S.P.A.,VIA TORINO 140,CIRIE,Italy,2219,n.a.,60,56,51,45,46,53,48,38,58,n.a.,204,196,195,203,215,216,216,231,238
296.,TRT EQUITY ADVISORS LLC,701 BRAZOS ST,AUSTIN,United States of America,5510,n.a.,n.a.,n.a.,n.a.,n.a.,n.a.,n.a.,n.a.,n.a.,n.a.,n.a.,n.a.,n.a.,n.a.,n.a.,n.a.,n.a.,n.a.,n.a.,n.a.
622.,UNICALCE S.P.A.,VIA PONTI 18,VAL BREMBILLA,Italy,2352,n.a.,135,139,149,154,170,170,161,145,183,n.a.,509,518,520,539,527,532,540,556,562
664.,UNIGRA' SRL,VIA GARDIZZA 9/B,CONSELICE,Italy,1042,n.a.,556,557,547,524,514,n.a.,n.a.,n.a.,n.a.,n.a.,807,744,654,611,571,n.a.,n.a.,n.a.,n.a.
399.,UNILEVER ITALIA MANUFACTURING SRL,VIA PAOLO DI DONO 3/A,ROMA,Italy,1089,n.a.,161,178,182,185,197,197,240,281,n.a.,n.a.,"1,345","1,406","1,601","1,651","1,489","1,919","2,411","2,516",n.a.
365.,UNILEVER ITALIA S.R.L.,"VIA UGO BASSI,2",MILANO,Italy,2000,n.a.,n.a.,n.a.,n.a.,n.a.,n.a.,n.a.,n.a.,n.a.,"2,894",n.a.,n.a.,n.a.,n.a.,n.a.,n.a.,n.a.,n.a.,n.a.,"3,757"
908.,UPMC LLC,2495 SAWDUST RD,SPRING,United States of America,4339,n.a.,n.a.,3,n.a.,n.a.,n.a.,n.a.,n.a.,n.a.,n.a.,n.a.,n.a.,15,n.a.,n.a.,n.a.,n.a.,n.a.,n.a.,n.a.
70.,V.B.F. ENGINEERING S.R.L. - IN LIQUIDAZIONE, STRADA CONSORT.PER CASAPUZZANO,MARCIANISE,Italy,2360,n.a.,n.a.,0,1,2,2,2,2,2,5,n.a.,n.a.,n.a.,15,17,17,18,17,n.a.,19
358.,VALEO CABLAGGI E COMMUTAZIONE S.R.L.,,,Italy,,n.a.,n.a.,n.a.,n.a.,n.a.,n.a.,n.a.,n.a.,n.a.,n.a.,n.a.,n.a.,n.a.,n.a.,n.a.,n.a.,n.a.,n.a.,n.a.,n.a.
247.,VARESE RISORSE S.P.A.,VLE OTTORINO ROSSI 19,VARESE,Italy,3511,n.a.,14,18,19,19,20,13,13,12,12,n.a.,23,23,23,23,20,17,17,15,15
349.,VEBAD S.P.A.,STS 100,GIOIA DEL COLLE,Italy,2310,n.a.,48,41,41,41,43,40,38,n.a.,43,n.a.,78,76,75,73,74,73,76,n.a.,77
258.,VERALLIA ITALIA S.P.A.,VIA DEL LAVORO 1,LONIGO,Italy,2310,n.a.,520,514,527,537,568,554,516,496,528,n.a.,"1,117","1,095","1,096","1,106","1,116","1,116","1,103","1,112","1,124"
193.,VERDE CAPITAL CORP,4020 E INDIAN SCHOOL RD,PHOENIX,United States of America,9499,0,n.a.,n.a.,n.a.,n.a.,n.a.,n.a.,n.a.,n.a.,n.a.,1,n.a.,n.a.,n.a.,n.a.,n.a.,n.a.,n.a.,n.a.,n.a.
665.,VERSALIS S.P.A.,PZA MARCELLO BOLDRINI 1,SAN DONATO MILANESE,Italy,2010,n.a.,"4,256","4,847",n.a.,"6,018","6,531","6,593","6,438","4,235","6,254",n.a.,"5,095","5,148",n.a.,"5,703","5,721","5,862","4,695","6,145","6,485"
839.,VETRERIA DI BORGONOVO S.P.A.,VIA AURELIO SAFFI 34,MILANO,Italy,2310,n.a.,43,48,48,42,46,46,41,38,42,n.a.,157,159,158,155,160,160,174,166,171
905.,VETRERIA ETRUSCA S.P.A.,VIA MAREMMANA 70,MONTELUPO FIORENTINO,Italy,2310,n.a.,63,54,50,50,50,50,43,39,49,n.a.,204,176,166,166,165,165,165,164,174
523.,VETRERIE MERIDIONALI S.P.A.,VIA CONVERSANO 144,CASTELLANA GROTTE,Italy,2313,n.a.,64,68,66,64,57,61,68,70,70,n.a.,214,214,205,203,203,208,208,208,202
867.,VETRERIE RIUNITE S.P.A.,VIA CALCINESE 60,COLOGNOLA AI COLLI,Italy,2319,n.a.,98,96,98,102,106,109,101,89,n.a.,n.a.,558,563,603,621,628,636,616,727,n.a.
335.,VETRI SPECIALI S.P.A.,VIA GIANNANTONIO MANCI 5,TRENTO,Italy,2313,n.a.,144,142,136,133,136,140,122,110,124,n.a.,677,555,541,540,548,533,509,503,480
568.,VETROBALSAMO SPA,VLE SARCA 336,MILANO,Italy,2313,n.a.,55,54,60,60,55,44,32,31,n.a.,n.a.,177,169,171,169,155,162,147,131,n.a.
927.,VETROPACK ITALIA S.R.L.,VIA SAN CRISTOFORO 51,TREZZANO SUL NAVIGLIO,Italy,2313,n.a.,71,38,n.a.,n.a.,n.a.,n.a.,n.a.,n.a.,n.a.,n.a.,254,245,n.a.,n.a.,n.a.,n.a.,n.a.,n.a.,n.a.
893.,VIBAC S.P.A.,STR TICINETO SALITA S. SALVATORE 4,TICINETO,Italy,2222,n.a.,291,282,279,291,282,251,331,280,307,n.a.,913,809,775,741,733,735,907,901,914
466.,VIDRALA ITALIA S.R.L.,VIA ALZAIA TRIESTE 45,CORSICO,Italy,2310,n.a.,59,59,62,66,75,51,50,51,58,n.a.,190,185,187,194,203,208,209,206,190
503.,VILCA S.P.A.,GAL DEL POZZO ROSSO 13,VICENZA,Italy,0899,n.a.,1,1,2,12,18,21,22,23,30,n.a.,n.a.,n.a.,6,42,71,94,95,108,112
848.,VILLAPANA S.P.A.,VIA PANA 244,FAENZA,Italy,1101,n.a.,14,14,15,18,18,16,15,14,14,n.a.,49,43,40,40,4,43,42,41,39
208.,VINAVIL SPA,VLE EDOARDO JENNER 4,MILANO,Italy,2016,n.a.,162,169,172,163,161,164,146,130,161,n.a.,355,353,354,353,350,351,322,321,321
405.,VINCENZO PILONE S.R.L.,VVE DI PIANFEI 2/B,MONDOVI,Italy,2332,n.a.,4,5,5,6,7,8,7,9,11,n.a.,37,37,23,37,37,38,36,36,37
858.,VINCENZO ZUCCHI S.P.A.,VIA LEGNANO 24,RESCALDINA,Italy,1399,n.a.,85,98,104,154,164,191,191,228,265,n.a.,575,677,861,"1,220","1,225","1,265","1,344","1,990","2,170"
913.,VISCOLUBE S.R.L.,VIA TAVERNELLE 19,PIEVE FISSIRAGA,Italy,1920,n.a.,n.a.,110,108,100,n.a.,n.a.,n.a.,n.a.,n.a.,n.a.,n.a.,222,200,187,n.a.,n.a.,n.a.,n.a.,n.a.
834.,VIVATERRA S.P.A,VIA DI MELETO 4/6,GREVE IN CHIANTI,Italy,2332,n.a.,4,5,4,5,6,11,9,10,10,n.a.,30,29,29,60,91,97,88,76,83
380.,VOGHERA ENERGIA S.P.A.,VIA ALBERT EINSTEIN 24,VOGHERA,Italy,3511,n.a.,35,37,35,35,37,30,28,35,32,n.a.,22,24,24,24,25,25,25,23,23
708.,VOLTA S.P.A..,VIA EMILIA 53,VOGHERA,Italy,4777,n.a.,19,24,26,26,26,22,21,19,17,n.a.,13,13,10,10,9,8,8,8,8
163.,W&P CEMENTI S.P.A.,VIA CASTELNOVO DEL FRIULI 1,SAN VITO AL TAGLIAMENTO,Italy,2351,n.a.,21,21,16,11,11,12,20,25,33,n.a.,42,48,47,24,25,23,58,61,60
537.,WARTSILA ITALIA S.P.A.,LOC BAGNOLI DELLA ROSANDRA 334,SAN DORLIGO DELLA VALLE-DOLINA,Italy,2811,n.a.,274,315,389,314,359,368,329,343,359,n.a.,"1,278","1,291","1,321","1,374","1,408","1,458","1,503","1,532","1,452"
271.,WEDGE POWER S.P.A.,VIA PORTA ROSSA 52,CUNEO,Italy,3511,n.a.,0,0,0,0,n.a.,n.a.,n.a.,n.a.,n.a.,n.a.,10,6,4,4,n.a.,n.a.,n.a.,n.a.,n.a.
673.,WEPA ITALIA S.R.L.,ZIN PORCARI NORD SNC,CAPANNORI,Italy,1720,n.a.,176,171,178,185,214,248,246,221,65,n.a.,506,489,480,531,615,673,626,628,624
8.,WESTBURY GROUP LIMITED,2ND FLOOR FINANCE HOUSE,SOUTHEND-ON-SEA,United Kingdom,,n.a.,n.a.,n.a.,n.a.,n.a.,n.a.,n.a.,n.a.,n.a.,n.a.,n.a.,n.a.,n.a.,n.a.,n.a.,n.a.,n.a.,n.a.,n.a.,n.a.
95.,WHIRLPOOL S.A.,ANDAR 32,SAO PAULO,Brazil,2751,n.a.,"2,684","2,224","2,995","2,876","3,130","3,104","3,276","2,662","1,822",n.a.,n.a.,n.a.,"20,802","20,802","21,454","17,541","19,223","16,324","15,451"
268.,WIENERBERGER S.P.A.,VIA RINGHIERA 1,MORDANO,Italy,2332,n.a.,29,27,31,40,42,41,42,46,45,n.a.,169,167,194,211,216,213,220,223,152
155.,WIND JET S.P.A.,STP 69 II,CATANIA,Italy,5110,n.a.,n.a.,0,0,0,153,259,246,240,232,n.a.,n.a.,n.a.,n.a.,421,431,529,512,517,476
567.,WINDROSE AVIATION LLC,2766 ANDES WAY,SAINT CLOUD,United States of America,,n.a.,n.a.,n.a.,n.a.,n.a.,n.a.,n.a.,n.a.,n.a.,n.a.,n.a.,n.a.,n.a.,n.a.,n.a.,n.a.,n.a.,n.a.,n.a.,n.a.
668.,WYETH LEDERLE S.R.L.,VIA NETTUNENSE 90,APRILIA,Italy,2059,n.a.,35,22,233,n.a.,n.a.,389,487,720,865,n.a.,601,589,998,n.a.,n.a.,"1,153","1,195","1,735","2,038"
577.,XCOAL ENERGY & RESOURCES,1 ENERGY PL,LATROBE,United States of America,4671,31,n.a.,n.a.,n.a.,n.a.,n.a.,n.a.,n.a.,n.a.,n.a.,35,n.a.,n.a.,n.a.,n.a.,n.a.,n.a.,n.a.,n.a.,n.a.
928.,XILOPAN - S.P.A.,VIA LOCALITA' SAN GIUSEPPE 1/3,CIGOGNOLA,Italy,1621,n.a.,28,27,28,27,27,26,30,33,46,n.a.,82,78,78,82,83,95,96,106,105
575.,YARA ITALIA S.P.A.,VIA BENIGNO CRESPI 57,MILANO,Italy,4675,n.a.,397,475,517,542,576,525,437,332,547,n.a.,371,374,369,364,359,349,341,341,346
237.,YOUSAVE S.P.A.,VIA STEZZANO SNC,BERGAMO,Italy,7490,n.a.,29,27,33,24,18,8,5,1,n.a.,n.a.,35,33,25,16,13,8,n.a.,n.a.,n.a.
386.,ZEGNA BARUFFA LANE BORGOSESIA S.P.A.,VIA BARTOLOMEO SELLA 140,VALLE MOSSO,Italy,1310,n.a.,n.a.,114,108,122,105,154,135,74,88,n.a.,n.a.,889,937,992,"1,075","1,142","1,148",926,971
822.,ZEPHYRO S.P.A.,VIA GIOVANNI DA UDINE 15,MILANO,Italy,3511,n.a.,95,3,n.a.,n.a.,n.a.,n.a.,n.a.,n.a.,n.a.,n.a.,n.a.,n.a.,n.a.,n.a.,n.a.,n.a.,n.a.,n.a.,n.a.
78.,ZIGNAGO POWER S.R.L.,VLE ITA MARZOTTO 8,FOSSALTA DI PORTOGRUARO,Italy,3511,n.a.,34,36,33,29,22,1,0,0,n.a.,n.a.,48,46,44,36,26,15,5,1,n.a.
285.,ZIGNAGO VETRO S.P.A.,VIA ITA MARZOTTO 8,FOSSALTA DI PORTOGRUARO,Italy,2319,n.a.,255,251,233,294,300,295,267,234,259,n.a.,"1,388","1,341","1,865","1,835","1,833","1,819","1,435","1,393","1,395"
935.,ZML INDUSTRIES S.P.A.,VLE DELL'INDUSTRIA 10,MANIAGO,Italy,2451,n.a.,156,167,171,168,182,197,170,107,179,n.a.,555,552,506,551,566,575,557,553,566