,Company name,"Street, no., building etc, line 1",City,Country,"NACE Rev. 2
Core code (4 digits)","Operating
revenue
(Turnover)
m EUR
2017","Operating
revenue
(Turnover)
m EUR
2016","Operating
revenue
(Turnover)
m EUR
2015","Operating
revenue
(Turnover)
m EUR
2014","Operating
revenue
(Turnover)
m EUR
2013","Operating
revenue
(Turnover)
m EUR
2012","Operating
revenue
(Turnover)
m EUR
2011","Operating
revenue
(Turnover)
m EUR
2010","Operating
revenue
(Turnover)
m EUR
2009","Operating
revenue
(Turnover)
m EUR
2008","Number of employees
2017","Number of employees
2016","Number of employees
2015","Number of employees
2014","Number of employees
2013","Number of employees
2012","Number of employees
2011","Number of employees
2010","Number of employees
2009","Number of employees
2008"
600.,AB AZUCARERA IBERIA SL.,"AVENIDA MANOTERAS, 46 ED DELTA NORTE",MADRID,Spain,1081,n.a.,400,348,477,615,679,511,444,264,481,n.a.,817,768,908,883,910,846,925,951,"1,028"
349.,ABELAN CATALANA SL.,CARRETERA C-14 (SALOU A PONTS. KM 26),ALCOVER,Spain,1712,n.a.,n.a.,25,25,19,36,32,23,29,39,n.a.,n.a.,142,146,112,120,117,120,118,123
430.,ACEITES DEL SUR-COOSUR SOCIEDAD ANONIMA,"CARRETERA LA CAROLINA, 29",VILCHES,Spain,1041,n.a.,n.a.,453,404,428,227,354,270,348,291,n.a.,n.a.,387,312,401,324,339,313,296,179
206.,ACERIA DE ALAVA SA,"POLIGONO INDUSTRIAL SARATXO, S/N",AMURRIO,Spain,2410,n.a.,200,200,284,255,298,264,204,161,373,n.a.,190,181,201,196,202,213,201,204,238
309.,ACEROS INOXIDABLES OLARRA SA,"CAMINO LARRABARRI (LARRONDO), 1",LOIU,Spain,2410,n.a.,169,186,201,194,213,261,252,126,279,n.a.,451,437,437,440,453,446,238,397,449
456.,ADAM ECOTECH SA,CARRETERA EXTREMADURA (KM 25),NAVALCARNERO,Spain,6209,n.a.,3,3,2,3,3,2,0,0,19,n.a.,10,11,11,10,9,9,3,6,121
866.,ADISSEO ESPANA SA,"CALLE MERINDAD CASTILLA LA VIEJA (POL. IND. VILLALONQUEJAR), 2",BURGOS,Spain,2014,n.a.,154,186,196,194,192,150,127,114,133,n.a.,123,118,120,124,121,115,114,118,126
369.,AG CEMENTOS BALBOA SA,"CARRETERA EXTREMADURA EX-101 (KM 14,500)",ALCONERA,Spain,2351,n.a.,20,27,22,24,33,46,44,49,83,n.a.,98,101,100,104,116,117,114,122,123
506.,AG SIDERURGICA BALBOA SA,"CARRETERA BADAJOZ, 32",JEREZ DE LOS CABALLEROS,Spain,2410,n.a.,254,216,187,281,339,395,326,278,419,n.a.,420,395,398,525,603,618,681,888,936
867.,AGC FLAT GLASS IBERICA SA,"CALLE MALLORCA, 272 - 274. PISO 6 . PTA 5A",BARCELONA,Spain,2311,n.a.,56,60,59,63,59,55,60,45,72,n.a.,172,168,167,172,181,189,167,166,168
827.,AGUSTIN BARRAL SA,"CALLE ANGEL GUIMERA, 3",LA POBLA DE LILLET,Spain,1721,n.a.,5,5,5,5,5,6,5,4,6,n.a.,25,23,23,23,26,28,30,30,30
479.,AHLSTROM BARCELONA SA,"CALLE CASP, 50 P. ENT PTA. 4",BARCELONA,Spain,1712,n.a.,0,1,1,2,6,10,12,12,16,n.a.,2,5,6,11,26,44,59,101,101
452.,AHLSTROM-MUNKSJO PAPER SA.,"BARRIO ELDUA ((CR TOLOSA LEIZA KM 6)), S/N",BERASTEGI,Spain,1712,n.a.,68,64,62,63,67,70,61,40,47,n.a.,156,157,162,165,162,161,160,159,161
158.,AIALA VIDRIO SA,"BARRIO MUNEGAZO, 22",LAUDIO/LLODIO,Spain,2313,n.a.,69,74,70,75,71,68,60,59,61,n.a.,348,362,377,387,403,412,423,423,421
198.,AIR EUROPA LINEAS AEREAS SA,"CARRETERA MA-19 (SON NOGUERA. CTRO EMPRESARIAL GLOBALIA), 19 (CTRA LLUCMAJOR KM 21,5)",LLUCMAJOR,Spain,5110,n.a.,"1,803","1,695","1,740","1,578","1,349","1,331","1,178","1,124","1,265",n.a.,"3,024","3,032","2,802","2,524","2,545","2,812","2,751","2,776","2,865"
562.,AIR NOSTRUM LINEAS AEREAS DEL MEDITERRANEO SA,"AVENIDA COMARQUES DEL PAIS VALENCIA, 2",QUART DE POBLET,Spain,5110,n.a.,438,422,414,407,486,578,528,561,682,n.a.,"1,398","1,391","1,485","1,592","1,696","1,796","1,760","1,977","2,125"
1028.,AIR PRODUCTS & CHEMICALS INC,"7201, HAMILTON BOULEVARD",ALLENTOWN,United States of America,2011,"6,935","6,723","6,984","8,296","7,538","7,434","7,164","6,313","5,638","7,281","15,300","18,600","19,700","21,200","21,600","21,300","18,900","18,300","18,900","21,100"
251.,ALCOHOLERA DE LA PUEBLA SA,"CARRETERA VILLACANAS, S/N",LA PUEBLA DE ALMORADIEL,Spain,4639,n.a.,22,22,26,35,42,31,22,25,51,n.a.,54,57,51,46,46,44,45,44,44
181.,ALIER SA,"CALLE DIPUTACIO, 238 -240 5 8A",BARCELONA,Spain,1712,n.a.,n.a.,n.a.,n.a.,87,93,86,76,59,82,n.a.,n.a.,n.a.,n.a.,169,173,169,170,172,187
186.,ALIMENTOS ESPANOLES ALSAT SL,"CALLE ISAAC PERAL (POL INDUSTRIAL), 64 12",DON BENITO,Spain,1032,n.a.,24,27,30,23,20,22,26,25,23,n.a.,82,76,77,69,72,81,76,78,75
774.,ALPIQ ENERGIA ESPANA SA,"CALLE PEDRO TEIXEIRA, 8 3",MADRID,Spain,3511,n.a.,57,45,55,223,667,514,347,56,21,n.a.,53,36,15,15,55,54,45,13,15
84.,ALTADIS SA,"CALLE VIA DE LOS POBLADOS, 3 EDIF. 7. PLANTAS 3 Y 4",MADRID,Spain,1200,n.a.,541,561,737,788,768,711,819,789,599,n.a.,980,"1,065","1,186","1,369","1,413","1,602","1,777","1,998","2,246"
516.,ALUDIUM TRANSFORMACION DE PRODUCTOS SOCIEDAD LIMITADA.,"BARRIO IBARGUREN, S/N",AMOREBIETA-ETXANO,Spain,2442,n.a.,486,464,416,419,414,472,467,375,549,n.a.,813,764,740,782,789,823,844,934,"1,302"
162.,ALUMINA ESPANOLA SA,"CALLE PEDRO TEIXEIRA, 8 PLT 3",MADRID,Spain,2442,n.a.,n.a.,471,395,403,399,415,377,296,365,n.a.,n.a.,484,486,497,497,484,478,460,463
644.,ALUMINIO ESPANOL SL,"CALLE PEDRO TEIXEIRA, 8 TERCERA PLANTA",MADRID,Spain,2442,n.a.,n.a.,"2,427","2,268","1,362",432,452,443,310,475,n.a.,n.a.,726,737,767,783,784,804,825,845
794.,ALUMINIOS CORTIZO SA,"PARQUE EXTRAMUNDI ((CR PADRON-NOIA. KM 2)), S/N",PADRON,Spain,2442,n.a.,228,219,176,153,159,168,178,147,186,n.a.,857,767,676,581,329,337,333,319,317
725.,ANDALUZA DE CALES SOCIEDAD ANONIMA,CARRETERA MONTELLANO (KM 3),MORON DE LA FRONTERA,Spain,2352,n.a.,14,15,15,15,15,17,15,12,12,n.a.,29,30,29,29,30,31,32,32,33
844.,ANDIA LACTEOS DE CANTABRIA SL,"BARRIO SAN ANTONIO (RENEDO), S/N",PIELAGOS,Spain,1051,n.a.,80,89,88,98,89,103,57,53,71,n.a.,129,145,140,140,155,141,128,125,108
824.,"ARCELORMITTAL ESPANA, SA","LUGAR RESIDENCIA LA GRANDA, S/N",GOZON,Spain,2410,n.a.,"2,823","2,878","2,514","2,448","2,400","2,698","2,430","2,182","3,150",n.a.,"6,807","6,164","6,210","6,289","6,030","6,780","6,977","6,978","7,190"
355.,ARCELORMITTAL GIPUZKOA SL,"CARRETERA NACIONAL I MADRID-IRUN ((BO. YURRE)), S/N KM 417 O 418",OLABERRIA,Spain,2410,n.a.,529,743,756,674,811,871,671,486,536,n.a.,819,932,941,973,"1,019",995,"1,081","1,060",448
702.,ARCELORMITTAL MADRID SL,"AVENIDA PRINCESA JUANA DE AUSTRIA (CTRA TOLEDO KM 9,200)",MADRID,Spain,2410,n.a.,n.a.,4,5,9,15,176,164,107,349,n.a.,n.a.,43,47,43,368,368,397,414,405
744.,ARCELORMITTAL SESTAO SOCIEDAD LIMITADA,"CALLE CHAVARRI, 6",SESTAO,Spain,2410,n.a.,65,272,307,352,176,549,639,347,845,n.a.,238,337,348,352,391,475,518,482,526
926.,ARCILLA BLANCA SA,"PARTIDA FOYES FERRAES, S/N",L'ALCORA,Spain,2320,n.a.,n.a.,59,52,48,44,43,34,30,52,n.a.,n.a.,71,71,72,72,73,71,85,94
219.,ARCILLAS ATOMIZADAS SA,"AVENIDA MANUEL ESCOBEDO (CAMI PAS DE FULLA), 30",ONDA,Spain,2331,n.a.,22,28,41,20,42,17,26,16,9,n.a.,23,23,23,19,16,16,16,14,29
322.,ARCILLEX SA,"CARRETERA LOECHES (A ALCALA KM 4,7)",TORRES DE LA ALAMEDA,Spain,2332,n.a.,0,0,1,2,2,2,3,3,5,n.a.,3,3,14,17,17,19,20,22,33
484.,ARCYDE SA,"LUGAR CAN DOMENECH, S/N",EL PAPIOL,Spain,2332,n.a.,n.a.,n.a.,n.a.,0,1,1,1,1,1,n.a.,n.a.,n.a.,n.a.,5,5,7,6,8,11
272.,ARGENTA CERAMICA SL,"POLIGONO IND VALL D ALBA (U.E 3-4, VIAL 5), PARC. 2",VALL D'ALBA,Spain,2331,n.a.,165,150,107,101,98,87,67,51,51,n.a.,316,303,277,275,233,228,189,185,189
731.,ASFALTOS ESPANOLES SA,"PASEO CASTELLANA, 141 PLT 19",MADRID,Spain,1920,n.a.,40,42,39,38,36,37,31,25,24,n.a.,113,113,117,115,119,118,108,115,114
886.,ASFALTOS Y CONSTRUCCIONES ELSAN SA,"PASEO CASTELLANA, 259 - D TORRE ESPACIO PLANTA SEPTIMA",MADRID,Spain,4211,n.a.,45,46,46,41,34,42,36,80,94,n.a.,248,294,305,237,212,175,212,453,476
277.,ASTURIANA DE ZINC SA,"LUGAR ZONA INDUSTRIAL, 1",CASTRILLON,Spain,2443,n.a.,551,594,803,857,950,949,922,647,755,n.a.,867,878,948,942,956,988,"1,003","1,003","1,017"
419.,"ATLANTIC COPPER, S.L.U.","AVENIDA FRANCISCO MONTENEGRO, S/N",HUELVA,Spain,2444,n.a.,"1,659","1,781","1,821","1,545","2,107","2,149","1,877","1,347","1,572",n.a.,638,646,638,632,621,607,594,594,577
237.,ATOMIZADAS DE ALCORA SA,"PARTIDA REGATELL, S/N",ALCORA,Spain,2399,n.a.,16,17,15,18,15,14,12,11,15,n.a.,40,37,39,38,36,36,35,34,35
636.,ATOMIZADORA SA,"AVENIDA MANUEL ESCOBEDO, 24",ONDA,Spain,2399,n.a.,11,13,12,12,14,13,10,10,15,n.a.,31,29,28,30,28,29,31,36,42
592.,AZTECA PRODUCTS & SERVICES SLU,"CARRETERA CV-16, KM 19,7",ALCORA,Spain,4673,n.a.,26,22,21,23,20,19,23,28,46,n.a.,140,121,40,45,46,50,50,62,92
526.,AZUCARERAS REUNIDAS DE JAEN SA,"PASEO CASTELLANA, 182 5",MADRID,Spain,4619,n.a.,n.a.,n.a.,44,65,69,85,81,88,101,n.a.,n.a.,n.a.,122,122,132,132,142,214,216
561.,AZULEJERA ALCORENSE 1 SL,"PARTIDA RAMONET, S/N",ALMAZORA,Spain,2331,n.a.,n.a.,5,3,8,10,10,9,10,13,n.a.,n.a.,24,27,51,50,57,73,81,90
23.,"AZULEJERA LA PLANA, SA","AVENIDA FRANCA, 85 ENTLO IZDA",VILA-REAL,Spain,2331,n.a.,n.a.,n.a.,n.a.,n.a.,17,13,15,29,45,n.a.,n.a.,n.a.,n.a.,n.a.,123,151,152,154,279
936.,AZULEJO ESPANOL SL,"CALLE ISLAS BALEARES (POL. INDUSTRIAL EL COLADOR), 2 PARCELAS M5 Y M7",ONDA,Spain,2331,n.a.,6,7,7,10,9,8,8,8,10,n.a.,34,36,38,40,35,34,34,43,47
882.,AZULEJOS PLAZA SA,"PARTIDA ELS VINALS, S/N",L'ALCORA,Spain,2331,n.a.,28,27,27,27,23,22,19,22,36,n.a.,103,95,117,116,117,121,117,130,96
688.,AZULEV SOCIEDAD ANONIMA,"AVENIDA MANUEL ESCOBEDO, 13",ONDA,Spain,2331,n.a.,34,35,35,40,42,45,49,41,54,n.a.,215,237,223,237,257,304,322,235,277
792.,"AZULINDUS Y MARTI, SA","AVENIDA MANUEL ESCOBEDO, 25",ONDA,Spain,2331,n.a.,9,9,9,11,11,13,9,9,14,n.a.,45,46,44,47,50,53,61,65,68
915.,BA GLASS SPAIN SOCIEDAD ANONIMA.,"POLIGONO INDUSTRIAL LOS VARALES, S/N",VILLAFRANCA DE LOS BARROS,Spain,2313,n.a.,290,272,262,228,223,201,205,199,173,n.a.,562,546,545,526,418,426,424,438,412
494.,BAHIA DE BIZKAIA ELECTRICIDAD SOCIEDAD LIMITADA,"CALLE PUNTA CEBALLOS, 8",ZIERBENA,Spain,3511,n.a.,193,301,341,349,347,313,239,221,414,n.a.,49,49,49,49,49,49,49,48,48
755.,BAHIA DE BIZKAIA GAS SOCIEDAD LIMITADA,"CALLE PUNTA CEBALLOS, 2",ZIERBENA,Spain,3522,n.a.,54,59,40,52,55,57,62,62,64,n.a.,73,75,75,75,73,76,72,75,75
279.,BANK of AMERICA CORPORATION,100 NORTH TRYON STREET,CHARLOTTE,United States of America,6420,"72,794","79,415","75,937","70,229","64,771","63,507","72,269","82,556","83,064","52,302","206,986","208,024","213,280","223,715","242,117","267,190","281,791","286,612","283,717","240,202"
545.,"BASF ESPANOLA, SLU","CALLE CAN RABIA, 3 - 5",BARCELONA,Spain,2013,n.a.,"1,559","1,610","1,521","1,103","1,064",937,637,524,605,n.a.,"1,917","1,926","1,923","1,203","1,211","1,094",950,938,964
390.,BEAM SUNTORY SPAIN SL.,"CALLE MAHONIA, 2 PLT 1",MADRID,Spain,1101,n.a.,217,205,234,223,228,193,175,191,218,n.a.,415,409,401,400,405,410,422,503,596
60.,BEFESA ZINC ASER SOCIEDAD ANONIMA,"CARRETERA BILBO-PLENTZIA, 21",ERANDIO,Spain,2443,n.a.,61,52,52,55,61,37,36,35,40,n.a.,61,63,62,62,66,65,60,58,49
583.,BENITO ARNO E HIJOS SAU,"PLAZA L'ENSENYANCA, 1",LLEIDA,Spain,4211,n.a.,68,51,52,59,60,97,112,111,116,n.a.,167,162,132,142,159,190,227,270,229
673.,BINTER CANARIAS SA,"LUGAR CANON DEL AMBAR (AUTOV GC-1 KM 11.600. UB INDUSTRIAL SALINETAS), S/N",TELDE,Canary Islands (Spain),5110,n.a.,n.a.,n.a.,86,80,80,97,115,134,163,n.a.,n.a.,n.a.,426,480,509,537,629,725,854
967.,BIOCARBURANTES DE CASTILLA Y LEON SA,"CARRETERA ENCINAS CANTALAPIEDRA, KM 4,9",BABILAFUENTE,Spain,3511,n.a.,n.a.,218,195,233,241,205,158,147,52,n.a.,n.a.,85,86,94,91,121,114,105,104
556.,BIOENERGETICA EGABRENSE SA,"CARRETERA COMARCAL 342 CABRA A MONTURQUE (KM 7,5)",CABRA,Spain,3511,n.a.,18,22,20,21,18,14,12,10,7,n.a.,16,17,18,19,16,17,16,15,14
741.,BIOETANOL GALICIA SA,"CARRETERA NACIONAL 634 (KM 664,3 PG TEIXEIRO)",CURTIS,Spain,2059,n.a.,n.a.,153,140,166,163,168,307,244,152,n.a.,n.a.,65,65,70,82,86,82,80,80
830.,BIOMASA FUENTE DE PIEDRA SL,"CALLE FREDERIC MOMPOU, 5 TERCERO CUARTA",SANT JUST DESVERN,Spain,3511,n.a.,n.a.,n.a.,n.a.,n.a.,6,6,4,5,4,n.a.,n.a.,n.a.,n.a.,n.a.,12,12,11,18,20
340.,BIZKAIA ENERGIA SOCIEDAD LIMITADA,POLIGONO INDUSTRIAL BOROA (INSULA A I 1),AMOREBIETA-ETXANO,Spain,3511,n.a.,93,92,89,88,90,88,79,91,93,n.a.,5,5,5,5,5,5,5,5,5
375.,BOIRO ENERGIA SA,"CALLE BODION (LG. BODION), S/N",BOIRO,Spain,3511,n.a.,n.a.,27,17,15,16,14,12,11,7,n.a.,n.a.,7,6,7,6,6,6,6,7
595.,BONET SPAIN SOCIEDAD LIMITADA.,"POLIGONO INDUSTRIAL GAIDO, S/N",CABANES,Spain,2320,n.a.,2,2,3,4,3,4,4,2,2,n.a.,23,12,6,6,6,6,6,6,7
188.,BORMIOLI ROCCO SA,"AVENIDA DEL VIDRIO, S/N",AZUQUECA DE HENARES,Spain,4644,n.a.,59,57,55,50,48,52,51,52,58,n.a.,282,269,266,269,285,292,300,311,317
707.,BOVEDILLAS CERAMICAS ANDALUZAS SA,"CARRETERA JEREZ-CARTAGENA, KM 29",ARCOS DE LA FRONTERA,Spain,2332,n.a.,n.a.,n.a.,n.a.,3,4,5,5,5,7,n.a.,n.a.,n.a.,n.a.,33,31,32,32,37,43
665.,BP OIL ESPANA SAU,"AVENIDA DE BARAJAS (PQ. EMPRESARIAL OMEGA), 30 ED D",ALCOBENDAS,Spain,4671,n.a.,"4,055","4,609","5,961","6,374","6,355","6,017","5,044","3,978","5,295",n.a.,865,885,888,890,879,895,916,465,491
58.,BP SOLAR ESPANA SAU,"AVENIDA DE BARAJAS (PQ. EMPRESARIAL OMEGA), 30",ALCOBENDAS,Spain,4690,n.a.,n.a.,0,0,5,58,129,438,332,430,n.a.,n.a.,n.a.,n.a.,9,43,81,91,436,693
897.,BRIDGESTONE HISPANIA SA,"BARRIO URBIREN, S/N",BASAURI,Spain,2211,n.a.,765,765,789,878,978,"1,186","1,042",840,"1,015",n.a.,"3,079","3,021","3,043","3,442","3,862","4,005","4,140","4,156","4,432"
36.,BRILEN SA,"PASEO INDEPENDENCIA, 21 3",ZARAGOZA,Spain,2060,n.a.,33,32,25,29,39,35,36,39,38,n.a.,212,213,186,182,184,191,191,221,234
709.,CAL DE CASTILLA SA,"CARRETERA A-3, 31 KM",ARGANDA,Spain,2352,n.a.,7,8,7,6,6,9,11,12,12,n.a.,23,22,21,21,28,39,37,35,41
619.,CAL GOV SA,"CARRETERA FUENTE DE SANTIAGO (KM 2,5)",ESTEPA,Spain,0811,n.a.,18,16,13,12,10,13,11,11,11,n.a.,29,29,34,36,23,24,24,26,26
243.,CAL INDUSTRIAL SL,"AVENIDA PIO XII, 22 OFICINA 2",PAMPLONA/IRUNA,Spain,2352,n.a.,20,20,18,17,15,16,11,12,12,n.a.,48,48,38,39,39,41,17,18,18
362.,CALERA DE ALZO SL,"LUGAR EGILEOR, 101",ALTZO,Spain,2352,n.a.,16,21,20,20,19,21,20,21,20,n.a.,48,48,49,49,52,58,55,54,54
421.,"CALERAS LISKAR, SA","LUGAR PARAJE LISKAS, S/N",LIEDENA,Spain,0811,n.a.,n.a.,1,1,1,1,3,3,2,3,n.a.,n.a.,11,11,12,16,17,18,18,18
459.,CALES DE LA PLANA SA,"PARTIDA PEDRERA, S/N",CHILCHES,Spain,2352,n.a.,16,14,12,12,13,12,16,15,24,n.a.,54,52,50,51,52,50,57,59,68
680.,CALES DE LLIERCA SA,"CALLE AFORES, S/N",ARGELAGUER,Spain,2352,n.a.,17,17,16,16,15,14,14,10,10,n.a.,63,61,58,62,54,54,50,44,47
892.,CALES DE PACHS SA,"LUGAR AFORES (PACS DEL PENEDES) (MONTANYA SANT JAUME), S/N",PACS DEL PENEDES,Spain,2352,n.a.,9,8,8,9,9,9,9,8,10,n.a.,36,30,29,31,33,35,37,37,30
19.,CALES GRANADA SA,"AVENIDA DE MADRID, 3",GRANADA,Spain,2352,n.a.,3,2,2,3,2,3,4,3,5,n.a.,11,9,10,13,14,15,24,17,21
209.,CAMPO BRICK SL,"LUGAR ALBIXOI (SANTA MARIA), S/N",MESIA,Spain,2349,n.a.,1,1,1,1,1,1,3,4,4,n.a.,22,22,19,20,23,23,26,35,41
248.,CARTONAJES MALLORCA SL,"CALLE SETZE DE JULIOL (- PG IND SON CASTELLO), 57",PALMA,Spain,1721,n.a.,n.a.,6,6,6,6,6,6,6,6,n.a.,n.a.,44,43,44,41,39,37,37,46
754.,CASIMIRO HERNANDEZ E HIJOS LA MARUXINA SA,"AVENIDA DE CASTILLA LA MANCHA, 6",ALAMEDA DE LA SAGRA,Spain,2352,n.a.,3,4,3,3,3,4,5,7,10,n.a.,24,25,26,31,38,41,47,48,56
179.,CASTELLAR VIDRIO SA,"CALLE BERGUEDA, 67 PG INDUSTRIAL PLA DE LA BRUGUERA",CASTELLAR DEL VALLES,Spain,2313,n.a.,62,61,64,70,72,69,61,61,63,n.a.,288,257,256,244,279,292,272,267,271
626.,CELANESE SALES IBERICA SL.,"CALLE LLULL (ED CINC), 329 PLT 3",BARCELONA,Spain,2014,n.a.,n.a.,42,120,162,204,208,167,123,205,n.a.,n.a.,69,89,140,144,153,152,206,261
86.,CELLTECH SL,"AVENIDA BURGOS, 12 4 B",MADRID,Spain,1711,n.a.,4,0,1,17,45,62,53,33,37,n.a.,37,7,6,117,170,170,166,161,178
361.,CELSA ATLANTIC SL,"CALLE CANAL DE SANTO TOMAS, S/N",VITORIA-GASTEIZ,Spain,2410,n.a.,217,19,288,300,427,526,424,377,692,n.a.,259,285,275,322,446,529,548,580,646
140.,CELULOSA DE LEVANTE SA,"CARRETERA C-42, KM 8,5",TORTOSA,Spain,1711,n.a.,33,27,29,24,26,30,29,26,35,n.a.,79,80,86,93,97,95,96,99,99
87.,CELULOSAS DE ASTURIAS SA,"LUGAR ARMENTAL, S/N",NAVIA,Spain,1711,n.a.,288,304,258,291,301,285,282,133,158,n.a.,321,297,283,274,281,302,360,364,346
813.,CEMENTOS ALFA SA,"CALLE MARIA TUBAU, 9 PISO 4",MADRID,Spain,2351,n.a.,29,35,39,35,30,43,52,60,80,n.a.,87,91,93,106,116,123,131,134,138
613.,CEMENTOS COSMOS SA,"CALLE BRASIL, 56",VIGO,Spain,2351,n.a.,105,106,110,59,60,68,89,88,111,n.a.,290,262,163,168,213,243,260,272,283
611.,"CEMENTOS LEMONA, SOCIEDAD ANONIMA","ALAMEDA URQUIJO, 10 2",BILBAO,Spain,2351,n.a.,44,37,32,18,31,44,47,62,66,n.a.,131,129,120,117,142,148,21,23,23
431.,CEMENTOS MOLINS INDUSTRIAL SA,"CARRETERA NACIONAL- 340 (KM 1242,3 NUMERO 2-38)",SANT VICENC DELS HORTS,Spain,2351,n.a.,82,81,n.a.,73,75,90,108,124,161,n.a.,170,174,n.a.,189,212,222,239,252,248
1007.,CEPSA GAS Y ELECTRICIDAD SA.,"PASEO CASTELLANA, 259 A. TORRE CEPSA",MADRID,Spain,3514,n.a.,n.a.,142,128,141,136,48,21,32,52,n.a.,n.a.,31,30,32,26,25,21,21,19
306.,CEPSA QUIMICA SA,"PASEO CASTELLANA (TORRE CEPSA), 259",MADRID,Spain,2014,n.a.,"2,338","2,931","3,703","4,449","4,662","2,977","2,451","1,641","1,971",n.a.,425,657,697,751,971,959,907,963,"1,035"
249.,"CERABRICK GRUPO CERAMICO, SOCIEDAD ANONIMA",CARRETERA LOGRONO VITORIA (KM 423),FUENMAYOR,Spain,2332,n.a.,1,1,2,9,9,8,6,9,9,n.a.,5,9,20,32,34,28,29,30,41
990.,CERACASA SA,CARRETERA CASTELLON-TERUEL (KM 19),L'ALCORA,Spain,2331,n.a.,15,17,20,17,17,17,18,19,30,n.a.,90,92,97,110,111,115,128,169,201
49.,CERAESPINA SL,"POLIGONO INDUSTRIAL ZARRIN, S/N",SALAS,Spain,2332,n.a.,1,1,1,1,2,2,2,2,3,n.a.,15,16,20,20,20,24,26,28,31
999.,CERAMA SL,"CARRETERA AVE, S/N",PANTOJA,Spain,2332,n.a.,3,3,3,2,1,2,2,2,4,n.a.,20,32,21,21,29,44,47,53,65
640.,CERAMICA ANON SL,"CARRETERA ALFARO (N ), 46",TUDELA,Spain,2332,n.a.,n.a.,0,0,0,0,1,1,1,2,n.a.,n.a.,8,9,7,12,18,17,20,24
632.,CERAMICA BARRASA SA,"AVENIDA CASTILLA LA MANCHA (KM 34,400)",MOCEJON,Spain,2332,n.a.,1,n.a.,1,1,1,1,2,2,2,n.a.,19,n.a.,19,19,19,21,21,25,28
24.,CERAMICA CAMPO SAEZ SL,"CALLE O CRUCEIRO (PQ. VILLALONGA), S/N",SANXENXO,Spain,2349,n.a.,n.a.,n.a.,n.a.,0,0,1,0,0,1,n.a.,n.a.,n.a.,n.a.,5,8,15,13,16,18
723.,CERAMICA CARBONELL SL,"PARTIDA COLLAET, SN",AGOST,Spain,2332,n.a.,1,1,0,0,0,1,1,1,3,n.a.,11,22,11,10,10,10,10,10,18
426.,CERAMICA CUESTA VILA SA,"AVENIDA VICENTE FERNANDEZ MANSO (KM 1,5)",TORO,Spain,2332,n.a.,1,1,1,1,1,2,2,2,5,n.a.,16,n.a.,n.a.,6,4,17,23,25,43
8.,CERAMICA CULLERE SA,"CALLE AFORES, S/N",BELIANES,Spain,2332,n.a.,0,0,0,0,0,0,1,1,2,n.a.,2,2,2,3,8,12,11,13,12
449.,CERAMICA DE ALHABIA SL,PASAJE LA HUERTA,ALHABIA,Spain,2332,n.a.,n.a.,1,1,0,1,1,1,2,3,n.a.,n.a.,12,8,9,10,13,19,21,25
1013.,CERAMICA DE ALMACELLAS SA,"CARRETERA NACIONAL 240, S/N",ALMACELLES,Spain,2332,n.a.,0,0,0,1,1,1,1,1,1,n.a.,7,7,7,8,8,7,7,8,18
889.,CERAMICA DE LA ESTANCA SA,"CAMINO LA ESTANCA ((POL. TEJERIAS SUR)), 1",CALAHORRA,Spain,2332,n.a.,1,1,1,3,3,2,2,3,4,n.a.,25,20,19,17,25,27,28,33,34
610.,CERAMICA DE PINA SL,CARRETERA TAMARA,PINA DE CAMPOS,Spain,2332,n.a.,n.a.,n.a.,n.a.,0,0,0,0,0,1,n.a.,n.a.,n.a.,n.a.,2,2,3,3,5,15
1015.,"CERAMICA DE TERUEL, SA","CALLE AMANTES, 6 4 9",TERUEL,Spain,2332,n.a.,n.a.,n.a.,0,0,0,0,0,1,3,n.a.,n.a.,n.a.,2,2,3,5,10,26,43
161.,CERAMICA DE VILLACE SL,"PASEO CASTELLANA, 120 PISO 5 IZ",MADRID,Spain,2332,n.a.,1,1,1,4,4,4,3,3,6,n.a.,n.a.,12,14,17,17,25,22,30,31
831.,CERAMICA DEL NALON SA,"LUGAR LADA, S/N",LANGREO,Spain,2320,n.a.,12,11,12,12,12,12,12,8,11,n.a.,69,70,n.a.,68,57,57,57,57,57
691.,CERAMICA DEL PRINCIPADO SL,"POLIGONO INDUSTRIAL ZARRIN, S/N",SALAS,Spain,2332,n.a.,n.a.,n.a.,n.a.,0,1,2,4,5,9,n.a.,n.a.,n.a.,n.a.,4,10,15,31,35,37
885.,CERAMICA DEL REINO SOCIEDAD LIMITADA,"CALLE MARIA BELLIDO, 17 PLT 1",BAILEN,Spain,2332,n.a.,4,3,3,3,3,5,4,5,9,n.a.,17,18,18,20,22,25,25,28,38
141.,CERAMICA DOBON SA,"CALLE DE BARBASTRO, 38",ALCOLEA DE CINCA,Spain,2332,n.a.,0,0,0,1,1,0,0,1,3,n.a.,1,4,1,3,7,8,9,9,20
99.,CERAMICA EL INDALO SOCIEDAD ANONIMA,"CARRETERA N-340A (KM 490,70)",SORBAS,Spain,2332,n.a.,0,0,0,n.a.,0,1,1,2,4,n.a.,1,1,2,n.a.,10,13,14,19,30
73.,CERAMICA ELU SL,"CALLE ARRABAL, S/N",PANTOJA,Spain,2332,n.a.,3,3,3,2,2,3,3,3,5,n.a.,24,21,22,22,24,24,23,27,42
547.,CERAMICA ESPIRITU SANTO SA,"CALLE SEBASTIAN PALOMO LINARES, 17",ALAMEDA DE LA SAGRA,Spain,2332,n.a.,5,5,3,2,3,4,5,6,12,n.a.,38,36,26,28,37,39,45,60,74
982.,CERAMICA GAYGA SOCIEDAD LIMITADA,CARRETERA MADRID - CADIZ (KM 293. CM. VIEJO),BAILEN,Spain,2332,n.a.,2,2,2,n.a.,1,2,2,2,3,n.a.,17,16,12,n.a.,13,21,25,22,28
674.,CERAMICA GENERAL CASTANOS SOCIEDAD LIMITADA,"CAMINO POZUELO, S/N",BAILEN,Spain,2332,n.a.,0,0,0,0,0,0,0,0,1,n.a.,n.a.,n.a.,n.a.,1,1,6,7,9,19
350.,CERAMICA HERMANOS ZARZA SL,"CAMINO DE COLLADO, S/N",CRESPOS,Spain,2332,n.a.,1,1,1,0,0,0,1,1,1,n.a.,n.a.,n.a.,7,7,9,11,12,13,10
948.,CERAMICA INDUSTRIAL MEDITERRANEA SL,"CARRETERA A-31 (KM), 388",NOVELDA,Spain,2320,n.a.,n.a.,0,n.a.,0,0,0,0,0,1,n.a.,n.a.,n.a.,n.a.,n.a.,1,3,3,6,9
405.,CERAMICA INDUSTRIAL SAN FRANCISCO DE BAILEN SL,"CALLE MERCEDES MONTES, 28",BAILEN,Spain,2332,n.a.,2,2,1,1,1,1,1,2,3,n.a.,19,19,15,15,13,13,13,15,13
800.,CERAMICA J RUIZ E HIJOS SA,CARRETERA NACIONAL 502 (KM 1 600.),TALAVERA DE LA REINA,Spain,2332,n.a.,n.a.,n.a.,n.a.,1,2,2,2,2,2,n.a.,n.a.,n.a.,n.a.,27,27,27,27,27,29
720.,CERAMICA LA ANDALUZA DE BAILEN SL,CARRETERA MADRID - CADIZ (KM 293),BAILEN,Spain,2332,n.a.,2,2,2,2,2,2,3,3,5,n.a.,12,8,8,15,15,15,16,16,39
240.,CERAMICA LA COMA SA,"CALLE PEDRO I PONS, 18",BARCELONA,Spain,2332,n.a.,4,4,3,4,4,4,3,4,6,n.a.,18,16,15,17,18,20,22,23,27
351.,CERAMICA LA ESCANDELLA SA,"CARRETERA NOVELDA (KM 2,500)",AGOST,Spain,2332,n.a.,n.a.,28,26,25,23,24,27,26,40,n.a.,n.a.,158,159,154,139,149,150,151,237
468.,CERAMICA LA MANCHICA SL,"LUGAR A MANCHICA (CR. A SEARA, 1)",A MERCA,Spain,2332,n.a.,1,1,0,0,1,1,1,1,2,n.a.,9,10,8,5,9,19,19,27,28
1034.,CERAMICA LA PALOMA SL,"AVENIDA PORTUGAL, 47",PANTOJA,Spain,2332,n.a.,4,4,4,4,4,4,3,4,6,n.a.,30,22,24,23,23,27,31,35,46
1029.,CERAMICA LLANOS SA,"CALLE SORIA (PG DE LA VEGA), 1",BRIVIESCA,Spain,2332,n.a.,n.a.,n.a.,n.a.,n.a.,3,2,3,3,2,n.a.,n.a.,n.a.,n.a.,n.a.,15,17,16,17,25
646.,CERAMICA LOS ANTONIO SL,"CAMINO CANADA BAEZA, S/N",BAILEN,Spain,2332,n.a.,n.a.,n.a.,n.a.,n.a.,0,0,0,0,1,n.a.,n.a.,n.a.,n.a.,n.a.,1,2,5,6,10
654.,CERAMICA MALPESA SA,"CARRETERA NACIONAL IV, KM 303,600",VILLANUEVA DE LA REINA,Spain,2332,n.a.,6,5,5,5,7,9,12,15,35,n.a.,51,52,51,56,71,71,67,73,90
114.,CERAMICA MAYOR SA,"PARTIDA PLANET (MOLINERA), S/N",CALLOSA D'EN SARRIA,Spain,2332,n.a.,8,7,8,6,7,6,7,5,8,n.a.,75,73,73,68,61,64,55,53,79
520.,"CERAMICA MENENDEZ, SA","CAMINO DE LA CERAMICA, 54",OVIEDO,Spain,2332,n.a.,0,0,0,0,0,0,0,1,2,n.a.,n.a.,n.a.,n.a.,n.a.,1,2,7,17,20
241.,CERAMICA MILLAS HIJOS SA,"CALLE CASTILLO, 53 65",MORA,Spain,2332,n.a.,n.a.,4,5,6,4,3,4,4,6,n.a.,n.a.,22,22,23,23,24,28,28,47
715.,CERAMICA MIRAMAR SL,CARRETERA MADRID - CADIZ (293 P1. CM VIEJO),BAILEN,Spain,2332,n.a.,4,4,4,3,2,3,3,3,6,n.a.,18,16,16,15,9,15,16,16,39
363.,CERAMICA NULENSE SA,CARRETERA VILLAVIEJA (KM 1.600),NULES,Spain,2332,n.a.,130,130,110,99,75,52,46,45,56,n.a.,197,248,240,232,207,185,193,208,302
996.,"CERAMICA PENAFIEL, SA","CARRETERA NACIONAL 122, 54 KM.310",PENAFIEL,Spain,2332,n.a.,n.a.,n.a.,n.a.,2,2,2,2,2,3,n.a.,n.a.,n.a.,n.a.,13,15,15,17,17,23
11.,CERAMICA PENO SL,CARRETERA MONTES CLAROS (KM 1.200),TALAVERA DE LA REINA,Spain,2331,n.a.,1,1,1,2,2,2,1,1,2,n.a.,15,14,15,16,17,17,17,18,20
374.,CERAMICA PIEROLA SL,"CARRETERA ESPARRAGUERA A PIERA (KM), 10",ELS HOSTALETS DE PIEROLA,Spain,2332,n.a.,2,3,2,2,2,3,4,5,7,n.a.,25,24,19,23,27,30,30,31,35
319.,"CERAMICA RIBESALBES, SA","CARRETERA RIBESALBES (KM 3,300), APTO CORREOS 128",ONDA,Spain,2331,n.a.,11,11,12,11,10,10,10,9,9,n.a.,38,41,41,39,39,39,39,40,40
819.,CERAMICA RIOBOO SL,"LUGAR GANDARA (PRAVIO), 14",CAMBRE,Spain,2332,n.a.,n.a.,n.a.,n.a.,1,1,1,2,2,3,n.a.,n.a.,n.a.,n.a.,10,8,15,26,28,29
630.,CERAMICA SALONI SOCIEDAD ANONIMA,"CARRETERA CV-16, KM 17",SANT JOAN DE MORO,Spain,2331,n.a.,n.a.,89,85,80,75,92,97,98,100,n.a.,n.a.,357,355,366,430,517,535,567,494
958.,CERAMICA TARRAGONA SOCIEDAD LIMITADA,"CALLE RONDA DE LERIDA, 21",ALFARO,Spain,2332,n.a.,0,0,0,0,0,0,0,1,2,n.a.,n.a.,n.a.,1,1,2,2,5,3,27
103.,CERAMICA TECNICA DE ILLESCAS SL,CARRETERA NACIONAL 401 MADRID TOLEDO (KM 33),ILLESCAS,Spain,2332,n.a.,n.a.,n.a.,n.a.,n.a.,2,3,2,3,7,n.a.,n.a.,n.a.,n.a.,n.a.,23,23,25,33,38
314.,CERAMICA TUDELANA SA,"CARRETERA ALFARO, S/N",TUDELA,Spain,2332,n.a.,1,1,1,2,2,2,2,2,4,n.a.,6,7,8,11,12,11,16,20,30
48.,CERAMICA VEREA SA,"LUGAR LANZA (SAN MAMED), S/N",MESIA,Spain,2332,n.a.,8,8,8,7,6,7,8,7,6,n.a.,44,44,43,42,39,40,44,44,47
80.,CERAMICA VIRGEN DE LAS NIEVES SL,"CARRETERA SAN VICENTE (KM 9,5)",AGOST,Spain,2332,n.a.,1,1,1,1,1,1,1,2,3,n.a.,8,7,7,6,6,9,10,11,19
621.,CERAMICA XUNQUEIRA SOCIEDAD ANONIMA,LUGAR VEIGACHA,XUNQUEIRA DE ESPADANEDO,Spain,2332,n.a.,0,0,1,1,1,2,2,3,3,n.a.,7,7,10,11,26,30,32,30,36
180.,CERAMICA ZARATAN SA,"CAMINO VALDEZONO, S/N",VALLADOLID,Spain,2332,n.a.,2,2,2,2,2,2,2,2,3,n.a.,23,23,20,18,15,14,14,19,19
1002.,CERAMICAS ALONSO SL,"LUGAR EXTRAMUROS, S/N",AYELO DE RUGAT,Spain,2332,n.a.,2,2,n.a.,2,2,2,2,3,5,n.a.,22,23,n.a.,25,23,28,23,20,46
683.,CERAMICAS BELLIDO SL,"POLIGONO INDUSTRIAL LA PAZ, 27 PAR",TERUEL,Spain,2332,n.a.,0,0,n.a.,0,0,0,0,0,0,n.a.,n.a.,n.a.,n.a.,n.a.,1,1,1,2,5
1020.,CERAMICAS CALAF SA,"CARRETERA DE FOLQUER-JORBA (KM 38,200)",CALAF,Spain,2332,n.a.,2,3,2,2,3,3,4,4,6,n.a.,25,25,26,26,35,43,42,39,42
779.,CERAMICAS DE MIRA SOCIEDAD LIMITADA,"CARRETERA FUENTE DEL REBOLLO, S/N",MIRA,Spain,2332,n.a.,3,3,2,3,3,4,4,6,9,n.a.,25,23,19,19,28,34,34,29,6
455.,CERAMICAS DEL FOIX SA,"AVENIDA PAISOS CATALANS (PG CASANOVA), 27",SANTA MARGARIDA I ELS MONJOS,Spain,4613,n.a.,n.a.,51,49,n.a.,70,96,87,87,121,n.a.,n.a.,23,69,n.a.,191,194,192,178,245
834.,CERAMICAS DEL MINO CARMEN UBEIRA Y COMPANIA SL,"LUGAR OLEIROS (SANTA MARIA P ), S/N",SALVATERRA DE MINO,Spain,2332,n.a.,2,2,1,2,1,2,2,3,5,n.a.,18,14,15,18,21,20,20,22,30
1025.,CERAMICAS EL PROGRESO SA,"LUGAR OS BARREIROS, S/N",MALPICA DE BERGANTINOS,Spain,2320,n.a.,0,0,0,0,1,1,1,1,2,n.a.,5,6,6,6,9,24,29,30,27
100.,CERAMICAS FANAL SA,"CALLE CAMI DEL COLADOR (PG IND EL COLOMER), 21",ONDA,Spain,2331,n.a.,23,23,23,26,25,25,25,25,32,n.a.,91,89,89,89,89,89,90,90,99
797.,CERAMICAS JORNET SA,"CALLE COLOM, 97",GUADASSUAR,Spain,2332,n.a.,1,1,1,1,1,1,1,2,4,n.a.,15,15,12,14,18,18,20,23,28
2.,CERAMICAS LAS LOSAS SL,CARRETERA NAVALPINO (KM 1),GUADAMUR,Spain,2331,n.a.,0,1,0,0,0,0,1,1,1,n.a.,13,9,10,11,11,12,15,15,23
769.,CERAMICAS MYR SL,"CARRETERA CASTELLON-TERUEL, S/N AV CASTELLON N 33",ALCORA,Spain,2331,n.a.,16,15,15,16,13,10,10,10,13,n.a.,63,59,60,61,57,51,50,55,68
963.,CERAMICAS NOMDEDEU SA,"CALLE LUCENA (CR GRAO-TERUEL), S/N",ALCORA,Spain,2331,n.a.,11,11,10,9,6,5,5,5,7,n.a.,53,51,48,46,47,48,47,46,50
607.,CERAMICAS PRINCEP SL,"LUGAR DESPOBLAT, S/N",SANTA LLOGAIA D'ALGUEMA,Spain,2332,n.a.,n.a.,0,0,0,0,0,0,1,2,n.a.,n.a.,1,1,2,2,2,6,12,17
718.,CERAMICAS SAZA SA,"CAMINO JAMBRINA, S/N",CORRALES DEL VINO,Spain,2332,n.a.,0,0,0,2,2,2,2,3,5,n.a.,3,3,3,9,12,18,27,24,33
265.,CERAMICAS VALERA SOCIEDAD ANONIMA,"CALLE CANALEJAS, S/N",SANTA CRUZ DE MUDELA,Spain,2332,n.a.,1,1,1,1,2,3,3,4,7,n.a.,20,17,16,20,23,32,41,61,73
97.,CERAMICAS VIDAL BENEYTO SL,"CARRETERA SEGORBE TABERNES VALLDIGNA, KM 60.100",TURIS,Spain,2332,n.a.,0,0,0,0,0,0,0,1,3,n.a.,n.a.,1,n.a.,6,9,6,9,19,27
929.,CERAMOSA SOCIEDAD LIMITADA,"AVENIDA CIUTAT D'ALACANT, S/N",SUECA,Spain,4673,n.a.,n.a.,6,6,5,5,6,7,8,16,n.a.,n.a.,18,18,22,33,31,36,73,90
574.,CERANOR SA,"CALLE GENERAL ARRANDO, 9 BIS BAJO",MADRID,Spain,2332,n.a.,n.a.,20,20,27,36,37,34,33,44,n.a.,n.a.,78,81,101,124,126,139,149,160
236.,CERFRIT SA,"POLIGONO INDUSTRIAL (AP CORREOS 21), SECR II PARC 1",NULES,Spain,2030,n.a.,14,21,21,26,29,29,27,26,19,n.a.,39,43,44,42,41,43,41,50,62
959.,CERLAT SA,"CARRETERA RIBESALBES (APDO CORREOS 174), S/N",ONDA,Spain,2331,n.a.,10,11,12,13,13,15,15,13,19,n.a.,51,52,53,71,80,98,96,99,117
85.,CERPA SL,CARRETERA VIVER-PUERTO BURRIANA (KM 28),ONDA,Spain,2331,n.a.,22,22,21,25,23,20,19,17,19,n.a.,96,95,96,85,74,73,68,76,82
788.,CESAN SL,"CALLE JOSE ORTEGA Y GASSET, 73 PISO 6 A",MADRID,Spain,2332,n.a.,0,0,0,0,0,1,3,4,7,n.a.,n.a.,n.a.,n.a.,10,20,21,33,40,51
511.,CICOGRES SA,"CARRETERA LA POBLA TORNESA ((VILLAFAMES LA POBLA TORNESA)), S/N",VILAFAMES,Spain,2331,n.a.,41,43,38,31,27,27,24,19,19,n.a.,134,121,122,120,110,106,95,89,108
509.,CIUDAD AGROALIMENTARIA DE TUDELA SL,"POLIGONO LA SERNA (C/D), S/N",TUDELA,Spain,3511,n.a.,8,8,11,10,10,9,6,1,0,n.a.,3,3,4,5,5,6,5,5,3
728.,CLARIANA SA,"AVENIDA ALEMANYA, 48",VILLARREAL,Spain,1712,n.a.,16,18,19,21,24,24,22,20,31,n.a.,74,82,87,93,94,93,93,98,130
604.,CODECAR ALCALA SL,"POLIGONO INDUSTRIAL RED (CL 13), PARC 34",ALCALA DE GUADAIRA,Spain,4676,n.a.,n.a.,n.a.,n.a.,n.a.,1,1,1,1,2,n.a.,n.a.,n.a.,n.a.,n.a.,6,5,5,5,5
596.,CODICER 95 SL,AVENIDA ALCORA (KM 10'5),CASTELLON,Spain,2332,n.a.,22,20,17,18,21,19,20,18,17,n.a.,88,87,79,82,87,89,85,75,77
143.,COGENERACION CREVILLENTINA AIE,"PARTIDA COSTERA DELS PEDRES, S/N",CREVILLENT,Spain,3511,n.a.,n.a.,0,0,3,5,3,1,3,2,n.a.,n.a.,n.a.,1,2,3,4,3,3,3
228.,COGENERACION DEL NOROESTE SL,"LUGAR FORMARIS, S/N",SANTIAGO DE COMPOSTELA,Spain,3511,n.a.,35,38,40,42,48,43,35,20,27,n.a.,12,12,12,12,12,12,12,6,6
225.,COGENERACION GEQUISA SA,CARRETERA MIRANDA A PUENTELARRA (KM 4),LANTARON,Spain,3511,n.a.,12,17,16,16,18,17,13,11,17,n.a.,5,5,5,5,4,4,4,4,4
305.,COGENERACION PRAT SA,"CALLE NICOLAS MARIA URGOITI, 42",EL PRAT DE LLOBREGAT,Spain,3511,n.a.,n.a.,n.a.,n.a.,n.a.,9,7,11,11,12,n.a.,n.a.,n.a.,n.a.,n.a.,4,4,4,5,5
891.,COGENERACION TIERRA ATOMIZADA SA,"PARTIDA FOYES FERRAES, S/N",ALCORA,Spain,3511,n.a.,n.a.,n.a.,n.a.,n.a.,16,18,14,14,20,n.a.,n.a.,n.a.,n.a.,n.a.,1,1,1,1,1
601.,COLOR-ESMALT SOCIEDAD ANONIMA,"PASEO INDEPENDENCIA, 21 . PISO 3  - 6",ZARAGOZA,Spain,2059,n.a.,14,17,17,13,12,14,14,13,18,n.a.,70,70,65,65,65,67,64,70,92
888.,"COLORKER, SA","CARRETERA CV-16, KM 21",L'ALCORA,Spain,2331,n.a.,54,45,43,45,45,46,46,48,61,n.a.,262,224,212,219,222,229,239,294,390
21.,COLORONDA SOCIEDAD LIMITADA,"AVENIDA REAL DE EXTREMADURA, 11 - 13",ONDA,Spain,2349,n.a.,36,36,33,34,31,29,29,25,32,n.a.,92,87,86,82,78,78,78,83,84
342.,COLT TECHNOLOGY SERVICES SA,"CALLE TELEMACO, 5",MADRID,Spain,6190,n.a.,152,142,172,199,206,214,210,204,197,n.a.,235,271,295,254,248,243,244,247,239
979.,COMERCIAL ANDURINA SA,"POLIGONO CEAO CL LOS TRASNPORTES,, 3",LUGO,Spain,4639,n.a.,n.a.,n.a.,n.a.,2,3,4,4,9,7,n.a.,n.a.,n.a.,n.a.,18,17,19,22,22,23
215.,COMERCIAL AYMERICH SA,"CARRETERA SALADEURES -  AFUERAS, S/N",SANTA EUGENIA DE BERGA,Spain,2332,n.a.,1,1,1,1,1,1,1,1,3,n.a.,8,6,7,7,9,12,14,23,29
145.,"COMERCIAL E INDUSTRIAL ARIES, SA",CARRETERA GAVA A AVINYONET (BV 2411 KM 16),OLESA DE BONESVALLS,Spain,2352,n.a.,10,12,11,10,10,11,11,10,12,n.a.,55,54,48,48,43,59,81,58,62
229.,COMPANIA ENERGETICA PARA EL TABLERO SA,"CALLE CASARES QUIROGA, 9 BAJO",A CORUNA,Spain,3511,n.a.,31,0,18,46,49,36,29,37,45,n.a.,5,2,3,3,4,3,3,3,3
396.,COMPANIA ESPANOLA DE LAMINACION SL,"CALLE FERRALLA (PG SANT VICENC), 12",CASTELLBISBAL,Spain,2452,n.a.,838,924,949,"1,019","1,102","1,205","1,079",956,"1,522",n.a.,836,839,802,805,881,918,962,"1,070","1,194"
244.,COMPANIA ESPANOLA DE PETROLEOS SAU,"PASEO CASTELLANA, 259 TORRE CEPSA",MADRID,Spain,1920,n.a.,"18,066","19,964","26,242","27,636","28,847","27,239","22,130","18,409","25,269",n.a.,"10,149","10,816","11,191","11,526","11,982","11,912","11,826","11,807","11,809"
261.,COMPANIA VALENCIANA DE ALUMINIO BAUX SL,"CALLE CHARLES ROBERT DARWIN (PQ. TECNOLOGICO), 9",PATERNA,Spain,2442,n.a.,83,85,83,71,77,98,89,62,93,n.a.,184,180,171,178,183,179,181,168,182
22.,CONSERVAS EL CIDACOS SA,CARRETERA CALAHORRA (KM 1),AUTOL,Spain,1089,n.a.,270,239,221,217,198,168,160,145,126,n.a.,490,426,538,491,410,426,401,390,399
559.,CONSERVAS VEGETALES DE EXTREMADURA SA,"CARRETERA VILLAFRANCO A BALBOA, KM 1.5",BADAJOZ,Spain,1039,n.a.,121,105,75,73,63,60,72,74,50,n.a.,180,171,152,149,155,156,164,158,143
634.,"CONSTRUCCIONES Y AUXILIAR DE FERROCARRILES, S.A.",CALLE JOSE MIGUEL ITURRIOZ 26,BEASAIN,Spain,3020,n.a.,"1,334","1,288","1,452","1,539","1,727","1,732","1,587","1,270","1,046",n.a.,"7,587","7,581","8,206","7,632","6,979","6,952","7,094","6,489","4,758"
734.,"CORPORACION ALIMENTARIA PENASANTA, SA","LUGAR LA SIERRA (POL. DE GRANDA), S/N",SIERO,Spain,1051,n.a.,650,651,684,683,695,728,748,734,860,n.a.,"1,216","1,205","1,233","1,245","1,262","1,208","1,154","1,175","1,390"
308.,CORPORACION YGNUS AIR SA,"AVENIDA MANOTERAS, 26",MADRID,Spain,5110,n.a.,15,15,16,17,20,28,17,18,22,n.a.,43,42,39,40,43,75,53,64,65
552.,CORRUGADOS AZPEITIA SL,"CALLE ERREKALDE KALEA, 1",AZPEITIA,Spain,2410,n.a.,0,0,1,27,67,183,359,366,586,n.a.,n.a.,n.a.,n.a.,245,288,420,441,443,442
434.,COSENTINO SAU,"CALLE GOYA, 2",MACAEL,Spain,2370,n.a.,412,370,295,268,245,224,237,217,261,n.a.,"1,743","1,467","1,247","1,145","1,033","1,052","1,041","1,008","1,011"
530.,COTTOCER SL,"CARRETERA VILARREAL ((CV-20)), KM 6,450",ONDA,Spain,2331,n.a.,17,19,22,18,15,13,12,13,21,n.a.,49,49,56,53,49,44,46,55,86
735.,COTTON SOUTH SL,"CARRETERA BENALUA (A FONELAS), KM 3",FONELAS,Spain,1711,n.a.,17,17,18,17,18,28,16,14,16,n.a.,63,63,62,58,57,61,58,53,66
9.,COVESTRO SL.,"CALLE ENTREVIAS (PG IND INDUSTRIAL QUIMICO SUR), S/N",TARRAGONA,Spain,2013,n.a.,274,301,335,352,298,279,269,213,238,n.a.,350,344,318,325,324,313,325,331,300
473.,COVISLAN SL,"CALLE FARADAY, 140 P. BJ",TERRASSA,Spain,3511,n.a.,0,0,0,0,0,3,2,2,2,n.a.,1,1,1,1,1,1,2,1,1
768.,CRIADO HERMANOS SL,"AVENIDA REYES DE ESPANA, S/N",SALAMANCA,Spain,4673,n.a.,1,2,2,2,2,3,4,4,7,n.a.,12,12,15,18,24,29,37,46,46
41.,CRISNOVA VIDRIO SA,"POLIGONO INDUSTRIAL LOS VILLARES, S/N",CAUDETE,Spain,2313,n.a.,82,80,73,71,69,61,54,50,53,n.a.,316,313,313,309,313,306,292,286,284
169.,CRISTAL CERAMICAS SOCIEDAD ANONIMA,"CARRETERA VIVER-PUERTO BURRIANA (KM 55,5)",ONDA,Spain,2331,n.a.,31,32,34,36,35,33,33,30,28,n.a.,143,148,147,145,147,146,149,149,140
313.,CYCASA CANTERAS Y CONSTRUCCIONES SA,"CALLE HENAO, 18 1 PLT",BILBAO,Spain,4211,n.a.,49,57,62,38,43,60,86,89,97,n.a.,295,329,226,144,173,237,250,236,261
826.,DALOPA SA,"CALLE FERRAZ, 13",MADRID,Spain,2332,n.a.,0,1,0,1,1,1,1,1,2,n.a.,8,13,2,7,8,19,23,28,35
638.,DEPURACION DESTILACION RECICLAJE SL,"LUGAR PUNTA LARANXO, S/N",BOIRO,Spain,3511,n.a.,9,12,7,7,8,6,5,5,5,n.a.,6,5,5,5,2,5,6,6,6
841.,DERETIL SA,"CALLE VILLARICOS, S/N",CUEVAS DEL ALMANZORA,Spain,2014,n.a.,114,120,109,109,113,105,112,118,126,n.a.,188,173,173,173,182,202,228,245,263
987.,DICEPA PAPELERA DE ENATE SL,"CARRETERA TARRAGONA-SAN SEBASTIAN (ENATE. HUESCA KM 7,7)",BARBASTRO,Spain,1712,n.a.,30,33,24,15,14,14,13,11,12,n.a.,48,46,48,48,46,46,46,45,46
870.,DOBON Y CIA SOCIEDAD ANONIMA,"CALLE DE BARBASTRO, 38",ALCOLEA DE CINCA,Spain,2332,n.a.,0,0,0,0,0,0,1,1,2,n.a.,9,9,6,8,12,14,15,15,20
529.,DOLOMIAS DE ARAGON SL,"PASEO INDEPENDENCIA, 21 3 PLT",ZARAGOZA,Spain,0729,n.a.,n.a.,3,3,3,3,3,3,3,3,n.a.,n.a.,40,40,20,24,22,22,18,17
847.,DOLOMITAS DEL NORTE SA,"BARRIO SANTULLAN, S/N",CASTRO URDIALES,Spain,2352,n.a.,15,17,19,18,19,21,22,21,26,n.a.,54,55,60,60,61,67,64,67,74
341.,DOW CHEMICAL IBERICA SL,"CALLE RIBERA DEL LOIRA, 4 - 6 ED IRIS, PLANTA 4",MADRID,Spain,2016,n.a.,"1,110","1,255","1,277","1,265","1,454","1,573","1,517","1,270","1,619",n.a.,719,687,665,667,680,739,701,717,857
497.,DS SMITH PACKAGING PENEDES SA.,CARRETERA BP- 2151 (CONFLUENCIA C-15),SANT PERE DE RIUDEBITLLES,Spain,1721,n.a.,26,73,66,53,45,48,42,37,56,n.a.,102,100,96,96,96,97,93,92,98
353.,DUAL GRES SA,"CARRETERA VIVER-PUERTO BURRIANA, KM 56,9",ONDA,Spain,2331,n.a.,10,10,11,11,10,7,8,7,10,n.a.,47,47,48,46,48,47,44,44,47
775.,DUPONT ASTURIAS SL,"LUGAR TAMON (LG VALLE), S/N",CARRENO,Spain,2060,n.a.,143,144,160,167,166,154,127,109,128,n.a.,772,745,767,797,825,835,820,760,752
986.,DYNASOL ELASTOMEROS SAU,"CALLE MENDEZ ALVARO, 44",MADRID,Spain,2017,n.a.,169,181,189,213,245,241,220,137,202,n.a.,194,195,211,178,179,181,175,190,194
893.,ECOCARBURANTES ESPANOLES SA,"CARRETERA NACIONAL 343, KM 7.5",CARTAGENA,Spain,2014,n.a.,n.a.,146,123,155,169,160,139,120,154,n.a.,n.a.,69,68,74,81,82,75,75,75
820.,EDP ESPANA SA.,"PLAZA DE LA GESTA, 2",OVIEDO,Spain,3511,n.a.,n.a.,"4,109","4,135","4,236","4,396","4,286","3,756","2,957","2,958",n.a.,n.a.,"1,495","1,526","1,587","1,655","1,690","1,682","1,627","1,654"
392.,EIFFAGE INFRAESTRUCTURAS SA,"CALLE RIO VIEJO, 3",DOS HERMANAS,Spain,4211,n.a.,60,94,66,67,80,114,137,162,157,n.a.,830,435,365,365,396,496,704,861,767
247.,EL BARCO SL,"CARRETERA ALCORA, S/N",ONDA,Spain,2331,n.a.,n.a.,6,8,7,9,8,7,6,7,n.a.,n.a.,47,51,49,52,57,63,51,59
196.,EMIGRES SL,"URBANIZACION VINYALS (PARTIDA), S/N",ALCORA,Spain,2331,n.a.,37,32,28,29,24,21,18,12,11,n.a.,115,99,96,92,86,66,61,59,55
29.,EMPRESA MIXTA DE AGUAS DE LAS PALMAS SOCIEDAD ANONIMA,"AVENIDA JUAN CARLOS I (ED LAS RAMBLAS), 29 PLANTAS 2 Y 3",LAS PALMAS DE GRAN CANARIA,Canary Islands (Spain),3600,n.a.,57,54,53,54,56,58,59,56,59,n.a.,294,290,286,284,301,313,314,317,324
546.,ENCE ENERGIA Y CELULOSA S.A.,PASEO DE LA CASTELLANA 35,MADRID,Spain,1711,n.a.,613,673,700,891,828,839,834,551,712,n.a.,877,852,838,"1,010","1,073","1,323","1,663","1,654","2,014"
88.,ENDEKA CERAMICS SA,CARRETERA CABANES VALL D'ALBA (KM 4),VALL D'ALBA,Spain,2030,n.a.,53,53,56,80,82,94,89,68,73,n.a.,158,155,164,161,164,160,160,163,175
475.,ENDESA GENERACION SA,"AVENIDA LA BORBOLLA, 5",SEVILLA,Spain,3511,n.a.,"3,634","4,824","4,224","4,330","5,232","4,520","3,319","3,457","4,671",n.a.,"1,532","1,622","1,693","1,792","1,925","2,047","2,244","2,261","2,474"
263.,ENERCRISA SA,"CALLE MARIA DE MOLINA, 37 6",MADRID,Spain,3511,n.a.,18,25,27,30,30,25,24,22,23,n.a.,15,15,15,15,15,16,16,16,16
199.,"ENERGIAS ALTERNATIVAS MURCIANAS, SA","CALLE ANTONIO MAURA, 18 - PISO 1 B",MADRID,Spain,3511,n.a.,n.a.,0,0,16,19,15,15,15,13,n.a.,n.a.,n.a.,1,1,1,1,1,1,1
692.,ENERGYWORKS CARBALLO SL,"CARRETERA AC- 552 (- KM 34,5)",CARBALLO,Spain,3511,n.a.,8,9,9,9,9,9,7,7,7,n.a.,8,8,7,8,7,7,7,7,7
933.,ENERGYWORKS MONZON SL,PARTIDA PAULES,MONZON,Spain,3511,n.a.,n.a.,n.a.,1,17,20,18,10,15,15,n.a.,n.a.,n.a.,1,1,1,1,2,1,1
666.,ENERGYWORKS VILLARROBLEDO SOCIEDAD LIMITADA,"AVENIDA REYES CATOLICOS, 135",VILLARROBLEDO,Spain,3511,n.a.,15,18,16,16,20,22,18,17,20,n.a.,11,11,11,12,12,12,12,12,12
183.,ENGIE CARTAGENA SL.,"CALLE TORRELAGUNA, 79",MADRID,Spain,3511,n.a.,109,111,110,105,111,108,114,156,110,n.a.,45,45,n.a.,n.a.,1,1,1,1,1
501.,ENGIE CASTELNOU SL.,"CALLE TORRELAGUNA, 79",MADRID,Spain,3511,n.a.,28,21,34,33,30,39,115,106,257,n.a.,28,28,29,29,30,30,33,30,30
388.,EPIFANIO CAMPO SL,"CALLE O CRUCEIRO (LG VILLALONGA), S/N",SANXENXO,Spain,2332,n.a.,2,2,1,1,2,2,2,3,7,n.a.,27,26,23,24,32,37,37,41,44
939.,ESMALDUR SA,"CARRETERA CV-16, S/N KM. 16.600",SANT JOAN DE MORO,Spain,2349,n.a.,12,13,13,13,12,10,9,9,12,n.a.,47,52,43,41,40,41,39,44,37
840.,ESMALGLASS SA,"CARRETERA CV-20, KM 2,3",VILA-REAL,Spain,2030,n.a.,97,92,94,94,101,96,85,72,112,n.a.,286,275,281,296,316,324,307,343,408
757.,"ESMALTES, SOCIEDAD ANONIMA","CARRETERA CASTELLON-TERUEL, KM 22,5",ALCORA,Spain,2030,n.a.,15,17,17,18,18,16,18,16,28,n.a.,64,66,66,65,68,74,74,77,108
127.,ESNELAT SL,"POLIGONO ERRATZU, S/N PARCELAS E-F",URNIETA,Spain,1051,n.a.,193,202,209,199,171,89,143,135,141,n.a.,199,225,203,186,211,186,173,183,169
540.,ESSITY OPERATIONS ALLO SL.,"CALLE FRUCTUOS GELABERT (EDIF. CONATA 2), 6 8. 6A PLANTA",SANT JOAN DESPI,Spain,1712,n.a.,168,181,142,167,157,172,166,163,175,n.a.,424,394,338,333,368,370,358,335,343
805.,ESSITY SPAIN SOCIEDAD LIMITADA.,CARRETERA VILABELLA (KM 2),PUIGPELAT,Spain,1729,n.a.,567,580,549,545,482,465,450,433,433,n.a.,691,711,733,823,771,780,791,773,739
119.,ESTUDIO CERAMICO SL,"PARTIDA RACHINA, S/N",SANT JOAN DE MORO,Spain,4673,n.a.,n.a.,7,8,9,11,12,12,12,17,n.a.,n.a.,93,92,104,104,87,98,140,211
880.,EUROATOMIZADO SA,"CALLE CAMI DEL COLADOR ((PG IND EL COLOMER)), PARC 40 APDO 221",ONDA,Spain,2399,n.a.,72,59,52,47,47,44,49,44,62,n.a.,99,87,75,77,88,94,84,76,106
132.,EUROCERAMICAS SANCHEZ PALOMERO SA,CARRETERA DE ALDEHUELA (KM 0.800),CARCABOSO,Spain,2349,n.a.,0,0,0,0,0,1,1,1,1,n.a.,9,10,11,14,18,17,18,18,22
904.,"EXAGRES, SA","AVENIDA DE LA REINA DELS APOSTOLS, S/N",BETXI,Spain,2331,n.a.,11,11,11,11,11,13,13,14,20,n.a.,77,73,86,93,114,137,142,159,192
368.,EXECUTIVE AIRLINES SL,"CALLE DE ANABEL SEGURA, 11",ALCOBENDAS,Spain,5110,n.a.,n.a.,40,42,41,33,36,44,50,65,n.a.,n.a.,85,99,108,112,104,111,106,107
791.,"EXTRACO, CONSTRUCCIONS E PROXECTOS, SA","CAMINO DA CIMA, 24 1",OURENSE,Spain,4120,n.a.,49,34,28,29,41,53,63,61,63,n.a.,188,143,467,133,124,174,191,198,204
464.,FABRICACION ESPANOLA SANITARIA SA,"CARRETERA ARGELITA, S/N",LUCENA DEL CID,Spain,2331,n.a.,10,9,7,7,6,7,8,7,7,n.a.,66,61,60,59,58,60,62,64,75
45.,FERRO SPAIN SA,"CARRETERA NACIONAL 340, - KM 61,500",ALMAZORA,Spain,2349,n.a.,210,221,238,283,284,288,272,209,262,n.a.,627,608,652,706,727,741,833,855,827
995.,FERROATLANTICA SAU,"PASEO CASTELLANA (EDIF. TORRESPACIO), 259 PLANTA 49",MADRID,Spain,2410,n.a.,311,402,410,424,422,487,471,255,549,n.a.,651,657,652,638,635,650,626,558,637
288.,"FERTIBERIA, SA","PASEO CASTELLANA, 259 D, PLANTA 48, EDIF. TORRE ESPACIO",MADRID,Spain,2015,n.a.,484,651,668,743,965,805,693,420,823,n.a.,820,826,831,861,864,872,"1,004","1,074","1,086"
612.,FIRTEC SA,"CALLE PEDRO I PONS, 9 - 11",BARCELONA,Spain,4211,n.a.,16,21,15,11,9,16,29,41,36,n.a.,49,48,39,38,44,67,69,68,75
972.,FONT SALEM SL,"PARTIDA DEL FRONTO (POLIGONO), S/N",SALEM,Spain,1105,n.a.,218,199,193,225,244,239,230,225,184,n.a.,341,334,357,393,401,400,403,449,454
699.,FORD ESPANA SL,"CALLE DE LA CALENDULA, 13 ED MINIPARC IV",ALCOBENDAS,Spain,2910,n.a.,n.a.,"12,643","9,810","8,273","6,711","9,042","8,911","9,253","10,391",n.a.,n.a.,"11,572","11,413","9,406","7,891","8,162","8,497","7,960","10,136"
401.,FORESA INDUSTRIAS QUIMICAS DEL NOROESTE SA,"AVENIDA DONA URRACA, 91",CALDAS DE REIS,Spain,2059,n.a.,91,110,114,104,91,98,64,57,108,n.a.,93,92,90,90,85,81,75,79,81
386.,FORESTAL DEL ATLANTICO SA,"CALLE PROMONTORIO, S/N",MUGARDOS,Spain,2052,n.a.,65,77,79,76,82,100,87,69,83,n.a.,47,46,45,48,48,48,48,49,49
282.,FRIAS NUTRICION SA,"CALLE MONTES DE OCA (PG IND IND VILLALONQUEJAR), 24",BURGOS,Spain,4639,n.a.,52,47,51,53,54,64,51,55,45,n.a.,138,138,146,143,147,139,137,139,139
502.,"FRIMANCHA INDUSTRIAS CARNICAS, SA",CARRETERA NACIONAL IV (KM 200),VALDEPENAS,Spain,1011,n.a.,172,171,168,167,167,154,125,128,144,n.a.,130,151,136,127,125,148,145,146,151
667.,FRITTA SLU,"CARRETERA CV-20 (APDO.DE CORREOS 293), S/N KM 8",ONDA,Spain,2059,n.a.,n.a.,n.a.,94,85,76,69,50,43,64,n.a.,n.a.,n.a.,282,251,238,236,209,221,182
347.,FUDEPOR SL,"LUGAR LA COSTERA, S/N",ALHAMA DE MURCIA,Spain,3511,n.a.,0,0,1,16,18,17,14,16,14,n.a.,n.a.,n.a.,1,1,1,1,1,1,1
931.,"FUNDICIONES DE ODENA, SA","CARRETERA NACIONAL II (KM 555,200)",ODENA,Spain,2451,n.a.,45,45,44,46,45,49,43,31,50,n.a.,321,330,343,356,345,364,349,316,362
695.,GALLEGA DE RESIDUOS GANADEROS SA,"LUGAR SANTA CRUZ (ARRABALDO CPA), S/N",OURENSE,Spain,2015,n.a.,n.a.,n.a.,5,19,22,15,14,14,14,n.a.,n.a.,n.a.,1,1,1,1,1,1,1
166.,GAS Y ELECTRICIDAD GENERACION SA,"CALLE SANT JOAN DE DEU, 1",PALMA,Spain,3511,n.a.,528,573,775,593,757,783,811,744,895,n.a.,399,418,452,462,446,436,437,420,400
729.,GESTAIR SA,"CALLE DE ANA ISABEL SEGURA (CENTRO DE NEGOCIOS ALBATROS), 11 2C",ALCOBENDAS,Spain,5110,n.a.,49,42,38,52,57,57,51,58,67,n.a.,139,135,178,185,13,162,153,151,208
13.,GLOBAL SWITCH PROPERTY MADRID SL,"CALLE YECORA, 4",MADRID,Spain,6820,n.a.,n.a.,22,20,19,18,16,13,9,7,n.a.,n.a.,12,12,12,12,14,11,9,9
606.,GOMA CAMPS SOCIEDAD ANONIMA,"CALLE CARDENAL GOMA (COSTA ALTA), 29",LA RIBA,Spain,1722,n.a.,92,86,87,87,82,90,84,84,82,n.a.,311,317,314,322,320,397,318,332,333
1.,GRABISA TINTES Y ACABADOS SL,CARRETERA NACIONAL 120 (LOGRONO KM 109-110),BURGOS,Spain,1330,n.a.,8,8,9,10,10,10,9,9,10,n.a.,56,56,61,68,73,70,70,71,72
326.,GRAFTECH IBERICA SL,"CARRETERA ASIAIN, S/N",CENDEA DE OLZA/OLTZA ZENDEA,Spain,2059,n.a.,54,55,67,76,60,72,67,46,78,n.a.,197,201,211,206,192,205,192,194,225
876.,GRANADA VAPOR Y ELECTRICIDAD SOCIEDAD LIMITADA,"CAMINO PURCHIL (GRANADA), 66",GRANADA,Spain,3511,n.a.,17,21,19,18,20,20,18,15,13,n.a.,13,13,24,13,13,13,13,13,13
71.,GRES DE ARAGON SOCIEDAD ANONIMA.,"CARRETERA ESCATRON, 9",ALCANIZ,Spain,2331,n.a.,13,13,14,14,12,13,13,15,21,n.a.,137,132,129,83,86,86,87,94,158
437.,GRES DE LA MANCHA SL,CARRETERA CONSUEGRA (KM 1 200),LOS YEBENES,Spain,2331,n.a.,8,8,7,8,7,9,9,11,12,n.a.,59,51,49,45,48,53,63,62,63
302.,GRES LA SAGRA SL,"AVENIDA DE CASTILLA LA MANCHA, 1",ALAMEDA DE LA SAGRA,Spain,2331,n.a.,4,4,4,4,4,5,6,8,11,n.a.,46,33,44,45,46,45,48,53,93
254.,GRES-FORT SA,"POLIGONO INDUSTRIAL RAMONET, S/N",ALMAZORA,Spain,2331,n.a.,0,1,3,3,3,4,5,6,9,n.a.,5,18,31,33,35,37,47,50,67
935.,"GRESPANIA, SOCIEDAD ANONIMA","CARRETERA ALCORA ((CV-16) - KM 2,2)",CASTELLON,Spain,2331,n.a.,85,78,75,72,72,76,70,74,89,n.a.,402,375,380,385,445,445,457,481,480
984.,"GRIFOLS, S.A.",CALLE JESUS I MARIA 6,BARCELONA,Spain,2120,n.a.,"4,050","3,935","3,355","2,742","2,621","1,798",992,915,821,n.a.,"14,890","14,749","13,993","12,615","11,418","11,259","6,108","5,934","5,884"
218.,GRUP BAUCELLS ALIMENTACIO SL,"CALLE MOLI DEL LLOBET (POL IND MALLOLES), 53",VIC,Spain,1011,n.a.,129,109,118,158,146,135,117,106,104,n.a.,242,250,268,287,257,274,260,298,369
465.,GUARDIAN INDUSTRIES NAVARRA SLU,"POLIGONO INDUSTRIAL MONTES DEL CIERZO (CR N232.KM 86), S/N",TUDELA,Spain,2311,n.a.,118,64,65,67,69,66,65,53,77,n.a.,289,186,189,188,183,176,174,187,193
17.,GUARDIAN LLODIO UNO SLU,"CALLE JOSE MATIA, 36",LAUDIO/LLODIO,Spain,2311,n.a.,81,183,181,188,182,214,200,176,218,n.a.,507,622,635,704,650,794,868,764,777
364.,"GUARRO CASAS, SA","LUGAR CAN GUARRO, S/N",GELIDA,Spain,1712,n.a.,n.a.,25,24,24,24,26,26,24,30,n.a.,n.a.,152,148,154,160,165,165,173,187
656.,GUIPASA SA,"CALLE ANTONIO VALVERDE, 2",DONOSTIA-SAN SEBASTIAN,Spain,4211,n.a.,n.a.,n.a.,n.a.,n.a.,9,15,18,26,20,n.a.,n.a.,n.a.,n.a.,n.a.,34,39,44,48,47
625.,HATZ SPAIN SA,"CARRETERA NACIONAL 340 (PG IND LA MINA), KM 953,8",NULES,Spain,2331,n.a.,25,43,49,52,52,50,47,43,49,n.a.,210,226,227,234,241,247,246,265,320
944.,HEINEKEN ESPANA SA,"AVENIDA ANDALUCIA, 1",SEVILLA,Spain,1105,n.a.,n.a.,958,915,878,915,935,935,961,993,n.a.,n.a.,"1,797","1,710","1,646","1,604","1,652","1,748","1,867","1,899"
599.,HENKEL IBERICA SA,"CALLE BILBAO, 72 -84",BARCELONA,Spain,2041,n.a.,n.a.,608,544,526,538,574,586,572,750,n.a.,n.a.,874,866,925,960,"1,026","1,063","1,268","1,402"
258.,HERBA RICEMILLS SLU,"CALLE REAL, 43",SAN JUAN DE AZNALFARACHE,Spain,4621,n.a.,367,394,390,380,365,332,280,275,297,n.a.,712,630,617,623,623,548,522,482,472
789.,HEREDEROS CERAMICA SAMPEDRO SOCIEDAD ANONIMA,"AVENIDA ENTRENA, 38",LARDERO,Spain,2332,n.a.,n.a.,3,2,2,4,4,5,5,9,n.a.,n.a.,24,20,19,25,24,38,39,51
898.,HEREDEROS DE MARQUEZ VILLAR SL,CARRETERA MADRID - CADIZ (KM 295),BAILEN,Spain,2332,n.a.,n.a.,n.a.,n.a.,0,0,1,1,1,3,n.a.,n.a.,n.a.,n.a.,n.a.,9,9,15,15,15
316.,HERMANOS DIAZ REDONDO SA,"CAMINO BARCA, S/N",COBEJA,Spain,2332,n.a.,4,4,4,4,5,7,7,9,15,n.a.,29,26,25,26,34,47,59,68,83
518.,HERMANOS ORTIZ BRAVO SA,"CALLE VEREDA PRADO, S/N",PANTOJA,Spain,2332,n.a.,0,0,1,1,3,5,6,10,17,n.a.,3,3,6,6,19,34,30,51,86
133.,HIDRO NITRO ESPANOLA SA,"PASEO CASTELLANA, 259 D - PLTA 49",MADRID,Spain,2410,n.a.,69,78,77,91,95,100,130,89,125,n.a.,169,168,178,186,173,184,175,160,170
295.,HIJOS DE CIPRIANO CASTELLO ALFONSO SL,"AVENIDA MANUEL ESCOBEDO, 15",ONDA,Spain,2331,n.a.,26,25,26,29,33,34,33,31,33,n.a.,167,166,166,166,168,168,166,170,175
742.,HIJOS DE FRANCISCO MORANT SL,"CARRETERA SAN VICENTE, 10",AGOST,Spain,2332,n.a.,5,5,4,4,3,3,5,6,13,n.a.,38,35,33,34,32,31,34,55,66
136.,HIJOS DE JUAN CRUZ HERNANDEZ SA,CARRETERA NACIONAL 232 ((CR. DE ZARAGOZA) KM 8),AGONCILLO,Spain,2332,n.a.,0,1,1,2,1,1,1,2,3,n.a.,1,8,7,9,7,6,11,21,21
151.,"HIJOS DE RIVERA, SA","CALLE JOSE MARIA RIVERA CORRAL (ANT CL GAMBRINUS), 6",A CORUNA,Spain,1105,n.a.,376,330,275,230,205,191,180,166,147,n.a.,522,477,436,386,370,372,362,355,352
555.,"HISPAPLANO BRICKS, S.L.","CAMINO JAMBRINA, S/N",CORRALES DEL VINO,Spain,2332,n.a.,n.a.,n.a.,n.a.,n.a.,2,3,4,4,7,n.a.,n.a.,n.a.,n.a.,n.a.,16,17,20,18,17
648.,HOLCIM ESPANA SA,"AVENIDA MANOTERAS (ED B), 20 PISO 1",MADRID,Spain,2351,n.a.,n.a.,125,177,183,200,269,328,400,640,n.a.,n.a.,408,588,695,949,"1,294","1,537","1,810","1,921"
291.,HORMIGONES INSULARES SOCIEDAD LIMITADA,CARRETERA ARRECIFE YAIZA (KM 5),SAN BARTOLOME,Canary Islands (Spain),7112,n.a.,10,10,9,7,4,8,12,11,13,n.a.,65,57,47,23,31,87,104,123,125
217.,HUNTSMAN P&A SPAIN SL.,"POLIGONO NUEVO PUERTO (CL GOBERNADOR ANGEL HORCAJADAS), S/N",PALOS DE LA FRONTERA,Spain,2012,n.a.,246,196,197,211,252,245,166,104,140,n.a.,193,220,207,220,221,229,230,143,286
676.,IBERDROLA GENERACION SAU,"PLAZA EUSKADI, 5",BILBAO,Spain,3511,n.a.,"1,267","1,479","1,346","11,764","12,147","10,309","7,796","3,045","4,978",n.a.,991,"1,021","1,489","1,868","2,260","2,245","2,233","1,868","1,848"
63.,IBERO ALCORENSE SL,CARRETERA CASTELLON-TERUEL (KM 19),ALCORA,Spain,2331,n.a.,32,30,30,29,25,21,18,18,25,n.a.,125,122,122,124,119,109,92,96,124
52.,IBERPOTASH SA,"POLIGONO AFORES, S/N",SURIA,Spain,0891,n.a.,255,304,295,333,326,296,260,145,271,n.a.,800,779,779,802,822,841,813,859,902
633.,ILERPROTEIN SL,"CARRETERA NACIONAL 240, KM 112",ALMACELLES,Spain,1091,n.a.,16,17,19,19,19,22,17,18,17,n.a.,25,29,29,27,27,29,30,30,23
423.,INCOAZUL SL,"CAMINO FOYES FERRAES, S/N APARTADO DE CORREOS 84",ALCORA,Spain,2331,n.a.,n.a.,5,5,6,8,10,8,8,8,n.a.,n.a.,39,39,39,37,42,41,38,44
671.,INDUCERAMA SL,"AVENIDA JOSE ORTEGA Y GASSET, APARTADO CORREOS NUMERO 11 KM 8",MALAGA,Spain,2332,n.a.,2,1,1,1,1,1,2,2,3,n.a.,19,13,9,14,14,14,20,18,22
372.,INDULLEIDA SA,"CARRETERA NACIONAL 230, KM 12",ALGUAIRE,Spain,1032,n.a.,67,62,57,65,62,53,39,47,51,n.a.,138,139,137,133,129,127,127,127,128
753.,INDUSTRIA DE MADERAS AGLOMERADAS SOCIEDAD ANONIMA,"BARRIO KURTZERO, 34",MUXIKA,Spain,1621,n.a.,n.a.,n.a.,n.a.,n.a.,1,40,36,35,52,n.a.,n.a.,n.a.,n.a.,n.a.,38,137,140,151,166
701.,INDUSTRIA DE TRANSFORMACIONES SA,"CALLE RAIMUNDO FERNANDEZ VILLAVERDE, 45 I 3 C",MADRID,Spain,4672,n.a.,9,7,8,7,6,6,4,3,4,n.a.,35,33,35,34,32,30,24,21,24
521.,"INDUSTRIAL QUIMICA DEL NALON, SA","AVENIDA DE GALICIA, 31 B",OVIEDO,Spain,2014,n.a.,106,122,129,144,148,135,101,96,116,n.a.,223,231,239,236,241,234,228,230,238
298.,INDUSTRIAS ALIMENTARIAS DE NAVARRA SA,"POLIGONO PENALFONS, S/N",VILLAFRANCA,Spain,1039,n.a.,117,68,111,105,104,103,96,94,94,n.a.,381,347,356,335,337,316,293,274,303
416.,INDUSTRIAS CERAMICAS BRANCOS SOCIEDAD LIMITADA,"PLAZA DIPUTACIO, 2",GIRONA,Spain,2332,n.a.,2,2,3,3,3,4,4,4,6,n.a.,8,9,37,37,48,63,68,75,90
798.,INDUSTRIAS CERAMICAS DIAZ SA,CARRETERA COBEJA A PANTOJA (KM 1),COBEJA,Spain,2332,n.a.,2,1,1,2,4,4,5,4,7,n.a.,14,7,9,17,23,30,31,29,29
429.,"INDUSTRIAS DEL TABLERO, SA","CALLE PERIODISTA ENRIQUE MARINAS ROMERO, 36 PISO 4, EDIF TORRE DE CRISTAL",A CORUNA,Spain,1621,n.a.,67,63,44,55,63,54,50,55,64,n.a.,145,138,137,135,133,128,125,126,130
157.,INDUSTRIAS DOY MANUEL MORATE SL,"CALLE QUINTANA (CENTRO URBANO) (TRUBIA), S/N",OVIEDO,Spain,1910,n.a.,20,24,25,28,30,37,21,14,28,n.a.,32,32,41,38,39,31,31,27,27
94.,INDUSTRIAS LACTEAS ASTURIANAS SA,"LUGAR ANLEO, S/N",NAVIA,Spain,1051,n.a.,608,543,606,561,521,515,487,388,375,n.a.,"1,303","1,034","1,206","1,191",733,772,779,825,830
391.,"INDUSTRIAS QUIMICAS DEL EBRO, SA","POLIGONO INDUSTRIAL MALPICA CL D PARC, 97",ZARAGOZA,Spain,2013,n.a.,80,69,66,61,53,52,48,45,52,n.a.,159,156,123,122,119,118,104,111,122
635.,INDUSTRIAS TITAN SAU,"CALLE PRATENC-CENT CATORZE, 17 19",EL PRAT DE LLOBREGAT,Spain,2030,n.a.,120,116,117,115,117,129,129,127,139,n.a.,748,740,704,680,744,771,781,759,810
836.,INDUSTRIAS Y PROMOCIONES ALIMENTICIAS SA,"PLAZA EUROPA, 42",L'HOSPITALET DE LLOBREGAT,Spain,1084,n.a.,84,85,91,96,83,79,84,66,63,n.a.,286,277,299,302,295,298,322,248,318
921.,INOVYN ESPANA S.L.,"CALLE MARIE CURIE, 1 3 5",MARTORELL,Spain,2016,n.a.,275,273,249,241,264,259,230,170,226,n.a.,326,334,321,325,307,326,210,209,208
669.,ISMA 2000 SL,"CALLE GERRERS, 4",MARRATXI,Spain,1712,n.a.,17,20,18,21,17,11,9,9,7,n.a.,85,87,84,86,83,42,33,37,40
821.,IVECO ESPANA SL,"AVENIDA ARAGON, 402",MADRID,Spain,2910,n.a.,"2,493","2,391","2,159","2,052","1,602","1,641","1,235","1,103","2,384",n.a.,"3,860","3,935","3,967","4,097","3,755","4,457","4,023","4,247","4,900"
766.,J CANET SL,"PARTIDA PLA DE MUSEROS (CR. VIEJA DE ALCORA), S/N APTDO CORREOS 130",ALMAZORA,Spain,1041,n.a.,n.a.,n.a.,1,1,2,4,5,5,6,n.a.,n.a.,n.a.,11,12,13,19,26,33,33
476.,J VILASECA SA,"PLAZA URQUINAONA, 6 PLANTA 20",BARCELONA,Spain,1712,n.a.,n.a.,53,51,51,49,53,51,42,46,n.a.,n.a.,233,224,206,209,206,204,191,185
573.,J Y P BALAGUER SA,CARRETERA NACIONAL 340 (KM 60 7),VILLARREAL,Spain,2332,n.a.,0,0,0,0,1,1,1,1,2,n.a.,1,7,3,4,9,8,10,14,17
447.,JOSE OSET Y COMPANIA SL,"PARTIDA LLOMETA, S/N",RIBESALBES,Spain,2331,n.a.,15,14,13,15,15,15,12,9,15,n.a.,70,65,67,71,67,75,80,117,129
77.,JSC ROYAL FLIGHT AIRLINES,PR-KT DRUZHBY NARODOV D.57,ABAKAN,Russian Federation,5110,n.a.,172,102,57,10,14,24,13,7,5,n.a.,127,116,101,76,87,100,85,72,65
1036.,JUAN CAMPMANY TRABAL SA,"CALLE OCEA ATLANTIC, 55 -C",SANT CUGAT DEL VALLES,Spain,2332,n.a.,n.a.,0,0,n.a.,1,1,2,2,3,n.a.,n.a.,n.a.,5,n.a.,17,17,23,23,23
193.,JUAREZ HERMANOS SL,"AVENIDA DE CASTILLA LA MANCHA, 1",ALAMEDA DE LA SAGRA,Spain,2332,n.a.,1,1,1,1,1,1,1,2,3,n.a.,12,12,12,17,21,21,22,23,41
107.,"JUAREZ Y MILLAS, SA","CARRETERA ESTACION, S/N",YUNCLER,Spain,2332,n.a.,3,2,1,5,6,2,2,3,5,n.a.,3,4,5,19,46,46,45,49,53
409.,KAO CORPORATION SA,"AVENIDA PUIG DELS TUDONS (POL. IND. SANTIGA), 10",BARBERA DEL VALLES,Spain,2041,n.a.,283,285,278,287,295,277,259,222,251,n.a.,434,432,446,446,445,440,432,425,437
622.,KARTOGROUP ESPANA SL,"PARTIDA JUAN RODRIGO, S/N",BURRIANA,Spain,1712,n.a.,74,71,68,63,63,64,58,47,62,n.a.,197,197,186,181,172,179,178,163,177
324.,KERAFRIT SA,"CARRETERA NACIONAL 340 (KM 44,100)",NULES,Spain,2030,n.a.,21,20,21,18,16,15,14,14,15,n.a.,67,68,64,58,57,60,59,59,62
787.,KEROS CERAMICA SL,"CARRETERA NACIONAL 340 (KM 44,500)",NULES,Spain,2331,n.a.,19,20,21,23,24,25,26,24,27,n.a.,130,129,155,153,146,147,165,172,176
208.,KNAUF GMBH SUCURSAL EN ESPANA,"CALLE MANOTERAS, 10 4",MADRID,Spain,4673,n.a.,n.a.,86,84,72,85,110,102,103,127,n.a.,n.a.,216,210,204,206,209,204,203,224
37.,LA FARGA LACAMBRA SA,"COLONIA LACAMBRA (CR C-17.KM 73,500), S/N",LES MASIES DE VOLTREGA,Spain,2444,n.a.,397,480,515,505,556,556,426,258,393,n.a.,202,189,173,157,174,169,152,152,155
278.,LA LADRILLERA MURCIANA SA,"LUGAR PARAJE LA MATANZA, S/N",FORTUNA,Spain,2332,n.a.,2,2,2,1,1,1,2,2,2,n.a.,15,15,9,17,18,21,22,22,24
446.,LA PLATERA SA,"CARRETERA CASTELLON-TERUEL, S/N",ALCORA,Spain,2331,n.a.,13,12,12,11,11,10,10,10,10,n.a.,61,54,53,57,55,54,54,48,58
749.,LACTALIS FORLASA SOCIEDAD LIMITADA,"AVENIDA REYES CATOLICOS, 135",VILLARROBLEDO,Spain,1051,n.a.,252,266,276,265,284,302,157,154,174,n.a.,101,107,102,101,94,70,89,254,259
533.,LACTALIS VILLARROBLEDO SOCIEDAD LIMITADA,"AVENIDA REYES CATOLICOS, 135",VILLARROBLEDO,Spain,1051,n.a.,82,86,101,106,105,113,79,3,3,n.a.,219,211,231,236,246,269,191,72,81
165.,LADISLAO LAGUNA SA,"CALLE PRADO, 41 45",SANTA CRUZ DE MUDELA,Spain,2332,n.a.,0,0,0,0,0,0,0,0,1,n.a.,3,4,4,4,4,3,7,14,14
536.,LADRI BAILEN SL,"CARRETERA MADRID - CADIZ, KM 299,4",BAILEN,Spain,2332,n.a.,n.a.,0,0,0,0,1,1,1,2,n.a.,n.a.,n.a.,n.a.,n.a.,2,1,9,9,9
860.,LADRILLERAS IBICENCAS SA,"CALLE SAN JUAN (CR), KM 5,200",SANTA EULALIA DEL RIO,Spain,2332,n.a.,1,1,1,1,1,1,2,2,3,n.a.,11,15,15,16,18,18,18,17,19
56.,LADRILLERIA ROSO SL,"CALLE COVARRUBIAS, 22 PISO 5 DR",MADRID,Spain,2332,n.a.,n.a.,n.a.,1,1,1,2,2,2,4,n.a.,n.a.,1,10,15,15,15,15,20,27
945.,LADRILLERIA TECNICA SA,"CALLE VEREDA DEL PRADO, S/N",PANTOJA,Spain,2332,n.a.,n.a.,n.a.,n.a.,1,2,2,3,2,6,n.a.,n.a.,n.a.,n.a.,3,4,4,20,10,27
384.,LADRILLERIAS MALLORQUINAS SA,"CALLE POU DE SA TEULERA, S/N APTDO CORREOS 35",FELANITX,Spain,2332,n.a.,5,5,5,5,5,6,7,9,16,n.a.,43,41,25,37,52,56,64,64,101
503.,LADRILLOS LA ALAMEDA SL,"AVENIDA DE CASTILLA LA MANCHA, 1",ALAMEDA DE LA SAGRA,Spain,2332,n.a.,0,0,0,0,0,1,0,1,2,n.a.,n.a.,n.a.,2,2,8,9,8,15,24
865.,LADRILLOS LAS NIEVES SRL LABORAL,"CARRETERA GABIA-HIJAR, S/N",LAS GABIAS,Spain,2332,n.a.,n.a.,n.a.,n.a.,0,0,1,1,0,1,n.a.,n.a.,n.a.,n.a.,2,1,12,12,11,17
817.,LADRILLOS MORA SL,"CARRETERA MADRID TOLEDO ((NACIONAL 401) KM 38,4)",ILLESCAS,Spain,2332,n.a.,6,4,2,2,3,3,4,4,4,n.a.,26,20,14,23,28,31,33,33,39
205.,LADRILLOS VIRGEN DE LAS NIEVES DE BAILEN SL,CARRETERA A-32 (KM 2),BAILEN,Spain,2332,n.a.,1,1,1,1,1,1,1,1,2,n.a.,6,6,7,8,13,13,16,16,28
477.,LAFARGE CEMENTOS SA,"AVENIDA MANOTERAS (ED B), 20 PISO 1",MADRID,Spain,2351,n.a.,136,145,141,129,145,187,208,246,404,n.a.,364,320,324,310,295,305,383,411,433
481.,LANGA DE DUERO ENERCORR XXI SL,"AVENIDA CERVERA, S/N",TARREGA,Spain,3511,n.a.,n.a.,n.a.,n.a.,18,18,16,15,14,13,n.a.,n.a.,n.a.,n.a.,14,15,13,12,11,10
777.,LINASA COGENERACION Y ASOCIADOS S.L.,"CALLE MULA, S/N",LAS TORRES DE COTILLAS,Spain,3511,n.a.,n.a.,n.a.,6,9,9,8,7,6,6,n.a.,n.a.,n.a.,6,6,6,6,6,6,7
763.,LIPIDOS SANTIGA SA,"CARRETERA B-141 (RIPOLLET-SANTIGA), KM 4,300",SANTA PERPETUA DE MOGODA,Spain,1041,n.a.,507,449,425,526,542,454,303,292,354,n.a.,171,168,182,185,183,191,196,152,139
941.,LOTCA SERVICIOS INTEGRALES SL,"CALLE GRAN VIA, 28",MADRID,Spain,5110,n.a.,n.a.,9,8,8,9,9,7,6,6,n.a.,n.a.,1,1,1,1,1,1,1,1
663.,MACERBA DE BAILEN SL,CARRETERA MADRID - CADIZ (KM 295),BAILEN,Spain,2332,n.a.,n.a.,n.a.,n.a.,n.a.,0,1,1,1,3,n.a.,n.a.,n.a.,n.a.,n.a.,2,3,10,11,25
148.,MAGNESITAS DE RUBIAN SA,CARRETERA LU-546 (- KM 35),O INCIO,Spain,0729,n.a.,14,17,15,17,18,18,15,13,12,n.a.,40,40,40,39,40,35,41,40,36
551.,MANUEL BERTOS SL,"CAMINO JAYENA, S/N",ALHENDIN,Spain,2332,n.a.,0,0,0,0,0,1,1,1,2,n.a.,n.a.,n.a.,2,2,5,8,17,15,22
624.,MANUFACTURA INDUSTRIAL AZULEJERA SL,"CAMINO TRAVESSA, 17",VILLARREAL,Spain,2331,n.a.,16,16,17,15,13,12,12,12,13,n.a.,62,57,63,56,55,54,55,50,56
54.,MARAZZI IBERIA SL,"AVENIDA ENRIQUE GIMENO, 317",CASTELLON,Spain,2331,n.a.,73,77,70,59,58,62,67,71,95,n.a.,333,348,351,375,405,427,264,275,288
677.,MATIAS GOMA TOMAS SOCIEDAD ANONIMA,"LUGAR AFORES ((LES ROIXELES)), S/N",LA RIBA,Spain,1729,n.a.,24,26,22,20,19,20,15,8,13,n.a.,47,46,48,49,49,46,47,40,39
231.,MAZARRON TEJAS SL,"CAMINO PALOMEQUEJO, S/N",NUMANCIA DE LA SAGRA,Spain,2349,n.a.,0,0,0,1,2,5,6,6,8,n.a.,1,2,2,20,48,61,58,61,68
796.,MB PAPELES ESPECIALES SA,"CALLE TUSET, 10",BARCELONA,Spain,1712,n.a.,33,38,44,36,36,38,38,32,34,n.a.,86,93,91,91,96,93,93,93,92
435.,MEDIO AMBIENTE AGUA RESIDUOS Y ENERGIA DE CANTABRIA SA,"BARRIO LA BARQUERA (CR TORRES-REOCIN), 13",CARTES,Spain,3811,n.a.,68,63,60,59,61,64,61,60,64,n.a.,279,271,285,298,314,323,326,329,333
285.,MEGASA SIDERURGICA SL,"CALLE ESTRADA CASTELA, 802 - 820",NARON,Spain,2410,n.a.,136,148,213,255,283,282,196,126,327,n.a.,127,137,173,186,191,192,200,217,247
377.,MEGASIDER ZARAGOZA SA,"AVENIDA JOSE LOPEZ SORIANO (PTR LOPEZ SORIANO), 100 ANTIGUA CR TORRECILLA VALMADRID KM 1,95",ZARAGOZA,Spain,2410,n.a.,190,218,217,209,233,268,218,160,240,n.a.,272,282,292,307,314,300,283,284,268
780.,MERCADONA SA,"CALLE VALENCIA, 5",TAVERNES BLANQUES,Spain,4711,n.a.,"19,824","19,077","18,459","18,062","17,552","16,476","15,270","14,429","14,309",n.a.,"79,563","75,381","74,228","74,082","71,333","67,208","63,142","61,803","61,739"
371.,MERCEDES-BENZ ESPANA SA,"AVENIDA DE BRUSELAS (POL. INDUSTRIAL ARROYO DE LA VEGA), 30 31",ALCOBENDAS,Spain,4511,n.a.,"4,919","4,400","3,567","2,873","2,787","3,151","2,854","2,369","4,141",n.a.,"5,073","4,062","4,086","3,990","3,824","3,890","3,897","3,940","3,516"
444.,MERCURY CERAMICA SOCIEDAD LIMITADA,"CARRETERA VIVER-PUERTO BURRIANA (KM 3,4)",ONDA,Spain,2332,n.a.,21,18,18,16,12,11,15,16,21,n.a.,101,87,110,112,114,113,149,182,184
565.,MICHELIN ESPANA PORTUGAL SA,"AVENIDA DE LOS ENCUARTES, 19",TRES CANTOS,Spain,2211,n.a.,"2,517","2,535","2,512","2,608","2,727","2,769","2,315","1,899","2,333",n.a.,"7,766","7,601","7,603","7,875","8,232","8,406","8,198","8,504","9,180"
293.,MIGUEL CARRERAS VERNIS SA,"PASEO CEMENTIRI, 4",FIGUERES,Spain,2344,n.a.,0,0,0,0,0,0,1,1,2,n.a.,n.a.,n.a.,3,3,3,6,18,21,12
1014.,MIGUEL PARRA E HIJOS SA,CARRETERA ABANILLA (KM 1),SANTOMERA,Spain,4631,n.a.,n.a.,n.a.,25,19,18,21,16,16,8,n.a.,n.a.,n.a.,54,46,41,40,35,33,33
681.,MONTEFIBRE HISPANIA SA,"CALLE ARIBAU, 185 - 187. PLANTA 6A",BARCELONA,Spain,2060,n.a.,0,0,1,49,178,175,189,154,189,n.a.,49,83,265,267,288,347,308,316,323
906.,MOSTOS VINOS Y ALCOHOLES SOCIEDAD ANONIMA,"CALLE MOMPO, 2",CAMPO DE CRIPTANA,Spain,1102,n.a.,65,73,78,83,84,74,57,49,70,n.a.,113,115,113,112,111,115,97,99,90
268.,NATUCER SL,"POLIGONO INDUSTRIAL FORQUES, 2",ONDA,Spain,2320,n.a.,16,15,13,12,12,14,15,15,22,n.a.,87,88,90,89,91,94,103,117,134
558.,NAVANTIA SA SME.,"CALLE VELAZQUEZ, 132",MADRID,Spain,3011,n.a.,739,718,570,722,929,"1,282","1,619","1,618","1,495",n.a.,"5,528","5,559","5,594","5,651","5,694","5,692","5,669","5,673","5,669"
3.,NEOELECTRA LA LUISIANA SL,"CALLE FREDERIC MOMPOU, 5 ED EURO 3 . PLT 3",SANT JUST DESVERN,Spain,3511,n.a.,n.a.,n.a.,n.a.,n.a.,5,5,4,3,4,n.a.,n.a.,n.a.,n.a.,n.a.,7,9,7,7,6
575.,NERVACERO SOCIEDAD ANONIMA,"BARRIO BALLONTI, S/N",VALLE DE TRAPAGA-TRAPAGARAN,Spain,2410,n.a.,229,266,299,322,344,372,295,249,593,n.a.,323,306,318,324,345,405,442,470,486
682.,NESTLE ESPANA SAU,"AVENIDA PAISOS CATALANS, 25 -51.ED NESTLE",ESPLUGUES DE LLOBREGAT,Spain,1086,n.a.,"1,974","1,984","2,028","1,761","1,556","1,456","1,326","1,268","1,353",n.a.,"4,192","4,271","4,387","4,047","3,412","3,434","3,252","3,218","3,465"
454.,"NII HOLDINGS, INC.",SUITE 600,RESTON,United States of America,6190,n.a.,934,"1,114","1,523","1,597","4,315","4,931","4,193","3,051","3,068",n.a.,"2,618","2,875","9,800","13,600","16,100","15,300","13,500","13,673","12,299"
74.,NISSAN MOTOR IBERICA SA,"CALLE NUMERO 3 (SECTOR B), 77",BARCELONA,Spain,2910,n.a.,"3,401","2,761","2,983","3,015","3,150","3,250","2,657","1,717","2,314",n.a.,"5,292","5,093","5,528","5,377","5,225","5,362","5,116","5,004","6,143"
983.,NOMAZUL SOCIEDAD ANONIMA,"CARRETERA CASTELLON-TERUEL, 39",ALCORA,Spain,2331,n.a.,4,5,4,3,3,3,4,4,5,n.a.,37,38,38,38,38,37,39,39,45
233.,NOVOGRES SA,"CARRETERA NACIONAL 340 (KM 56,7)",VILLARREAL,Spain,2331,n.a.,14,18,23,26,22,17,14,14,19,n.a.,70,67,70,69,66,64,63,65,80
772.,NUEVA CERAMICA MODERNA SL,"CALLE VEREDA PRADO, S/N",PANTOJA,Spain,2332,n.a.,n.a.,n.a.,n.a.,n.a.,3,3,3,3,6,n.a.,n.a.,n.a.,n.a.,n.a.,18,18,22,26,26
564.,NUEVA GENERADORA DEL SUR SA,"AVENIDA SAN LUIS, 77",MADRID,Spain,3511,n.a.,5,5,8,56,206,221,198,181,294,n.a.,12,8,14,46,46,46,45,44,52
18.,NUEVAS ATOMIZADAS SL,"PARTIDA FOYES FERRAES, S/N",ALCORA,Spain,2399,n.a.,n.a.,44,37,36,30,25,20,17,17,n.a.,n.a.,38,41,41,40,39,38,35,18
859.,NUEVOS PRODUCTOS CERAMICOS SA,"PARTIDA EMPERADORA (POL. INDUSTRIAL), S/N",VILAFAMES,Spain,2399,n.a.,n.a.,105,92,83,87,86,74,70,114,n.a.,n.a.,168,159,154,162,165,149,143,197
174.,NUREL SA,"CARRETERA BARCELONA, KM 329. BO STA ISABEL JUNTO PG MALPICA",ZARAGOZA,Spain,2060,n.a.,64,64,73,75,82,80,74,52,71,n.a.,312,297,298,316,340,362,378,405,463
815.,OBRAS Y SERVICIOS SGASA S.A.,"CALLE SAUCE (POL. INDUSTRIAL NICOMEDES GARCIA), 30",VALVERDE DEL MAJANO,Spain,4399,n.a.,1,3,2,3,5,7,8,11,8,n.a.,10,2,6,16,15,25,45,58,69
975.,ONDULINE MATERIALES DE CONSTRUCCION SAU,"POLIGONO INDUSTRIAL CAMPILLO, FASE II PARC. 12",ABANTO CIERVANA/ABANTO ZIERBENA,Spain,4673,n.a.,16,16,17,13,12,17,18,8,9,n.a.,69,69,68,68,72,69,69,34,40
733.,OPEL ESPANA SLU,POLIGONO INDUSTRIAL ENTRERRIOS (CTRA N-232 KM 29),FIGUERUELAS,Spain,2910,n.a.,"4,357","4,590","3,840","3,214","3,294","4,519","4,670","4,301","5,095",n.a.,"5,365","5,433","5,592","5,770","5,462","6,211","6,588","6,893","7,092"
1010.,PALAU CERAMICA DE ALPICAT SA,"CAMINO COMA, 7",ALPICAT,Spain,2332,n.a.,3,3,2,2,2,2,3,3,6,n.a.,28,26,25,24,21,26,35,40,47
290.,PALAU CERAMICA DE CHILOECHES SL,"CALLE CAMINO DE LA VEGA (POL IND), 72",CHILOECHES,Spain,2332,n.a.,n.a.,n.a.,0,1,1,0,1,1,3,n.a.,2,3,4,7,9,7,7,6,15
150.,PAMESA CERAMICA SL,"CAMINO ALCORA, 8",ALMAZORA,Spain,2331,n.a.,339,296,274,221,185,165,134,110,140,n.a.,449,481,442,419,404,406,393,389,442
857.,PAPELERA DE LA ALQUERIA SL,"CALLE SAN LORENZO, 2",L'ALQUERIA D'ASNAR,Spain,1712,n.a.,42,39,39,37,32,31,24,18,26,n.a.,50,49,54,49,45,42,42,40,42
685.,"PAPELERA DEL ORIA, SA","CALLE ERNIO BIDEA, 8 BIS",ZIZURKIL,Spain,1712,n.a.,38,41,40,39,49,48,50,44,46,n.a.,74,74,74,86,88,87,86,88,89
858.,PAPELERA DEL PRINCIPADO SA,"LUGAR ENLACE AUTOVIA L-200 (APARTADO DE CORREOS 39), S/N",MOLLERUSSA,Spain,1712,n.a.,46,53,53,54,53,54,53,43,44,n.a.,85,87,88,95,101,97,95,90,92
12.,PAPELERA ECKER SA,"CALLE PALACIO, S/N",BENIPARRELL,Spain,1712,n.a.,n.a.,15,12,14,13,15,11,10,12,n.a.,n.a.,33,34,33,32,32,33,33,37
790.,PAPELERA GUIPUZCOANA DE ZICUNAGA SA,"BARRIO ZIKUNAGA BAILARA, 52",HERNANI,Spain,1712,n.a.,194,211,198,203,209,212,202,179,180,n.a.,235,250,244,258,269,278,284,289,299
582.,PAPELERA MARCELINO SABATE SA,"CAMINO MOLI VINYALS, S/N",TORRELAVIT,Spain,1712,n.a.,n.a.,n.a.,n.a.,0,1,4,3,2,4,n.a.,n.a.,n.a.,1,1,3,10,9,13,13
262.,PAPELERA S'ESGLAYETA SAU,"CALLE SETZE DE JULIOL (POL. SON CASTELLO), 57",PALMA,Spain,1712,n.a.,n.a.,n.a.,n.a.,n.a.,1,1,1,1,1,n.a.,n.a.,n.a.,n.a.,n.a.,5,10,10,10,10
641.,PAPELES Y CARTONES DE EUROPA S.A.,"AVENIDA DE FUENCARRAL, ALCOBENDAS 98",MADRID,Spain,1712,n.a.,814,809,780,806,728,731,621,440,439,n.a.,"2,266","2,286","2,274","2,300","1,282","2,126","1,154","1,173","1,593"
577.,PAPERTECH SL,"CARRETERA NACIONAL 121, 2",TUDELA,Spain,1729,n.a.,20,19,19,18,19,20,18,14,18,n.a.,77,78,78,78,78,81,82,80,68
1000.,PAPRESA SA,"AVENIDA MARTIRES DE LA LIBERTAD, 6",ERRENTERIA,Spain,1712,n.a.,136,123,128,134,148,155,127,156,150,n.a.,220,206,211,230,239,243,245,253,260
617.,PAVIMENTOS BECHI SL,"PARTIDA ESPARTERA, 5",BETXI,Spain,2349,n.a.,12,12,11,11,12,10,10,9,8,n.a.,62,64,60,56,67,69,70,61,69
68.,"PE123, S.L.","CALLE PADULETA (PG IND JUNDIZ), 18",VITORIA-GASTEIZ,Spain,2349,n.a.,n.a.,n.a.,n.a.,n.a.,2,4,5,6,10,n.a.,n.a.,n.a.,n.a.,n.a.,18,32,35,30,62
943.,PERONDA GROUP SA.,"AVENIDA MANUEL ESCOBEDO, 26",ONDA,Spain,2331,n.a.,59,55,57,61,59,58,54,50,62,n.a.,300,296,299,309,308,303,284,279,311
855.,PETROLEOS DEL NORTE SOCIEDAD ANONIMA,"BARRIO SAN MARTIN, 5 ED MUNATONES",MUSKIZ,Spain,1920,n.a.,"4,620","5,404","6,692","6,862","6,800","6,965","5,362","4,351","6,451",n.a.,"1,049","1,032","1,028","1,072","1,098","1,132","1,126","1,110","1,064"
706.,"PEUGEOT CITROEN AUTOMOVILES ESPANA, SA","CALLE CITROEN (ZONA FRANCA), 3 -5",VIGO,Spain,2910,n.a.,"5,224","5,405","5,021","5,059","4,292","5,093","5,559","5,609","6,344",n.a.,"7,905","8,168","8,806","9,625","9,679","10,064","11,060","11,713","12,110"
1001.,PLADUR GYPSUM SA.,"AVENIDA DE ANDALUCIA (A-4 KM 30,200)",VALDEMORO,Spain,2362,n.a.,79,78,74,71,82,102,128,141,233,n.a.,293,287,286,313,325,332,335,397,533
543.,PLANTA DE REGASIFICACION DE SAGUNTO SA,LUGAR AMPLIACION PUERTO SAGUNTO (CONTRADIQUE SUR),SAGUNTO/SAGUNT,Spain,3521,n.a.,103,99,106,108,102,122,86,81,71,n.a.,68,68,67,67,67,67,67,67,66
311.,POLIDUX SOCIEDAD ANONIMA,"CALLE MENDEZ ALVARO (EL CAMPUS), 44",MADRID,Spain,2016,n.a.,7,6,4,36,40,39,34,27,40,n.a.,43,44,45,88,88,92,96,111,120
505.,POLO HERMANOS SL,"CAMINO DE ENMEDIO, S/N",MARACENA,Spain,2332,n.a.,0,0,0,1,1,1,1,0,1,n.a.,3,4,4,6,7,9,7,9,15
90.,PORCELANICOS HDC SA,"CARRETERA CV-160 (KM 16.8, APDO 590)",VILAFAMES,Spain,2331,n.a.,14,13,12,10,9,8,7,9,12,n.a.,58,59,55,52,49,52,56,63,78
470.,PORCELANITE SL,"CAMINO FOYES FERRAES (APARTADO DE CORREOS 84), S/N",L'ALCORA,Spain,2331,n.a.,n.a.,7,8,8,9,12,11,9,10,n.a.,n.a.,48,47,48,51,52,51,43,46
895.,PORCELANOSA SA,CARRETERA NACIONAL 340 (KM 56.200),VILLARREAL,Spain,2331,n.a.,179,174,160,155,149,134,143,132,186,n.a.,765,765,769,776,791,814,830,864,"1,028"
450.,PRANE PROYECTOS E INVERSION SL,"CARRETERA CV 20 ONDA, S/N",VILLARREAL,Spain,8211,n.a.,8,9,42,38,2,0,0,0,1,n.a.,120,114,75,43,32,13,2,1,1
79.,PRIVILEGE STYLE SA,"CAMINO SON FANGOS (COMPLEJO MIRALL BALEAR), 100 TORRE A PLT 3 OF 7",PALMA,Spain,5110,n.a.,56,47,35,32,29,24,33,22,41,n.a.,160,140,95,76,71,66,67,64,69
507.,PROCERAN SA,CARRETERA MONTORO-PUENTE GENIL (KM 85),AGUILAR DE LA FRONTERA,Spain,2332,n.a.,3,3,3,3,3,5,5,5,9,n.a.,27,22,25,34,43,55,51,58,73
869.,PROCESOS ECOLOGICOS VILCHES S.A.,"CALLE ENERGIA SOLAR (CAMPUS PALMAS ALTAS), 1",SEVILLA,Spain,2015,n.a.,n.a.,n.a.,n.a.,18,18,16,15,14,14,n.a.,n.a.,n.a.,n.a.,20,5,5,5,5,5
868.,PRODUCTOS CERAMICOS MORA SL,CARRETERA NACIONAL 401 MADRID TOLEDO (KM 38 400),ILLESCAS,Spain,2331,n.a.,0,0,0,0,1,1,1,1,3,n.a.,6,6,5,9,12,13,13,17,23
493.,PRODUCTOS TUBULARES SA,"CARRETERA NACIONAL 634 (BILBAO SANTANDER) (UGARTE-GALINDO), S/N",VALLE DE TRAPAGA-TRAPAGARAN,Spain,2420,n.a.,61,101,98,102,116,110,79,96,199,n.a.,438,446,441,440,443,440,445,460,448
153.,PROTEINAS Y DERIVADOS SL,"AVENIDA ACADEMIA GENERAL MILITAR, 52",ZARAGOZA,Spain,1013,n.a.,13,8,6,6,5,6,5,4,5,n.a.,16,7,6,7,7,6,5,6,6
912.,PUIGFEL SA,CARRETERA SANT CUGAT ((CERDANYOLA) KM 3),CERDANYOLA DEL VALLES,Spain,2332,n.a.,5,4,5,6,4,13,13,13,17,n.a.,33,36,33,36,41,43,44,48,55
528.,PULEVA FOOD SL,"CAMINO PURCHIL (GRANADA), 66",GRANADA,Spain,1051,n.a.,336,321,328,353,346,463,410,406,453,n.a.,655,645,633,681,703,995,977,"1,009","1,014"
964.,PUNTO FA SL,"CALLE DELS MERCADERS ((PG IND RIERA CALDES)), 9 - 11",PALAU-SOLITA I PLEGAMANS,Spain,4771,n.a.,"1,771","1,849","1,563","1,370","1,246","1,138",990,887,908,n.a.,"4,741","4,656","4,208","3,878","3,568","3,419","3,328","3,458","3,640"
977.,PURAC BIOQUIMICA SA,"CALLE GRAN VIAL, 19 -25",MONTMELO,Spain,2059,n.a.,105,122,109,87,88,90,76,74,72,n.a.,131,133,134,129,121,120,121,119,123
726.,QUIMICER SA,CARRETERA RIBESALBES (KM 5),ONDA,Spain,2012,n.a.,n.a.,30,30,33,33,34,35,29,42,n.a.,n.a.,178,168,179,179,190,190,192,201
571.,RAMON CLEMENTE SA,"CALLE REPUBLICA ARGENTINA, 15",EL MASNOU,Spain,2313,n.a.,17,15,16,15,15,18,17,13,19,n.a.,125,122,131,118,137,139,136,128,138
781.,"REALONDA, SA","AVENIDA DEL MEDITERRANI, 50",ONDA,Spain,2331,n.a.,16,17,17,17,16,15,14,12,15,n.a.,68,68,68,70,70,73,70,75,95
896.,RECYCLING GLASS SA,"POLIGONO INDUSTRIAL SERRANS, S/N",AIELO DE MALFERIT,Spain,2319,n.a.,n.a.,4,5,5,5,4,4,4,4,n.a.,n.a.,1,1,1,1,1,1,1,1
44.,REFRACTARIA SA,"AVENIDA BUENAVISTA, 13",SIERO,Spain,2320,n.a.,14,16,14,13,11,11,10,7,11,n.a.,91,96,94,82,82,83,87,81,81
1004.,REFRACTARIOS ANDALUCIA SL,"CARRETERA LLERENA (A GUADALCANAL), KM 5",GUADALCANAL,Spain,2320,n.a.,2,2,2,2,2,2,2,2,2,n.a.,14,14,16,16,18,18,15,16,17
35.,REFRACTARIOS CAMPO SL.,"LUGAR O CRUCEIRO, VILLALONGA",SANXENXO,Spain,2332,n.a.,6,7,2,3,3,3,3,3,2,n.a.,23,21,16,16,16,16,17,20,17
1009.,REFRATECHNIK IBERICA SA,"LUGAR CLOT DEL TORRENT, S/N",CASTELLET I LA GORNAL,Spain,2320,n.a.,34,35,42,37,33,36,26,36,36,n.a.,89,91,90,87,87,89,90,92,98
220.,RENAULT ESPANA SA,"AVENIDA MADRID, 72",VALLADOLID,Spain,2910,n.a.,"8,592","7,088","5,404","4,634","4,621","5,070","5,029","4,628","4,096",n.a.,"14,029","12,602","10,312","9,995","10,037","10,465","10,117","9,858","9,847"
433.,RENOVABLES SAMCA SA,CARRETERA CORTE DE PELEAS (KM 13),BADAJOZ,Spain,3511,n.a.,76,79,78,87,128,92,14,0,0,n.a.,74,69,65,67,62,15,15,11,8
496.,REPSOL PETROLEO SA,"CALLE MENDEZ ALVARO, 44",MADRID,Spain,1920,n.a.,"16,161","18,874","22,465","24,288","25,537","20,152","16,515","12,807","18,953",n.a.,"3,841","3,540","3,511","3,869","3,953","3,575","3,455","3,423","3,725"
212.,REPSOL QUIMICA SA,"CALLE MENDEZ ALVARO, 44",MADRID,Spain,2016,n.a.,"3,099","3,345","3,623","3,357","3,723","3,700","3,068","1,860","2,810",n.a.,"1,220","1,252","1,256","1,239","1,268","1,289","1,345","1,482","1,649"
776.,RHI REFRACTORIES ESPANA SL,"AVENIDA CONDE SANTA BARBARA, 12",SIERO,Spain,2320,n.a.,13,13,12,29,10,13,13,16,19,n.a.,52,54,55,57,59,62,67,82,84
352.,ROCA SANITARIO SA,"AVENIDA DIAGONAL, 513 BJ",BARCELONA,Spain,2342,n.a.,457,394,369,352,363,405,432,496,708,n.a.,"1,004",989,970,"1,133","1,467","1,490","2,084","2,084","2,390"
274.,ROCKWOOL PENINSULAR SA,"CARRETERA N- 121 (KM 53,5, PG IND CAPARROSO)",CAPARROSO,Spain,2399,n.a.,67,66,59,64,65,65,57,59,76,n.a.,201,209,211,212,218,192,189,162,219
786.,"ROLDAN, SA","CALLE SANTIAGO DE COMPOSTELA, 100 PLT 3",MADRID,Spain,2410,n.a.,181,220,219,191,247,224,284,169,352,n.a.,414,423,431,428,451,457,468,456,478
658.,ROQUETTE LAISA ESPANA SA,"AVENIDA JAUME I, S/N",BENIFAIO,Spain,1062,n.a.,239,229,226,250,229,234,177,181,215,n.a.,226,213,218,218,220,222,215,213,230
1037.,RUSTICOS LA MANCHA S.A.,"CARRETERA A-4 (KM 214,100)",SANTA CRUZ DE MUDELA,Spain,2332,n.a.,2,2,2,2,2,3,4,4,7,n.a.,23,22,19,19,21,22,24,24,36
299.,SA MINERA CATALANO ARAGONESA,"CARRETERA, 18",ARINO,Spain,0520,n.a.,783,864,820,808,941,947,778,648,722,n.a.,"2,922","3,405","2,836","2,999","2,887","3,175","3,266","3,298","3,772"
187.,SAICA FRANCE,15 AVENUE LEONARD DE VINCI,PESSAC,France,7010,n.a.,10,10,11,12,12,13,17,20,18,n.a.,32,34,42,41,47,45,47,34,32
877.,"SAINT GOBAIN CRISTALERIA, SL","CALLE PRINCIPE DE VERGARA, 132",MADRID,Spain,2311,n.a.,384,370,350,392,433,511,517,480,628,n.a.,824,860,990,"1,193","1,246","1,364","1,408","1,432","1,594"
949.,SAINT GOBAIN PLACO IBERICA SA,"CALLE PRINCIPE DE VERGARA, 132",MADRID,Spain,0811,n.a.,158,137,109,104,108,126,132,161,261,n.a.,476,482,475,489,572,599,663,721,838
159.,SAINT-GOBAIN PAM ESPANA SA,"CALLE LA PESETA, S/N",SANTANDER,Spain,2410,n.a.,74,91,105,72,70,71,128,154,213,n.a.,260,277,280,277,283,284,288,295,305
499.,"SALES MONZON, SA","CALLE BALDIRI REIXAC (ED TORRE I), 4 8, PLT 04, PTA A 7",BARCELONA,Spain,0893,n.a.,7,9,6,9,10,9,8,7,1,n.a.,7,7,7,7,7,7,7,7,5
156.,SAMPOL INGENIERIA Y OBRAS SA,"CALLE GREMI DE BONETERS (PG IND SON CASTELLO), 48",PALMA,Spain,4321,n.a.,96,91,85,94,82,112,106,94,104,n.a.,255,162,92,290,212,192,170,149,140
957.,SARRIO PAPELERA DE ALMAZAN SL.,"CARRETERA RUBI (KM 1,40. ED. FORUM), P. 2",SANT CUGAT DEL VALLES,Spain,1712,n.a.,21,23,31,34,34,39,39,36,38,n.a.,95,95,95,103,106,114,115,114,115
294.,SARVAL BIO-INDUSTRIES CENTRO SL,"CAMINO DE PAJARES, 21",ARGANDA,Spain,1091,n.a.,31,29,33,34,34,33,2,1,4,n.a.,84,99,96,97,89,87,6,20,29
65.,SARVAL BIO-INDUSTRIES NOROESTE SA.,"LUGAR SUEVOS SAN MARTINO, S/N",ARTEIXO,Spain,1061,n.a.,33,39,37,46,44,41,34,23,22,n.a.,83,67,96,69,66,65,61,61,52
918.,SCHOTT IBERICA SA,"CALLE PI I GIBERT, 1 25",SANT ADRIA DE BESOS,Spain,2319,n.a.,n.a.,n.a.,n.a.,23,23,22,22,21,29,n.a.,n.a.,n.a.,n.a.,128,118,118,123,130,139
491.,SEAT SA,"CARRETERA NACIONAL II (COMPLEJO SEAT AUTOVIA A-2), KM 585",MARTORELL,Spain,2910,n.a.,"9,023","8,805","8,007","6,927","6,500","5,636","5,073","4,493","5,184",n.a.,"13,955","12,671","12,444","11,491","11,440","10,880","10,310","10,549","11,010"
927.,SECANIM BIO-INDUSTRIES SA,"CALLE ENRIC GRANADOS, 8 18 P 2 PTA. G",GRANOLLERS,Spain,1091,n.a.,35,11,10,10,8,5,8,8,7,n.a.,217,67,81,80,57,62,56,52,36
849.,SERVIKER 1 SL,"CAMINO PRATS, S/N",ALCORA,Spain,2399,n.a.,n.a.,16,14,19,20,17,13,10,6,n.a.,n.a.,1,1,1,1,1,1,1,1
537.,SGL CARBON POLSKA S.A.,PIASTOWSKA 29,RACIBORZ,Poland,2399,n.a.,142,195,194,180,215,209,189,236,253,n.a.,n.a.,n.a.,n.a.,n.a.,875,856,807,899,977
833.,SIDERURGICA SEVILLANA SA,"CARRETERA A-92, KM 6",ALCALA DE GUADAIRA,Spain,2410,n.a.,246,285,328,337,356,345,259,220,352,n.a.,345,331,338,340,347,343,337,347,366
740.,SIERRAGRES SA,"POLIGONO INDUSTRIAL EL CANO I, S/N",ESPIEL,Spain,4120,n.a.,2,2,2,4,4,4,5,5,7,n.a.,28,28,39,38,38,55,54,54,70
232.,SILICIO SOLAR SOCIEDAD ANONIMA,"AVENIDA ROMA ((POL INDUSTRIAL LA NAVA I)), 1",PUERTOLLANO,Spain,2399,n.a.,n.a.,n.a.,n.a.,n.a.,1,71,71,46,43,n.a.,n.a.,n.a.,n.a.,n.a.,549,772,984,841,685
16.,SMALTICERAM ESPANA SA,"POLIGONO INDUSTRIAL SUR CATORCE, 44 PARC. 1 1",ONDA,Spain,2030,n.a.,26,20,19,19,15,17,14,9,9,n.a.,65,59,55,49,48,48,44,49,62
535.,SMURFIT KAPPA ESPANA SA,"CALLE CAMARMILLA, S/N",ALCALA DE HENARES,Spain,1721,n.a.,n.a.,251,236,229,229,226,190,181,228,n.a.,n.a.,842,828,834,830,785,812,816,879
6.,SMURFIT KAPPA NAVARRA SA,CARRETERA ZARAGOZA (KM 3),GALAR,Spain,1712,n.a.,n.a.,107,102,110,102,103,98,87,99,n.a.,n.a.,338,329,327,328,335,325,344,359
1024.,SMURFIT KAPPA NERVION SA,"BARRIO ARRIANDI, S/N",IURRETA,Spain,1712,n.a.,n.a.,119,126,126,130,126,114,96,103,n.a.,n.a.,232,229,232,226,235,235,256,247
544.,SNIACE S.A.,PLANTA 4,MADRID,Spain,1711,n.a.,14,1,3,42,130,151,133,118,139,n.a.,251,39,54,60,561,562,590,576,596
53.,SOCIEDAD ANONIMA DAMM,"CALLE ROSSELLO, 515",BARCELONA,Spain,1105,n.a.,"1,045",963,913,909,900,837,819,813,786,n.a.,"3,132","2,917","2,742","2,715","2,931","1,631","2,153","2,102","2,223"
823.,SOCIEDAD ANONIMA LLENSA,"CALLE CANAPOST, S/N",FORALLAC,Spain,2332,n.a.,1,1,1,1,1,1,1,1,3,n.a.,5,5,4,6,6,6,12,13,15
812.,SOCIEDAD ANONIMA SULQUISA,"CALLE PRAJE VALDEGUERRA, S/N",COLMENAR DE OREJA,Spain,0899,n.a.,36,41,37,46,43,41,40,37,39,n.a.,42,44,46,46,47,46,46,44,45
1039.,SOCIEDAD FINANCIERA Y MINERA SA,CARRETERA ALMERIA (KM 8),MALAGA,Spain,2351,n.a.,n.a.,94,102,93,99,125,133,163,203,n.a.,n.a.,350,348,351,361,389,399,412,413
92.,SOFIDEL SPAIN SL,"POLIGONO INDUSTRIAL (CL B), 16",BUNUEL,Spain,1722,n.a.,64,62,60,55,49,49,51,45,43,n.a.,155,146,135,132,129,134,136,130,134
689.,SOLVAY QUIMICA SLU,"AVENIDA ALBERTO I, S/N",TORRELAVEGA,Spain,2013,n.a.,n.a.,250,240,230,236,223,190,194,226,n.a.,n.a.,416,454,498,493,493,499,506,532
721.,SOLVAY SOLUTIONS ESPANA S.L.,"AVENIDA ESTACIO, 74",BLANES,Spain,7112,n.a.,n.a.,87,91,82,80,92,87,54,56,n.a.,n.a.,86,93,98,100,103,108,107,98
1005.,SONAE ARAUCO ESPANA-SOLUCIONES DE MADERA SL.,"RONDA DE PONIENTE (- PQ EMPRESARIAL EURONOVA), 6 - B",TRES CANTOS,Spain,1621,n.a.,152,145,152,154,192,199,195,182,257,n.a.,327,325,329,328,457,465,477,549,585
1031.,SORIGUE SA,"CALLE PEDRO I PONS, 9 11",BARCELONA,Spain,4211,n.a.,30,26,23,25,38,40,54,72,78,n.a.,129,124,120,124,135,135,148,168,170
903.,SWIFTAIR SA,"CALLE INGENIERO TORRES QUEVEDO (POL. INDUSTRIAL FIN DE SEMANA), 14",MADRID,Spain,5121,n.a.,140,136,135,128,120,134,138,123,135,n.a.,619,574,527,464,420,438,383,346,466
1033.,SYSFEED SL,"CALLE ENRIC GRANADOS, 8 18 2A G",GRANOLLERS,Spain,1041,n.a.,60,55,50,49,46,47,47,11,13,n.a.,125,106,125,117,122,139,139,44,45
413.,TABICESA SA,CARRETERA NACIONAL 430 (KM 120),VILLANUEVA DE LA SERENA,Spain,2332,n.a.,3,3,2,2,3,3,3,4,7,n.a.,19,19,19,23,27,28,28,30,47
385.,TAG AVIATION ESPANA SL,"LUGAR AEROPUERTO ADOLFO SUAREZ BARAJAS-MADRID, CENTRO",MADRID,Spain,5110,n.a.,48,50,60,57,55,52,50,40,41,n.a.,113,136,144,129,131,138,126,114,137
335.,TARBE SL,"URBANIZACION TAMBARRIA, S/N",ALFARO,Spain,2332,n.a.,n.a.,0,1,1,1,2,2,2,3,n.a.,n.a.,n.a.,3,9,11,21,25,24,27
137.,TECNICAS DE COGENERACION DEL GELSA SL,"POLIGONO INDUSTRIAL EL PORTAZGO, ED 60 BLQ A OF 3 (CRTA LOGRONO)",ZARAGOZA,Spain,4321,n.a.,n.a.,0,0,5,5,5,4,4,5,n.a.,n.a.,n.a.,2,3,3,3,2,2,2
513.,"TECNICERAMICA, SA","CARRETERA RIBESALBES, S/N",ALCORA,Spain,2331,n.a.,7,7,7,8,9,8,6,5,6,n.a.,36,36,36,39,39,40,42,37,45
871.,TECNIGRES SA,CARRETERA CV-16 (HECTOMETRO 4),SANT JOAN DE MORO,Spain,2331,n.a.,6,5,5,5,3,2,2,2,7,n.a.,25,25,26,33,31,33,32,35,36
480.,TEJALA SA,"CALLE ORIOL MARTORELL, 6",RUBI,Spain,2332,n.a.,3,3,3,2,2,2,2,2,2,n.a.,6,6,6,6,6,7,7,7,7
917.,TEJAR BALEAR SA,"CARRETERA MA-15, KM 41",PETRA,Spain,4613,n.a.,1,1,1,1,1,1,2,2,2,n.a.,n.a.,1,1,7,10,12,15,20,24
992.,TEJAS Y LADRILLOS DEL MEDITERRANEO SA,"CARRETERA PEDRALVA (CR LLIRIA-PEDRALVA KM 3,2)",LLIRIA,Spain,2332,n.a.,19,19,20,17,15,20,22,17,22,n.a.,135,119,119,120,140,155,153,122,200
623.,TEJERIA ITURRALDE SL,"CALLE VIRGEN DE LA CABEZA, S/N",TUDELA,Spain,2332,n.a.,n.a.,n.a.,n.a.,0,0,1,1,2,4,n.a.,n.a.,n.a.,n.a.,3,8,21,21,22,27
842.,TELEFONICA DE ESPANA SAU,"CALLE GRAN VIA, 28",MADRID,Spain,6110,n.a.,"8,407","7,748","7,723","8,227","8,866","9,890","10,601","11,270","11,801",n.a.,"19,526","21,874","21,796","22,608","24,343","27,732","28,121","28,249","28,374"
245.,TENDENCIAS CERAMICAS S.L.,"AVENIDA DE ESPANA (POL IND PONT), S/N",CABANES,Spain,2331,n.a.,n.a.,9,11,14,14,13,10,7,9,n.a.,n.a.,131,156,173,163,156,118,129,170
82.,TEREOS STARCH & SWEETENERS IBERIA SA.,"AVENIDA SALVADOR ALLENDE, 76 78",ZARAGOZA,Spain,1062,n.a.,121,122,126,137,80,135,98,79,68,n.a.,176,179,177,184,181,174,177,186,188
201.,TERRACOTA PAVIMENTOS DE GRES SA,"PARTIDA RAMONET, S/N",ALMAZORA,Spain,2331,n.a.,1,2,3,4,4,5,5,6,7,n.a.,24,36,40,40,42,46,48,47,53
172.,TERREAL ESPANA DE CERAMICAS SA,"CARRETERA C-66, KM. 17,930 (Y 16)",LA PERA,Spain,2332,n.a.,8,8,7,9,10,19,19,21,29,n.a.,30,30,30,42,104,119,131,130,139
182.,TEULERIA ALMENAR SA,CARRETERA VALL D'ARAN ((NACIONAL 230) KM 20),ALMENAR,Spain,2332,n.a.,1,1,1,1,1,1,2,4,11,n.a.,14,9,11,11,18,27,35,50,81
59.,TEULERIA LES FORQUES SL,"CAMINO VELL DE LLEIDA, S/N",ALCOLETGE,Spain,2332,n.a.,0,0,0,0,0,0,1,1,4,n.a.,1,1,1,1,1,3,5,9,17
593.,THYSSENKRUPP GALMED SA,"CARRETERA ACCESO A PLANTA IV, KM 3,9",SAGUNTO/SAGUNT,Spain,2561,n.a.,0,n.a.,1,31,42,58,55,32,52,n.a.,70,5,28,162,163,149,127,124,116
175.,"TIERRA ATOMIZADA, SA","PARTIDA FOYES FERRAES, S/N",ALCORA,Spain,2399,n.a.,n.a.,n.a.,92,89,72,73,64,63,80,n.a.,n.a.,n.a.,130,117,139,155,168,171,178
508.,"TODAGRES, SA",CARRETERA ONDA (KM 5),VILA-REAL,Spain,2331,n.a.,27,23,24,22,27,33,27,19,25,n.a.,175,178,171,175,187,222,205,185,224
46.,"TOLSA, SOCIEDAD ANONIMA","CALLE NUNEZ DE BALBOA, 51",MADRID,Spain,0812,n.a.,164,165,165,162,159,156,157,151,168,n.a.,636,622,626,661,681,721,714,721,745
253.,TORRASPAPEL SA,"CALLE DE HIPATIA (ZONA INDUSTRIAL EL LOMO), 4",GETAFE,Spain,1712,n.a.,768,788,745,774,814,824,808,647,770,n.a.,"1,898","1,986","2,158","1,804","1,869","1,909","1,928","1,959","2,255"
802.,TORRECID SOCIEDAD ANONIMA,"PARTIDA TORRETA (CR CASTELLON - APTDO CORREOS 18), S/N",ALCORA,Spain,2030,n.a.,369,369,361,362,349,343,266,216,291,n.a.,"2,006","1,848","1,697","1,492","1,327","1,167","1,039","1,153","1,293"
273.,TORRES PADILLA SL,"CARRETERA BAILEN-MOTRIL, 23",BAILEN,Spain,2332,n.a.,1,1,1,1,1,1,1,1,3,n.a.,10,9,7,6,8,10,12,20,15
256.,TRACTAMENT METROPOLITA DE FANGS SL,"RAMBLA PRIM (INTERIOR EDAR BESOS), S/N",BARCELONA,Spain,3700,n.a.,n.a.,17,16,30,34,32,31,25,22,n.a.,n.a.,31,31,32,33,34,35,34,31
662.,TRACTAMENTS DE JUNEDA SA,"CAMINO ARBECA (DE JUNEDA A), S/N",JUNEDA,Spain,3511,n.a.,0,0,2,18,22,20,18,19,17,n.a.,n.a.,n.a.,19,32,44,44,44,44,47
793.,TRANSFORMACIONES AGRICOLAS DE BADAJOZ SA,"CARRETERA ENTRERRIOS, S/N APARTADO DE CORREOS 59",VILLANUEVA DE LA SERENA,Spain,1039,n.a.,55,59,49,39,36,39,52,49,47,n.a.,132,66,58,57,69,72,34,58,40
378.,TUCCITANA DE CONTRATAS SA,"CALLE BAILEN, 7 PG INDUSTRIAL",MARTOS,Spain,0812,n.a.,3,5,3,2,1,2,2,2,3,n.a.,4,5,6,5,4,5,5,6,6
664.,UBE CORPORATION EUROPE SA,"POLIGONO INDUSTRIAL SERRALLO, S/N",CASTELLON,Spain,2014,n.a.,371,356,377,414,98,395,352,260,335,n.a.,475,421,390,377,367,359,338,329,330
317.,UNDEFASA SA,"CARRETERA RIBESALBES ((APDO DE CORREOS 30)), S/N",ALCORA,Spain,2331,n.a.,14,13,13,11,11,11,13,14,24,n.a.,74,74,77,78,86,94,96,105,141
649.,UNILEVER FOODS INDUSTRIAL ESPANA SL,"CALLE FELIPE DEL RIO, 14",LEIOA,Spain,1089,n.a.,35,33,35,37,36,42,41,37,34,n.a.,257,232,247,283,327,328,357,348,362
310.,"UNION DE EMPRESAS MADERERAS, SOCIEDAD ANONIMA","CALLE PERIODISTA ENRIQUE MARINAS ROMERO, 36 4",A CORUNA,Spain,1621,n.a.,29,30,24,34,41,37,27,27,34,n.a.,83,94,95,100,99,99,99,89,93
177.,UNION ELECTRICA DE CANARIAS GENERACION SA,"CALLE ALBAREDA (PLAZA WOERMANN), 38",LAS PALMAS DE GRAN CANARIA,Canary Islands (Spain),3511,n.a.,"1,038","1,208","1,588","1,607","1,925","1,774","1,478","1,272","1,622",n.a.,601,603,598,602,603,617,638,635,629
370.,UNION INDUSTRIAL PAPELERA SA,"CALLE PAS BLAU, S/N",LA POBLA DE CLARAMUNT,Spain,1712,n.a.,104,109,106,104,93,103,83,62,78,n.a.,87,91,89,88,92,95,97,97,98
657.,UNIVERSAL CERAMICA SL,"CARRETERA DE ONDA (KM 1), S/N",ALCORA,Spain,2331,n.a.,8,7,7,7,7,6,6,6,10,n.a.,47,46,49,45,45,42,42,48,59
40.,"URSA IBERICA AISLANTES, SA","PASEO RECOLETOS, 3 - 4A PLT",MADRID,Spain,2314,n.a.,n.a.,66,57,55,54,51,53,50,68,n.a.,n.a.,172,169,172,180,182,178,187,208
532.,VERALLIA SPAIN S.A.,"CALLE PRINCIPE DE VERGARA, 132",MADRID,Spain,2313,n.a.,329,320,315,299,327,291,288,282,307,n.a.,"1,080","1,103","1,125","1,020","1,031",943,955,966,"1,126"
27.,VERESCENCE LA GRANJA SL.,"PASEO POCILLO, S/N",SAN ILDEFONSO O LA GRANJA,Spain,2313,n.a.,67,80,65,82,67,70,71,65,79,n.a.,413,406,365,360,387,377,376,376,377
675.,"VERNIS, SA","AVENIDA MANUEL ESCOBEDO, 18",ONDA,Spain,2030,n.a.,21,19,20,17,18,16,16,14,19,n.a.,67,64,63,63,65,65,62,63,68
267.,"VIDRIERAS CANARIAS, SA","CALLE FISICO ((PG IND SALINETAS)), 6",TELDE,Canary Islands (Spain),2313,n.a.,n.a.,30,29,23,26,26,22,19,21,n.a.,n.a.,91,90,89,88,87,87,91,97
872.,VIDRIERIA Y CRISTALERIA DE LAMIACO SOCIEDAD ANONIMA,"AVENIDA AUTONOMIA, 12",LEIOA,Spain,2313,n.a.,n.a.,33,31,45,41,46,54,46,58,n.a.,n.a.,290,309,310,314,349,396,371,432
650.,VIDRIERIAS MASIP SA,"AVENIDA SANT FERRAN (POL IND ALMEDA), 2",CORNELLA DE LLOBREGAT,Spain,2313,n.a.,0,0,3,5,6,7,6,7,7,n.a.,1,1,54,60,72,78,69,67,69
441.,VIESGO GENERACION SL.,"CALLE ISABEL TORRES, 25",SANTANDER,Spain,3511,n.a.,909,"1,219","1,305",923,"1,048","1,060",790,"1,061",793,n.a.,378,392,438,500,574,614,621,622,547
110.,VIM AIRLINES,UL. NOVOKHOKHLOVSKAYA D.23 STR.1,MOSCOW,Russian Federation,5110,n.a.,269,157,185,208,218,219,180,106,232,n.a.,"1,310","1,299","1,308","1,297","1,283","1,292","1,281","1,270","1,267"
428.,VISCOFAN SA,"POLIGONO INDUSTRIAL BERROA, 4 PLANTA",TAJONAR,Spain,1089,n.a.,744,748,692,772,758,676,643,591,558,n.a.,"4,541","4,342","4,182","4,340","4,083","3,905","3,776","3,976","4,085"
586.,VOLKSWAGEN NAVARRA SA,"POLIGONO LANDABEN INDUSTRIALDEA (CL B), S/N",PAMPLONA/IRUNA,Spain,2910,n.a.,"2,930","2,991","2,927","2,642","2,632","3,255","3,072","2,195","2,225",n.a.,"4,508","4,457","4,493","4,390","4,533","5,555","4,927","4,579","4,174"
442.,"VUELING AIRLINES, S.A.","PARQUE DE NEGOCIOS MAS BLAU II, PLA DE L'ESTANY",BARCELONA,Spain,5110,n.a.,n.a.,"1,946","1,709","1,403","1,102",863,796,603,448,n.a.,n.a.,"2,637","2,390","1,752","1,774","1,389","1,318","1,150","1,201"
549.,WAMOS AIR SA,"CALLE MAHONIA (ED PORTICO), 2 PLANTA 6",MADRID,Spain,5110,n.a.,140,122,80,112,146,102,82,72,104,n.a.,405,305,240,225,157,177,209,163,159