Country,Account Type,Account Holder Name,Main Address Line,City,Allowance In Allocation In 2005,Allowance In Allocation In 2006,Allowance In Allocation In 2007,Allowance In Allocation In 2008,Allowance In Allocation In 2009,Allowance In Allocation In 2010,Allowance In Allocation In 2011,Allowance In Allocation In 2012,Allowance In Allocation In 2013,Allowance In Allocation In 2014,Allowance In Allocation In 2015,Allowance In Allocation In 2016,Allowance In Allocation In 2017,Allowance In Allocation In 2018,Allowance In Allocation In 2019,Allowance In Allocation In 2020,Verified Emissions In 2005,Verified Emissions In 2006,Verified Emissions In 2007,Verified Emissions In 2008,Verified Emissions In 2009,Verified Emissions In 2010,Verified Emissions In 2011,Verified Emissions In 2012,Verified Emissions In 2013,Verified Emissions In 2014,Verified Emissions In 2015,Verified Emissions In 2016,Verified Emissions In 2017,Verified Emissions In 2018,Verified Emissions In 2019,Verified Emissions In 2020,Units Surrendered In 2005,Units Surrendered In 2006,Units Surrendered In 2007,Units Surrendered In 2008,Units Surrendered In 2009,Units Surrendered In 2010,Units Surrendered In 2011,Units Surrendered In 2012,Units Surrendered In 2013,Units Surrendered In 2014,Units Surrendered In 2015,Units Surrendered In 2016,Units Surrendered In 2017,Units Surrendered In 2018,Units Surrendered In 2019,Units Surrendered In 2020
Belgium,Operator Holding Account,3B-FIBREGLASS,Rue de Maestricht 67-69,Battice (Herve),111954,111955,111955,85974,85975,85975,85975,85975,53944,53007,52060,51102,50134,49155,48165,47173,72730,71598,71846,68399,39499,61296,59919,57779,58965,60764,60165,61271,,,,,72730,71598,71846,68399,39499,61296,59919,57779,58965,60764,60165,61271,,,,
Belgium,Operator Holding Account,3M Belgium,Hermeslaan 7,Machelen,15528,15528,15528,15893,15893,15893,15893,15894,12971,12745,12518,12288,12055,11819,11581,11343,14445,14551,13755,13531,12351,15578,14899,14228,15626,13994,14009,13763,,,,,14445,14551,13755,13531,12351,15578,14899,14228,15626,13994,14009,13763,,,,
Belgium,Operator Holding Account,AANNEMINGEN VAN WELLEN,Klinkaardstraat 198,Kapellen,,,,,,,,,2263,2026,1794,1570,1352,1142,939,742,,,,,,,,,2854,1766,3843,3920,,,,,,,,,,,,,2854,1766,3843,3920,,,,
Belgium,Operator Holding Account,AANNEMINGEN VAN WELLEN,Klinkaardstraat 198,Kapellen,,,,,,,,,2649,2370,2101,1837,1583,1337,1098,869,,,,,,,,,2546,2408,2898,2939,,,,,,,,,,,,,2546,2408,2898,2939,,,,
Belgium,Aircraft Operator Account,ABELAG AVIATION,Kortrijkstraat 317,Wevelgem,,,,,,,,,,,,,594,594,594,594,,,,,,,,7297,6156,6063,7396,7507,,,,,,,,,,,,,,19516,7396,7507,,,,
Belgium,Operator Holding Account,ACRS ASFALT & RECYCLING,Kanaaldijk 22,Ravels,,,,,,,,,533,476,422,370,318,268,220,175,,,,,,,,,942,1003,1238,877,,,,,,,,,,,,,942,1003,1238,877,,,,
Belgium,Aircraft Operator Account,AEROTRANSCARGO,"60 Dacia blvd. block 5, off.115",Chisinau,,,,,,,,,,,,,,,,,,,,,,,,,,,,582,,,,,,,,,,,,,,,,582,,,,
Belgium,Operator Holding Account,AGC GLASS EUROPE,Avenue Jean Monnet 4,Ottignies-Louvain-la-Neuve,101473,101473,101474,117868,117868,117868,117869,117869,63221,62069,60905,59733,58549,57357,56153,54947,114626,113010,112833,112290,110535,117129,111910,89800,87623,93571,105519,98145,,,,,114626,113010,112833,112290,110535,117129,111910,89800,87623,93571,105519,98145,,,,
Belgium,Operator Holding Account,AGC GLASS EUROPE,Avenue Jean Monnet 4,Ottignies-Louvain-la-Neuve,541948,541948,541948,662424,662424,662424,662424,662425,401071,394105,387058,379935,372736,365469,358110,350725,592753,593840,604454,601861,460576,556905,551238,417454,379710,371132,390036,389638,,,,,592753,593840,604454,601861,460576,556906,551237,417454,379710,371132,390036,389638,,,,
Belgium,Operator Holding Account,AGC GLASS EUROPE,Avenue Jean Monnet 4,Ottignies-Louvain-la-Neuve,80094,80093,80093,66214,66214,66214,66214,66214,46326,45521,0,0,0,0,0,0,68629,63758,51988,60077,48820,57574,62181,45707,47492,16252,,,,,,,68629,63758,51988,60077,48820,57574,62181,45707,47492,16252,,,,,,
Belgium,Operator Holding Account,AGFA GEVAERT NV,Septestraat 27,Mortsel,81713,81713,81713,100179,100179,100179,106243,121609,,,,,,,,,84124,79084,79865,78514,72934,75851,66100,83502,,,,,,,,,84124,79084,79865,78514,72934,75851,66100,83502,,,,,,,,
Belgium,Operator Holding Account,AGFA GEVAERT NV,Septestraat 27,Mortsel,,,,,,,,,66545,65389,64219,63038,61843,60637,59417,58192,,,,,,,,,78681,72362,73335,69726,,,,,,,,,,,,,78681,72362,73335,69726,,,,
Belgium,Operator Holding Account,AGFA GEVAERT NV,Septestraat 27,Mortsel,,,,,,,,,3798,3732,3666,3598,3530,3461,3391,3321,,,,,,,,,3975,3119,3434,2779,,,,,,,,,,,,,3975,3119,3434,2779,,,,
Belgium,Operator Holding Account,AHLSTROM- MUNKSJO MALMEDY S.A,Avenue du Pont-de-Warche 1,Malmedy,26651,26651,26651,16777,16777,16778,16778,16778,8520,8372,8222,8072,7918,7764,7607,7450,12699,13348,13414,11277,7797,9076,9317,6435,7072,5546,4820,5625,,,,,12699,13348,13414,11277,7797,9077,9317,6434,7072,5546,4820,5625,,,,
Belgium,Operator Holding Account,AIR LIQUIDE LARGE INDUSTRY,"Avenue du Bourget 44, b5",Brussel,,,,450126,591610,607258,610234,627070,,,,,,,,,,,,306689,316585,320023,328068,241702,Excluded,,,,,,,,,,,306689,316585,320023,328068,241702,,,,,,,,
Belgium,Operator Holding Account,AIR LIQUIDE LARGE INDUSTRY,"Avenue du Bourget 44, b5",Brussel,,,,,,,,,380585,373975,367287,360529,353698,346801,339818,332810,,,,,,,,,313903,354371,361511,282410,,,,,,,,,,,,,313903,354371,361511,282410,,,,
Belgium,Operator Holding Account,AIR LIQUIDE LARGE INDUSTRY,"Avenue du Bourget 44, b5",Brussel,,,,,,,,,5455,5361,10529,0,0,0,0,0,,,,,,,,,6010,26304,9696,,,,,,,,,,,,,,6010,26304,9696,,,,,
Belgium,Operator Holding Account,AIR LIQUIDE LARGE INDUSTRY,"Avenue du Bourget 44, b5",Brussel,,,,,,,,,340723,334805,164409,322767,316652,310477,304226,297952,,,,,,,,,211225,128452,246628,308784,,,,,,,,,,,,,211225,128452,246628,308784,,,,
Belgium,Operator Holding Account,AJINOMOTO OMNICHEM,Cooppallaan 91,Wetteren,10465,10465,10466,10858,10858,10858,10858,10859,9032,8876,8717,8557,8394,8230,8065,7899,10529,10295,9162,7596,7593,8550,8863,9635,10470,9824,10250,10236,,,,,10529,10295,9162,7596,7593,8550,8863,9635,10470,9824,10250,10236,,,,
Belgium,Operator Holding Account,AKZO NOBEL CHEMICALS,Parc Industriel de Ghlin    Zone A,Ghlin,19711,19710,19710,20778,20778,20779,20779,20779,16454,16168,15879,15587,15291,14993,14692,14389,13831,13225,13464,14155,12925,16004,14167,13809,14871,13419,13525,14062,,,,,13831,13225,13464,14155,12925,16004,14167,13809,14871,13419,13525,14062,,,,
Belgium,Operator Holding Account,ALCO BIO FUEL,Pleitstraat 1,Gent,,,,32946,86857,89852,89852,89852,95830,94165,92481,90779,89059,87323,85565,83800,,,,35033,90165,102865,96826,98158,118809,124526,123668,124695,,,,,,,,35033,90165,102865,96826,98158,118809,124526,123668,124695,,,,
Belgium,Operator Holding Account,ALERIS ALUMINUM DUFFEL,A. Stocletlaan 87,Duffel,10949,10949,10950,56507,56507,56507,56508,56508,,,,,,,,,10029,9854,9624,43252,33886,41965,37929,37867,,,,,,,,,10029,9854,9624,43252,33886,41965,37929,37867,,,,,,,,
Belgium,Operator Holding Account,ALERIS ALUMINUM DUFFEL,A. Stocletlaan 87,Duffel,,,,,,,,,15789,15515,15238,14957,14674,14388,14098,13808,,,,,,,,,15296,15801,15171,15531,,,,,,,,,,,,,15296,15801,15171,15531,,,,
Belgium,Operator Holding Account,ALERIS ALUMINUM DUFFEL,A. Stocletlaan 87,Duffel,,,,,,,,,32842,32271,31694,31110,30522,29927,29324,28719,,,,,,,,,26031,26254,28100,28994,,,,,,,,,,,,,26031,26254,28100,28994,,,,
Belgium,Operator Holding Account,ALGIST BRUGGEMAN,Langerbruggekaai 37,Gent,,,,,,,,,18276,17289,19477,19119,18757,18391,18021,17649,,,,,,9920,25518,26031,25996,24605,25384,24562,,,,,,,,,,9920,25518,26031,25996,24605,25384,24562,,,,
Belgium,Operator Holding Account,ALLNEX BELGIUM SA,Marie Curiesquare 11,Anderlecht,24679,24679,24678,25304,25304,25304,25304,25304,18068,17754,17437,17116,16791,16465,16133,15800,19843,18696,17843,19593,13775,16243,15337,15268,14146,12651,13615,12817,,,,,19843,18696,17843,19593,13775,16243,15337,15268,14146,12651,13615,12817,,,,
Belgium,Operator Holding Account,ALPRO,Vlamingstraat 28,Wevelgem,,,,10874,10874,10874,10874,10874,9928,8886,7870,6886,5931,5010,4115,3256,,12009,12425,9648,7967,8530,8784,9283,8970,14002,15131,17935,,,,,,12009,12425,9648,7967,8530,8784,9283,8970,14002,15131,17935,,,,
Belgium,Operator Holding Account,AMCOR FLEXIBLES TRANSPAC,Industriepark 1003,Halen,15945,15945,15944,17532,17532,17532,17531,17531,7135,6385,5655,4949,4263,3599,2958,2340,17932,14927,14298,10696,10783,10924,7259,4639,8561,7257,7776,7164,,,,,17932,14927,14298,10696,10783,10924,7259,4639,8561,7257,7776,7164,,,,
Belgium,Operator Holding Account,Antwerp Gas Terminal,Land van Waaslaan 3,Kallo (Beveren),,,,,,,,,700,626,418,362,312,264,217,171,,,,,,,,,1269,382,651,672,,,,,,,,,,,,,1269,382,651,672,,,,
Belgium,Operator Holding Account,ANTWERP TERMINAL & PROCESSING COMPANY,Beliweg 20,Antwerpen,169536,169536,169537,57421,57421,57421,57421,57421,,,,,,,,,73836,33887,37487,37196,33539,10455,4260,188,Excluded,,,,,,,,73836,33887,37487,37196,33539,10455,4260,188,,,,,,,,
Belgium,Operator Holding Account,APERAM STAINLESS BELGIUM,"Swinnenwijerweg 5 Genk-Zuid, Zone 6A",Genk,229692,229692,229692,253618,253618,253618,253618,253619,171671,168689,165672,162623,159542,156431,153281,150120,185972,207584,176340,186938,125855,143915,133652,136486,142386,144793,156114,168132,,,,,185972,207584,176340,186938,125855,143915,133652,136486,142386,144793,156114,168132,,,,
Belgium,Operator Holding Account,APERAM STAINLESS BELGIUM,"Swinnenwijerweg 5 Genk-Zuid, Zone 6A",Genk,317512,317513,317513,286725,286725,286726,286726,286726,,,,,,,,,186099,212166,177203,185646,92818,109959,105652,101133,Excluded,,,,,,,,186099,212166,177203,185646,92818,109959,105860,100925,,,,,,,,
Belgium,Operator Holding Account,APERAM STAINLESS BELGIUM,"Swinnenwijerweg 5 Genk-Zuid, Zone 6A",Genk,61946,61947,61947,84336,84336,84336,84337,84337,218233,214443,210608,206733,202815,198861,194857,190839,3376,22311,25233,23231,16110,17258,16860,50892,159298,168743,184558,197492,,,,,3376,22311,25233,23231,16110,17258,16860,50892,159298,168743,184558,197492,,,,
Belgium,Operator Holding Account,ArcelorMittal Belgium,Boulevard de l'Impératrice 66,Bruxelles,9358697,9358697,9358697,8918495,8918495,8918495,8918495,8918495,,,,,,,,,4896453,5238916,4686947,4556264,3415187,4386583,4017146,3777669,Excluded,,,,,,,,4896453,5238916,4686947,4556264,3415187,4386583,4017146,3777669,,,,,,,,
Belgium,Operator Holding Account,ArcelorMittal Belgium,Boulevard de l'Impératrice 66,Bruxelles,34011,34010,34010,30389,30389,30390,30390,30390,24881,24448,24011,23569,23123,22672,22216,21757,31271,28348,26095,23765,19263,21822,23321,20950,23080,24091,27799,27717,,,,,31271,28348,26095,23765,19263,21822,23321,20950,23080,24091,27799,27717,,,,
Belgium,Operator Holding Account,ArcelorMittal Belgium,Boulevard de l'Impératrice 66,Bruxelles,15620,15620,15620,13688,13688,13689,13689,13689,35720,35101,34473,33838,33198,32550,31894,31236,13225,13152,12153,8518,9550,10479,8719,10981,13677,13740,38030,40672,,,,,13225,13152,12153,8518,9550,10479,8719,10981,13677,13740,38030,40672,,,,
Belgium,Operator Holding Account,ArcelorMittal Belgium,Boulevard de l'Impératrice 66,Bruxelles,16709,16708,16708,13018,13018,13019,13019,13019,10551,10367,10183,9995,9806,0,0,0,9396,10940,10472,10755,8373,11441,10433,10333,10504,11591,10926,12174,,,,,9396,10940,10472,10755,8373,11441,10433,10333,10504,11591,10926,12174,,,,
Belgium,Operator Holding Account,ArcelorMittal Belgium,Boulevard de l'Impératrice 66,Bruxelles,35745,35746,35746,36986,36986,36986,36987,36987,30435,29906,29371,28831,28285,27733,27174,26614,22826,24453,26469,27209,21965,27201,28589,21169,25130,26432,24934,24705,,,,,22826,24453,26469,27209,21965,27201,28589,21169,25130,26432,24934,24705,,,,
Belgium,Operator Holding Account,ArcelorMittal Belgium,Boulevard de l'Impératrice 66,Bruxelles,27651,27651,27651,24969,24970,24970,24970,24970,21151,20784,20412,20036,19657,28887,28306,27723,24389,26957,20182,21839,13568,19331,15741,7395,12535,11503,12256,12810,,,,,24389,26957,20182,21839,13568,19331,15741,7395,12535,11503,12256,12810,,,,
Belgium,Operator Holding Account,ArcelorMittal Belgium,Boulevard de l'Impératrice 66,Bruxelles,386946,305257,305257,256816,256817,0,0,0,,,,,,,,,261477,256117,286345,342233,61563,161045,157159,3170,Excluded,Excluded,,,,,,,261477,256117,286345,342233,61563,161045,157159,3170,,,,,,,,
Belgium,Operator Holding Account,ArcelorMittal Belgium,Boulevard de l'Impératrice 66,Bruxelles,692988,542368,542368,616499,616499,0,0,0,0,0,0,0,0,0,0,0,627482,577765,720506,736849,90713,395569,320237,0,Excluded,Excluded,,,,,,,627482,577765,720506,736849,90713,395569,320237,,,,,,,,,
Belgium,Operator Holding Account,ArcelorMittal Belgium,Boulevard de l'Impératrice 66,Bruxelles,560104,541183,541183,496102,496103,166309,166310,166310,11550,10336,9157,0,0,0,0,0,514999,537927,521301,562203,186920,422486,360501,79392,13534,0,0,,,,,,514999,537927,521301,562203,186920,422486,360501,79392,13534,,,,,,,
Belgium,Operator Holding Account,ArcelorMittal Belgium,Boulevard de l'Impératrice 66,Bruxelles,1470799,1134148,1134148,974887,974888,276140,276141,276141,23626,21144,18731,0,0,0,0,0,846207,735901,847936,1279867,275462,402647,400023,24216,22300,45946,2720,,,,,,846207,735901,847936,1279867,275462,402647,400023,24216,22300,45946,2720,,,,,
Belgium,Operator Holding Account,ArcelorMittal Belgium,Boulevard de l'Impératrice 66,Bruxelles,122174,122174,122174,110327,110327,110328,110328,110328,196675,193259,0,0,0,0,0,0,136229,135465,128978,118196,79700,100633,83898,63815,129274,57709,,,,,,,136229,135465,128978,118196,79700,100633,83898,63815,129274,57709,,,,,,
Belgium,Operator Holding Account,ArcelorMittal Belgium,Boulevard de l'Impératrice 66,Bruxelles,55301,55301,55301,47280,47280,47280,47281,47281,41929,41201,22830,22410,38968,38207,37438,36666,38166,47974,47293,44470,28335,36470,32705,24694,23721,17639,19925,27992,,,,,38166,47974,47293,44470,28335,36470,32705,24694,23721,17639,19925,27992,,,,
Belgium,Operator Holding Account,ArcelorMittal Belgium,Boulevard de l'Impératrice 66,Bruxelles,311196,0,0,,,,,,,,,,,,,,143356,0,0,318185,166,0,0,0,,,,,,,,,143356,1,,318185,166,,,,,,,,,,,
Belgium,Operator Holding Account,ArcelorMittal Belgium,Boulevard de l'Impératrice 66,Bruxelles,672954,672954,672954,618204,618205,0,0,0,,,,,,,,,502029,607901,665542,501589,151190,391465,339944,4670,Excluded,Excluded,,,,,,,502029,607901,665542,501589,151190,391465,339944,4670,,,,,,,,
Belgium,Operator Holding Account,ArcelorMittal Belgium,Boulevard de l'Impératrice 66,Bruxelles,173862,147783,147783,122321,122322,0,0,0,131011,0,0,0,0,0,0,0,143752,132800,125011,163999,52847,130195,142255,98639,140,Excluded,,,,,,,143752,132800,125011,163999,52847,130195,142255,98639,140,,,,,,,
Belgium,Operator Holding Account,ArcelorMittal Belgium,Boulevard de l'Impératrice 66,Bruxelles,,,,,,,,,4546893,4467917,4388013,4307276,4225669,4143269,4059840,3976123,,,,,,,,,4053871,4053039,3987758,4528865,,,,,,,,,,,,,4053871,4053039,3987758,4528865,,,,
Belgium,Operator Holding Account,ArcelorMittal Belgium,Boulevard de l'Impératrice 66,Bruxelles,,,,,,,,,2529806,2485866,2441409,2396488,2351084,2305237,2258820,2212241,,,,,,,,,0,0,0,0,,,,,,,,,,,,,,,,,,,,
Belgium,Operator Holding Account,ArcelorMittal Ringmill,Rue de Marnix 3,Seraing,9224,9225,9225,17571,17571,17572,17572,17572,10603,10420,10233,10045,9855,9663,9468,9273,8550,10322,12116,13761,8676,8384,10199,7579,7202,7616,10196,9781,,,,,8550,10322,12116,13761,8676,8384,10199,7579,7202,7616,10196,9781,,,,
Belgium,Operator Holding Account,Argex,Kruibeeksesteenweg 162,Zwijndrecht,,,,64062,64062,64062,64062,64061,33601,33017,32427,31830,31227,30618,30001,29382,,,,56194,48578,45429,60796,49313,63543,55791,47980,66793,,,,,,,,56194,48578,45429,60796,49313,63543,55791,47980,66793,,,,
Belgium,Operator Holding Account,ARLANXEO BELGIUM,Canadastraat 21,Zwijndrecht,158267,190765,186122,124382,124382,0,0,0,,,,,,,,,155089,158423,138070,118794,19650,,,,,,,,,,,,155089,158423,138070,118794,19650,,,,,,,,,,,
Belgium,Operator Holding Account,ARLANXEO BELGIUM,Canadastraat 21,Zwijndrecht,,,,,,,,,128873,126635,124370,122081,119768,117433,115068,112696,,,,,,,,,8907,8308,8448,9499,,,,,,,,,,,,,8907,8308,8448,9499,,,,
Belgium,Operator Holding Account,Armstrong Orchidee,2° Avenue (Parc Industriel des Hauts Sarts) 4,Herstal,6516,6516,6517,,,,,,,,,,,,,,7397,6743,6431,,,,,,,,,,,,,,7397,6743,6431,,,,,,,,,,,,,
Belgium,Operator Holding Account,ASCOVIL,Grand'Route 71,Crisnée,,,,,,,,,1671,1496,1325,1159,999,843,693,548,,,,,,,,,2537,3988,2367,2621,,,,,,,,,,,,,2537,3988,2367,2621,,,,
Belgium,Operator Holding Account,ASFALT PRODUCTIE LIMBURG,Dellestraat 25,Heusden-Zolder,,,,,,,,,3646,3263,2891,2529,2179,1840,1512,1196,,,,,,,,,5431,6051,4098,4103,,,,,,,,,,,,,5431,6051,4098,4103,,,,
Belgium,Operator Holding Account,ASSOCIATED WEAVERS-EUROPE,Weverijstraat 1,Ronse,7522,7522,7523,14914,14914,14914,14913,14913,10708,10522,10333,10143,9951,9757,9560,9364,6298,7077,6981,9469,8947,9120,8048,9263,9174,8937,10535,10618,,,,,6298,7077,6981,9469,8947,9120,8048,9263,9174,8937,10535,10618,,,,
Belgium,Operator Holding Account,Association Copropriétaires du WTC C/O FREPM,Boulevard Saint-Lazare 10,Bruxelles,2570,2570,2570,,,,,,,,,,,,,,2534,2293,1888,,,,,,,,,,,,,,2534,2293,1888,,,,,,,,,,,,,
Belgium,Operator Holding Account,ASWEBO NV,Booiebos 4,Drongen (Gent),,,,,,,,,1530,1369,1212,1061,914,771,635,501,,,,,,,,,4368,3239,3295,2076,,,,,,,,,,,,,4368,3239,3295,2076,,,,
Belgium,Operator Holding Account,ASWEBO NV,Booiebos 4,Drongen (Gent),,,,,,,,,2998,2683,2376,2079,1792,1512,1243,982,,,,,,,,,3324,3155,3983,3664,,,,,,,,,,,,,3324,3155,3983,3664,,,,
Belgium,Operator Holding Account,ASWEBO NV,Booiebos 4,Drongen (Gent),,,,,,,,,3045,2726,2415,2113,1819,1536,1262,998,,,,,,,,,2996,2498,2449,3710,,,,,,,,,,,,,2996,2498,2449,3710,,,,
Belgium,Operator Holding Account,ATLAS COPCO AIRPOWER,Boomsesteenweg 957,Wilrijk,6755,6755,6754,,,,,,,,,,,,,,6120,5742,5422,,,,,,,,,,,,,,6120,5742,5422,,,,,,,,,,,,,
Belgium,Operator Holding Account,ATPC Refinery,Beliweg 22,Antwerpen,57029,57029,57029,49886,49886,49886,49886,49886,39356,38672,37980,37282,36576,35862,35140,34416,64146,59730,61998,56029,59719,44310,42578,40141,34018,36192,35415,42796,,,,,64146,59730,61998,56029,59719,44310,42578,40141,34018,36192,35415,42796,,,,
Belgium,Operator Holding Account,AUDI BRUSSELS,Brits Tweede Legerlaan 201,Forest (Brussel),45810,45810,45810,26968,26615,28140,27639,27639,21596,19327,26053,25573,25089,24599,24104,23607,34928,29671,19968,22468,19811,23685,22104,23176,25340,21098,23515,21858,,,,,34928,29671,19968,22468,19811,23685,22104,23176,25340,21098,23515,21858,,,,
Belgium,Operator Holding Account,AURUBIS BELGIUM,Broekstraat 31,Brussel,,,,0,0,0,0,0,44934,44154,43363,42566,41760,40945,40121,39293,,,,,,38863,35503,36731,38962,37375,40599,42813,,,,,,,,,,38863,35503,36731,38962,37375,40599,42813,,,,
Belgium,Aircraft Operator Account,Aviastar-TU Co. Ltd,Delovaya street 11 bld.1,Moscow,,,,,,,,0,0,0,0,0,0,0,0,0,,,,,,,,146,Excluded,Excluded,56,59,,,,,,,,,,,,146,,,56,59,,,,
Belgium,Operator Holding Account,B.A.S.F. ANTWERPEN,Scheldelaan 600,Antwerpen,381087,381087,384630,2373900,2412049,2409217,2478113,2430586,,,,,,,,,339418,341483,345161,2111038,1898083,2066942,1913047,2036548,,,,,,,,,339418,341483,345161,2111038,1898083,2066942,1913047,2036548,,,,,,,,
Belgium,Operator Holding Account,B.A.S.F. ANTWERPEN,Scheldelaan 600,Antwerpen,153209,153210,153210,66931,66931,66931,0,0,,,,,,,,,75494,37233,49008,41498,40041,19411,,,,,,,,,,,75494,37233,49008,41498,40041,19411,,,,,,,,,,
Belgium,Operator Holding Account,B.A.S.F. ANTWERPEN,Scheldelaan 600,Antwerpen,,,,,,,,,3268095,3211330,3153898,3095869,3037212,2977987,2918023,2857852,,,,,,,,,2875839,2968179,3096621,2973845,,,,,,,,,,,,,2875839,2968179,3096621,2973845,,,,
Belgium,Operator Holding Account,B.A.S.F. ANTWERPEN,Scheldelaan 600,Antwerpen,,,,,,,,,91866,90271,88656,87025,85377,83712,82026,80334,,,,,,,,,127321,113306,107136,120778,,,,,,,,,,,,,127321,113306,107136,120778,,,,
Belgium,Operator Holding Account,B.A.S.F. ANTWERPEN,Scheldelaan 600,Antwerpen,,,,,,,,,46509,45701,44884,44059,43224,42381,41527,40671,,,,,,,,,86362,100812,98582,89523,,,,,,,,,,,,,86362,100812,98582,89523,,,,
Belgium,Operator Holding Account,B.A.S.F. ANTWERPEN,Scheldelaan 600,Antwerpen,,,,,,,,,284241,279304,274310,269261,264160,259009,253793,248561,,,,,,,,,36241,35422,40148,34830,,,,,,,,,,,,,36241,35422,40148,34830,,,,
Belgium,Operator Holding Account,B.I.G. FLOORCOVERINGS,Rijksweg 442,Wielsbeke,10470,10470,10471,25218,25218,25218,25218,25217,6599,4341,0,0,0,0,0,0,6795,7222,6554,11995,10071,10566,9393,9505,3402,5452,,,,,,,6795,7222,6554,11995,10071,10566,9393,9505,3402,5452,,,,,,
Belgium,Operator Holding Account,BALTA INDUSTRIES,Wakkensteenweg 2,Wielsbeke,16744,16744,16744,,,,,,,,,,,,,,12307,15420,16765,,,,,,,,,,,,,,12307,15420,16765,,,,,,,,,,,,,
Belgium,Operator Holding Account,BALTA INDUSTRIES,Wakkensteenweg 2,Wielsbeke,13512,13512,13511,,,,,,,,,,,,,,11875,10898,10412,,,,,,,,,,,,,,11875,10898,10412,,,,,,,,,,,,,
Belgium,Operator Holding Account,BALTA INDUSTRIES,Wakkensteenweg 2,Wielsbeke,,,,,,,,,18178,17862,17542,17220,16894,16564,16230,15896,,,,,,,,,12598,12680,13301,13338,,,,,,,,,,,,,12598,12680,13301,13338,,,,
Belgium,Operator Holding Account,BALTA INDUSTRIES,Wakkensteenweg 2,Wielsbeke,,,,,,,,,13041,12814,12585,12353,12119,11883,11644,11404,,,,,,,,,10587,10857,11537,11804,,,,,,,,,,,,,10587,10857,11537,11804,,,,
Belgium,Operator Holding Account,BALTA OUDENAARDE,"Industriepark ""De Bruwaan"" 4",Oudenaarde,,,,,,,,,,7006,6882,6758,6634,6509,6386,6262,,,,,,,,,,7006,7253,7785,,,,,,,,,,,,,,7006,7253,7785,,,,
Belgium,Operator Holding Account,BAM ASPHALT,Hasseltsesteenweg 172,Sint-Truiden,,,,,,,,,1984,1776,1573,1376,1185,1001,822,650,,,,,,,,,6473,5796,3273,2274,,,,,,,,,,,,,6473,5796,3273,2274,,,,
Belgium,Operator Holding Account,BASF DOW HPPO PRODUCTION,Scheldelaan 600,Antwerpen,,,,,,,,,243864,239629,235344,231012,226637,222216,217742,213252,,,,,,,,,66657,69671,80608,73305,,,,,,,,,,,,,66657,69671,80608,73305,,,,
Belgium,Operator Holding Account,BEKAERT SA/NV,Bekaertstraat 2,Zwevegem,12306,12306,12306,19081,19081,19081,19081,19080,12466,0,0,0,0,0,0,0,8806,8421,7974,16306,12388,14858,12675,8932,4749,,,,,,,,8806,8421,7974,16306,12388,14858,12675,8932,4749,,,,,,,
Belgium,Operator Holding Account,BEKAERT SA/NV,Bekaertstraat 2,Zwevegem,20168,20168,20168,25343,25343,25343,25343,25342,25449,24813,24178,23546,22915,22289,21664,21044,18184,16157,17367,26956,22823,26988,24209,24101,24736,22456,23007,23498,,,,,18184,16157,17367,26956,22823,26988,24209,24101,24736,22456,23007,23498,,,,
Belgium,Operator Holding Account,BELASCO,Christoffel Columbuslaan Z/N,Gent,,,,,,,,,1911,1710,1515,1326,1142,964,792,626,,,,,,,,,3596,3251,2847,3291,,,,,,,,,,,,,3596,3251,2847,3291,,,,
Belgium,Operator Holding Account,BELASCO,Christoffel Columbuslaan Z/N,Gent,,,,,,,,,3456,3093,2740,2398,2067,1747,1437,1138,,,,,,,,,6327,4668,3011,3364,,,,,,,,,,,,,6327,4668,3011,3364,,,,
Belgium,Operator Holding Account,BELGOMILK,Fabriekstraat 141,Kallo (Beveren),36536,36536,36535,40028,40028,40028,40027,40027,20972,19960,21237,20685,20135,19588,19041,18500,35675,35818,34474,30040,32807,26034,25590,26168,23837,25289,25557,27959,,,,,35675,35818,34474,30040,32807,26034,25590,26168,23837,25289,25557,27959,,,,
Belgium,Operator Holding Account,BELGOMILK,Fabriekstraat 141,Kallo (Beveren),33312,33312,33313,30660,30660,62355,52131,53358,25494,24380,23312,22243,21193,20163,19152,18166,33140,32553,35004,33273,40449,46896,45573,45362,49980,49741,50301,54299,,,,,33140,32553,35004,33273,40449,46896,45573,45362,49980,49741,50301,54299,,,,
Belgium,Operator Holding Account,BELREF,Rue de la Rivièrette 100,Saint-Ghislain,14140,14140,14140,7733,7733,7733,7733,7734,7737,7602,7467,7329,2054,0,0,0,8102,8257,7529,11206,4301,2768,6707,9742,5158,5144,4046,2086,,,,,8102,8257,7529,11206,4301,2768,6707,9742,5158,5144,4046,2086,,,,
Belgium,Operator Holding Account,BENEO-ORAFTI,Rue L. Maréchal 1,Oreye,145350,145350,145350,104831,104831,104831,104831,104831,89668,83486,81992,80483,78959,77419,75860,74295,150074,112983,106409,106104,102961,94583,92422,75097,65162,62971,57187,58947,,,,,150074,112983,106409,106104,102961,94583,92422,75097,65162,62971,57187,58947,,,,
Belgium,Operator Holding Account,BFS EUROPE,Groene Dreef 15a,Kruishoutem,,,,,,,,,8690,8539,8386,8232,8077,7918,7759,7599,,,,,,,,,8309,7742,7978,8578,,,,,,,,,,,,,8309,7742,7978,8578,,,,
Belgium,Operator Holding Account,BIOWANZE,Avenue de Tervueren 182,Woluwe-Saint-Pierre (Bruxelles),,,,68989,137978,137978,137978,137978,152512,149858,147205,144551,141897,139243,136590,133936,,,,1813,65151,74930,72400,73080,72311,76926,74441,74638,,,,,,,,1813,65151,74930,72400,73080,72311,76926,74441,74638,,,,
Belgium,Operator Holding Account,Bombardier Transportation Belgium,Marsveldplein 5,Elsene,3874,3874,3875,,,,,,,,,,,,,,2841,2549,2198,,,,,,,,,,,,,,2841,2549,2198,,,,,,,,,,,,,
Belgium,Operator Holding Account,BOORTMALT,Zandvoort 2,Antwerpen,19221,19221,19221,19722,19722,19722,37189,31110,37281,36633,35978,35316,34647,33971,33287,32601,19425,19820,19889,18451,15998,20573,23484,19546,20171,20250,19740,13819,,,,,19425,19820,19889,18451,15998,20573,23484,19546,20171,20250,19740,13819,,,,
Belgium,Operator Holding Account,BOREALIS ANTWERPEN,Industrieweg 148,Beringen,,,,,,,,,2780,2732,2683,2634,2584,2533,2482,2431,,,,,,,,,15,268,12,12,,,,,,,,,,,,,15,268,12,12,,,,
Belgium,Operator Holding Account,BOREALIS ANTWERPEN,Industrieweg 148,Beringen,,,,,,,,,14430,14180,13926,13670,13411,13149,12885,12619,,,,,,,,,3380,2948,3288,3083,,,,,,,,,,,,,3380,2948,3288,3083,,,,
Belgium,Operator Holding Account,Borealis Kallo,Industrieweg 148,Beringen,302048,302048,302048,251385,251385,251385,251385,251386,205370,201803,198194,194547,190862,187140,183371,179590,209281,238864,191918,188203,140418,240927,175840,210743,236454,191433,232522,245761,,,,,209281,238864,191918,188203,140418,240927,175840,210743,236454,191433,232522,245761,,,,
Belgium,Operator Holding Account,BOREALIS POLYMERS,Industrieweg 148,Paal (Beringen),84344,84344,84343,70084,70084,70084,70084,70085,47478,46654,45819,44976,44125,43264,42393,41518,69600,64405,67280,66973,66287,63843,59316,57580,59840,55199,53379,50489,,,,,69600,64405,67280,66973,66287,63843,59316,57580,59840,55199,53379,50489,,,,
Belgium,Operator Holding Account,BP CHEMBEL,Amocolaan 2,Geel,446247,446247,446248,533806,533806,533806,533806,533807,529783,520581,511271,501864,492355,482754,473035,463280,464066,477389,457079,419462,412856,420076,385472,384666,380342,351255,335787,371160,,,,,464066,477389,457079,419462,412856,420076,385472,384666,380342,351255,335787,371160,,,,
Belgium,Operator Holding Account,BRIQUETERIES DE PLOEGSTEERT,Rue du Touquet 228,Bizet (Comines-Warneton),12587,12588,12588,11486,11487,11487,11487,11487,10811,10623,10434,10241,10048,9851,9653,9454,9761,10654,10040,9978,8952,8774,9521,8590,6946,8292,10601,7084,,,,,9761,10654,10040,9979,8952,8774,9521,8589,6946,8292,10601,7084,,,,
Belgium,Operator Holding Account,BRIQUETERIES DE PLOEGSTEERT,Rue du Touquet 228,Bizet (Comines-Warneton),13037,13037,13037,14189,14189,14189,14190,14190,10655,10469,10283,10093,9902,9709,9514,9318,11391,11603,11057,11290,10360,11737,13622,10899,18153,17853,18930,16264,,,,,11391,11603,11057,11290,10360,11737,13623,10898,18153,17853,18930,16264,,,,
Belgium,Operator Holding Account,BRIQUETERIES DE PLOEGSTEERT,Rue du Touquet 228,Bizet (Comines-Warneton),9305,9305,9305,11698,11698,11698,11698,11698,8086,7946,7803,7660,7515,7368,7219,7071,8778,8587,8590,8157,7283,6369,8274,7422,9849,13650,11151,12502,,,,,8778,8587,8590,8158,7283,6369,8274,7421,9849,13650,11151,12502,,,,
Belgium,Operator Holding Account,BRIQUETERIES DE PLOEGSTEERT,Rue du Touquet 228,Bizet (Comines-Warneton),5905,5905,5905,6333,6333,6333,6334,6334,821,807,0,0,0,0,0,0,5498,5911,6149,5778,4800,5558,4512,7,0,0,,,,,,,5498,5911,6149,5778,4800,5558,4513,8,,,,,,,,
Belgium,Operator Holding Account,BROUWERIJ HAACHT,Provinciesteenweg 28,Boortmeerbeek,6217,6217,6216,6217,6217,6217,6217,6217,3834,3431,3040,2659,2291,1935,1589,1257,7975,8724,8418,7914,5886,5834,5829,5852,5584,5114,5275,5326,,,,,7975,8724,8418,7914,5886,5834,5829,5852,5584,5114,5275,5326,,,,
Belgium,Operator Holding Account,Bruda,Bruelstraat 77,Brussel-Haren,,,,,,,,,,,,,,,,,,951,1747,,,,,,,,,,,,,,,951,1747,,,,,,,,,,,,,
Belgium,Aircraft Operator Account,BRUSSELS AIRLINES,Jaargetijdenlaan 100 - 102 Box 30,Elsene (Brussel),,,,,,,,618266,279425,279425,279425,279425,279425,279425,279425,279425,,,,,,,,697217,594504,631108,682940,696056,,,,,,,,,,,,697217,,1225612,682940,696056,,,,
Belgium,Operator Holding Account,BRUSSELS AIRPORT COMPANY,Auguste Reyerslaan 80,Schaarbeek,,,,,,,,,11304,10117,8960,7840,6754,5703,4686,3707,,,,,,,,,12715,9618,11234,11700,,,,,,,,,,,,,12715,9618,11234,11700,,,,
Belgium,Operator Holding Account,BURGO ARDENNES,Rue de la Papeterie 1,Virton,154683,154683,154683,96857,96857,96857,96858,96858,161772,158962,156120,153246,150342,147411,144444,141465,120890,114769,98349,96708,102581,112437,106671,126702,112748,93352,127791,124944,,,,,120890,114769,98349,96708,102581,112437,106671,126702,112748,93352,127791,124944,,,,
Belgium,Aircraft Operator Account,C.A.L. - CARGO AIR LINES LTD.,1 Hayarden St. P.O.B. 271,"Airport City, Ben Gurion Airport",,,,,,,,195546,1103,1103,1103,1103,1103,1103,1103,1103,,,,,,,,125830,11259,9897,11993,12383,,,,,,,,,,,,125830,,21156,11993,12383,,,,
Belgium,Operator Holding Account,CARGILL,Muisbroeklaan 43,Antwerpen,35903,35903,35904,30168,30168,30168,30168,30169,18980,18521,18671,18328,17981,17630,17275,16919,39811,33023,26919,26136,22386,23913,22520,22646,22202,22874,21765,22049,,,,,39811,33023,26919,26136,22386,23913,22520,22646,22202,22874,21765,22049,,,,
Belgium,Operator Holding Account,CARGILL,Muisbroeklaan 43,Antwerpen,81180,81180,81179,84894,84894,84894,84895,84895,41307,40590,39863,39131,38389,37640,36882,36122,41809,58987,77973,32518,52194,50974,47256,49236,44931,47273,49556,51469,,,,,41809,58987,77973,32518,52194,50974,47256,49236,44931,47273,49556,51469,,,,
Belgium,Operator Holding Account,CARGILL,Muisbroeklaan 43,Antwerpen,19219,19219,19220,50374,50846,50846,50846,51133,18051,16154,21779,21386,20994,20601,20208,19816,7683,5203,36899,40260,34031,35603,34748,35615,39700,36476,34272,31291,,,,,7683,5203,36899,40260,34031,35603,34748,35615,39700,36476,34272,31291,,,,
Belgium,Operator Holding Account,Cargill France sas,Rue des Gaudines 18-20,Saint-Germain en Laye,17414,17414,17413,20129,20129,20129,20130,20130,13700,13462,13221,12978,12732,12484,12232,11980,16333,15876,17225,16879,18095,15820,16050,16298,15517,15849,16297,16353,,,,,16333,15876,17225,16879,18095,15820,16050,16298,15517,15849,16297,16353,,,,
Belgium,Operator Holding Account,CARMEUSE,Rue du Château 13a,Seilles (Andenne),583392,583393,583393,629079,629080,629080,629080,629080,469392,461239,452991,444656,436231,427725,419112,410470,467588,512038,509144,553909,410287,470095,465485,388674,399064,472153,494112,488041,,,,,467588,512038,509144,553909,410287,470095,465485,388674,399064,472153,494112,488041,,,,
Belgium,Operator Holding Account,CARMEUSE,Rue du Château 13a,Seilles (Andenne),318506,318505,318505,284449,284450,284450,284450,284450,252902,248509,244065,239574,235035,230452,225812,221155,269713,293107,303474,271914,282534,228353,259062,236072,266410,299355,290301,189758,,,,,269713,293107,303474,271914,282534,228353,259062,236072,266410,299355,290301,189758,,,,
Belgium,Operator Holding Account,CARMEUSE,Rue du Château 13a,Seilles (Andenne),161840,161840,161840,145655,145656,145656,145656,145656,100016,49140,0,0,46475,45569,44652,43731,130160,153428,85706,91857,0,8831,55681,62118,33128,0,1393,30350,,,,,130160,153428,85706,91857,,8831,55681,62118,33128,,1393,30350,,,,
Belgium,Operator Holding Account,CARRIERES ET FOURS A CHAUX DUMONT-WAUTIER,Rue Charles Dubois 28,Limelette (Ottignies-Louvain-la-Neuve),1517861,1517861,1517861,1247625,1247626,1247626,1247626,1247626,942466,926097,909535,892800,744605,730086,715384,700633,1294087,1287681,1311903,1240023,870400,1179141,1146381,1093653,1158192,1118836,1091338,1025347,,,,,1294087,1287681,1311903,1240023,870400,1179141,1146381,1093653,1158192,1118836,1091338,1025347,,,,
Belgium,Operator Holding Account,CARSID,Rue de Marchienne 42,Marcinelle,411624,411624,411624,364644,364644,364644,364644,364644,,,,,,,,,359331,354522,213658,245426,0,0,0,0,Excluded,,,,,,,,359331,354522,213658,247049,,,,,,,,,,,,
Belgium,Operator Holding Account,CARSID,Rue de Marchienne 42,Marcinelle,666420,666420,666420,590778,590779,590779,590779,590779,,,,,,,,,551900,567191,350498,380522,0,0,0,0,,,,,,,,,551900,567191,350498,421114,,,,,,,,,,,,
Belgium,Operator Holding Account,CARSID,Rue de Marchienne 42,Marcinelle,1643835,1643835,1643835,1365711,1365711,1365712,1365712,1365712,,,,,,,,,308122,627580,982958,1264614,4881,0,0,0,,,,,,,,,308122,627580,982958,1264614,4881,,,,,,,,,,,
Belgium,Operator Holding Account,CARSID,Rue de Marchienne 42,Marcinelle,135714,135714,135714,69691,0,0,0,0,,,,,,,,,129880,129006,114607,2828,,,,,,,,,,,,,129880,129006,114607,2828,,,,,,,,,,,,
Belgium,Operator Holding Account,CARSID,Rue de Marchienne 42,Marcinelle,927660,927660,927660,1112462,1112462,1112462,1112462,1112462,0,0,0,0,0,0,0,0,682335,640454,375381,520896,1243,0,0,0,0,Excluded,Excluded,,,,,,682335,640454,375381,520896,1243,,,,,,,,,,,
Belgium,Operator Holding Account,CATERPILLAR-BELGIUM,Avenue des Etats-Unis 1,Gosselies (Charleroi),55505,55505,55505,51578,51578,51578,51579,51579,37048,36405,35754,35096,34430,33759,33080,32397,46078,41235,38945,40724,27857,31748,25901,23818,20471,15620,15778,19268,,,,,46078,41235,38945,40724,27857,31748,25901,23818,20471,15620,15778,19268,,,,
Belgium,Operator Holding Account,CELANESE PRODUCTION BELGIUM,"Industrieweg, 80",Lanaken,64072,64072,75952,69814,69814,69814,69814,69813,51532,50638,49733,48817,47893,46958,46013,45064,61290,53874,55507,62411,56041,57379,61164,71982,73983,69208,49027,49500,,,,,61290,53874,55507,62411,56041,57379,61164,71982,73983,69208,49027,49500,,,,
Belgium,Operator Holding Account,Chemviron Carbon,Zoning Industriel de Feluy  Zone C,Feluy,23409,23408,23408,19196,19196,19196,28009,28009,31702,31151,30594,30032,29462,28888,28306,27723,14651,14761,14337,13032,13916,13100,14897,14879,48581,47841,52480,50625,,,,,14651,14761,14337,13032,13916,13115,14882,14879,48581,47841,52480,50625,,,,
Belgium,Operator Holding Account,CIMENTERIES CBR CEMENTBEDRIJVEN,Chaussée de la Hulpe 185,Watermael-Boitsfort (Bruxelles),930933,930933,930933,760340,760340,760340,760340,760341,649738,638452,627034,615497,603836,592061,580140,568177,608635,710345,706775,695438,643163,511558,633064,619600,624705,642502,577870,644432,,,,,608635,710345,706775,695438,643163,511558,633064,619600,624705,642502,577870,644432,,,,
Belgium,Operator Holding Account,CIMENTERIES CBR CEMENTBEDRIJVEN,Chaussée de la Hulpe 185,Watermael-Boitsfort (Bruxelles),263463,263464,263464,194637,194637,194637,194637,194637,146525,143979,0,0,0,0,0,0,171567,173191,214703,155095,199604,200364,193727,206968,143154,80830,,,,,,,171567,173191,214703,155095,199604,200364,193727,206968,143154,80830,,,,,,
Belgium,Operator Holding Account,CIMENTERIES CBR CEMENTBEDRIJVEN,Chaussée de la Hulpe 185,Watermael-Boitsfort (Bruxelles),1304487,1304487,1304487,1127869,1127869,1127869,1127869,1127870,982587,965521,948253,930806,913171,895364,877335,859244,1059929,1250666,1165459,1139474,955732,917216,894070,868427,940962,987407,940051,984128,,,,,1059929,1250666,1165459,1139474,955732,917216,894070,868427,940962,987407,940051,984128,,,,
Belgium,Operator Holding Account,CIMENTERIES CBR CEMENTBEDRIJVEN,Chaussée de la Hulpe 185,Watermael-Boitsfort (Bruxelles),,,,4147,4147,0,0,0,,,,,,,,,,,,5850,4157,,,,,,,,,,,,,,,5850,4157,,,,,,,,,,,
Belgium,Operator Holding Account,CITRIQUE BELGE - TIENEN,Pastorijstraat 249,Tienen,82684,82684,82684,93246,93246,93246,93246,93247,61549,60480,59399,58306,57201,56086,54956,53823,78892,81806,75566,75329,69721,63209,70195,75188,81568,77370,80189,81195,,,,,78892,81806,75566,75329,69721,63209,70195,75188,81568,77370,80189,81195,,,,
Belgium,Operator Holding Account,CL WARNETON,Chaussée de Lille 61,Warneton,,,,,,,,,33177,52341,65846,77649,76223,74798,73372,71947,,,,,,,,,31960,46254,62709,76358,,,,,,,,,,,,,31960,46254,62709,76358,,,,
Belgium,Operator Holding Account,Clarebout Potatoes,Heirweg 26,Heuvelland,34199,34199,34198,43932,43932,47970,52420,52419,25240,31002,30448,29887,29321,28749,28170,27590,21578,23848,26891,30868,27331,33306,41973,43215,40786,42433,31602,42444,,,,,21578,23848,26891,30868,27331,33306,41973,43215,40786,42433,31602,42444,,,,
Belgium,Operator Holding Account,CMI,Avenue Greiner  1,Seraing,4499,4498,4498,4011,4011,0,0,0,,,,,,,,,4375,3617,2852,3041,,,,,,,,,,,,,4375,3617,2852,3041,,,,,,,,,,,,
Belgium,Operator Holding Account,CNH INDUSTRIAL BELGIUM,Léon Claeysstraat 3A,Zedelgem,11001,11001,11002,,,,,,,,,,,,,,8511,8312,7832,,,,,,,,,,,,,,8511,8312,7832,,,,,,,,,,,,,
Belgium,Operator Holding Account,Coca-Cola Enterprises Belgium,Bergensesteenweg 1424,Anderlecht,7322,7322,7322,8255,8255,0,0,0,,,,,,,,,8760,7853,6691,6857,,,,,,,,,,,,,8760,7853,6691,6857,,,,,,,,,,,,
Belgium,Operator Holding Account,COLAS BELGIUM,Rue Nestor Martin 313,Berchem-Sainte-Agathe,,,,,,,,,1704,1526,0,0,0,0,0,0,,,,,,,,,2570,17,,,,,,,,,,,,,,,2570,17,,,,,,
Belgium,Operator Holding Account,COLAS BELGIUM,Rue Nestor Martin 313,Berchem-Sainte-Agathe,,,,,,,,,3676,3291,2913,2550,2197,1854,1524,1206,,,,,,,,,4607,3632,3323,3573,,,,,,,,,,,,,4607,3632,3323,3573,,,,
Belgium,Operator Holding Account,Colt Technology Services,Culliganlaan 2H,Machelen,,,,,,,,,,,,,,,,,,,,,,,,,,68,72,94,,,,,,,,,,,,,,68,72,94,,,,
Belgium,Operator Holding Account,"COMPAGNIE DES CIMENTS BELGES, C.C.B.",Grand'Route 260,Gaurain (Tournai),1490571,1490571,1490571,1470437,1470437,1470437,1470437,1470438,1255337,1233499,1211406,1189083,1166522,1143743,1120679,1097540,1511543,1459329,1449612,1425171,1313762,1272210,1333035,1236492,1140875,1302434,1062154,1069571,,,,,1511543,1459329,1449612,1425171,1313762,1272210,1333035,1236492,1140875,1302434,1062154,1069571,,,,
Belgium,Operator Holding Account,CONCORDIA TEXTILES,Flanders- Fieldweg 37,Waregem,8477,8477,8477,,,,,,,,,,,,,,8379,8187,8481,,,,,,,,,,,,,,8379,8187,8481,,,,,,,,,,,,,
Belgium,Operator Holding Account,CONCORDIA TEXTILES,Flanders Fieldweg 37,Waregem,,,,,,,,,9616,9449,9280,9109,8937,8763,8586,8409,,,,,,,,,9349,9012,9587,9098,,,,,,,,,,,,,9349,9012,9587,9098,,,,
Belgium,Operator Holding Account,COSUCRA-GROUPE WARCOING,Rue de la Sucrerie 1,Warcoing (Pecq),67945,67945,67945,54071,54071,54071,54071,54072,35362,34748,34126,33499,32864,32223,31574,30924,54914,41381,35259,29629,27414,25623,18830,16137,22372,30229,26553,27768,,,,,54914,41381,35259,29629,27414,25623,18830,16137,22372,30229,26553,27768,,,,
Belgium,Operator Holding Account,COVESTRO,Haven 507 - Scheldelaan 420,Antwerpen,,,,,,,,,95377,93720,92045,90351,88639,86910,85160,83404,,,,,,,,,59033,49277,45448,60874,,,,,,,,,,,,,59033,49277,45448,60874,,,,
Belgium,Operator Holding Account,COVESTRO,Haven 507 - Scheldelaan 420,Antwerpen,,,,,,,,,116935,114905,112850,110774,108675,106556,104410,102257,,,,,,,,,10454,11277,94753,88690,,,,,,,,,,,,,10454,11277,94753,88690,,,,
Belgium,Operator Holding Account,CRYSTAL COMPUTING,Rue de Ghlin 100,Baudour (Saint-Ghislain),,,,,,,,,,,,,,,,,,,,,,,,,26,591,294,92,,,,,,,,,,,,,26,591,294,95,,,,
Belgium,Operator Holding Account,DE POORTERE FRERES SA,Boulevard Industriel 97,Mouscron,13000,13000,13000,,,,,,,,,,,,,,4750,3853,13000,,,,,,,,,,,,,,4750,3853,13000,,,,,,,,,,,,,
Belgium,Operator Holding Account,DECKX ALGEMENE ONDERNEMINGEN,Goormansdijk 15,Dessel,,,,,,,,,1479,1323,1172,1025,883,746,613,484,,,,,,,,,2023,1968,2073,2438,,,,,,,,,,,,,2023,1968,2073,2438,,,,
Belgium,Operator Holding Account,DECKX ALGEMENE ONDERNEMINGEN,Goormansdijk 15,Dessel,,,,,,,,,1303,1168,1035,904,779,658,541,427,,,,,,,,,1079,1277,1288,2182,,,,,,,,,,,,,1079,1277,1288,2182,,,,
Belgium,Operator Holding Account,Descamps Belgium,Galgestraat 157,Oudenaarde,7854,7854,7855,9095,9095,9095,9095,9096,6997,0,0,0,0,0,0,0,7779,6701,5798,6594,6348,6456,5035,2948,2347,,,,,,,,7779,6701,5798,6594,6348,6456,5035,2948,2347,,,,,,,
Belgium,Operator Holding Account,DESSOL BELGIUM,Robert Ramlotstraat 89,Dendermonde,,,,,,,,,,,6074,5964,5855,5745,5636,5526,,,,,,,,,,,6448,5795,,,,,,,,,,,,,,,6448,5795,,,,
Belgium,Operator Holding Account,Desta,Heerle 11,Hoogstraten,10311,10311,10310,11697,11697,11697,11696,11696,5907,5805,5701,5596,5491,5384,5275,5166,5434,6132,7029,6853,7021,7117,6117,4842,4142,4228,4485,4966,,,,,5434,6132,7029,6853,7021,7117,6117,4842,4142,4228,4485,4966,,,,
Belgium,Operator Holding Account,DOLOMIES DE MARCHE-LES-DAMES,Rue Charles Dubois 28,Limelette (Ottignies-Louvain-la-Neuve),581334,581334,581334,504119,528323,528324,528324,528324,299934,209820,206068,202276,198444,194574,190657,186725,466829,483314,466796,478173,218873,244135,298358,302883,247335,251049,228599,223513,,,,,466829,483314,466796,478173,218873,244135,298358,302883,247335,251049,228599,223513,,,,
Belgium,Operator Holding Account,DOMO GENT,Nederzwijnaarde 2,Gent-Zwijnaarde,23432,23432,23433,32351,32351,32351,32350,32350,,,,,,,,,24603,25386,21990,17891,11072,11430,12149,7366,,,,,,,,,24603,25386,21990,17891,11072,11573,12006,7366,,,,,,,,
Belgium,Operator Holding Account,DOW BELGIUM,Havenlaan 7,Tessenderlo,28834,28834,28835,29434,29434,29434,29435,29435,20831,0,0,0,0,0,0,0,30214,33132,31821,31394,31146,25787,22281,25804,7051,,,,,,,,30214,33132,31821,31394,31146,25787,22281,25804,7051,,,,,,,
Belgium,Operator Holding Account,DUCATT,Balendijk 161,Lommel,,,,,,,,,44298,43529,42751,41964,41169,40366,39554,38738,,,,,,,,,21016,30285,36716,38788,,,,,,,,,,,,,21016,30285,36716,38788,,,,
Belgium,Operator Holding Account,Duferco Belgium,Rue Anna Boch 34,La Louvière,162500,162500,162500,127510,127511,127511,127511,127511,99151,30919,0,0,0,0,0,0,91992,99350,107602,95410,122901,80061,78822,74279,4460,0,,,,,,,91992,99350,107602,95410,122901,80061,78822,74279,4460,,,,,,,
Belgium,Operator Holding Account,DUMOULIN BRICKS,Moorseelsesteenweg 239,Roeselare-Rumbeke,,,,,,,,13760,19118,18786,18452,18120,17788,17455,17122,16789,,,,,,,,12395,20163,23584,22144,27660,,,,,,,,,,,,12395,20163,23584,22144,27660,,,,
Belgium,Operator Holding Account,DUROBOR GROUP,Rue Mademoiselle Hanicq 39,Soignies,42186,42185,42185,28466,28466,28466,28466,28467,24760,24329,23894,23455,23010,22562,22107,21652,31512,30199,31240,32197,31639,26711,25069,19870,18999,16250,17155,18155,,,,,31512,30199,31240,32197,31639,26711,25069,19870,18999,16250,17155,18155,,,,
Belgium,Operator Holding Account,DYNEA,Moervaartkaai 7,Gent,,,,,,,,,11648,11404,11159,10915,10669,10422,10174,9928,,,,,,,,,3866,3940,4100,3947,,,,,,,,,,,,,3866,3940,4100,3947,,,,
Belgium,Operator Holding Account,ECOFROST,Rue de l'Europe 34,Peruwelz,,,,,,,,,,,,0,30324,23606,23156,22706,,,,,,,,,,,,6644,,,,,,,,,,,,,,,,6644,,,,
Belgium,Operator Holding Account,Edel,Rue Cafea 1,Grâce Hollogne,19673,19673,19673,23071,23071,23071,23071,23072,20287,18155,16081,14070,12120,10235,8409,6653,16824,21043,22743,22618,22876,23954,24728,24531,15126,13362,12838,15612,,,,,16824,21043,22743,22618,22876,23954,24728,24531,15126,13362,12838,15612,,,,
Belgium,Operator Holding Account,EDF LUMINUS,Rue du Marquis 1,Bruxelles,887225,887225,887226,807066,807066,807066,807066,807067,,,,,,,,,935499,708055,619214,804564,858605,856654,443188,718358,708010,670058,620783,550079,,,,,935499,708055,619214,804564,858605,856654,443188,718358,708010,670058,620783,550079,,,,
Belgium,Operator Holding Account,EDF LUMINUS,Rue du Marquis 1,Bruxelles,176510,306913,306913,169194,376044,307346,307346,307346,24924,21224,17845,14782,12019,9547,7798,6176,178699,114232,108294,132054,254547,188772,88436,52264,48042,35427,125737,82112,,,,,178699,114232,108294,132054,254547,188772,88436,52264,48042,35427,125737,82112,,,,
Belgium,Operator Holding Account,EDF LUMINUS,Rue du Marquis 1,Bruxelles,28953,28953,28952,0,0,0,0,0,,,,,,,,,36897,5712,10883,46888,3843,8699,5368,2756,,,,,,,,,36897,5712,10883,46888,3843,8699,5368,2756,,,,,,,,
Belgium,Operator Holding Account,EDF LUMINUS,Rue du Marquis 1,Bruxelles,95488,95488,95488,,60286,30143,30143,30143,,,,,,,,,100659,98099,15915,9280,11950,4922,701,426,128,76,891,207,,,,,100659,98099,15915,9280,11950,4922,701,426,128,76,891,207,,,,
Belgium,Operator Holding Account,EDF LUMINUS,Rue du Marquis 1,Bruxelles,174511,174510,174510,0,0,0,0,288047,,,,,,,,,115801,78849,103220,113471,165518,97642,24800,27124,25776,62453,44130,24957,,,,,115801,78849,103220,113471,165518,97642,24800,27124,25776,62453,44130,24957,,,,
Belgium,Operator Holding Account,EDF LUMINUS,Rue du Marquis 1,Bruxelles,5658,5657,5657,0,0,0,0,0,,,,,0,0,0,0,908,1272,2191,639,3406,2096,1138,1244,4077,0,0,0,,,,,908,1272,2191,639,3406,2096,1138,1244,4077,,,,,,,
Belgium,Operator Holding Account,EDF LUMINUS,Rue du Marquis 1,Bruxelles,893750,893751,893751,1039918,1039918,1039918,1039919,1039919,,,,,,,,,825175,819890,828845,668828,718688,899005,436655,132729,145802,46536,2689,3779,,,,,825175,819890,828845,668828,718688,899005,436655,132729,145802,46536,2689,3779,,,,
Belgium,Operator Holding Account,EDF LUMINUS,Rue du Marquis 1,Bruxelles,,,,0,0,24145,11915,11915,,,,,,,,,,,,,23051,44819,42311,35676,45380,45217,44488,38181,,,,,,,,,23051,44819,42311,35676,45380,45217,44488,38181,,,,
Belgium,Aircraft Operator Account,EGYPTAIR,"Cairo Airport Road, EGYPTAIR Adm. Building",Le Caire,,,,,,,,70505,309,309,309,309,309,309,309,309,,,,,,,,53938,1086,1200,1415,1340,,,,,,,,,,,,53938,,2286,1415,1340,,,,
Belgium,Operator Holding Account,ELECTRABEL,Simon Bolivarlaan 34,Brussel,,,,,,,,,,,,,,,,,,,,,19324,3039920,3964809,4318772,4649964,4362139,4568881,4631822,,,,,,,,,19324,3039920,3964809,4318772,4649964,4362139,4568881,4631822,,,,
Belgium,Operator Holding Account,ELECTRABEL,Simon Bolivarlaan 34,Brussel,,,,0,0,0,542632,272245,,,,,,,,,,,,,102777,228565,210352,219093,226020,200270,231416,220605,,,,,,,,,102777,228565,210352,219093,226020,200270,231416,220605,,,,
Belgium,Operator Holding Account,ELECTRABEL,Simon Bolivarlaan 34,Brussel,2060,2060,2060,521,521,521,521,521,,,,,0,0,0,0,797,669,641,170,119,431,903,603,58,161,592,157,,,,,797,669,641,170,119,431,903,603,58,161,592,157,,,,
Belgium,Operator Holding Account,ELECTRABEL,Simon Bolivarlaan 34,Brussel,1630,1630,1630,392,392,392,0,0,,,,,,,,,358,149,240,17,0,,,,,,,,,,,,358,149,240,17,,,,,,,,,,,,
Belgium,Operator Holding Account,ELECTRABEL,Simon Bolivarlaan 34,Brussel,2170,2170,2170,793,793,793,794,794,,,,,,,,,955,301,301,72,223,613,666,537,61,117,544,298,,,,,955,301,301,72,223,613,666,537,61,117,544,298,,,,
Belgium,Operator Holding Account,ELECTRABEL,Simon Bolivarlaan 34,Brussel,,,,,,,,,,,,,,,,,1531,,,,,,,,,,,,,,,,1531,,,,,,,,,,,,,,,
Belgium,Operator Holding Account,ELECTRABEL,Simon Bolivarlaan 34,Brussel,39460,39460,39459,4838,4838,4838,4837,4837,,,,,,,,,7852,6109,4899,2961,4097,4451,13980,3323,4190,8680,3376,,,,,,7852,6109,4899,2961,4097,4451,13980,3323,4190,8680,3376,,,,,
Belgium,Operator Holding Account,ELECTRABEL,Simon Bolivarlaan 34,Brussel,858011,858011,858010,990397,990397,990397,990398,990398,,,,,,,,,1112264,1015021,1022042,1085832,1074332,1029095,707802,429169,320545,157606,329818,186152,,,,,1112264,1015021,1022042,1085832,1074332,1029095,707802,429169,320545,157606,329818,186152,,,,
Belgium,Operator Holding Account,ELECTRABEL,Simon Bolivarlaan 34,Brussel,952853,952853,952854,990397,990397,990397,990398,990398,,,,,,,,,806612,846536,878277,793015,1070071,1104311,555557,439382,528339,336903,390153,591636,,,,,806612,846536,878277,793015,1070071,1104311,555557,439382,528339,336903,390153,591636,,,,
Belgium,Operator Holding Account,ELECTRABEL,Simon Bolivarlaan 34,Brussel,404716,404716,404715,0,0,0,0,0,,,,,,,,,755154,653388,574098,278932,335700,189760,3988,0,,,,,,,,,755154,653388,574098,278932,335700,189760,3988,,,,,,,,,
Belgium,Operator Holding Account,ELECTRABEL,Simon Bolivarlaan 34,Brussel,573590,573590,573589,0,0,0,0,0,,,,,,,,,1209419,953190,976785,572946,285561,161789,1491,0,Excluded,,,,,,,,1209419,953190,976785,572946,285561,161789,1491,,,,,,,,,
Belgium,Operator Holding Account,ELECTRABEL,Simon Bolivarlaan 34,Brussel,444666,444666,444667,0,0,0,0,0,,,,,,,,,4570337,4436024,4138378,3786431,2759887,846231,130692,239530,30009,380104,4712,429287,,,,,4570337,4436024,4138378,3786431,2759887,846231,130692,239530,30009,380104,4712,429287,,,,
Belgium,Operator Holding Account,ELECTRABEL,Simon Bolivarlaan 34,Brussel,1281918,1281918,1281919,0,0,0,0,0,,,,,,,,,2770775,2310547,2362930,1862809,2278717,1773338,1338058,851970,255881,,,,,,,,2770775,2310547,2362930,1862809,2278717,1773338,1338058,851970,255881,,,,,,,
Belgium,Operator Holding Account,ELECTRABEL,Simon Bolivarlaan 34,Brussel,266774,266774,266775,167432,167432,167432,167432,167432,,,,,,,,,216212,232476,206426,222401,193795,63916,34572,3321,,,,,,,,,216212,232476,206426,222401,193795,63916,34572,3321,,,,,,,,
Belgium,Operator Holding Account,ELECTRABEL,Simon Bolivarlaan 34,Brussel,147,147,147,323,323,323,323,323,,,,,,,,,646,656,678,282,698,1078,1154,465,44,106,440,542,,,,,646,656,678,282,698,1078,1154,465,44,106,440,542,,,,
Belgium,Operator Holding Account,ELECTRABEL,Simon Bolivarlaan 34,Brussel,423,423,423,574,574,574,574,575,,,,,,,,,1680,1049,1436,967,560,2744,2029,212,232,465,977,1660,,,,,1680,1049,1436,967,560,2744,2029,212,232,465,977,1660,,,,
Belgium,Operator Holding Account,ELECTRABEL,Simon Bolivarlaan 34,Brussel,204,204,205,323,323,323,323,323,,,,,,,,,909,409,592,339,695,1093,1016,681,73,160,601,592,,,,,909,409,592,339,695,1093,1016,681,73,160,601,592,,,,
Belgium,Operator Holding Account,ELECTRABEL,Simon Bolivarlaan 34,Brussel,113,113,113,323,323,323,323,323,,,,,,,,,306,687,689,364,920,1095,818,593,89,167,455,647,,,,,306,687,689,364,920,1095,818,593,89,167,455,647,,,,
Belgium,Operator Holding Account,ELECTRABEL,Simon Bolivarlaan 34,Brussel,106,106,107,323,323,323,323,323,,,,,,,,,510,394,654,325,817,1363,565,430,107,211,382,486,,,,,510,394,654,325,817,1363,565,430,107,211,382,486,,,,
Belgium,Operator Holding Account,ELECTRABEL,Simon Bolivarlaan 34,Brussel,145,145,144,323,323,323,323,323,,,,,,,,,916,776,705,169,927,1571,898,556,92,168,385,707,,,,,916,776,705,169,927,1571,898,556,92,168,385,707,,,,
Belgium,Operator Holding Account,ELECTRABEL,Simon Bolivarlaan 34,Brussel,623143,623143,623143,0,0,1764068,969837,969837,,,,,,,,,610146,573657,416837,371719,780441,817864,652747,761964,737653,967566,887735,945263,,,,,610146,573657,416837,371719,780441,817864,652747,761964,737653,967566,887735,945263,,,,
Belgium,Operator Holding Account,ELECTRABEL,Simon Bolivarlaan 34,Brussel,680027,680028,680028,791242,791242,791242,791242,791243,,,,,,,,,748004,833301,874994,666328,741196,896298,899193,232291,445977,467095,522076,489459,,,,,748004,833301,874994,666328,741196,896298,899193,232291,445977,467095,522076,489459,,,,
Belgium,Operator Holding Account,ELECTRABEL,Simon Bolivarlaan 34,Brussel,9679,9678,9678,8823,8824,8824,0,0,,,,,,,,,7584,6849,6906,5238,0,0,,,,,,,,,,,7584,6849,6906,5238,,,,,,,,,,,,
Belgium,Operator Holding Account,ELECTRABEL,Simon Bolivarlaan 34,Brussel,808261,808262,808262,36171,36171,36171,36171,36171,,,,,,,,,394640,235113,360072,78637,375063,203137,13703,33898,4989,4584,3031,5907,,,,,394640,235113,360072,78637,375063,203137,13703,33898,4989,4584,3031,5907,,,,
Belgium,Operator Holding Account,ELECTRABEL,Simon Bolivarlaan 34,Brussel,220000,220000,220000,,,,,,,,,,,,,,1260520,951257,337,,,,,,,,,,,,,,1260520,951257,337,,,,,,,,,,,,,
Belgium,Operator Holding Account,ELECTRABEL,Simon Bolivarlaan 34,Brussel,1722,1722,1722,0,0,0,0,0,,,,,,,,,1144,866,702,414,594,1053,652,424,55,121,372,692,,,,,1144,866,702,414,594,1053,652,424,55,121,372,692,,,,
Belgium,Operator Holding Account,ELECTRABEL,Simon Bolivarlaan 34,Brussel,1676,1676,1676,0,0,0,0,0,,,,,,,,,1033,370,679,396,1208,1122,835,459,65,153,539,515,,,,,1033,370,679,396,1208,1122,835,459,65,153,539,515,,,,
Belgium,Operator Holding Account,ELECTRABEL,Simon Bolivarlaan 34,Brussel,1703,1702,1702,0,0,0,0,0,,,,,0,0,0,0,899,535,769,377,374,1340,797,646,53,168,604,157,,,,,899,535,769,377,374,1340,797,646,53,168,604,157,,,,
Belgium,Operator Holding Account,ELECTRABEL,Simon Bolivarlaan 34,Brussel,215520,215520,215520,223294,223294,223294,223295,223295,,,,,,,,,165610,175997,170377,182709,199628,203296,202004,196290,169460,185951,35935,95336,,,,,165610,175997,170377,182709,199628,203296,202004,196290,169460,185951,35935,95336,,,,
Belgium,Operator Holding Account,ELECTRABEL,Simon Bolivarlaan 34,Brussel,,,,,,,,,,,,,,,,,0,,,,,,,,,,,,,,,,,,,,,,,,,,,,,,,
Belgium,Operator Holding Account,ELECTRABEL,Boulevard Simon Bolivar 34,Bruxelles,,,,,,,,,,,,,,,,,,,,,,,,,,,8699,2447,,,,,,,,,,,,,,,8699,2447,,,,
Belgium,Operator Holding Account,ELECTRABEL,Boulevard Simon Bolivar 34,Bruxelles,,,,,,,,,,,,,,,,,,,,,,,,,,,1887,1420,,,,,,,,,,,,,,,1887,1420,,,,
Belgium,Operator Holding Account,Electrawinds Biomassa,John Cordierlaan 9,Oostende,,,,,10036,3132,3117,3101,,,,,,,,,,,,5511,3668,2493,2151,2077,Excluded,,,,,,,,,,,5511,3668,2493,2151,2077,,,,,,,,
Belgium,Operator Holding Account,Electrawinds Biostoom,John Cordierlaan 9,Oostende,,,,0,0,0,728,0,,,,,,,,,,,,,1404,810,418,,,,,,,,,,,,,,1404,810,418,,,,,,,,,
Belgium,Operator Holding Account,Electrawinds Greenpower Oostende,Solvaylaan 7,Oostende,,,,0,0,0,320,93,,,,,,,,,,,,,,157,284,83,Excluded,,,,,,,,,,,,,157,284,83,,,,,,,,
Belgium,Operator Holding Account,EM Generation Brussels,Jan Frans Willemsstraat 200,Vilvoorde,850518,850518,850519,828920,828920,828920,828919,828919,,,,,,,,,740313,651303,825661,879029,949819,855910,875532,580255,43638,2620,1179,2057,,,,,740313,651303,825661,879029,949819,855910,875532,580255,43638,2620,1179,2057,,,,
Belgium,Operator Holding Account,EMGO,Balendijk 161,Lommel,86089,86089,86088,53650,53650,53650,53649,53649,,,,,,,,,82088,84929,80486,49263,38826,43008,38777,36309,,,,,,,,,82088,84929,80487,49263,38826,43008,38777,36309,,,,,,,,
Belgium,Operator Holding Account,ENERGIE SERVICES DUFFEL,Roetestraat 41,Duffel,,,,0,0,0,0,24262,6515,5831,5165,4521,3897,3293,2709,2145,,,,,,10969,9953,11407,11240,9760,10156,10238,,,,,,,,,,10969,9953,11407,11240,9760,10156,10238,,,,
Belgium,Operator Holding Account,ENERGIES RENOUVELABLES DES ARDENNES,Zoning Industriel Rouvrou 2,Bertrix,,,,0,0,0,0,5003,,,,,,,,,,,,,,,0,0,,,,,,,,,,,,,,,,,,,,,,,,
Belgium,Operator Holding Account,ENGINEERING STEEL BELGIUM,Rue de l'environnement 8,Seraing,27977,27976,27976,24454,24454,24454,24454,24455,15303,15037,7384,0,0,0,0,0,17571,22110,24134,25006,14366,19758,21271,17260,12891,7814,214,201,,,,,17571,22110,24134,25006,14366,19758,21271,17260,12891,7814,214,201,,,,
Belgium,Operator Holding Account,ESSITY BELGIUM,Rue de la Papeterie 2,Stembert (Verviers),36721,36721,36721,32657,32657,32657,32657,32657,22702,22279,21852,21422,20989,20553,20114,19673,28875,30223,29138,28699,28497,27340,26454,28079,27115,26492,26525,26208,,,,,28875,30223,29138,28699,28497,27340,26454,28079,27115,26492,26525,26208,,,,
Belgium,Operator Holding Account,ETERNIT,Kuiermansstraat 1,Kapelle-op-den-Bos,14138,14138,14139,29752,29752,29752,29751,29751,14053,12577,11140,9747,8396,7090,5825,4609,13216,12110,12665,19809,15664,13591,14140,13469,14350,12659,13959,14751,,,,,13216,12110,12665,19809,15664,13591,14140,13469,14350,12659,13959,14751,,,,
Belgium,Operator Holding Account,EUROCHEM ANTWERPEN,Scheldelaan 600,Antwerpen,,,,,,,,,47196,46376,45547,44708,43861,43006,42140,41271,,,,,,,,,39106,35652,33703,36405,,,,,,,,,,,,,39106,35652,33703,36405,,,,
Belgium,Operator Holding Account,EUROCHEM ANTWERPEN,Scheldelaan 600,Antwerpen,,,,,,,,,62938,61845,60739,59621,58492,57351,56196,55037,,,,,,,,,47548,18299,5415,7397,,,,,,,,,,,,,47548,18299,5415,7397,,,,
Belgium,Operator Holding Account,EUROCHEM ANTWERPEN,Scheldelaan 600,Antwerpen,,,,,,,,,109510,107608,105684,103739,101774,99789,97780,95764,,,,,,,,,123106,143590,130522,91072,,,,,,,,,,,,,123106,143590,130522,91072,,,,
Belgium,Operator Holding Account,EUROCHEM ANTWERPEN,Scheldelaan 600,Antwerpen,,,,,,,,,106747,104893,103017,101122,99206,97271,95313,93347,,,,,,,,,202453,149150,54486,59536,,,,,,,,,,,,,202453,149150,54486,59536,,,,
Belgium,Operator Holding Account,EVAL EUROPE,"Haven 1053 - Nieuwe Weg 1, Bus 10",Zwijndrecht,,,,,,,,,73949,72664,71365,70052,68725,67385,66028,64667,,,,,,,,,637,1053,1038,764,,,,,,,,,,,,,637,1053,1038,764,,,,
Belgium,Operator Holding Account,EVONIK ANTWERPEN,Tijsmanstunnel-West Z/N,Antwerpen,352895,352895,352896,516619,516619,573757,610630,610629,423960,416597,409145,401618,394008,386326,378546,370740,269929,299118,301337,357233,353627,445860,503509,496832,498451,530252,537854,534504,,,,,269929,299118,301337,357233,353627,445860,503509,496832,498451,530252,537854,534504,,,,
Belgium,Aircraft Operator Account,"EXCLU ABX Air, Inc.",145 Hunter Drive,Wilmington (OHIO),,,,,,,,123595,11013,11013,11013,11013,11013,11013,11013,11013,,,,,,,,105612,16039,16577,11550,Excluded,,,,,,,,,,,,105612,,32616,11550,,,,,
Belgium,Aircraft Operator Account,EXCLU ACT Airlines,MILLET CAD. SUMBUL SOK. PREMIUM RESIDENCE No:8,ISTANBUL,,,,,,,,,,,,,,,,,,,,,,,,805,Excluded,Excluded,Excluded,Excluded,,,,,,,,,,,,,,805,,,,,,
Belgium,Aircraft Operator Account,EXCLU ALLIED AIR LIMITED,"C/0 ANA AVIATION SERVICES, UNIT A2, WINDSOR PLACE",CRAWLEY,,,,,,,,110311,91,91,91,91,91,91,91,91,,,,,,,,74374,Excluded,Excluded,Excluded,Excluded,,,,,,,,,,,,74374,,,,,,,,
Belgium,Aircraft Operator Account,EXCLU Corporate Wings LLC,355 Richmond Rd,Ohio,,,,,,,,2,1,1,1,1,1,1,1,1,,,,,,,,16,Excluded,Excluded,Excluded,Excluded,,,,,,,,,,,,16,,,,,,,,
Belgium,Aircraft Operator Account,EXCLU Cresair,14 sunset Lane,New Milford,,,,,,,,0,,,,,,,,,,,,,,,,28,Excluded,Excluded,Excluded,Excluded,,,,,,,,,,,,28,,,,,,,,
Belgium,Aircraft Operator Account,EXCLU EXCELLENT INVESTMENT LLC,15928 Applewoud Court,Wadsworth,,,,,,,,,,,,,,,,,,,,,,,,16,Excluded,Excluded,Excluded,Excluded,,,,,,,,,,,,,16,,,,,,,
Belgium,Aircraft Operator Account,EXCLU Flying Partners CVBA,Luchthavenlei 1,Deurne (Antwerpen),,,,,,,,90,76,76,76,76,76,76,76,76,,,,,,,,1331,524,Excluded,Excluded,Excluded,,,,,,,,,,,,1331,,524,,,,,,
Belgium,Aircraft Operator Account,EXCLU GENERALE AVIATION ET FINANCE INTERNATIONALE LTD,"Suites 340-345, Barkly Warf",Port Louis,,,,,,,,4,2,2,2,2,2,2,2,2,,,,,,,,63,Excluded,Excluded,Excluded,Excluded,,,,,,,,,,,,63,,,,,,,,
Belgium,Aircraft Operator Account,EXCLU Inter-Wetail c/o Jet Aviation Business Jets AG,Obstgartenstrasse 27 P.O. Box 232,Zurich-Airport,,,,,,,,31,13,13,13,13,13,13,13,13,,,,,,,,285,Excluded,Excluded,Excluded,Excluded,,,,,,,,,,,,285,,,,,,,,
Belgium,Aircraft Operator Account,EXCLU International Paper,"6400 Poplar Avenue, T3-04-005",Memphis,,,,,,,,0,0,0,0,0,0,0,0,0,,,,,,,,12,Excluded,Excluded,Excluded,Excluded,,,,,,,,,,,,12,,,,,,,,
Belgium,Aircraft Operator Account,EXCLU MIL BELGIUM,Eversestraat 1 - Blok 1,EVERE,,,,,,,,360,155,155,155,155,0,0,0,0,,,,,,,,1434,596,551,Excluded,Excluded,,,,,,,,,,,,1434,,1147,,,,,,
Belgium,Aircraft Operator Account,EXCLU N604FJ,4300 WESTGROVE,Addison,,,,,,,,3,2,2,2,2,2,2,2,2,,,,,,,,30,Excluded,Excluded,Excluded,Excluded,,,,,,,,,,,,30,,,,,,,,
Belgium,Aircraft Operator Account,EXCLU NWL Belgium Services BVBA - Newell Rubbermaid Group,Industriepark-Noord 30,Sint-Niklaas,,,,,,,,0,,,,,,,,,,,,,,,,28,Excluded,Excluded,Excluded,Excluded,,,,,,,,,,,,28,,,,,,,,
Belgium,Aircraft Operator Account,EXCLU Sea-Air,Skaldenstraat 1,Desteldonk (Gent),,,,,,,,24,21,21,21,21,21,21,21,21,,,,,,,,378,Excluded,Excluded,Excluded,Excluded,,,,,,,,,,,,378,,,,,,,,
Belgium,Aircraft Operator Account,EXCLU Sonoco Products,4620 Hangar Access rd,Darlington,,,,,,,,0,,,,,,,,,,,,,,,,13,Excluded,Excluded,Excluded,Excluded,,,,,,,,,,,,13,,,,,,,,
Belgium,Aircraft Operator Account,EXCLU VF Corporation,4200 VF Drive,Greensboro,,,,,,,,1,0,0,0,0,0,0,0,0,,,,,,,,44,Excluded,Excluded,Excluded,Excluded,,,,,,,,,,,,44,,,,,,,,
Belgium,Aircraft Operator Account,EXCLU VF International SAGL,Via Senago 42/e,Pazzallo,,,,,,,,43,7,7,7,7,7,7,7,7,,,,,,,,362,Excluded,Excluded,Excluded,Excluded,,,,,,,,,,,,362,,,,,,,,
Belgium,Operator Holding Account,EXXONMOBIL PETROLEUM & CHEMICAL,Polderdijkweg 3,Antwerpen,22196,22196,22197,22476,22476,22476,22475,22475,33592,33008,32418,31822,31219,30610,29994,29375,22087,23802,20389,22623,21492,23774,23089,22982,30730,29673,31406,32615,,,,,22087,23802,20389,22623,21492,23774,23089,22982,30730,29673,31406,32615,,,,
Belgium,Operator Holding Account,EXXONMOBIL PETROLEUM & CHEMICAL,Polderdijkweg 3,Antwerpen,1869049,1869049,1869050,1820291,1820291,2252757,2033762,2205267,1809844,1778408,1746603,1714466,1681984,1649185,1615978,1582655,1790991,1694078,1835089,1666099,1839391,1798914,1937506,2028106,1742152,2017865,1957465,1932514,,,,,1790991,1694078,1835089,1666099,1839391,1798914,1937506,2028106,1742152,2017865,1957465,1932514,,,,
Belgium,Operator Holding Account,EXXONMOBIL PETROLEUM & CHEMICAL,Polderdijkweg 3,Antwerpen,25217,25217,46775,25779,25779,25779,25778,25778,30764,30231,29689,29143,28591,28034,27469,26903,23450,22143,22836,25392,22654,23838,24682,23032,25777,23840,25598,27976,,,,,23450,22143,22836,25392,22654,23838,24682,23032,25777,23840,25598,27976,,,,
Belgium,Operator Holding Account,Fabelta Ninove,Désiré de Bodtkaai 27,Ninove,13728,13728,13729,,,,,,,,,,,,,,3007,0,,,,,,,,,,,,,,,3007,,,,,,,,,,,,,,,
Belgium,Operator Holding Account,FAMENNE ENROBES,Rue Saint-Isidore 101,MARCHE-EN-FAMENNE,,,,,,,,,2630,2354,2085,1824,1572,1327,1090,862,,,,,,,,,8373,6488,6998,7196,,,,,,,,,,,,,8373,6488,6998,7196,,,,
Belgium,Operator Holding Account,FARM FRITES BELGIUM,Maatheide 50,Lommel,28092,28092,28092,42845,42845,42845,42845,42846,29341,33141,31894,30663,29450,28258,27083,25930,42537,26760,41784,41866,40411,40371,41437,42147,36958,36345,38897,41848,,,,,42537,26760,41784,41866,40411,40371,41437,42147,36958,36345,38897,41848,,,,
Belgium,Operator Holding Account,FARMO,Maatheide 52,Lommel,13850,13850,13850,,,,,,,,,,,,,,0,14046,0,,,,,,,,,,,,,,14046,,,,,,,,,,,,,,,
Belgium,Aircraft Operator Account,FedEx Express Corporate Aviation,South Shady Grove Road 942,Memphis,,,,,,,,5,4,4,4,4,4,4,4,4,,,,,,,,65,Excluded,46,153,160,,,,,,,,,,,,65,,46,153,160,,,,
Belgium,Operator Holding Account,FERRERO ARDENNES,Rue Pietro Ferrero 5,Arlon,9286,9285,9285,9906,9906,25441,19227,19228,6778,6066,5373,4701,0,0,0,0,7869,7730,7593,10503,14672,15267,14355,15122,12027,14718,14590,14573,,,,,7869,7730,7593,10503,14672,15267,14355,15122,12027,14718,14590,14573,,,,
Belgium,Operator Holding Account,FLOREN EN CIE,Vaartkant Rechts 4,Brecht,5584,5584,5584,5250,5250,5250,5250,5250,3986,3917,3847,3776,3704,3632,3559,3485,4693,4840,5204,4986,4752,3533,4141,4495,3907,3968,3711,3903,,,,,4693,4840,5204,4986,4752,3533,4141,4495,3907,3968,3711,3903,,,,
Belgium,Operator Holding Account,FLUXYS BELGIUM,Kunstlaan 31,Brussel,,,,50248,50248,50248,50247,50247,29767,26640,11857,20645,17785,15017,12339,9762,,,,38091,28393,33331,25423,34568,34885,18707,22869,32133,,,,,,,,38091,28393,33331,25423,34568,34885,18707,22869,32133,,,,
Belgium,Operator Holding Account,FLUXYS BELGIUM,Kunstlaan 31,Brussel,,,,12354,12354,12354,12353,12353,11726,10493,4736,8133,3569,3014,2477,1960,,,,7907,19012,11942,12361,8374,10112,6145,13800,5799,,,,,,,,7907,19012,11942,12361,8374,10112,6145,13800,5799,,,,
Belgium,Operator Holding Account,FLUXYS BELGIUM,Kunstlaan 31,Brussel,,,,15232,15232,15232,15232,15232,8617,7711,6831,5976,5148,4347,3573,2825,,,,9744,13168,11186,10772,10647,8936,6874,7300,8825,,,,,,,,9744,13168,11186,10772,10647,8936,6874,7300,8825,,,,
Belgium,Operator Holding Account,FLUXYS BELGIUM,Kunstlaan 31,Brussel,,,,1855,1855,1855,0,0,,,,,,,,,,,,162,251,1937,,,,,,,,,,,,,,162,251,1937,,,,,,,,,,
Belgium,Operator Holding Account,FLUXYS BELGIUM,Kunstlaan 31,Brussel,52288,52288,52288,34475,34476,34476,34476,34476,4428,7692,207,180,155,131,108,86,15714,14049,12236,15595,9554,9140,6835,5269,9428,592,526,428,,,,,15714,14049,12236,15595,9554,9140,6835,5269,9428,592,526,428,,,,
Belgium,Operator Holding Account,FLUXYS BELGIUM,Kunstlaan 31,Brussel,,,,,,,,,,,,,,,,,,,,,,,,,,,,,,,,,,,,,,,,,,,,,,,,
Belgium,Operator Holding Account,FLUXYS BELGIUM,Kunstlaan 31,Brussel,,,,,,,,,,,,,,,,,,,,,,,,,,,,,,,,,,,,,,,,,,,,,,,,
Belgium,Operator Holding Account,FLUXYS BELGIUM,Kunstlaan 31,Brussel,,,,,,,,,,,,,,,,,,,,,,,,,,,,,,,,,,,,,,,,,,,,,,,,
Belgium,Operator Holding Account,FLUXYS BELGIUM,Kunstlaan 31,Brussel,,,,,,,,,,,,,,,,,,,,,,,,,,,,,,,,,,,,,,,,,,,,,,,,
Belgium,Operator Holding Account,FLUXYS BELGIUM,Kunstlaan 31,Brussel,,,,,,,,,,,,,,,,,,,,,,,,,,,,,,,,,,,,,,,,,,,,,,,,
Belgium,Operator Holding Account,FLUXYS BELGIUM,Kunstlaan 31,Brussel,,,,,,,,,,,,,,,,,,,,,,,,,,,,,,,,,,,,,,,,,,,,,,,,
Belgium,Operator Holding Account,FLUXYS LNG,Guimardstraat 4,Brussel,,,,180823,180823,433924,327476,327312,82714,59863,26039,46419,19646,16602,13656,10817,,,,124454,206850,205537,186244,103488,30235,4876,33056,13845,,,,,,,,124454,206850,205537,186244,103488,30235,4876,33056,13845,,,,
Belgium,Aircraft Operator Account,FLYING SERVICE,Luchthavenlei 1 bus 18,Deurne (Antwerpen),,,,,,,,291,251,251,251,251,251,251,251,251,,,,,,,,5773,Excluded,Excluded,Excluded,6298,,,,,,,,,,,,5773,,,,6298,,,,
Belgium,Operator Holding Account,FN HERSTAL,Rue Voie de Liège  33,Herstal,7410,7410,7410,7102,7102,7102,7102,0,,,,,,,,,6950,6369,5402,4139,4268,4825,3685,0,,,,,,,,,6950,6369,5402,4139,4268,4825,3685,,,,,,,,,
Belgium,Operator Holding Account,FORD-WERKE GMBH,Henry Fordstrasse 1,Köln-Niehl,45584,45584,45583,62839,62839,62839,62838,62838,36333,32516,28799,0,0,0,0,0,37181,37850,34728,49680,41385,48812,41807,36848,42764,37347,12320,,,,,,37181,37850,34728,49680,41385,48812,41807,36848,42764,37347,12320,,,,,
Belgium,Operator Holding Account,Fortis,Rue Montagne du Parc 3,Bruxelles,2950,2950,2950,,,,,,,,,,,,,,2848,2832,2473,,,,,,,,,,,,,,2848,2832,2473,,,,,,,,,,,,,
Belgium,Operator Holding Account,FRIESLANDCAMPINA BELGIUM,Venecolaan 17,Aalter,40352,40352,40352,34419,34419,34419,34419,34419,20340,19599,18287,17007,15760,14546,13363,12217,34790,33179,28978,28289,27782,25121,20839,27189,27967,31872,33092,31651,,,,,34790,33179,28978,28289,27782,25121,20839,27189,27967,31872,33092,31651,,,,
Belgium,Operator Holding Account,FRIESLANDCAMPINA PROFESSIONAL,Grote Baan 34,Lummen,,,,,,,,,6660,6110,5413,4738,4084,3451,2839,2249,,,,,,,,,9778,9325,9141,9523,,,,,,,,,,,,,9778,9325,9141,9523,,,,
Belgium,Operator Holding Account,Gassco AS,Forusbeen 50,Stavanger,,,,4783,4783,4783,4783,4783,4240,3794,3361,2941,1267,1070,879,696,,,,5335,4863,6611,6807,5303,6301,3383,3929,2416,,,,,,,,5335,4863,6611,6807,5303,6301,3383,3929,2416,,,,
Belgium,Operator Holding Account,GENERAL MOTORS PENSIOENFONDS OVV,Noorderlaan 401,Antwerpen,26752,26752,26751,56285,56285,56285,56284,56284,,,,,,,,,22205,17391,15691,31060,20070,24771,2819,0,,,,,,,,,22205,17391,15691,31060,20070,24771,2819,,,,,,,,,
Belgium,Operator Holding Account,GERRESHEIMER MOMIGNIES,Rue Mandenne 19-20,Momignies,25990,25991,25991,22002,22002,22002,22003,22003,17545,17241,16931,16621,16306,15988,15666,15343,18997,16927,18697,20373,17480,18615,18692,19668,19837,19345,19472,23420,,,,,18997,16927,18697,22002,17480,16986,18692,19668,19837,19345,19472,23420,,,,
Belgium,Operator Holding Account,GLAXOSMITHKLINE BIOLOGICALS,Rue de l'institut  89,Rixensart,18829,18830,18830,23401,23402,25588,26025,26025,19983,19636,19285,18930,18571,18209,17842,17474,10209,13542,18433,20424,20736,22613,25202,23572,23642,24912,25544,24937,,,,,10209,13542,18433,20424,20736,22613,25203,23571,23642,24912,25544,24937,,,,
Belgium,Operator Holding Account,GLAXOSMITHKLINE BIOLOGICALS,Rue de l'institut  89,Rixensart,8630,8631,8631,,,,,,,,,,,,,,6569,1262,10,,,,,,,,,,,,,,6569,1262,10,,,,,,,,,,,,,
Belgium,Operator Holding Account,GLAXOSMITHKLINE BIOLOGICALS,Rue de l'institut  89,Rixensart,27085,27084,27084,29337,29337,29338,29338,29338,24849,24094,23343,22601,21866,21138,20418,19708,25645,25499,25246,27424,28405,28680,22307,25726,24102,22402,21907,22609,,,,,25646,25499,25246,27425,28405,28681,22308,25723,24102,22402,21907,22609,,,,
Belgium,Operator Holding Account,GRAMYBEL,Boulevard de l'Eurozone 1,Mouscron,10904,10904,10904,14983,14983,14983,14983,14983,11381,13980,13730,13478,13223,12965,12704,12442,10036,11606,12785,13677,14112,15625,18383,19323,12592,17692,19451,19950,,,,,10036,11606,12785,13677,14112,15625,18383,19323,12592,17692,19451,19950,,,,
Belgium,Operator Holding Account,GRAVAUBEL,Avenue de l'Indépendance 83,Liège,,,,,,,,,2024,1811,1603,1403,1209,1021,839,664,,,,,,,,,4209,3486,3707,5044,,,,,,,,,,,,,4209,3486,3707,5044,,,,
Belgium,Operator Holding Account,GREENYARD PREPARED BELGIUM,Industrieterrein Kanaal-Noord 2002,Bree,15998,15998,15998,22052,22052,22052,22053,22053,17474,15639,13851,12120,10440,8816,7243,5730,18383,18390,18837,20667,23615,23319,21502,22384,21795,22049,21707,21082,,,,,18383,18390,18837,20667,23615,23319,21502,22384,21795,22049,21707,21082,,,,
Belgium,Operator Holding Account,GROEP MASUREEL VEREDELING,Zuidstraat 18,Wevelgem,4539,4539,4540,,,,,,,,,,,,,,4406,4492,3989,,,,,,,,,,,,,,4406,4492,4720,,,,,,,,,,,,,
Belgium,Operator Holding Account,Gruppo Cordenons,Avenue de la libération 1,Malmedy,47951,47952,47952,46869,46869,46869,0,0,,,,,,,,,43216,46315,22599,19988,7627,0,,,,,,,,,,,43216,46315,22599,19988,7627,,,,,,,,,,,
Belgium,Operator Holding Account,GUNVOR PETROLEUM ANTWERPEN,Scheldelaan 490,Antwerpen,512745,512745,512745,576590,576590,576590,576590,576590,339743,333842,327871,321839,315741,309584,303350,297095,559078,514258,459798,525496,525550,521974,539452,300749,537352,498625,493884,388655,,,,,559078,514258,459798,525496,525550,521974,539452,300749,537352,498625,493884,388655,,,,
Belgium,Aircraft Operator Account,"HAINAN AIRLINES HOLDING CO., LTD.","21# building, operation control department",Haikou city,,,,,,,,,77,37,37,37,37,37,37,37,,,,,,,,37,0,51,0,42,,,,,,,,,,,,,,88,,42,,,,
Belgium,Operator Holding Account,Holcim,Avenue Robert Schuman 71,Nivelles,1526151,1526152,1526152,1456179,1456180,1456180,1456180,1456180,1122863,1103360,1083628,1063689,1043537,1023187,1002585,981910,1508060,1539243,1520739,1433875,1126304,1157929,1190209,1138264,1020843,986622,921480,915759,,,,,1508060,1539243,1520739,1433875,1126304,1157929,1190209,1138264,1020843,986622,921480,915759,,,,
Belgium,Operator Holding Account,I.B.V et Cie,Burtonville 15,Vielsalm,,,,10592,14122,14122,14122,14122,,,,,,,,,,,,318,42,25,24,36,Excluded,,,,,,,,,,,318,42,25,24,37,,,,,,,,
Belgium,Operator Holding Account,IBM Belgium,Avenue du Bourget 42,1130,,,,,,,,,,,,,,,,,,,,,,,,,,,,77,,,,,,,,,,,,,,,,77,,,,
Belgium,Operator Holding Account,IBM Belgium,Avenue du Bourget 42,1130,,,,,,,,,,,,,,,,,,,,,,,,,,,,79,,,,,,,,,,,,,,,,79,,,,
Belgium,Operator Holding Account,IDEM PAPERS - IDEMPAPERS,Rue d'Asquempont 2,Virginal (Ittre),11883,11883,11883,12007,12007,12008,12008,0,,,,,,,,,9972,9512,8045,3136,2484,2089,1663,,,,,,,,,,9972,9512,8045,3136,2484,2089,1663,,,,,,,,,
Belgium,Operator Holding Account,IDEM PAPERS - IDEMPAPERS,Rue d'Asquempont 2,Virginal (Ittre),68068,68068,68068,47210,47210,74845,80373,80373,54044,53105,52156,51196,50226,49247,48255,47260,57713,59200,56404,54288,47320,56864,60092,68556,78696,74047,78920,78530,,,,,57713,59200,56404,54288,47320,56864,60092,68556,78696,74047,78920,78530,,,,
Belgium,Operator Holding Account,IMERYS GRAPHITE & CARBON BELGIUM,Brownfieldlaan 19,Willebroek,,,,,,,,,,31533,36946,36279,35614,34947,34282,33615,,,,,,,,,,34281,39261,45730,,,,,,,,,,,,,,34281,39261,45730,,,,
Belgium,Operator Holding Account,INBEV BELGIUM,Industrielaan 21,Anderlecht,58681,58681,58680,48248,48248,48248,48248,48249,28165,25207,22327,19534,16828,14209,11675,9237,41749,44384,45102,41211,32173,29578,33550,33494,29831,30156,29401,30794,,,,,41749,44384,45102,41211,32173,29578,33550,33494,29831,30156,29401,30794,,,,
Belgium,Operator Holding Account,INBEV BELGIUM,Industrielaan 21,Anderlecht,28586,28587,28587,22382,22382,22382,22382,22383,16644,14894,13192,11543,9944,8396,6899,5459,23958,22207,20770,18116,17002,17444,17338,15956,14447,15055,15709,15817,,,,,23958,22207,20770,18116,17002,17444,17338,15956,14447,15055,15709,15817,,,,
Belgium,Operator Holding Account,INDUSTEEL BELGIUM,rue de Chatelet 266,Charleroi,212171,212172,212172,169384,169385,169385,169385,169385,127009,124803,122570,120316,118036,115734,113404,111065,148622,143513,146773,138368,90064,87072,103167,101604,96910,96921,105531,105610,,,,,148622,143513,146773,138368,90064,87072,103167,101604,96910,96921,105531,105610,,,,
Belgium,Operator Holding Account,INEOS,Nieuwe Weg 1,Zwijndrecht,167257,167257,167256,126893,126893,126893,126893,126893,242839,238622,234354,230041,225683,221283,216827,212356,198716,217953,174491,93162,78162,75938,91701,84012,206545,185686,227870,217278,,,,,198716,217953,174491,93162,78162,75938,91701,84012,206545,185686,227870,217278,,,,
Belgium,Operator Holding Account,INEOS C2T,Nieuwe Weg 1,Zwijndrecht,,,,,,,,,,,,,,,,,,,,,,,,,228,318,223,263,,,,,,,,,,,,,228,318,223,263,,,,
Belgium,Operator Holding Account,INEOS FELUY,Parc Industriel de Feluy nord zone C,Feluy (Seneffe),141145,141144,141144,134983,134983,147571,142177,142177,108536,106651,104745,102816,100870,98901,96911,94912,116635,124504,114478,104525,103952,118345,130857,120798,126928,108639,127070,107648,,,,,116635,124504,114479,104525,103952,118345,130857,120798,126928,108639,127070,107648,,,,
Belgium,Operator Holding Account,INEOS MANUFACTURING BELGIUM,SCHELDELAAN 482,Antwerpen,22826,22826,22827,28053,28053,28053,28054,28054,24062,23644,23221,22794,22362,21926,21485,21041,26367,26756,30287,31856,29470,31851,26619,28286,39882,43901,47027,47376,,,,,26367,26756,30287,31856,29470,31851,26619,28286,39882,43901,47027,47376,,,,
Belgium,Operator Holding Account,INEOS MANUFACTURING BELGIUM,SCHELDELAAN 482,Antwerpen,,,,,,,,,2989,2937,2885,2831,2778,2724,2669,2615,,,,,,,,,956,586,397,946,,,,,,,,,,,,,956,586,397,946,,,,
Belgium,Operator Holding Account,INEOS PHENOL INC.,Geslecht 1,Doel,242975,242975,242975,275112,275112,275112,275112,275111,198062,194622,191141,187624,184070,180480,176846,173199,157172,157022,119664,158388,157345,229056,221504,228465,165657,233549,220768,209257,,,,,157172,157022,119664,158388,157345,229056,221504,228465,165657,233549,220768,209257,,,,
Belgium,Operator Holding Account,INEOS STYROLUTION BELGIUM,Scheldelaan 600,Antwerpen,,,,,,,,,270651,265951,261194,256388,251531,246626,241660,236677,,,,,,,,,118617,112505,93445,108749,,,,,,,,,,,,,118617,112505,93445,108749,,,,
Belgium,Operator Holding Account,INEX,Meulestraat 19,Sint-Lievens-Houtem,23947,23947,23946,26115,26115,26115,26115,26114,,,,,,,,,19236,20303,19476,15951,14666,14112,13012,9469,,,,,,,,,19236,20303,19476,15951,14666,14112,13012,9469,,,,,,,,
Belgium,Operator Holding Account,INOVYN MANUFACTURING BELGIUM,Avenue des Olympiades 20,Evere,79963,79963,79963,71893,71893,71893,71893,71893,239573,235412,231203,226948,222649,218307,213911,209500,60601,64436,62975,61916,58316,69788,62404,62429,79375,80585,79338,80115,,,,,60601,64436,62975,61916,58316,69788,62404,62429,79375,80585,79338,80115,,,,
Belgium,Operator Holding Account,INOVYN MANUFACTURING BELGIUM,Avenue des Olympiades 20,Evere,404000,404000,404000,400367,400367,400368,400368,400368,,,,,,,,,403491,395489,389870,392684,380032,406938,387414,390340,388700,355380,373547,383829,,,,,403491,395489,389870,392684,380032,406938,387414,390340,388700,355380,373547,383829,,,,
Belgium,Operator Holding Account,INTERCONNECTOR ZEEBRUGGE TERMINAL,Rue Guimard 4,Brussels,,,,6461,6461,6461,6461,6461,7664,3517,3116,5316,4579,3867,3178,2513,,,,4987,9580,10577,14588,7610,3170,4584,7781,7037,,,,,,,,4987,9580,10577,14588,7610,3170,4584,7781,7037,,,,
Belgium,Operator Holding Account,INTERCOOPERATIEVE ZUIVELFABRIEK VAN ANTWERPEN INZA,Wasserijstraat 5,Schoten,7359,7359,7360,8036,8036,8036,0,0,,,,,,,,,8883,7667,8127,8377,7405,7644,,,,,,,,,,,8883,7667,8127,8377,7405,7644,,,,,,,,,,
Belgium,Operator Holding Account,ISCAL Sugar,Chaussée de la Sucrerie 1,Antoing,68293,68293,68294,94873,94873,0,0,0,,,,,,,,,67517,71731,65640,4983,1251,,,,,,,,,,,,67517,71731,65663,4983,1251,,,,,,,,,,,
Belgium,Operator Holding Account,ISCAL Sugar,Chaussée de la Sucrerie 1,Antoing,46920,46920,46921,,,,,,,,,,,,,,39902,48,0,,,,,,,,,,,,,,39902,48,,,,,,,,,,,,,,
Belgium,Operator Holding Account,ISCAL Sugar,Chaussée de la Sucrerie 1,Antoing,49241,49242,49242,64745,64745,64745,64746,64746,55165,54207,53237,52258,51268,50269,49256,48240,28914,30768,31780,33545,44381,50429,44434,47353,41497,40164,39612,46228,,,,,28914,30768,31780,33545,44381,50429,44434,47353,41497,40164,39612,46228,,,,
Belgium,Operator Holding Account,ITC RUBIS TERMINAL ANTWERP,Blikken ZN,Beveren,,,,,,,,,,,,,,,,,,,,,,,,,,3174,3218,6286,,,,,,,,,,,,,,3174,3218,6286,,,,
Belgium,Operator Holding Account,JANSSEN PHARMACEUTICA,Turnhoutseweg 30,Beerse,28075,28075,28076,29590,29590,29590,29589,29589,27553,27074,26590,26101,25607,25108,24601,24094,31928,30919,27657,28473,27408,29467,26631,26750,27867,25357,26551,26821,,,,,31928,30919,27657,28473,27408,29467,26631,26750,27867,25357,26551,26821,,,,
Belgium,Operator Holding Account,JANSSEN PHARMACEUTICA,Turnhoutseweg 30,Beerse,9950,9950,9950,16829,16829,16829,16830,16830,10493,10311,10126,9940,9752,9562,9370,9176,10218,10680,9731,10107,10300,11823,10036,10345,10109,9445,10148,10201,,,,,10218,10680,9731,10107,10300,11823,10036,10345,10109,9445,10148,10201,,,,
Belgium,Operator Holding Account,JBF GLOBAL EUROPE,Nijverheidsweg 4,Laakdal,,,,,,,,,,11707,24607,37436,36749,36062,35374,34687,,,,,,,,,,13056,34340,41709,,,,,,,,,,,,,,13056,34340,41709,,,,
Belgium,Operator Holding Account,Jindal Films Europe Virton,Zoning de Latour 9,Virton,20977,20976,20976,15682,15682,15682,15683,15683,,,,,,,,,16651,17242,18065,16135,13223,12778,10964,11391,Excluded,Excluded,Excluded,Excluded,,,,,16651,17242,18065,16135,13223,12778,10964,11391,,,,,,,,
Belgium,Operator Holding Account,KABELWERK EUPEN,Malmedyer Strasse 9,Eupen,9185,9185,9185,7302,7302,7302,7302,7302,5832,5730,5628,0,0,0,0,0,9054,8438,7863,8615,7741,9286,6929,7996,8365,6148,6761,,,,,,9054,8438,7863,10542,7741,7359,6929,7996,8365,6148,6761,,,,,
Belgium,Aircraft Operator Account,KALITTA AIR LLC,818 Willow Run Airport,Ypsilanti,,,,,,,,2534,1798,1798,1798,1798,1798,1798,1798,1798,,,,,,,,4271,2820,2982,1503,2299,,,,,,,,,,,,4311,,5802,1503,2299,,,,
Belgium,Operator Holding Account,KANEKA BELGIUM,Nijverheidsstraat 16,Westerlo,31693,33204,33204,36665,36665,36665,36666,36666,31604,31055,30499,29939,29371,28798,28219,27637,27112,28569,28994,31108,30296,34849,33256,30594,30152,31841,36193,38877,,,,,27112,28569,28994,62216,,34037,33256,30594,30152,31841,36193,38877,,,,
Belgium,Operator Holding Account,KNAUF INSULATION,Rue de Maestricht 95,Visé,57185,57186,57186,47836,47836,47837,47837,47837,37418,36768,36110,35446,34774,34096,33409,32721,47482,47959,47477,46082,47674,42747,39877,27137,28501,27926,29123,32648,,,,,47482,47959,47477,46082,47674,42747,39877,27137,28501,27926,29123,32648,,,,
Belgium,Operator Holding Account,KRONOS EUROPE,LANGERBRUGGEKAAI 10,GENT,,,,,,,,34334,111555,109619,107657,105677,103674,101653,99607,97552,,,,,,,,48236,130291,132792,134088,139829,,,,,,,,,,,,48236,130291,132792,134088,139829,,,,
Belgium,Operator Holding Account,LAMINOIRS DU RUAU,Rue de Trzegnies  147,Monceau,22429,22429,22429,20068,20068,20068,20068,20069,,,,,,,,,18459,21387,21071,15491,9930,7966,8451,139,,,,,,,,,18459,21387,21071,15491,9930,7966,8451,139,,,,,,,,
Belgium,Operator Holding Account,LANGERLO,Swinnenwijerweg 30,Genk,1256755,1256755,1256754,0,0,0,0,0,,,,,,,,,2423106,2177699,2269168,2064610,2117115,2101537,1819101,2121928,2361305,1881200,1904278,291010,,,,,2423106,2177699,2269168,2064610,2117115,2101537,1819101,2121928,2361305,1881200,1904278,,,,,
Belgium,Operator Holding Account,LANO,Gentsestraat 2,Harelbeke,5813,5813,5812,8084,8084,8084,8083,8083,6365,6254,6143,6030,5915,5800,5683,5566,5903,5817,5032,6896,4946,5293,4876,4499,4572,4430,4884,5064,,,,,5903,5817,5032,6896,4946,5293,4876,4499,4572,4430,4884,5064,,,,
Belgium,Operator Holding Account,LANXESS,Scheldelaan 420,Antwerpen,99900,99900,99901,108955,108955,108955,108955,108954,67743,66566,65376,64173,62957,61730,60486,59239,93397,86702,88445,82833,64662,83667,82801,79583,81508,75650,75906,78062,,,,,93397,86702,88445,82833,64662,83667,82801,79583,81508,75650,75906,78062,,,,
Belgium,Operator Holding Account,LANXESS,Scheldelaan 420,Antwerpen,134794,134794,134794,167065,167065,167065,167065,167064,259651,255142,250578,245969,241308,236604,231838,227058,106747,120996,108824,97150,88788,86524,92226,96068,125632,118414,132835,93468,,,,,106747,120996,108824,97150,88788,86524,92226,96068,125632,118414,132835,93468,,,,
Belgium,Operator Holding Account,LATEXCO,Sint-Amandstraat 8bis,Tielt,19151,19151,19150,18182,18182,18182,18182,18181,15423,15155,14884,14610,14333,14054,13771,13487,19396,15869,14163,11284,10021,9666,9764,9918,9581,9752,9978,10671,,,,,19396,15869,14163,11284,10021,9666,9764,9918,9581,39253,,8852,,,,
Belgium,Operator Holding Account,LES ENROBES DU CENTRE,Route du Grand Peuplier 4A,Strépy-Bracquegnies (La Louvière),,,,,,,,,2894,2590,2294,2008,1729,1460,1199,949,,,,,,,,,4241,4243,3723,3261,,,,,,,,,,,,,4241,4243,3723,3261,,,,
Belgium,Operator Holding Account,LHOIST INDUSTRIE,On SN,Marche-en-Famenne,513459,513459,513459,507318,507318,507318,507318,507319,388854,382100,375266,368362,361382,354336,347201,340041,477056,516034,439405,485432,374105,448983,477987,443378,446390,454131,474614,478562,,,,,477056,516034,439405,485432,374105,448983,477987,443378,446390,454131,474614,478562,,,,
Belgium,Operator Holding Account,LIMELCO,Genkerbaan 71-75,Zonhoven,18886,18886,18886,15581,15581,15581,15582,15582,10502,9896,9303,8725,0,0,0,0,20059,16948,18106,13157,11451,10593,12406,11426,14396,18298,18220,17411,,,,,20059,16948,18106,13157,11451,10593,12406,11426,14396,18298,18220,17411,,,,
Belgium,Operator Holding Account,LINOPAN,Ooigemstraat 16,Wielsbeke,,,,3410,3410,3410,3410,0,,,,,,,,,,,,2259,1434,0,0,,,,,,,,,,,,,2259,1434,,,,,,,,,,,
Belgium,Operator Holding Account,LMET,"Rue du Canon, 70",Vaulx-lez-Tournai,,,,,,,,,2582,0,0,0,0,0,0,0,,,,,,,,,2589,Excluded,,,,,,,,,,,,,,,2589,,,,,,,
Belgium,Operator Holding Account,LUTOSA,Rue du Vieux-Pont. 5,Leuze en Hainaut,60099,60100,60100,50304,50304,50304,50304,50305,42444,52134,51202,50259,49307,48346,47372,46395,46032,44914,47091,51774,48287,53190,50454,56105,49212,52793,55881,62607,,,,,46032,44914,47091,51774,48287,53190,50454,56105,49212,52793,55881,62607,,,,
Belgium,Operator Holding Account,LUTOSA,Rue du Vieux-Pont. 5,Leuze en Hainaut,19536,19536,19536,21009,21009,21009,21009,21008,13641,15433,14815,14208,13611,13022,12443,11878,19765,20030,19588,20031,19289,20817,21181,20608,17963,20682,21650,20638,,,,,19765,20030,19588,20031,19289,20817,21181,20608,17963,20682,21650,20638,,,,
Belgium,Operator Holding Account,MACtac Europe,Boulevard Kennedy  Zoning Industriel  Zone B,Soignies,13791,13792,13792,,,,,,,,,,,,,,11968,12006,10344,,,,,,,,,,,,,,11968,12007,10345,,,,,,,,,,,,,
Belgium,Operator Holding Account,MAGOTTEAUX,Rue Près de Tour 55,Vaux-sur-Chevremont,10193,10194,10194,,,,,,,,,,,,,,9935,10568,9925,,,,,,,,,,,,,,9935,10568,9925,,,,,,,,,,,,,
Belgium,Operator Holding Account,MARCINELLE ENERGIE,Rue de la Providence 150,Marchienne-au-Pont (Charleroi),,,,0,0,0,751680,949491,,,,,,,,,,,,,,0,52896,483611,513616,263881,428044,358755,,,,,,,,,,,52896,483611,513616,263881,428044,358755,,,,
Belgium,Operator Holding Account,Matériaux de Vaulx (MDV),Vieux Chemin de Mons 37,Vaulx-lez-Tournai,,,,,,,,,3177,2843,2517,2203,1898,1602,1316,1042,,,,,,,,,6049,5864,8022,7382,,,,,,,,,,,,,6049,5864,8022,7382,,,,
Belgium,Operator Holding Account,MD VERRE,Rue des Ayettes 2,Ghlin (Mons),69755,69754,69754,65321,65321,65321,76836,76836,42894,42149,41395,40633,39863,39086,38299,37509,69656,66004,69945,60094,55449,40924,48126,43942,68984,59081,53467,53601,,,,,69656,66004,69945,60094,55449,40924,48126,43942,68984,59081,53467,53601,,,,
Belgium,Operator Holding Account,METALLO BELGIUM,Nieuwe Dreef 33,Beerse,,,,43364,43364,43364,43364,43940,36233,35602,34967,34323,33673,33017,32351,31684,,,,27035,26197,23023,22502,23002,34116,33717,31315,30979,,,,,,,,27035,26197,23023,22502,23002,34116,33717,31315,30979,,,,
Belgium,Operator Holding Account,MICROFIBRES EUROPE,Lange Meire 56,Laarne,5320,5320,5320,12974,12974,12974,12975,12975,4390,3104,3048,0,0,0,0,0,4757,5082,4701,9720,4107,5167,3931,3826,3469,2430,2329,,,,,,4757,5082,4701,9720,4107,5167,3931,3826,3469,2430,2329,,,,,
Belgium,Operator Holding Account,Ministerie van Landsverdediging,Departement Welzijn - Divisie Leefmilieu - Bruynstraat 1,Neder-Over-Heembeek,,,,,,,,,,,,,,,,,,,,,,,,,,,,,,,,,,,,,,,,,,,,,,,,
Belgium,Operator Holding Account,Ministerie van Landsverdediging,Departement Welzijn - Divisie Leefmilieu - Bruynstraat 1,Neder-Over-Heembeek,,,,,,,,,,,,,,,,,,,,,,,,,,,,,,,,,,,,,,,,,,,,,,,,
Belgium,Operator Holding Account,Ministerie van Landsverdediging,Departement Welzijn - Divisie Leefmilieu - Bruynstraat 1,Neder-Over-Heembeek,10650,10650,10650,,,,,,,,,,,,,,9136,7647,5607,,,,,,,,,,,,,,9136,7647,5607,,,,,,,,,,,,,
Belgium,Operator Holding Account,MOLKEREI - LAITERIE WALHORN,Molkereiweg 14,Walhorn (Lontzen),38023,38024,38024,23876,23876,23876,23876,23876,19039,18588,18135,17684,17233,16787,16337,15893,20185,20487,20157,20871,20827,22055,22482,21778,22623,24779,25229,21171,,,,,20185,20487,20157,22771,20827,22055,22482,19878,22623,24779,25229,21171,,,,
Belgium,Operator Holding Account,MONDELEZ BELGIUM BISCUITS PRODUCTION,De Beukelaer-Pareinlaan 1,Herentals,,,,18417,18417,18417,18416,18416,9464,8470,7502,6564,0,0,0,0,,,,13325,13244,14440,13170,12698,13075,11218,11197,10771,,,,,,,,13325,13244,14440,13170,12698,13075,11218,11197,10771,,,,
Belgium,Operator Holding Account,MONSANTO EUROPE,Scheldelaan 460,Antwerpen,269482,269482,269481,315532,315532,315532,315532,315532,172906,169277,165636,161987,158327,154661,150979,147309,267527,266660,267200,263439,239921,251167,231189,236753,303328,283198,215118,213004,,,,,267527,266660,267200,263439,239921,251167,231189,236753,303328,283198,215118,213004,,,,
Belgium,Operator Holding Account,MONUMENT CHEMICAL,Ketenislaan 3,Kallo (Beveren),56390,56390,56391,58441,58441,58441,58440,58440,39415,38731,38038,37338,36631,35916,35193,34467,52008,53302,49411,44167,35090,39175,37342,36807,38664,41306,42515,45049,,,,,52008,53302,49411,44167,35090,39175,37342,36807,38664,41306,42515,45049,,,,
Belgium,Operator Holding Account,MOUTERIJ ALBERT,Kanaaldijk ZN,Puurs,27006,27006,27006,26362,26362,26362,26362,26361,,,,,,,,,28085,28108,28306,29566,25128,28247,29403,29819,,,,,,,,,28085,28108,28306,29566,25128,28247,29403,29819,,,,,,,,
Belgium,Operator Holding Account,MOUTERIJ ALBERT,Kanaaldijk ZN,Puurs,,,,,,,,,26122,25668,25209,24745,24276,23803,23324,22843,,,,,,,,,19151,19164,19002,19012,,,,,,,,,,,,,19151,19164,19002,19012,,,,
Belgium,Operator Holding Account,MOUTERIJ ALBERT,Kanaaldijk ZN,Puurs,,,,,,,,,12593,12374,12153,11929,11703,11475,11244,11012,,,,,,,,,9902,9710,10184,10286,,,,,,,,,,,,,9902,9710,10184,10286,,,,
Belgium,Operator Holding Account,MYDIBEL,Rue du Piro Lannoy  30,Mouscron,17339,17339,17339,24347,24347,29764,27343,27344,21776,26747,26269,25786,25297,24804,24304,23803,19027,21922,22235,24236,25312,24861,21716,25415,21972,27101,37719,36132,,,,,19027,21922,22235,24236,25312,24861,21716,25415,21972,27101,37719,36132,,,,
Belgium,Operator Holding Account,Nationale Bank Van België,de Berlaimontlaan 14,Brussel,5170,5170,5170,,,,,,,,,,,,,,4477,4083,3249,,,,,,,,,,,,,,4477,4083,3249,,,,,,,,,,,,,
Belgium,Operator Holding Account,NELCA,Stationsstraat 80,Lendelede,3983,3983,3982,,,,,,,,,,,,,,2920,2818,0,,,,,,,,,,,,,,2920,2818,,,,,,,,,,,,,,
Belgium,Operator Holding Account,NELISSEN STEENFABRIEKEN,Kiezelweg 458-460,Lanaken,30526,35974,37082,37232,37232,37232,37231,37231,21893,21513,21128,20739,20346,19949,19548,19145,28585,30606,33648,30406,23729,23879,28780,27504,23749,27072,29866,29399,,,,,28585,30606,33648,30406,23729,23879,28780,27504,23749,27072,29866,29399,,,,
Belgium,Operator Holding Account,Nesar,Kuhlmannkaai 1,Gent,13352,13352,13352,52960,52960,52960,52959,52959,,,,,,,,,4501,4686,4521,38902,28179,34748,34771,Not Reported,Excluded,Excluded,Excluded,Excluded,,,,,4501,4686,4521,38902,28179,34748,,,,,,,,,,
Belgium,Operator Holding Account,NEW HOLLAND TRACTOR LIMITED,Wilmarsdonksteenweg 32,Antwerpen,6598,6598,6598,,,,,,,,,,,,,,6112,5560,5696,,,,,,,,,,,,,,6112,5560,5696,,,,,,,,,,,,,
Belgium,Operator Holding Account,NIPPON SHOKUBAI EUROPE,Nieuwe Weg 1 - Haven 1053,Zwijndrecht,,,,,,,,,28960,28457,27948,27434,26914,26390,25858,25325,,,,,,,,,0,0,0,0,,,,,,,,,,,,,,,,,,,,
Belgium,Operator Holding Account,NITTO BELGIUM,Eikelaarstraat 22,Genk,36828,36828,36828,36092,36092,0,0,0,,,,,,,,,33351,37183,32935,30836,23060,,,,,,,,,,,,33351,37183,37183,30836,23060,,,,,,,,,,,
Belgium,Operator Holding Account,NITTO BELGIUM,Eikelaarstraat 22,Genk,,,,,,,,,18320,16394,14522,12705,10945,9242,7594,6007,,,,,,,,,26870,25122,27278,29610,,,,,,,,,,,,,26870,25122,27278,29610,,,,
Belgium,Operator Holding Account,NLMK CLABECQ,Rue de Clabecq 101,Ittre,141360,141360,141360,118296,118296,118297,118297,118297,78368,77007,75630,74239,72832,71412,69974,68531,86298,84289,81905,82506,42365,55818,54477,54380,47283,54368,53985,59067,,,,,86298,84289,81905,82506,42365,55818,54477,54380,47283,54368,53985,59067,,,,
Belgium,Operator Holding Account,NLMK LA LOUVIERE,Rue des Rivaux 2,La Louvière,284301,284302,284302,255152,255152,255152,255153,255153,162415,159594,156739,153856,150941,147998,145017,142027,190218,199764,185028,177688,59983,152327,134015,105074,111724,113236,132652,138321,,,,,190218,199764,185028,177688,59983,152327,134015,105074,111724,113236,132652,138321,,,,
Belgium,Operator Holding Account,NORBORD,Eikelaarstraat 33,Genk,9631,9631,9631,68636,68636,68636,68637,68637,41506,40785,26320,23028,19838,16752,13764,10888,11762,13191,14840,4590,2819,4989,1812,3243,1415,1942,2156,1519,,,,,11762,13191,14840,4590,2819,4989,1812,,4658,1942,2156,1519,,,,
Belgium,Operator Holding Account,NUON BELGIUM,Medialaan 34,Vilvoorde,0,0,904267,,,,,,,,,,,,,,0,0,,,,,,,,,,,,,,,,,,,,,,,,,,,,,,
Belgium,Operator Holding Account,nv Bruda,Bruulstraat 77,Brussel,,,,,,,,,,,,,,,,,,,,,,,,,,,,,,,,,,,,,,,,,,,,,,,,
Belgium,Operator Holding Account,NYRSTAR BELGIUM,Zinkstraat 1,Balen,20883,20883,20882,16233,16233,16233,16232,16232,138334,135931,133501,131044,128561,126053,123516,120969,17169,17584,16706,12817,8090,18128,19475,17304,25158,19570,26667,28172,,,,,17169,17584,16706,12817,8090,18128,19475,17304,25158,19570,26667,28172,,,,
Belgium,Operator Holding Account,NYRSTAR BELGIUM,Zinkstraat 1,Balen,19237,19237,19237,30734,30734,30734,30734,30733,15269,15004,14735,0,0,0,0,0,20346,17965,16088,21397,11657,12180,10928,11003,10290,9477,9089,,,,,,20346,17965,16088,21397,11657,12180,10928,11003,10290,9477,9089,,,,,
Belgium,Operator Holding Account,OLEON,Assenedestraat 2,Ertvelde (Evergem),58656,58656,58657,64709,64709,64709,64709,64709,,,,,,,,,58622,58860,60256,63389,55034,55134,47112,51395,,,,,,,,,58622,58860,60256,63389,55034,55134,47112,51395,,,,,,,,
Belgium,Operator Holding Account,OLEON,Assenedestraat 2,Ertvelde (Evergem),14578,14578,14577,18420,18420,18420,18419,18419,14777,14520,14261,13998,13733,13465,13194,12922,15269,16209,16018,16104,15193,16614,16652,15929,15497,14695,14902,14216,,,,,15269,16209,16018,16104,15193,16614,16652,15929,15497,14695,14902,14216,,,,
Belgium,Operator Holding Account,OLEON,Assenedestraat 2,Ertvelde (Evergem),,,,,,,,,28865,28064,27271,26481,25698,24921,24148,23386,,,,,,,,,24028,23991,24953,25914,,,,,,,,,,,,,24028,23991,24953,25914,,,,
Belgium,Operator Holding Account,OLEON,Assenedestraat 2,Ertvelde (Evergem),,,,,,,,,30791,29703,28627,27567,26520,25490,24473,23475,,,,,,,,,28455,31679,29833,30402,,,,,,,,,,,,,28455,31679,29833,30402,,,,
Belgium,Operator Holding Account,Oliefabriek Vandamme,Europalaan 63,Deinze,11595,11595,11594,13905,13905,13905,13904,13904,,,,,,,,,11579,11591,13401,11710,12199,11975,8283,8365,Excluded,,,,,,,,11579,11591,13401,11710,12199,11975,8283,8365,,,,,,,,
Belgium,Operator Holding Account,Onduline,Avenue André Ernst 77,Petit Rechain,5735,5735,5735,5546,5546,5546,0,0,,,,,,,,,5844,6502,6989,6775,1558,,,,,,,,,,,,5844,6502,6989,6775,1558,,,,,,,,,,,
Belgium,Operator Holding Account,OSTEND BASIC CHEMICALS,Stationsstraat 123,Oostende,24420,24420,24421,18197,18197,18197,18196,18196,100973,99218,97445,95651,93841,92010,90157,88298,13132,11530,12800,22857,23273,15258,13846,16304,52933,51984,46094,48459,,,,,13132,11530,12800,22857,23273,15258,13846,16304,52933,51984,46094,48459,,,,
Belgium,Operator Holding Account,PARC DES EXPOSITIONS DE BRUXELLES,Place de Belgique,Bruxelles,1480,1480,1480,,,,,,,,,,,,,,1419,1310,1088,,,,,,,,,,,,,,1419,1310,1088,,,,,,,,,,,,,
Belgium,Operator Holding Account,PARLEMENT EUROPEEN,rue Wiertz,Bruxelles,9420,9420,9420,,,,,,,,,,,,,,6566,6192,6931,,,,,,,,,,,,,,18840,,849,,,,,,,,,,,,,
Belgium,Operator Holding Account,Picanol,Ter Waarde 50,Ieper,2261,2261,2261,,,,,,,,,,,,,,2244,2228,1983,,,,,,,,,,,,,,2244,2228,1983,,,,,,,,,,,,,
Belgium,Operator Holding Account,Picanol,Steverlyncklaan  15,Ieper,,,,,,,,,12140,11928,11715,11499,11282,11061,10839,10616,,,,,,,,,18611,16643,18294,19034,,,,,,,,,,,,,18611,16643,18294,19034,,,,
Belgium,Operator Holding Account,PITTSBURGH CORNING EUROPE,Albertkade 1,Tessenderlo,27533,27533,27533,28089,28089,28089,28089,28089,24650,24222,23789,23351,22909,22462,22010,21556,24428,24681,24795,27505,27170,25174,25804,21553,24940,24354,22845,20317,,,,,24428,24681,24795,27505,27170,25174,25804,21553,24940,24354,22845,20317,,,,
Belgium,Operator Holding Account,Porotherm Wall Systems,Kepel ter Bede 86,Kortrijk,18986,18986,18985,20962,20962,0,0,0,,,,,,,,,16118,14188,14237,286,0,,,,,,,,,,,,16118,14188,14237,286,,,,,,,,,,,,
Belgium,Operator Holding Account,PRAYON,Joseph Wauters 144,Engis,51532,51532,51532,61127,61127,61127,61128,61128,44833,44054,43266,42470,41665,40853,40030,39204,49777,47936,49427,47257,37269,49162,43071,45332,46228,46119,44414,45123,,,,,49777,47936,49427,47257,37269,49162,43071,45332,46228,46119,44414,45123,,,,
Belgium,Operator Holding Account,PRAYON,Joseph Wauters 144,Engis,163779,163778,163778,125870,125870,125871,125871,125872,146444,143900,141326,138726,136098,133444,130756,128061,125317,114365,101688,95273,73913,71242,55740,53345,59761,53915,61604,70111,,,,,125317,114365,101688,95273,73913,71242,55740,53345,59761,53915,61604,70111,,,,
Belgium,Operator Holding Account,Promat International,Bormstraat 24,Willebroek,24072,24072,24073,29046,29046,29046,33473,33474,16829,15922,14408,12937,11511,10129,8787,7493,17348,17571,18715,31198,28585,27116,29582,29468,29634,29417,28328,30318,,,,,17348,17571,18715,31198,28585,27116,29582,29468,29634,29417,28328,30318,,,,
Belgium,Operator Holding Account,PURATOS,Industrialaan 25,Groot-Bijgaarden,,,,,,,,,,,3172,0,0,0,0,0,,,,,,,,,,,6971,,,,,,,,,,,,,,,,6971,,,,,
Belgium,Operator Holding Account,RAFFINERIE TIRLEMONTOISE - TIENSE SUIKERRAFFINADERIJ,Tervurenlaan 182,Sint-Pieters-Woluwe,46573,46573,46573,,,,,,,,,,,,,,51259,48119,46498,,,,,,,,,,,,,,51259,48119,46498,,,,,,,,,,,,,
Belgium,Operator Holding Account,RAFFINERIE TIRLEMONTOISE - TIENSE SUIKERRAFFINADERIJ,Tervurenlaan 182,Sint-Pieters-Woluwe,33653,33653,33653,27428,27428,27428,27428,27429,,,,,,,,,24559,22114,20353,23731,100,61,11,0,,,,,,,,,24559,22114,20353,23731,100,61,11,,,,,,,,,
Belgium,Operator Holding Account,RAFFINERIE TIRLEMONTOISE - TIENSE SUIKERRAFFINADERIJ,Tervurenlaan 182,Sint-Pieters-Woluwe,26205,26205,26205,25955,25955,25956,25956,25956,21365,17169,16865,16561,16257,15953,15649,15345,23583,18215,20925,22851,23477,25004,25576,25513,21752,21396,20640,14591,,,,,23583,18215,20925,22851,23477,25004,25576,25513,21752,21396,20640,14591,,,,
Belgium,Operator Holding Account,RAFFINERIE TIRLEMONTOISE - TIENSE SUIKERRAFFINADERIJ,Tervurenlaan 182,Sint-Pieters-Woluwe,73876,73876,73876,96987,96987,96987,96988,96988,52393,51483,50562,49632,48692,47742,46781,45816,65248,62588,64492,61732,58802,63304,65971,57141,67967,68160,64825,52824,,,,,65248,62588,64492,61732,58802,63304,65971,57141,67967,68160,64825,52824,,,,
Belgium,Operator Holding Account,RAFFINERIE TIRLEMONTOISE - TIENSE SUIKERRAFFINADERIJ,Tervurenlaan 182,Sint-Pieters-Woluwe,160775,160775,160776,147268,147268,147268,147267,147267,69779,68567,67341,66102,64850,63585,62304,61020,129040,136056,108515,142162,130219,140363,138432,135540,108142,110519,118373,108359,,,,,129040,136056,108515,142162,130219,140363,138432,135540,108142,110519,118373,108359,,,,
Belgium,Operator Holding Account,RECYBOIS,Zone Industrielle de Ruette – Latour,Virton,,,,0,0,0,2421,3228,,,,,,,,,,,,,,,0,0,Excluded,,,,,,,,,,,,,,,,,,,,,,,
Belgium,Operator Holding Account,REGIE DES BATIMENTS,Avenue de la Toison d'Or 87 bte 2,Bruxelles,3940,3940,3940,,,,,,,,,,,,,,1988,3937,4249,,,,,,,,,,,,,,1988,3937,4249,,,,,,,,,,,,,
Belgium,Operator Holding Account,Rendac,Fabriekstraat 2,Denderleeuw,21984,21984,21983,15230,15230,15230,15229,15229,21638,19365,17152,15007,12928,10916,8970,7097,4881,7567,10210,14511,10659,10955,22155,19477,21790,22225,23879,23822,,,,,4881,7567,10210,14511,10659,10955,22155,19477,21790,22225,23879,23822,,,,
Belgium,Operator Holding Account,RENOGEN,"Born, Holzstrasse 5",Born-Amel,,,,11363,13810,13810,13810,13810,12254,10967,9715,8504,0,0,0,0,,,,406,523,467,377,57,0,0,833,334,,,,,,,,406,523,467,377,57,,,833,334,,,,
Belgium,Operator Holding Account,Riva,Rue de L'Acier  1 BP1002,Charleroi,173958,173957,173957,124964,124964,124964,124964,124964,100056,98318,96560,94783,92987,91174,89338,87496,103964,108410,106219,104507,91588,91930,98881,95634,93005,95124,89398,77733,,,,,103964,108410,106219,104507,91588,91930,98881,95634,93005,95124,89398,77733,,,,
Belgium,Operator Holding Account,ROUSSELOT,Meulestedekaai 81,Gent,31584,31584,31583,30626,30626,30626,30627,30627,26063,25611,25153,24690,24222,23750,23272,22792,32067,28602,9706,10336,9476,8455,27085,21114,21537,19837,21308,23647,,,,,32067,28602,9706,10336,9476,8455,27085,21114,21537,19837,21308,23647,,,,
Belgium,Operator Holding Account,RÜTGERS Belgium,Vredekaai 18,Zelzate,,,,0,0,0,36388,36270,69270,68067,66848,65619,64376,63120,61849,60574,,,,,,,29130,28503,66119,67755,79274,82440,,,,,,,,,,,29130,28503,66119,67755,79274,82440,,,,
Belgium,Operator Holding Account,RWE GENERATION BELGIUM,Nieuwe Weg 1,Zwijndrecht,0,689000,551000,,853314,446657,446657,446656,,,,,,,,,0,64090,292358,418247,413794,436446,387999,443755,410991,398381,390322,392443,,,,,,64090,292358,418247,413794,436446,387999,443755,410991,398381,390322,392443,,,,
Belgium,Operator Holding Account,SABCA,Chaussée de Haecht 1470,Bruxelles,3520,3520,3520,,,,,,,,,,,,,,3111,2963,2794,,,,,,,,,,,,,,3111,2963,2794,,,,,,,,,,,,,
Belgium,Operator Holding Account,SADEPAN CHIMICA,Henry Fordlaan 68,GENK,,,,,,,,,35923,34978,34035,33098,32166,31240,30318,29406,,,,,,,,,9138,8920,9169,11037,,,,,,,,,,,,,9138,8920,9169,11037,,,,
Belgium,Operator Holding Account,SAINT-GOBAIN CONSTRUCTION PRODUCTS BELGIUM,Sint-Jansweg 9,Kallo (Beveren),,,,45102,45102,45102,45102,45102,31631,38851,38157,37455,36745,36029,35303,34575,,,,48778,35306,36829,37127,35432,34429,32700,33976,37691,,,,,,,,48778,35306,36829,37127,35432,34429,32700,33976,37691,,,,
Belgium,Operator Holding Account,SAINT - GOBAIN GLASS COATING BENELUX,Rue Des Glaces Nationales 169,Auvelais,242503,242503,242503,273157,273157,273158,273158,273158,151108,0,0,0,0,0,0,0,226651,246823,185962,169064,125138,135628,132837,131098,20893,,,,,,,,226651,246051,186734,169064,125138,135628,132837,131098,20893,,,,,,,
Belgium,Operator Holding Account,SAINT ROCH - COUVIN,Rue de la Gare 36,Couvin,4659,4660,4660,5729,5730,0,0,0,,,,,,,,,3191,2938,2298,2404,,,,,,,,,,,,,3191,2938,2298,2404,,,,,,,,,,,,
Belgium,Operator Holding Account,SAPA RC Profiles,Route de Wallonie  1,Ghlin,14188,14189,14189,,,,,,,,,,,,,,10668,11869,12561,,,,,,,,,,,,,,10668,11869,12561,,,,,,,,,,,,,
Belgium,Operator Holding Account,SAPPI LANAKEN,Montaigneweg 2,Lanaken,224921,224921,224922,234030,234030,234030,234031,234031,139145,136728,134283,131812,129314,126792,124240,121678,191302,189707,209156,193951,161786,206439,189306,187858,164412,153641,194826,196087,,,,,191302,189707,209156,193951,161786,206439,189306,187858,164412,153641,194826,196087,,,,
Belgium,Aircraft Operator Account,SAUDI ARABIAN AIRLINES CORPORATION,P.O.Box 620 C.C.899,Jeddah,,,,,,,,,6230,2992,2992,2992,2992,2992,2992,2992,,,,,,,,14337,14309,7103,400,4125,,,,,,,,,,,,,,,32958,7316,,,,
Belgium,Operator Holding Account,SCHEERDERS VAN KERCHOVE'S VERENIGDE FABRIEKEN NV,Aerschotstraat 114,Sint-Niklaas,9883,9883,9884,11915,11915,11915,11914,11914,4467,0,0,0,0,0,0,0,5370,2432,0,705,497,5485,1192,3567,132,70,,,,,,,5370,2432,,705,497,5485,1192,3567,132,70,,,,,,
Belgium,Operator Holding Account,SCR-SIBELCO,Plantin en Moretuslei 1A,Antwerpen,,,,18590,18590,18590,18591,18591,13833,12381,10966,9594,8265,6979,5735,4537,,,,18622,17233,20000,20416,19467,19256,20697,23754,25573,,,,,,,,18622,17233,20000,20416,19467,19256,20697,23754,25573,,,,
Belgium,Operator Holding Account,SCREDEMA,Grand'Route 260,Gaurain-Ramecroix (Tournai),,,,,,,,,4037,3614,3201,1490,2412,2037,1674,1325,,,,,,,,,5419,4440,2685,3479,,,,,,,,,,,,,5419,4440,2685,3479,,,,
Belgium,Operator Holding Account,SEGAL,Chaussée de Ramioul 50,Ivoz Ramet (Flémalle),43947,43947,43947,24643,24644,24644,24644,24644,26769,26304,25833,25358,24877,24392,23901,23408,27415,29322,29083,25388,25838,28611,26823,27485,27597,28626,28606,29432,,,,,27415,29322,29083,25388,25838,28611,26823,27485,27597,28626,28606,29432,,,,
Belgium,Aircraft Operator Account,SINGAPORE AIRLINES CARGO PTE LTD,"Airline House, Airline Road 25",Singapore,,,,,,,,764303,7628,7628,7628,7628,7628,7628,7628,7628,,,,,,,,9404,9070,7946,6813,6799,,,,,,,,,,,,9404,,17016,6813,6799,,,,
Belgium,Operator Holding Account,SOFIDEL BENELUX,Adolf Stocletlaan 3,Duffel,30817,30817,30816,28476,28476,28476,28476,28476,27746,27263,26776,26284,25785,25282,24774,24263,34221,28496,27805,30894,30408,30163,22847,28175,27735,28601,29723,30662,,,,,34221,28496,27805,30894,30408,30163,22847,28175,27735,28601,29723,30662,,,,
Belgium,Operator Holding Account,SOLAE BELGIUM,Zwaanhofweg 1,Ieper,,,,48069,48069,48069,48069,48069,30366,27175,33828,32629,31447,30282,29127,27995,,,,35496,31316,38117,35083,36489,38103,37967,35423,35429,,,,,,,,35496,31316,38117,35083,36489,38103,37967,35423,35429,,,,
Belgium,Operator Holding Account,SOLAR TURBINES,Avenue des Etats-Unis 1,Gosselies (Charleroi),4732,4731,4731,5098,5098,5098,5098,5099,2889,2839,2788,2737,2685,2633,2580,2527,3160,3146,3341,2638,2107,2116,2427,2002,2275,1932,1836,1792,,,,,3160,3146,3341,2638,2107,2116,2427,2002,2275,1932,1836,1792,,,,
Belgium,Operator Holding Account,Solarec,Rue de Saint-Hubert 75,Recogne (Libramont-Chevigny),39064,39063,39063,40073,40073,40074,40074,40074,26709,26028,25350,24675,24002,23333,22665,22005,31414,28726,27732,31138,29935,31575,30556,25809,30256,41200,42926,41623,,,,,31414,28726,27732,31138,29935,31575,30556,25809,30256,41200,42926,41623,,,,
Belgium,Operator Holding Account,Solvin,Ransbeekstraat 310,Neder-over-Heembeek,,,,,,,,,8466,8318,8169,8019,7867,7714,7559,7403,,,,,,,,,15518,16562,14817,14113,,,,,,,,,,,,,15518,16562,14820,14110,,,,
Belgium,Operator Holding Account,SONAC GENT,Braamtweg 2,Gent,8486,8486,8487,11800,11800,11800,11801,11801,8192,7331,6493,5682,4894,4133,3396,2687,10239,10994,12330,11501,12414,11743,11868,11899,12026,10111,11386,12124,,,,,10239,10994,12330,11501,12414,11743,11868,11899,12026,10111,11386,12124,,,,
Belgium,Operator Holding Account,Sonaca,Route Nationale 5,Gosselies (Charleroi),14737,14738,14738,12994,12995,12995,12995,12995,11481,11281,11079,10876,10670,10462,10250,10039,12404,12472,12612,12463,10820,11880,9459,9417,9206,7721,8284,8917,,,,,12404,12472,12612,12463,10820,11880,9459,9417,9206,7721,8284,8917,,,,
Belgium,Aircraft Operator Account,SOUTHERN AIR INC,7310 Turfway Road,Florence,,,,,,,,499,216,216,216,216,216,216,216,216,,,,,,,,335,2398,4476,2723,3660,,,,,,,,,,,,335,,6874,2723,3660,,,,
Belgium,Operator Holding Account,"SPA MONOPOLE, COMPAGNIE FERMIERE DE SPA",Rue Auguste Laporte 34,spa,10702,10702,10702,9231,12929,12929,12930,12930,6196,5545,4912,0,0,0,0,0,7678,7238,6189,6812,10546,11333,9921,9743,10062,9587,8964,,,,,,7678,7238,6189,6813,10546,11333,9921,9743,10062,9587,8964,,,,,
Belgium,Operator Holding Account,SPANOLUX,Rue de la Forêt 2,Vielsalm,37906,37907,37907,28918,28918,28918,28919,28919,91807,90212,58218,50937,43881,37052,30445,24085,22102,21557,22975,17698,10673,7403,6275,6821,6232,6946,7055,7183,,,,,22102,21557,22975,17698,10673,7403,6275,6821,6232,6946,7055,7183,,,,
Belgium,Operator Holding Account,Statoil Belgium,"Barlenhuisstraat 1, kaai 524",Zeebrugge,,,,,,,,,,,,,,,,,0,,,,,,,,,,,,,,,,,,,,,,,,,,,,,,,
Belgium,Operator Holding Account,Steenbakkerij Vande Moortel,Scheldekant 5,Oudenaarde,29082,29082,29081,42380,42380,42380,42380,42380,23445,23038,22626,22209,21789,21364,20935,20503,23603,23377,32723,27694,24023,23739,25201,26222,23343,27759,29764,30764,,,,,23603,23377,32723,27694,24023,23739,25201,26222,23343,27759,29764,30764,,,,
Belgium,Operator Holding Account,STEINZEUG - KERAMO,Paalsteenstraat 36,Hasselt,30076,30076,30077,28336,28336,28336,28336,28335,17407,17104,8434,16489,16177,15861,15542,15222,18434,28119,21295,17675,9881,8866,8228,11738,9053,7513,14433,11938,,,,,18434,28119,21295,17675,9881,8866,8228,11738,9053,7513,14433,11938,,,,
Belgium,Operator Holding Account,Stemtex,Rue Slar 49,Stembert,10000,10000,10000,,,,,,,,,,,,,,1036,432,0,,,,,,,,,,,,,,1036,432,,,,,,,,,,,,,,
Belgium,Operator Holding Account,STORA ENSO LANGERBRUGGE,Wondelgemkaai 200,Gent,51817,51817,298075,78184,78184,78184,395218,262288,164135,161285,158400,155486,152540,149565,146554,143531,30613,36703,30244,50323,43082,120201,132896,107614,100854,117126,109735,108786,,,,,30613,36703,30244,50323,43082,120201,132896,107614,100854,117126,109735,108786,,,,
Belgium,Operator Holding Account,STRUIK FOODS BELGIUM,Brechtsebaan 913,Schoten,,,,0,0,0,0,17494,3792,3393,3006,2630,2266,1913,1572,1243,,,,,2853,5693,5477,6288,6466,5996,6377,6020,,,,,,,,,2853,5693,5477,6288,6466,5996,6377,6020,,,,
Belgium,Operator Holding Account,STRUIK FOODS BELGIUM,Brechtsebaan 913,Schoten,,,,,,,,,,,,,,,,,4951,,,,,,,,,,,,,,,,4951,,,,,,,,,,,,,,,
Belgium,Operator Holding Account,T-POWER,Gulledelle 96,Sint-Lambrechts-Woluwe (Brussel),,,,0,0,0,0,1613855,0,0,0,0,0,0,0,0,,,,,,165,389640,186520,157624,514236,792483,919897,,,,,,,,,,165,389640,186520,157624,514236,792483,919897,,,,
Belgium,Operator Holding Account,TAMINCO,Pantserschipstraat 207,Gent,44121,44121,44122,87592,87592,87592,87592,87593,48516,47674,46821,45959,45088,44210,43320,42426,34807,41112,43992,41339,24865,11020,8571,12478,12705,13408,14694,14570,,,,,34807,41112,43992,41339,24865,11020,8571,12478,12705,13408,14694,14570,,,,
Belgium,Operator Holding Account,Techspace Aéro,Route de Liers  121,Milmort,4233,4234,4234,,,,,,,,,,,,,,4019,4285,4498,,,,,,,,,,,,,,4019,4285,4498,,,,,,,,,,,,,
Belgium,Operator Holding Account,TECOMA,Spiegellaan 39,Merchtem,,,,0,0,0,0,47362,0,0,0,0,0,0,0,0,,,,,,,19500,36611,37023,34647,36903,45806,,,,,,,,,,,19500,36611,37023,34647,36903,45806,,,,
Belgium,Operator Holding Account,TEREOS STARCH & SWEETENERS BELGIUM,Burchtstraat 10,Aalst,215697,215697,215697,236084,236084,236084,236085,236085,120027,117938,115850,113762,111673,109585,107496,105407,211430,202924,193978,207152,197975,195471,175496,196031,195235,182174,185427,188468,,,,,211430,202924,193978,207152,197975,195471,175496,196031,195235,182174,185427,188468,,,,
Belgium,Operator Holding Account,TESSENDERLO GROUP NV,Troonstraat 130,Elsene (Brussel),,,,151935,151935,151935,151934,151934,161091,158293,56957,55908,54848,53779,52697,51611,,,,131874,65961,127788,141928,120548,173060,80169,87918,94140,,,,,,,,131874,65961,127788,141928,120548,173060,80169,87918,94140,,,,
Belgium,Operator Holding Account,TESSENDERLO GROUP NV,Troonstraat 130,Elsene (Brussel),44253,44253,44252,48830,48830,48830,48829,48829,29297,28788,28273,27753,27228,26697,26159,25620,39905,38293,35313,35073,35476,36424,35187,35247,28578,26629,28519,28467,,,,,39905,38293,35313,35073,35476,36424,35187,35247,28578,26629,28519,28467,,,,
Belgium,Operator Holding Account,BRUSSELS AIRPORT COMPANY,Auguste Reyerslaan 80,Schaarbeek,,,,26359,26359,26359,26359,26359,,,,,,,,,,,,19938,19377,22668,17081,18081,Excluded,,,,,,,,,,,19938,19377,22668,17081,18081,,,,,,,,
Belgium,Aircraft Operator Account,TNT Airways,Rue de l'Aéroport 101,Grâce-Hollogne,,,,,,,,575833,110679,110679,110679,110679,110679,110679,110679,110679,,,,,,,,641252,268863,267219,283467,311575,,,,,,,,,,,,641252,,536082,283467,311575,,,,
Belgium,Operator Holding Account,TOTAL OLEFINS ANTWERP,Scheldelaan 10,Antwerpen,320274,320274,320273,1300862,1300862,1300862,1300862,1300862,946812,930367,590317,579455,568476,557392,546168,534905,262228,242313,250017,1056457,925773,1021749,1150370,958768,860490,882099,859042,700659,,,,,262228,242313,250017,1056457,925773,1021749,1150370,958768,860490,882099,859042,700659,,,,
Belgium,Operator Holding Account,TOTAL PETROCHEMICALS ELASTOMERS,Nijverheidsstraat 52,Brussel,124086,124086,124087,,,,,,,,,,,,,,123930,85339,46926,,,,,,,,,,,,,,123930,85339,46926,,,,,,,,,,,,,
Belgium,Operator Holding Account,TOTAL PETROCHEMICALS FELUY,Zoning Industriel Zone C,Feluy (Seneffe),98724,98725,98725,90357,90357,90357,112740,139971,130786,128515,126217,123895,121546,119177,116777,114369,88842,87966,87374,83117,90198,92059,109269,115388,165280,158026,168856,164019,,,,,88842,87966,87374,83117,90198,92059,109269,115388,165280,158026,168856,164019,,,,
Belgium,Operator Holding Account,TOTAL POLYMERS ANTWERP,Scheldelaan 4,Antwerpen,30738,31286,31286,38760,38760,38760,38759,38759,45091,44308,43515,42714,41905,41087,40260,39430,2065,3922,0,33281,31149,30442,26374,23749,30201,28637,28946,28482,,,,,2065,3922,,33281,31149,30442,26374,23749,30201,28637,28946,28482,,,,
Belgium,Operator Holding Account,TOTAL RAFFINADERIJ ANTWERPEN,Scheldelaan 16,Antwerpen,3971863,3971863,3971863,3921430,3921430,3921430,3921430,3921430,2974932,2923259,2870980,2818155,2764762,2710850,2656263,2601489,3088102,3334682,3285446,4021016,3776763,3985956,3261352,3566142,3645538,3621037,3780955,3719356,,,,,3088102,3334682,3354553,4021016,3776763,3985956,3261352,3566142,3645538,3621037,3780955,3719356,,,,
Belgium,Operator Holding Account,TRINSEO BELGIUM,Havenlaan 7,Tessenderlo,,,,,,,,,9234,9074,8911,8747,8582,8414,8245,8075,,,,,,,,,8996,8701,6779,6639,,,,,,,,,,,,,8996,8701,6779,6639,,,,
Belgium,Aircraft Operator Account,TUI AIRLINES BELGIUM,Nationale Luchthaven van Brussel 40P,ZAVENTEM,,,,,,,,410201,97982,97982,97982,97982,97982,97982,97982,97982,,,,,,,,214059,156570,176971,192372,263053,,,,,,,,,,,,214059,,333541,192372,263053,,,,
Belgium,Operator Holding Account,UCB Pharma,Allée de la Recherche 60,Anderlecht,12568,12567,12567,14346,14347,14347,14347,14347,15032,14771,14506,14240,13970,13697,13422,13145,12675,10499,10247,10835,10229,11411,9960,9618,11534,10660,10511,10552,,,,,12675,10499,10248,10835,10229,11411,9960,9618,11534,10661,10511,10552,,,,
Belgium,Operator Holding Account,UCO Sportswear International,Maisstraat 142,Gent,9451,9451,9451,8900,8900,0,0,0,,,,,,,,,7881,7863,7619,5344,69,,,,,,,,,,,,7881,7863,7619,5344,69,,,,,,,,,,,
Belgium,Operator Holding Account,Umicore,Broekstraat 31,Brussel,32621,32621,32621,206864,206864,206864,206864,206864,177826,174737,171612,168454,165263,162041,158778,155503,36776,36876,30571,162278,149399,136775,145169,137196,199572,195026,198613,204522,,,,,36776,36876,30571,162278,149399,136775,145169,137196,199572,199572,194067,204522,,,,
Belgium,Operator Holding Account,Umicore,Broekstraat 31,Brussel,111032,111032,111031,148970,148970,148970,148970,148971,39757,39066,38367,37661,36949,36227,35498,34766,109905,94121,94154,116525,112405,78027,74366,75950,77824,70212,75363,74386,,,,,109905,94121,94154,116525,112405,78027,74366,75950,77824,70212,75363,74386,,,,
Belgium,Operator Holding Account,UNILIN,Ooigemstraat 3,Wielsbeke (Ooigem),32390,32390,32390,29053,29053,29053,29053,29052,27710,27228,17572,15374,13244,11183,9188,7269,32223,29947,30582,23655,11187,10566,10804,9108,8256,9842,10627,11577,,,,,32223,29947,30582,23655,11187,10566,10804,9108,8526,9572,10627,11577,,,,
Belgium,Operator Holding Account,UNILIN,Ooigemstraat 3,Wielsbeke (Ooigem),,,,39680,39680,39680,39681,39681,50049,49179,31737,27768,23922,20198,16598,13130,,,,32217,30148,38706,31028,23832,22508,23461,23879,26737,,,,,,,,32217,30148,38706,31028,23832,22508,23461,23879,26737,,,,
Belgium,Operator Holding Account,UNILIN,Ooigemstraat 3,Wielsbeke (Ooigem),,,,18335,18335,18335,18335,18336,36937,36295,23422,12598,0,0,0,0,,,,11688,8733,12158,8544,8460,6717,5821,5728,0,,,,,,,,11688,8733,12158,8544,8460,6717,5821,5728,,,,,
Belgium,Operator Holding Account,UNILIN,Ooigemstraat 3,Wielsbeke (Ooigem),1300,1300,1299,6236,6236,6236,6236,6237,11641,11438,7382,6458,5564,4698,3861,3053,1554,1629,985,3718,3216,3125,2833,3739,5402,6428,6181,7042,,,,,1554,1629,985,3718,3216,3125,2833,3739,5402,6428,6181,7042,,,,
Belgium,Operator Holding Account,UNIVERSITAIR ZIEKENHUIS GENT,De Pintelaan 185,Gent,,,,14202,14202,14202,14202,14202,7461,6676,2957,2587,2229,1882,1547,1224,,,,4591,4381,4758,3597,3454,7542,3194,3787,3229,,,,,,,,4591,4381,4758,3597,3454,7542,3194,3787,3229,,,,
Belgium,Operator Holding Account,UNIVERSITE DE LIEGE - COMMUNAUTE FRANCAISE,Place du Vingt-Août 7,Liège,14661,14660,14660,15740,15740,15740,15740,15741,11003,9847,8722,7631,6574,5551,4561,3608,14722,14978,13671,14540,14267,16278,12468,11103,14281,5930,6808,6724,,,,,14722,14978,13671,14540,14267,16278,12468,11103,14281,5930,6808,6724,,,,
Belgium,Operator Holding Account,URSA BENELUX,Pitantiestraat 127,Waregem,14019,14019,14019,14019,14019,14019,14019,14019,9248,9087,8925,8761,8595,8427,8257,8087,14700,14655,15584,15063,18890,13831,12496,13613,12034,12251,10130,13977,,,,,14700,14655,15584,15063,18890,13831,12496,13613,12034,12251,10130,13977,,,,
Belgium,Operator Holding Account,UTEXBEL,César Snoecklaan 30,Ronse,10196,10196,10195,13891,13891,13891,13892,13892,10861,10673,10481,10289,10094,9897,9698,9498,8830,8392,8280,10433,8566,10085,10447,9559,8946,9262,9998,9919,,,,,8830,8392,8280,10433,8566,10085,10447,9559,8946,9262,9998,9919,,,,
Belgium,Operator Holding Account,UZ Leuven,Herestraat 49,Leuven,,,,15425,15425,15425,15425,15425,8259,7392,6547,5728,4935,4167,3423,2708,,,,10508,10585,11773,10476,11722,13204,11583,11839,12837,,,,,,,,10508,10585,11773,10476,11722,13204,11583,11893,12837,,,,
Belgium,Operator Holding Account,UZ Leuven,Herestraat 49,Leuven,,,,,,,,,3634,3252,2881,0,0,0,0,0,,,,,,,,,4873,3971,4494,,,,,,,,,,,,,,4873,3971,4494,,,,,
Belgium,Operator Holding Account,Van Hool,Bernard Van Hoolstraat 58,Lier,3299,3299,3300,,,,,,,,,,,,,,2856,3054,2738,,,,,,,,,,,,,,2856,3054,2738,,,,,,,,,,,,,
Belgium,Operator Holding Account,VANDERSANDEN STEENFABRIEKEN,Riemsterweg 300,BILZEN,35069,35069,35068,36511,36511,36511,36511,36511,23026,22626,22221,21813,21399,20982,20559,20136,30330,32310,31479,29274,27355,21842,26620,24808,20859,26308,27569,27808,,,,,30330,32310,31479,29274,27355,21842,26620,24808,20859,26308,27569,27808,,,,
Belgium,Operator Holding Account,VANDERSANDEN STEENFABRIEKEN,Riemsterweg 300,BILZEN,4990,4990,4990,4726,4726,4726,4725,4725,,,,,,,,,4633,4320,4614,4226,2708,2964,2641,0,,,,,,,,,4633,4320,4614,4226,2708,2964,2641,,,,,,,,,
Belgium,Operator Holding Account,VANDERSANDEN STEENFABRIEKEN,Riemsterweg 300,BILZEN,39857,39857,39856,40499,40499,40499,40499,40500,27867,27383,26893,26398,25898,25393,24882,24369,33069,34110,31965,31325,28889,27668,29145,27714,26094,29010,31755,29572,,,,,33069,34110,31965,31325,28889,27668,29145,27714,26094,29010,31755,29572,,,,
Belgium,Operator Holding Account,VBG,Dellestraat 25,Heusden-Zolder,,,,,,,,,4824,4317,3824,3346,2883,2434,2000,1582,,,,,,,,,5040,5418,4864,3711,,,,,,,,,,,,,5040,5418,4864,3711,,,,
Belgium,Operator Holding Account,VEOLIA,Quai Fernand Demets 52,Bruxelles,19480,19481,19481,17044,17044,17044,17044,17045,2355,2108,1868,1634,1409,1191,979,775,13353,17467,19310,15944,14643,6607,10288,10063,9981,9309,8011,8410,,,,,13353,17467,27622,15944,14643,6607,10288,10063,9981,9309,8011,8410,,,,
Belgium,Operator Holding Account,VEOLIA,Quai Fernand Demets 52,Bruxelles,6172,6173,6173,6078,6078,6079,6079,6079,9568,8562,7584,6635,5716,4827,3966,3138,6618,4477,3242,5012,5581,10390,5520,6804,7226,4684,5846,5884,,,,,6618,4477,3242,5012,5581,10390,5520,6804,7726,4184,5846,5884,,,,
Belgium,Operator Holding Account,VEURNE SNACKFOODS,Albert I laan 33,Veurne,13914,13914,13914,23670,25537,26062,26529,27067,15444,13821,12241,10710,9227,7791,6401,5064,17829,19331,20151,21085,20891,22575,21610,21641,22242,21590,22229,22898,,,,,17829,19331,20151,21085,20891,22575,21610,21641,22242,21590,22229,22898,,,,
Belgium,Operator Holding Account,VFT Belgium,Vredekaai 18,Zelzate,33362,33362,33363,,,,,,,,,,,,,,29243,30432,29987,,,,,,,,,,,,,,29243,30432,29987,,,,,,,,,,,,,
Belgium,Operator Holding Account,VIABUILD BETON EN ASFALT,Leuvensesteenweg 300,Boortmeerbeek,,,,,,,,,2431,2176,1927,1686,1453,1227,1008,797,,,,,,,,,2743,3873,3139,2447,,,,,,,,,,,,,2743,3873,3139,2447,,,,
Belgium,Operator Holding Account,VISKO TEEPAK,Maatheide 81,Lommel,27962,27962,27961,37298,37298,37298,37298,37298,30476,29947,29411,28871,28323,27771,27212,26651,32764,34713,33651,37310,35777,35178,31751,32842,33172,31992,35167,36592,,,,,32764,34713,33651,37310,35777,35178,31751,32842,33172,31992,35167,36592,,,,
Belgium,Operator Holding Account,VLAAMSE INSTELLING VOOR TECHNOLOGISCH ONDERZOEK,Boeretang 200,Mol,,,,6379,7403,7403,7403,7403,5826,5213,4618,4041,3481,2939,2415,1911,,,,6960,8061,9598,8272,9120,9104,7501,7694,7601,,,,,,,,6960,8061,9598,8272,9120,9104,7501,7694,7601,,,,
Belgium,Aircraft Operator Account,VLM Airlines,Bedrijvenzone Diegem-Luchthaven 45,Machelen (Brab.),,,,,,,,184172,52656,52656,52656,52656,52656,52656,52656,52656,,,,,,,,172816,63578,75917,56722,50830,,,,,,,,,,,,172816,,139495,56722,50830,,,,
Belgium,Aircraft Operator Account,VLM AIRLINES,"LUCHTHAVENLEI 1, BUS 50",Deurne (Antwerpen),,,,,,,,,,,,,,,,,,,,,,,,,,,12566,9503,,,,,,,,,,,,,,,12378,188,,,,
Belgium,Operator Holding Account,VOLVO CAR BELGIUM,John Kennedylaan 25,Gent,47196,47196,47196,57009,57009,57009,57010,57010,25233,22582,30440,29879,29313,28741,28163,27583,37877,33630,30663,36215,34040,39824,36642,35889,35037,28271,29682,23899,,,,,37877,33630,30663,36215,34040,39824,36642,35889,35037,28271,29682,23899,,,,
Belgium,Operator Holding Account,Volvo Group Belgium,Smalleheerweg 31,Gent,3880,3880,3881,3711,3711,3711,3712,3712,0,0,0,0,0,0,0,0,4022,3758,2392,1871,50,90,144,391,Excluded,Excluded,Excluded,Excluded,,,,,4022,3758,3861,1871,50,90,144,391,,,,,,,,
Belgium,Operator Holding Account,VPK PAPER,Oude Baan 120,Dendermonde,200593,200593,200594,242137,242137,242137,242136,242136,112470,110279,108075,105858,103629,101390,99134,96879,198825,218881,187940,203760,207442,204179,207931,204050,203932,208374,207599,205319,,,,,198825,218881,187940,203760,207442,204179,207931,204050,203932,208374,207599,205319,,,,
Belgium,Operator Holding Account,VRT,August Reyerslaan 52 9L37,Brussel,5540,5540,5540,3779,3779,3779,3779,3779,,,,,,,,,4309,3413,3039,3150,3449,4218,3299,3687,Excluded,,,,,,,,4309,3413,3039,3150,3449,4218,3299,3687,,,,,,,,
Belgium,Operator Holding Account,VYNOVA BELGIUM,Heilig Hartlaan 21,Tessenderlo,95424,95424,95425,211422,211422,211422,211421,211421,104647,102829,100991,99132,97254,95358,93437,91511,71112,75149,60449,164014,150890,159832,138950,133077,157505,174246,176179,175056,,,,,71112,75149,60449,164014,150890,159832,138950,133077,157505,174246,176179,175056,,,,
Belgium,Operator Holding Account,VYNOVA BELGIUM,Heilig Hartlaan 21,Tessenderlo,,,,,,,,,55796,54828,53848,52857,51855,50843,49820,48793,,,,,,,,,1546,1082,1233,1024,,,,,,,,,,,,,1546,1082,1233,1024,,,,
Belgium,Operator Holding Account,W-Cycle,A. Denystraat 90-92,Lot-Beersel,,,,0,0,0,0,0,,,,,,,,,,,,55,36,25,21,19,Excluded,,,,,,,,,,,55,36,25,21,19,,,,,,,,
Belgium,Operator Holding Account,WIENERBERGER,Kapel ter Bede 121,Kortrijk,14642,14643,14643,14002,14002,14002,14002,14002,9161,9002,8841,8679,8514,8348,8180,8011,11337,11946,13358,13130,11289,12439,13714,14114,11450,11191,9660,9627,,,,,11337,11946,13358,13130,11289,12439,13714,14114,11450,11191,9660,9627,,,,
Belgium,Operator Holding Account,WIENERBERGER,Kapel ter Bede 121,Kortrijk,64967,64967,64967,73219,73219,73219,73218,73218,25383,24941,24495,24045,23590,23129,22664,22196,61059,58573,58328,29840,20841,19991,28378,21126,21322,26860,28608,23984,,,,,61059,58573,58328,29840,20841,19991,28378,21126,21322,26860,28608,23984,,,,
Belgium,Operator Holding Account,WIENERBERGER,Kapel ter Bede 121,Kortrijk,6028,6028,6028,6633,6633,6633,6633,6634,4747,0,0,0,0,0,0,0,5535,5752,6111,6503,5187,4244,5167,3739,1707,Excluded,,,,,,,5535,5752,6111,6768,5187,4244,5167,3474,1707,,,,,,,
Belgium,Operator Holding Account,WIENERBERGER,Kapel ter Bede 121,Kortrijk,26971,26971,26970,33302,33302,33302,33302,33303,0,0,0,0,0,0,0,0,23265,21281,12455,21947,24826,18580,22563,3,0,,,,,,,,23265,21281,12455,21947,24826,18580,22563,3,,,,,,,,
Belgium,Operator Holding Account,WIENERBERGER,Kapel ter Bede 121,Kortrijk,34708,34708,34707,34524,47377,45980,45980,45979,24000,23583,23162,22735,22305,21870,21429,20988,21846,25606,19153,29944,28929,23005,25805,23736,27255,33987,38157,37616,,,,,21846,25606,19153,29944,28929,23005,25805,23736,27255,33987,38157,37616,,,,
Belgium,Operator Holding Account,WIENERBERGER,Kapel ter Bede 121,Kortrijk,10496,10496,10497,12103,12103,12103,12103,12103,1841,1810,1777,1744,1712,1678,1644,1610,11546,5373,4943,5078,4984,4026,4786,4528,4035,4053,3809,3698,,,,,11546,5373,4943,5078,4984,4026,4786,4528,4035,4053,3809,3698,,,,
Belgium,Operator Holding Account,WIENERBERGER,Kapel ter Bede 121,Kortrijk,20922,20922,20921,13450,13450,13450,13451,13451,9306,9145,8982,8816,8650,8481,8310,8138,20111,14363,12937,10762,6706,6935,6929,5765,5347,5288,4910,6091,,,,,20111,14363,12937,10762,6706,6935,6929,5765,5347,5288,4910,6091,,,,
Belgium,Operator Holding Account,WIENERBERGER,Kapel ter Bede 121,Kortrijk,50105,50105,50106,79820,79820,79820,79820,79820,50275,49401,48518,47624,46723,45812,44889,43963,52991,65765,70077,60761,41955,51219,49380,42386,41412,51868,52468,41829,,,,,52991,65765,70077,60761,41955,51219,49380,42386,41412,51868,52468,41829,,,,
Belgium,Operator Holding Account,WIENERBERGER,Kapel ter Bede 121,Kortrijk,8608,8608,8609,9711,9711,9711,0,0,,,,,,,,,7277,8286,7770,6336,37,0,,,,,,,,,,,7277,8286,7770,6336,37,,,,,,,,,,,
Belgium,Operator Holding Account,WIENERBERGER,Kapel ter Bede 121,Kortrijk,32379,32379,32378,28033,28033,28033,28034,28034,26310,16572,16276,24924,24452,23975,23492,23008,26597,29579,30854,27637,25416,19889,19826,24042,17198,20970,20400,19415,,,,,26597,29579,30854,27637,25416,19889,19826,24042,17198,20970,20400,19415,,,,
Belgium,Operator Holding Account,WIENERBERGER,Kapel ter Bede 121,Kortrijk,12829,12830,12830,13521,13521,13522,0,0,,,,,,,,,12144,11852,11506,10964,1973,,,,,,,,,,,,12144,11852,11506,10965,1973,,,,,,,,,,,
Belgium,Operator Holding Account,WIENERBERGER,Kapel ter Bede 121,Kortrijk,19662,19662,19663,20062,20062,20062,20062,20061,10235,10057,9877,9696,4928,4832,4735,4637,16358,14926,14246,14297,10331,9395,11643,9125,8281,11558,12208,6793,,,,,16358,14926,14246,14297,10331,9395,11643,9125,8281,11558,12208,6793,,,,
Belgium,Operator Holding Account,WIENERBERGER,Kapel ter Bede 121,Kortrijk,22269,22269,22269,22551,22551,22551,22551,22551,21161,20793,20422,10980,0,0,0,0,23783,22583,20762,27433,25946,16957,20395,16849,15918,14614,12912,0,,,,,23783,22583,20762,27433,25946,16957,20395,16849,15918,14614,12912,,,,,
Belgium,Operator Holding Account,WIENERBERGER,Kapel ter Bede 121,Kortrijk,39854,39854,39854,50048,50048,50048,50048,50047,24841,24409,23973,23532,23085,22635,22180,21722,33764,33496,34325,30976,26580,27509,27470,26481,22888,24262,22875,19969,,,,,33764,33496,34325,30976,26580,27509,27470,26481,22888,24262,22875,19969,,,,
Belgium,Operator Holding Account,WIENERBERGER,Kapel ter Bede 121,Kortrijk,3942,3941,3941,952,952,0,0,0,,,,,,,,,3148,3330,2453,0,,,,,,,,,,,,,3148,3330,2453,,,,,,,,,,,,,
Belgium,Operator Holding Account,WIENERBERGER,Kapel ter Bede 121,Kortrijk,21886,21886,21887,41140,41140,85634,94340,94340,30364,29836,18281,28764,28219,27668,27111,26553,29029,34130,34274,31529,20061,17722,25211,28512,24740,21853,37230,31380,,,,,29029,34130,34274,31529,20061,17722,25211,28512,24740,21853,37230,31380,,,,
Belgium,Operator Holding Account,WIENERBERGER,Kapel ter Bede 121,Kortrijk,32886,32886,32886,46501,46501,46501,46501,46501,,,,,,,,,46346,46514,47982,45677,29492,13961,21,2,,,,,,,,,46346,46514,47982,45677,29492,13961,21,2,,,,,,,,
Belgium,Operator Holding Account,WIENERBERGER,Kapel ter Bede 121,Kortrijk,23187,23186,23186,29576,29576,29576,29576,29577,14855,14597,14336,14073,13806,13537,13264,12991,19187,19631,21261,17854,16072,18755,20188,16597,12890,15561,19138,16052,,,,,19187,19631,21261,17854,16072,18766,20188,16586,12890,15561,19138,16052,,,,
Belgium,Operator Holding Account,WIMBLE MANUFACTURING BELGIUM,Eggestraat 1,Mechelen,,,,,,,,,25673,22976,20351,17806,15340,12952,10643,8419,,,,,,,,,34219,34641,33088,35660,,,,,,,,,,,,,34219,34641,33088,35660,,,,
Belgium,Operator Holding Account,YARA TERTRE,Rue de la Carbo 10,Tertre (Saint-Ghislain),322830,322830,322830,265786,265786,265787,265787,265787,739740,726890,713888,700751,687474,674065,660492,646871,287314,279338,287222,218325,150484,185831,290284,265229,884350,709089,864726,845510,,,,,287314,279338,287222,218325,150484,185831,290284,265229,884350,709089,864726,845510,,,,
Belgium,Operator Holding Account,ZANDVLIET POWER,Scheldelaan 600,Antwerpen,0,1708007,1138671,1119158,1119158,1119158,1119158,1119158,,,,,,,,,481207,1018902,1107551,1044042,1122428,1107731,942828,1033524,816161,378298,768479,797697,,,,,481207,1018902,1107551,1044042,1122428,1107731,942828,1033524,816161,378298,768479,797697,,,,