Country,Account Type,Account Holder Name,Main Address Line,City,Allowance In Allocation In 2005,Allowance In Allocation In 2006,Allowance In Allocation In 2007,Allowance In Allocation In 2008,Allowance In Allocation In 2009,Allowance In Allocation In 2010,Allowance In Allocation In 2011,Allowance In Allocation In 2012,Allowance In Allocation In 2013,Allowance In Allocation In 2014,Allowance In Allocation In 2015,Allowance In Allocation In 2016,Allowance In Allocation In 2017,Allowance In Allocation In 2018,Allowance In Allocation In 2019,Allowance In Allocation In 2020,Verified Emissions In 2005,Verified Emissions In 2006,Verified Emissions In 2007,Verified Emissions In 2008,Verified Emissions In 2009,Verified Emissions In 2010,Verified Emissions In 2011,Verified Emissions In 2012,Verified Emissions In 2013,Verified Emissions In 2014,Verified Emissions In 2015,Verified Emissions In 2016,Verified Emissions In 2017,Verified Emissions In 2018,Verified Emissions In 2019,Verified Emissions In 2020,Units Surrendered In 2005,Units Surrendered In 2006,Units Surrendered In 2007,Units Surrendered In 2008,Units Surrendered In 2009,Units Surrendered In 2010,Units Surrendered In 2011,Units Surrendered In 2012,Units Surrendered In 2013,Units Surrendered In 2014,Units Surrendered In 2015,Units Surrendered In 2016,Units Surrendered In 2017,Units Surrendered In 2018,Units Surrendered In 2019,Units Surrendered In 2020
Czech Republic,Operator Holding Account,"AB FACILITY, A.S.",U Trezorky 921/2,Praha 5 - Jinonice,13306,13306,13306,6288,6288,6288,6288,6288,4286,4211,4136,4060,3983,3905,3827,3748,5824,5929,4374,4556,4104,4948,4876,5370,5292,4749,5004,5647,,,,,,11753,4374,4556,4104,4948,4876,5370,5292,4749,5004,5647,,,,
Czech Republic,Operator Holding Account,"AB FACILITY, A.S.",U Trezorky 921/2,Praha 5 - Jinonice,5400,5400,5400,4007,4007,4007,4007,4007,412,405,398,390,383,375,368,360,3826,3664,1886,1206,610,160,98,108,97,79,101,139,,,,,,7490,1886,1206,610,160,98,108,97,79,101,139,,,,
Czech Republic,Aircraft Operator Account,"ABS JETS, A.S.","Hangár C, K letišti 549","Praha 6, Ruzyně",,,,,,,,,,,,,,,,,,,,,,,,,,,7897,7352,,,,,,,,,,,,,,,7897,7359,,,,
Czech Republic,Operator Holding Account,"ACTHERM, S.R.O.",Tovární 5533,Chomutov - Chomutov,198486,198486,198486,175911,180486,183753,183753,183753,44734,40090,35578,31208,26975,22879,18915,15092,181115,166263,172712,152651,168442,188366,163543,168022,145525,143258,142923,134593,,,,,,347378,172712,152651,168442,188366,163543,168022,145525,143258,142923,134593,,,,
Czech Republic,Operator Holding Account,"AGC FLAT GLASS CZECH, A.S., CLEN AGC GROUP",Sklářská 450,Teplice,289426,289426,289426,276238,276238,276238,276238,276238,193343,189985,186587,183154,179684,176180,172632,169073,274416,271082,265983,260394,142776,146627,69736,105828,106649,158948,181691,190569,,,,,,545498,265983,260394,142776,146627,69736,105828,106649,158948,181691,190569,,,,
Czech Republic,Operator Holding Account,"AGC FLAT GLASS CZECH, A.S., CLEN AGC GROUP",Sklářská 450,Teplice,37913,37913,37913,23604,23604,23604,23604,23604,20996,20630,20261,19890,19512,19132,18746,18360,22166,21953,22311,23041,11290,11237,22254,18105,17955,19183,20958,22475,,,,,,44119,22311,23041,11290,11237,22254,18105,17955,19183,20958,22475,,,,
Czech Republic,Operator Holding Account,"AGC FLAT GLASS CZECH, A.S., CLEN AGC GROUP",Sklářská 450,Teplice,,,,152000,152000,152000,152000,152000,96676,94997,93298,91581,89846,88094,86320,84540,,,8614,104219,99766,102456,105323,103029,102970,104145,102843,96493,,,,,,,8614,104219,99766,102456,105323,103029,102970,104145,102843,96493,,,,
Czech Republic,Operator Holding Account,"AGRIS, S.R.O.",Medlov 175,Němčičky u Židlochovic,,,,13005,13005,13005,13005,13005,,,,,,,,,,,12937,13574,12324,13265,14049,4969,,,,,,,,,,,12937,13574,12324,13265,14049,4969,,,,,,,,
Czech Republic,Operator Holding Account,"AIRCRAFT INDUSTRIES, A.S.",Na Záhonech 1177,Kunovice,18534,18534,18534,13579,13579,13579,13579,13579,6100,5983,5865,5747,5627,5509,5387,5266,12167,13215,11500,12448,11610,12272,11339,11581,6413,6137,8322,7466,,,,,12167,13215,11500,12448,11610,12272,11339,11581,6413,6137,8322,7466,,,,
Czech Republic,Operator Holding Account,"AL INVEST BRIDLICNA, A.S.",Bruntálská 167,"Břidličná, okres Bruntál",33140,33140,33140,16454,16454,16454,16454,16454,27060,26443,20635,24054,23598,23138,22672,22204,16416,14339,11611,9790,9245,10111,8810,8097,24181,22774,23256,23713,,,,,,30755,11611,9790,9245,10111,8810,8097,24181,22774,23256,23713,,,,
Czech Republic,Operator Holding Account,"Alcan Děčín Extrusions, s.r.o.",Ústecká 37,Děčín V,10072,10072,10072,,,,,,,,,,,,,,4252,2866,,,Not Reported,Not Reported,,,,,,,,,,,,7118,,,,,,,,,,,,,,
Czech Republic,Operator Holding Account,"ALPIQ GENERATION (CZ), S.R.O.",Dubská 257,Kladno - Dubí,447502,447502,447502,294696,314696,314696,314696,314696,84032,73528,65029,58893,52937,47164,41567,36158,296643,285304,286100,280836,265721,239756,239492,227877,224201,209457,204599,259938,,,,,15000,566947,286100,280836,265721,239756,239492,227877,224201,209457,204599,259938,,,,
Czech Republic,Operator Holding Account,"ALPIQ GENERATION (CZ), S.R.O.",Dubská 257,Kladno - Dubí,1928305,1928305,1928305,1594252,1594252,1594252,1594252,1594252,83456,68474,55158,43462,35990,30414,25018,19816,1600145,1548081,1582300,1563276,1501514,1553221,1561085,1501538,1594247,1897783,1912128,2055347,,,,,,3148226,1582300,1563276,1501514,1553221,1561085,1501538,1594247,1897783,1912128,2055347,,,,
Czech Republic,Operator Holding Account,"ALPIQ GENERATION (CZ), S.R.O.",Dubská 257,Kladno - Dubí,,,,25000,25000,25000,25000,25000,1630,1397,1164,931,698,,,,,4698,3438,3714,1384,1257,1485,619,1031,853,1294,372,,,,,,4698,3438,3714,1384,1257,1485,619,1031,853,1294,372,,,,
Czech Republic,Operator Holding Account,"AMMANN CZECH REPUBLIC, A.S.",Náchodská 145,Nové Město nad Metují,10729,10729,10729,11364,11364,11364,11364,11364,5968,5864,2993,2938,0,0,0,0,10507,10734,11152,8999,4479,4811,4072,4528,4750,3705,5060,2350,,,,,,21241,11152,8999,4479,4811,4072,4528,4750,3705,5060,2350,,,,
Czech Republic,Operator Holding Account,"AMPER SAVINGS, A.S.",Antala Staška 1076/33a,Praha 4 - Krč,15223,15223,15223,14062,14062,14062,14062,14062,8118,7265,6435,5630,0,0,0,0,13603,12682,10009,8767,6548,7153,6844,7048,6376,7106,7612,5601,,,,,,26285,10009,8767,6548,7153,6844,7048,6376,7106,7612,5601,,,,
Czech Republic,Operator Holding Account,"ARCELORMITTAL ENGINEERING PRODUCTS OSTRAVA, S.R.O.",Vratimovská 689/117,"Ostrava, Kunčice",,,,0,0,0,18507,18507,2514,2471,2426,2382,2337,2291,2245,2199,,,,,,,14145,12598,9248,9557,9636,11179,,,,,,,,,,,14145,12598,9248,9557,9636,11179,,,,
Czech Republic,Operator Holding Account,"ARCELORMITTAL OSTRAVA, A.S.",Vratimovská 689,Ostrava-Kunčice,2535371,2535371,2535371,,,,,,,,,,,,,,1867641,1960096,2087275,0,1167627,0,0,,,,,,,,,,,3827737,2087275,,1167627,,,,,,,,,,,
Czech Republic,Operator Holding Account,"ARCELORMITTAL OSTRAVA, A.S.",Vratimovská 689,Ostrava-Kunčice,79436,79436,79436,53104,53104,53104,53104,53104,29070,28565,28054,27538,27016,0,0,0,54932,49934,45403,39056,39746,47559,38044,40284,50946,43716,43598,46437,,,,,,104866,45403,39056,39746,47559,38044,40284,50946,43716,43598,46437,,,,
Czech Republic,Operator Holding Account,"ARCELORMITTAL OSTRAVA, A.S.",Vratimovská 689,Ostrava-Kunčice,6417526,6417526,6417526,6958508,6958508,6958508,4546038,4546038,4705866,4624129,4541431,4457872,4373411,4288129,4201783,4115139,4857971,5271377,5323893,6421669,3494107,3096911,2738940,2738057,2752294,2862942,2825625,3237646,,,,,,10129348,5323893,6421669,3494107,3096911,2738940,2738057,2752294,2862942,2825625,3237646,,,,
Czech Republic,Operator Holding Account,"ARCELORMITTAL TUBULAR PRODUCTS KARVINA, A.S.",Rudé armády 471,Karviná-Hranice,23167,23167,23167,12812,12812,12812,12812,12812,10351,10171,9989,9804,9619,9432,9242,9051,12112,11835,10433,9547,7577,8811,7855,8352,7984,6730,5760,5780,,,,,,23947,10433,9547,7577,8811,7855,8352,7984,6730,5760,5780,,,,
Czech Republic,Operator Holding Account,"ARCELORMITTAL TUBULAR PRODUCTS OSTRAVA, A.S.",Vratimovská 689,"Ostrava, Kunčice",,,,109316,109316,109316,109316,109316,7076,6953,6829,6703,6576,6448,6318,6188,,,70480,96125,58190,72799,75226,73410,72696,74777,63701,54439,,,,,,,70480,96125,58190,72799,75226,73410,72696,74777,63701,54439,,,,
Czech Republic,Operator Holding Account,"Armádní Servisní, příspěvková organizace",Podbabská 1,Praha 6 - Dejvice,,,,15785,15785,15785,0,0,,,,,,,,,,,14956,15614,15265,10325,,,,,,,,,,,,,14956,15614,15265,10325,,,,,,,,,,
Czech Republic,Operator Holding Account,"ASAVET, A.S.",Chodská 1032/27,"Praha 2, Vinohrady",14857,14857,14857,13970,13970,13970,13970,13970,11486,10936,10396,9866,9349,0,0,0,13998,11620,15600,14711,9364,9298,8479,8711,8116,8795,9799,10785,,,,,,25618,15600,14711,9364,9298,8479,8711,8116,8795,9799,10785,,,,
Czech Republic,Operator Holding Account,AVIA-AS,Beranových 140,Praha 9 -Letňany,5449,5449,5449,5646,5646,5646,5646,5646,,,,,,,,,5471,5083,3702,3184,0,0,0,0,Excluded,,,,,,,,22,10532,3702,3184,,,,,,,,,,,,
Czech Republic,Aircraft Operator Account,AXIS AVIATION GROUP INC,6133 Freeport Blvd,Sacramento,,,,,,,,1,,,,,,,,,,,,,,,,81,Excluded,Excluded,Excluded,Excluded,,,,,,,,,,,,1,80,,,,,,,
Czech Republic,Operator Holding Account,"BALSAC PAPERMILL, S.R.O.",Lukavice 21,Lukavice,17952,17952,17952,10392,10392,10392,10392,10392,7955,7817,7677,7535,7393,7249,7103,6956,9573,9852,10063,8769,8059,7606,6370,6442,5910,7343,7465,7902,,,,,,19425,10063,8769,8059,7606,6370,,12352,7343,7465,7902,,,,
Czech Republic,Operator Holding Account,"BEFACOAL, S.R.O.",Sokolská 46/1795,Praha 2,4510,4510,4510,4597,4597,4597,4597,4597,0,0,0,0,0,0,0,0,4597,2855,6258,4132,4656,5066,1433,0,0,,,,,,,,87,7365,6258,4132,4656,5066,1433,,,,,,,,,
Czech Republic,Operator Holding Account,"BEFACOAL, S.R.O.",Sokolská 46/1795,Praha 2,12796,12796,12796,4445,4445,4445,4445,4445,0,0,0,0,0,0,0,0,4445,83,14,39,40,64,0,0,0,,,,,,,,3386,1142,14,39,40,64,,,,,,,,,,
Czech Republic,Operator Holding Account,"BEST - BUSINESS, A.S.",Havlíčkova 7,Vyškov,1854,1854,1854,1676,1676,1676,1676,1676,1332,1310,1287,0,0,0,0,0,1622,1511,1391,1261,887,1089,1156,1157,942,869,411,,,,,,1622,1511,1391,1261,887,1089,1156,1157,942,869,411,,,,,
Czech Republic,Operator Holding Account,"BFS ENERGO, A.S.",Žitavského 496,"Praha 5, Zbraslav",,,,10365,10365,10365,10365,10365,862,771,0,0,0,0,0,0,,,5212,8859,7169,7728,8712,7550,1134,0,,,,,,,,,5212,8859,7169,7728,8712,7550,1134,,,,,,,
Czech Republic,Operator Holding Account,BIOCEL PASKOV AS,Zahradní 762,Paskov,175585,175585,175585,86190,86190,86190,86190,86190,5170,5080,4989,4897,4805,4711,4616,4521,77912,92290,52649,38649,55883,55004,43820,91843,40279,14130,9330,7873,,,,,,170202,52649,38649,55883,55004,43820,91843,40279,14130,9330,7873,,,,
Czech Republic,Operator Holding Account,"BONATRANS GROUP, A.S.",Revoluční 1234,Bohumín,,,,,,,,,26961,24127,21371,18698,16107,13600,11175,8842,,,,,,,,,33653,33319,32383,29449,,,,,,,,,,,,,33653,33319,32383,29449,,,,
Czech Republic,Operator Holding Account,"BORSODCHEM MCHZ, S.R.O.",Chemická 1/2039,OSTRAVA,,,,,,,,,217242,213129,208979,204807,200604,196377,192111,187845,,,,,,,,,183653,159906,182675,171696,,,,,,,,,,,,,183653,159906,182675,171696,,,,
Czech Republic,Operator Holding Account,"Brněnské papírny, státní podnik",Komenského 1036,Předklášteří - Tišnov,14653,14653,14653,11766,11766,11766,11766,0,,,,,,,,,11150,10843,10375,8603,6041,0,0,,,,,,,,,,,21993,10375,8603,6041,,,,,,,,,,,
Czech Republic,Operator Holding Account,"BRUDRA, S.R.O.",Jemnická 17,Praha 4,2663,2663,2663,2655,2655,2655,2655,2655,1868,1671,1480,1295,0,0,0,0,2164,2655,2417,2537,1992,2500,1916,1972,2006,1607,1693,1841,,,,,,4819,2417,2537,1992,2500,1916,1972,2006,1607,1693,1841,,,,
Czech Republic,Operator Holding Account,"BRUDRA, S.R.O.",Jemnická 17,Praha 4,800,800,800,340,340,340,340,0,,,,,,,,,340,179,0,0,0,0,0,,,,,,,,,,340,179,,,,,,,,,,,,,,
Czech Republic,Operator Holding Account,"BURSON PROPERTIES, A.S. V LIKVIDACI",Antonínův Důl č.p. 107,Jihlava,12735,12735,12735,11387,0,0,0,0,,,,,,,,,10935,10350,5308,352,Not Reported,Not Reported,,,,,,,,,,,,21285,5308,352,,,,,,,,,,,,
Czech Republic,Operator Holding Account,Byty a domy stavební s.r.o.,U Jezera 915/21,"Opava, Kateřinky",711,711,711,440,440,440,440,440,,,,,,,,,440,0,0,0,4,6,0,Not Reported,,,,,,,,,6,434,,,4,6,,,,,,,,,,
Czech Republic,Operator Holding Account,Byty a domy stavební s.r.o.,U Jezera 915/21,"Opava, Kateřinky",3516,3516,3516,2962,2962,2962,2962,0,,,,,,,,,2962,0,0,0,7,14,0,Not Reported,,,,,,,,,1903,1059,,,7,14,,,,,,,,,,
Czech Republic,Operator Holding Account,"C-ENERGY PLANA, S.R.O.",Průmyslová 748,Planá nad Lužnicí,461063,461063,461063,374975,374975,374975,374975,374975,39821,36385,33191,30233,27502,24990,22996,21110,392673,347804,373625,376499,313961,288292,229121,212410,214833,171258,115310,121564,,,,,171610,568867,373625,376499,313961,288292,229121,212410,214833,167193,119375,121564,,,,
Czech Republic,Aircraft Operator Account,CAIMITO ENTERPRISES LIMITED,Spirou Kyprianou 18,Nicosia,,,,,,,,28,15,15,15,15,15,15,15,15,,,,,,,,971,1037,771,1022,703,,,,,,,,,,,,971,,1808,1022,703,,,,
Czech Republic,Operator Holding Account,"CARMEUSE CZECH REPUBLIC, S.R.O.",Mokrá 359,Mokrá,253093,253093,253093,195269,195269,195269,195269,195269,151062,148438,145783,143101,70195,68826,67440,66050,186962,198642,221247,213373,148907,150603,143650,117035,109868,115274,111539,86335,,,,,,385604,221247,213373,148907,150603,143650,117035,109868,115274,111539,86335,,,,
Czech Republic,Operator Holding Account,"CARTHAMUS, A.S.",Václavské náměstí 775/8,"Praha 1, Nové Město",,,,26000,26000,26000,26000,26000,13569,10043,7945,6118,4553,3240,2164,1708,,23104,19819,20663,19468,20345,17912,16151,11216,6557,2057,914,,,,,,23104,19819,20663,19468,20345,17912,16151,11216,6557,2057,914,,,,
Czech Republic,Operator Holding Account,"CASSALIMA GROUP, S.R.O.",8. května 464/21,Olomouc,,,,13100,13100,13100,13100,13100,,,,,,,,,,0,92,0,26,0,0,0,,,,,,,,,,,92,,26,,,,,,,,,,,
Czech Republic,Operator Holding Account,"CEMENT HRANICE, A.S.",Bělotínská 288,Hranice I-Město,758079,758079,758079,594885,594885,594885,594885,594885,561538,551767,541882,531896,521801,511610,501292,490941,491955,594885,709234,675189,529445,470342,620925,482150,392805,479095,471867,515584,,,,,,1086840,709234,675189,529445,470342,620925,482150,392805,479095,471867,515584,,,,
Czech Republic,Operator Holding Account,"CEMEX CEMENT, K.S.",Tovární 296,Prachovice,628026,628026,628026,561232,561232,561232,561232,561232,448113,440330,432455,424498,416455,408335,400112,391862,543942,564342,636148,533506,405745,407168,426839,387354,372439,395322,459929,531823,,,,,,1108284,636148,533506,405745,407168,426839,387354,372439,395322,458750,533002,,,,
Czech Republic,Operator Holding Account,"CEREPA, A. S.",č.p. 107,Červená Řečice,6200,6200,6200,6676,6676,6676,6676,6676,2584,2539,2494,2448,2401,2355,2307,2260,6380,6098,4703,3328,2997,3027,3063,3103,2959,2691,2370,2607,,,,,180,12298,4703,3328,2997,3027,3063,3103,2959,2691,2370,2607,,,,
Czech Republic,Operator Holding Account,"CESKA ZBROJOVKA, A.S.",Svat. Čecha 1283,Uherský Brod,6697,6697,6697,6051,6051,6051,6051,6051,5037,4949,4861,4772,4681,4590,4497,4405,5709,5601,4898,4735,4686,5098,4651,4016,3848,3096,3488,3728,,,,,,11310,4898,4735,4686,5098,4651,4016,3848,3096,3488,3728,,,,
Czech Republic,Aircraft Operator Account,"CESKE AEROLINIE, A.S.",Jana Kašpara 1069/1,Praha 6,,,,,,,,487066,255132,255132,255132,255132,255132,255132,255132,255132,,,,,,,,440943,174775,142553,153896,177533,,,,,,,,,,,,440943,,317328,153896,177533,,,,
Czech Republic,Operator Holding Account,"CESKE LUPKOVE ZAVODY, A.S.",Pecínov  1171,Nové Strašecí,24614,24614,24614,27318,27318,27318,27318,27318,18534,18213,17887,17559,17226,16890,16549,16208,25715,25347,27313,28043,20127,18952,20712,16349,15958,16574,17707,15790,,,,,11101,39961,27313,28043,20127,18952,20712,16349,15958,16295,17986,15790,,,,
Czech Republic,Operator Holding Account,"CESKOLIPSKA TEPLARENSKA, A.S.",Liberecká 132,Česká Lípa,5164,5164,5164,4877,4877,4877,4877,4877,1815,1424,1261,1103,950,803,660,522,4647,4469,4249,4239,4169,4474,2983,2233,1520,1267,1249,1229,,,,,,9116,4249,4239,4169,4474,2983,2233,1520,1267,1249,1229,,,,
Czech Republic,Operator Holding Account,"CESKOLIPSKA TEPLARENSKA, A.S.",Liberecká 132,Česká Lípa,40333,40333,40333,30314,30314,30314,30314,30314,22585,18682,8129,7113,6127,5174,4251,3363,29407,27255,24937,24310,23909,25463,18195,15908,14123,8822,8569,9895,,,,,,56662,24937,24310,23909,25463,18195,15908,14123,8822,8569,9895,,,,
Czech Republic,Operator Holding Account,"CESKOMORAVSKY CEMENT, A.S.",Mokrá 359,Mokrá - Horákov,546481,546481,546481,657200,657200,657200,657200,657200,644075,632888,621569,610133,598573,586901,575083,563224,540631,657200,807479,850746,588371,593592,636093,551237,453821,511690,558389,626166,,,,,59150,1138681,807479,850746,588371,593592,636093,551237,453821,511690,558389,626166,,,,
Czech Republic,Operator Holding Account,"CESKOMORAVSKY CEMENT, A.S.",Mokrá 359,Mokrá - Horákov,523554,523554,523554,516415,516415,516415,516415,516415,429308,421851,414307,406684,398979,391199,383321,375417,505211,514573,499910,464520,442776,380384,479882,455108,439785,451484,450995,483421,,,,,,1019784,499910,464520,442776,380384,479882,455108,439785,451484,450995,483421,,,,
Czech Republic,Operator Holding Account,"CESKOMORAVSKY CEMENT, A.S.",Mokrá 359,Mokrá - Horákov,72657,72657,72657,0,0,0,0,0,,,,,,,,,0,0,0,0,0,0,0,0,,,,,,,,,0,,,,,,,,,,,,,,,
Czech Republic,Operator Holding Account,"CEZ ENERGETICKE SLUZBY, S.R.O.",Výstavní 1144/103,"Ostrava, Vítkovice",28045,28045,28045,20356,20356,20356,20356,20356,0,0,0,0,0,0,0,0,20545,17504,15630,14330,6393,0,0,0,0,,,,,,,,,38049,15630,14330,6393,,,,,,,,,,,
Czech Republic,Operator Holding Account,"CEZ TEPLARENSKA, A.S.",Bezručova 2212/30,Říčany,100000,100000,100000,93508,93508,93508,93508,93508,14048,10503,7470,0,0,0,0,0,93820,90834,74494,13087,13880,20064,17369,11604,20792,15381,4627,,,,,,,184654,74494,13087,13880,20064,17369,11604,20792,15381,4627,,,,,
Czech Republic,Operator Holding Account,"CEZ TEPLARENSKA, A.S.",Bezručova 2212/30,Říčany,,,,,,,,,,,9021,9787,8437,7129,5865,4645,,,,,,,,,,1206,13411,20419,,,,,,,,,,,,,,1206,13411,20419,,,,
Czech Republic,Operator Holding Account,CEZ A.S.,Duhová 2/1444,Praha 4,,,,0,327,420,420,420,,,,,,,,,,,,,327,217,257,254,307,277,258,298,,,,,,,,,327,217,257,254,307,277,258,298,,,,
Czech Republic,Operator Holding Account,CEZ A.S.,Duhová 2/1444,Praha 4,,,,0,0,0,0,0,,,,,,,,,,,,,,,0,0,0,46376,422266,885697,,,,,,,,,,,,,,46376,422266,885697,,,,
Czech Republic,Operator Holding Account,CEZ A.S.,Duhová 2/1444,Praha 4,471739,471739,471739,447015,447015,447015,447015,447015,49089,42358,36130,30406,25606,21639,17800,14099,423000,459736,506992,470960,428577,353035,316752,262321,222910,178382,183320,98605,,,,,,882736,506992,470960,428577,353035,316752,262321,222910,178382,183320,98605,,,,
Czech Republic,Operator Holding Account,CEZ A.S.,Duhová 2/1444,Praha 4,2169682,2169682,2169682,2075308,2075308,2075308,2075308,2075308,74883,65695,58199,50940,43908,37105,30522,24176,1981563,2116621,1952997,2360760,2222997,2286926,2111604,2035257,1701712,1117278,708564,585054,,,,,,4098184,1952997,2360760,2222997,2286926,2111604,2035257,1701712,1117278,708564,585054,,,,
Czech Republic,Operator Holding Account,CEZ A.S.,Duhová 2/1444,Praha 4,1365607,1365607,1365607,1102095,1102095,1102095,1102095,1102095,41111,35486,30284,25495,21104,17336,14260,11295,1143938,1032409,1165733,1186979,1091450,1385423,1364342,1387935,856828,1264400,1304458,1303704,,,,,,2176347,1165733,1186979,1091450,1385423,1364342,1387935,856828,1264400,1304458,1303704,,,,
Czech Republic,Operator Holding Account,CEZ A.S.,Duhová 2/1444,Praha 4,2689047,2689047,2689047,1985052,1985052,1985052,1985052,1985052,5884,4989,1314,935,622,369,175,36,2141476,1778477,2870227,2705108,2316278,2318035,2684895,2115512,1434404,1899283,1807893,1343812,,,,,,3919953,2870227,2705108,2316278,2318035,2684895,2115512,1434404,1899283,1807893,1343812,,,,
Czech Republic,Operator Holding Account,CEZ A.S.,Duhová 2/1444,Praha 4,858706,858706,858706,781405,781405,781405,781405,781405,103179,89091,76049,64048,53761,45432,37372,29601,640240,781405,871785,840936,576831,653103,750005,522200,489025,545980,479000,537293,,,,,,1421645,871785,840936,576831,653103,750005,522200,489025,545980,479000,537293,,,,
Czech Republic,Operator Holding Account,CEZ A.S.,Duhová 2/1444,Praha 4,2491503,2491503,2491503,2298039,2298039,2298039,2298039,2298039,79879,66451,54410,43722,34323,27373,22516,17834,2191315,2346704,2998936,2775099,2422479,3079358,2594544,2578266,2533977,2550554,2279970,2143380,,,,,,4538019,2998936,2775099,2422479,3079358,2594544,2578266,2533977,2550554,2279970,2143380,,,,
Czech Republic,Operator Holding Account,CEZ A.S.,Duhová 2/1444,Praha 4,6116917,6116917,6116917,6335369,6335369,6335369,6335369,6335369,37452,19901,15567,11820,16174,12747,10486,8305,5923891,6586790,7104828,6432786,6644265,6353227,6352603,4337901,2325061,1928381,2634945,3466462,,,,,,12510681,7104828,6432786,6644265,6353227,6352603,4337901,2325061,1928381,2634945,3466462,,,,
Czech Republic,Operator Holding Account,CEZ A.S.,Duhová 2/1444,Praha 4,5135943,5135943,5135943,5309817,5309817,5309817,5309817,5309817,51063,43235,35212,28912,23276,18673,15359,12165,5121047,5364440,4107278,2746198,3144726,1732313,2371034,2800536,4554086,4613958,4658430,4726561,,,,,,10485487,4107278,2746198,3144726,1732313,2371034,2800536,4554086,4613958,4658430,4726561,,,,
Czech Republic,Operator Holding Account,CEZ A.S.,Duhová 2/1444,Praha 4,23820,23820,23820,3428,3428,3428,3428,3428,342,23,203,162,680,575,473,375,3428,1745,929,1267,1435,1251,3735,1089,870,1218,3576,7356,,,,,,5173,929,1267,1435,1251,3735,1089,870,1218,3576,7356,,,,
Czech Republic,Operator Holding Account,CEZ A.S.,Duhová 2/1444,Praha 4,173216,173216,173216,100628,100628,100628,100628,100628,18109,15646,6490,5245,4148,3335,2743,2173,95572,103142,70157,67051,65948,56365,45715,42323,46259,41013,30769,32520,,,,,,198714,70157,67051,65948,56365,45715,42323,46259,41013,30769,32520,,,,
Czech Republic,Operator Holding Account,CEZ A.S.,Duhová 2/1444,Praha 4,1071343,1071343,1071343,1110478,1110478,1110478,1110478,1110478,233678,197489,178310,150781,126304,104757,90751,77996,1112121,1080780,946572,844892,784058,878460,775202,722226,531059,573745,531579,412057,,,,,40778,2152123,946572,844892,784058,878460,775202,722226,531059,573745,531579,412057,,,,
Czech Republic,Operator Holding Account,CEZ A.S.,Duhová 2/1444,Praha 4,,,,,,,,,,,,,,,,,,,,,,,,0,178487,63348,198864,643976,,,,,,,,,,,,,178487,63348,198864,643976,,,,
Czech Republic,Operator Holding Account,"Chotěbořské strojírny služby, a.s.",Herrmannova 520,Chotěboř,6332,6332,6332,,,,,,,,,,,,,,5113,4698,2696,0,Not Reported,Not Reported,,,,,,,,,,,,9811,2696,,,,,,,,,,,,,
Czech Republic,Operator Holding Account,"CHRUDIM IRON & STEEL, S.R.O.",Na Zámecké 1518/9,Praha 4 - Nusle,640,640,640,640,640,640,640,640,346,340,0,0,0,0,0,0,630,566,571,535,265,267,403,582,433,373,,,,,,,,1196,571,535,265,267,403,582,433,373,,,,,,
Czech Republic,Operator Holding Account,"CIHELNA CASY, S.R.O.",Freyova 12/1,Praha 9 - Vysočany,3286,3286,3286,1579,1579,1579,1579,1579,,,,,,,,,1579,1189,1181,1175,622,394,0,0,Excluded,,,,,,,,,2768,1181,1175,622,394,,,,,,,,,,
Czech Republic,Operator Holding Account,"CIHELNA HLUCIN, S.R.O.",Kolejní 1323/12,Ostrava - Moravská Ostrava,3035,3035,3035,4618,4618,4618,4618,4618,,,,,,,,,904,3099,3863,2198,1530,34,6,8,,,,,,,,,904,3099,3863,2198,,1564,6,8,,,,,,,,
Czech Republic,Operator Holding Account,"CIHELNA HODONIN, S.R.O.",Brněnská 59/A,Hodonín,8034,8034,8034,9283,9283,9283,9283,9283,8351,8206,8059,7911,7762,7610,7457,7303,9283,5743,10992,8540,5932,2683,7140,6953,7330,8555,7240,8693,,,,,1249,13777,10992,8540,5932,2683,7140,6953,7330,8555,7240,8693,,,,
Czech Republic,Operator Holding Account,"CIHELNA KINSKY, S.R.O.",Hálkova 1359,Kostelec nad Orlicí,10729,10729,10729,11428,11428,11428,11428,11428,5047,4960,4871,4781,4691,4599,4507,4414,10699,10662,14790,7530,6795,4956,6665,3188,5816,7633,5575,6499,,,,,,21361,14790,7530,6795,4956,6665,3188,5816,7633,5575,6499,,,,
Czech Republic,Operator Holding Account,"CIHELNA KLIMA, S.R.O.",Vrátkov,Český Brod,4249,4249,4249,,,,,,,,,,,,,,0,0,0,0,Not Reported,Not Reported,,,,,,,,,,,,,,,,,,,,,,,,,,
Czech Republic,Operator Holding Account,"CIHELNA POLOM, S.R.O.",Polom 97,okr. Přerov,1475,1475,1475,4312,4312,4312,6909,6909,3226,3170,3113,3056,2998,2940,2880,2821,3885,4174,10321,2243,1192,1292,1565,1300,1208,1393,821,1430,,,,,3885,4174,10321,2243,1192,1292,1565,1300,1208,1393,821,1430,,,,
Czech Republic,Operator Holding Account,"CIHELNA VYSOKE MYTO, S.R.O.","Tisovská 269, Choceňské Předměstí",Vysoké Mýto,2891,2891,2891,2892,2892,2892,2892,2892,2344,2303,2262,2220,1089,1068,1047,1025,2532,2873,3787,2229,2268,1337,1887,1891,1549,2081,1597,510,,,,,2098,3307,3787,2229,2268,1337,1887,1891,1549,2081,1597,510,,,,
Czech Republic,Operator Holding Account,"CIHELNY STAMP MISKOLEZY, S.R.O.",Velký Třebešov čp. 59,Velký Třebešov,1700,1700,1700,1921,2318,2318,2318,2318,150,147,145,0,0,0,0,0,1116,1156,1715,1921,1206,582,263,194,150,188,10,,,,,,1116,1156,1715,1921,1206,582,263,194,150,188,10,,,,,
Czech Republic,Operator Holding Account,"CKD BLANSKO STROJIRNY, A.S.",Gellhornova 2228/1,Blansko,10508,10508,10508,9916,9916,9916,9916,9916,,,,,,,,,9377,9158,8023,7975,7638,8760,7863,3651,,,,,,,,,,18535,8023,7975,7638,8760,7863,3651,,,,,,,,
Czech Republic,Operator Holding Account,"CKD KUTNA HORA, A.S.",Karlov 197,Kutná Hora,25780,25780,25780,6737,6737,6737,6737,6737,9020,8863,8705,8544,3665,3594,3521,3448,16316,15647,10134,5097,1967,2001,3526,3626,3669,3436,2546,2046,,,,,3536,28427,10134,5097,1967,2001,3526,3626,3669,3436,2546,2046,,,,
Czech Republic,Operator Holding Account,"CONSTELLIUM EXTRUSIONS DECIN, S.R.O.",Ústecká 751/37,Děčín V-Rozbělesy,,,,,,,,,15257,14991,14722,14450,14174,13897,13617,13334,,,,,,,,,17344,17941,18256,19866,,,,,,,,,,,,,17344,17941,18256,19866,,,,
Czech Republic,Operator Holding Account,"CRYSTAL BOHEMIA, A.S.",Jiráskova 223,Poděbrady,15302,15302,15302,13346,13346,13346,13346,13346,11523,11322,11120,10915,10709,10500,10289,10076,12081,12864,12330,7129,1472,5717,5837,6192,5836,5741,7029,8015,,,,,,24945,12330,7129,1472,5717,5837,6192,5836,5741,7029,8015,,,,
Czech Republic,Operator Holding Account,"CRYSTALEX, A.S.",ul. B. Egermanna 634,Nový Bor,3048,3048,3048,2501,2501,0,0,0,,,,,,,,,2306,2369,2636,2626,38,0,,,,,,,,,,,,4675,2636,2626,38,,,,,,,,,,,
Czech Republic,Operator Holding Account,"CRYSTALEX CZ, S.R.O.",Masarykovo nábřeží 236/30,"Praha 1, Nové Město",17001,17001,17001,16002,16002,16002,16002,16002,10563,10379,10194,13273,9816,9625,9430,9237,14961,14950,14863,13505,2516,6849,6545,7183,8976,8523,9781,9492,,,,,,29911,14863,13505,2516,6849,6545,7183,8976,8523,9781,9492,,,,
Czech Republic,Operator Holding Account,"CRYSTALITE BOHEMIA, S.R.O.",Zámecká 730,Světlá nad Sázavou,30998,30998,30998,31359,31359,31359,31359,31359,25908,15622,15212,23065,22629,22188,21740,21292,29394,29221,28080,19226,4058,8334,12497,15749,12966,12841,14851,16312,,,,,,58615,28080,19226,4058,8334,12497,15749,12966,12841,14851,16312,,,,
Czech Republic,Operator Holding Account,"CS CABOT, spol. s r. o.",Masarykova 753,Valašské Meziříčí,,,,,,,,,195027,191640,188213,184750,181249,177715,174137,170546,,,,,,,,,66836,63421,61939,58585,,,,,,,,,,,,,66836,63421,61939,58585,,,,
Czech Republic,Operator Holding Account,"CTZ, S.R.O.",Sokolovská 572,Uherské Hradiště,32000,32000,32000,23553,23553,25875,25875,25875,16766,14044,11591,9593,8268,6987,5748,4553,22765,21259,20978,21648,21893,21875,22149,21974,21077,19437,21492,20289,,,,,,44024,20978,21648,21893,21875,22149,21974,21077,19437,21492,20289,,,,
Czech Republic,Operator Holding Account,"CUKROVAR VRBATKY, A.S.",Vrbátky 65,Vrbátky,27641,27641,27641,23338,23338,23338,23338,23338,7902,7765,7626,7485,7344,7200,7055,6910,23338,16222,11535,12227,13127,11724,15609,18250,25550,25964,24615,26633,,,,,,39560,11535,12227,13127,11724,15609,18250,25550,25964,24615,26633,,,,
Czech Republic,Operator Holding Account,"DANZER BOHEMIA-DYHARNA, S.R.O.",Křivenice 1,Horní Počaply,,,,0,0,14,384,384,,,,,,,,,,,,,,14,29,48,,,,,,,,,,,,,,14,29,48,,,,,,,,
Czech Republic,Operator Holding Account,"DEVRO, S.R.O.",Víchovská 830,Jilemnice,14125,14125,14125,15613,15613,15613,17781,17781,12630,11302,10011,8759,7545,6371,5235,4142,13561,15623,16498,15291,15607,17011,17781,17972,18886,18806,20241,20352,,,,,,29184,16498,15291,15607,17011,17781,17972,18886,18806,20241,20352,,,,
Czech Republic,Operator Holding Account,"DEZA, A.S.",Masarykova č.p. 753,Valašské Meziříčí,163045,163045,163045,134660,134660,134660,134660,134660,211160,204929,199075,194104,189143,184196,179253,174350,134660,98435,74087,98375,85306,109567,85422,93424,300143,298232,310582,324387,,,,,,233095,74087,98375,85306,109567,85422,93424,300143,298232,310582,324387,,,,
Czech Republic,Operator Holding Account,"DH DEKOR, S.R.O.",Lnářská 1602,Humpolec,7604,7604,7604,3734,3734,3734,3734,3734,,,,,,,,,3413,3566,3402,2964,1448,1267,1242,1048,,,,,,,,,,6979,3402,2964,1448,1267,1242,1048,,,,,,,,
Czech Republic,Operator Holding Account,"DIAMO, státní podnik",Máchova 201,Stráž pod Ralskem,28751,28751,28751,23711,23711,25859,28009,28009,16420,14373,12445,10639,9033,7627,6267,4958,23711,16026,15393,11276,14642,25859,22784,19254,18383,17721,17408,18068,,,,,,39737,15393,11276,14642,25859,22784,19254,18383,17721,17408,18068,,,,
Czech Republic,Operator Holding Account,"DIAMO, státní podnik",Máchova 201,Stráž pod Ralskem,19776,19776,19776,20105,20105,20105,20105,20105,13330,11930,10566,9245,7964,6724,5525,4371,19412,18168,18995,18183,15618,18052,15441,15138,13163,12864,10914,11750,,,,,,37580,18995,18183,15618,18052,15441,15138,13163,12864,10914,11750,,,,
Czech Republic,Operator Holding Account,DREVOZPRACUJICI DRUZSTVO,Lukavec 9,Lukavec,20210,20210,20210,13786,13786,13786,13786,13786,38358,37692,24324,21282,18333,15480,12720,10064,12570,13199,8795,10698,10772,9152,8533,9418,13492,13195,11583,11765,,,,,,25769,8795,10698,10772,9152,8533,9418,13492,13195,11583,11765,,,,
Czech Republic,Operator Holding Account,"EASTERN SUGAR CESKA REPUBLIKA, A.S. V LIKVIDACI",Masarykova 279,Němčice nad Hanou,79418,79418,79418,,,,,,,,,,,,,,54148,32906,11523,0,Not Reported,Not Reported,,,,,,,,,,,,87054,11523,,,,,,,,,,,,,
Czech Republic,Operator Holding Account,"EASTERN SUGAR CESKA REPUBLIKA, A.S. V LIKVIDACI",Masarykova 279,Němčice nad Hanou,49930,49930,49930,,,,,,,,,,,,,,29165,23453,1388,0,Not Reported,Not Reported,,,,,,,,,,,23453,29165,1388,,,,,,,,,,,,,
Czech Republic,Operator Holding Account,"EASTERN SUGAR CESKA REPUBLIKA, A.S. V LIKVIDACI",Masarykova 279,Němčice nad Hanou,26177,26177,26177,,,,,,,,,,,,,,14605,14857,527,0,Not Reported,Not Reported,,,,,,,,,,,14857,14605,527,,,,,,,,,,,,,
Czech Republic,Operator Holding Account,"EGRES CZ, A.S.",Sinkulova 329/48,Praha 4,,,,12500,12500,12500,0,0,,,,,,,,,,,5935,6247,0,0,Not Reported,,,,,,,,,,,,5935,,,,,,,,,,,,,
Czech Republic,Operator Holding Account,"EKO - CONTAINER SERVICE, S.R.O.",Kampelíkova 767/2a,Hradec Králové,4775,4775,4775,3601,3601,3601,3601,0,,,,,,,,,3601,2045,0,0,0,0,0,,,,,,,,,,,5646,,,,,,,,,,,,,,
Czech Republic,Operator Holding Account,"ELEKTRARNA DETMAROVICE, A.S.",Dětmarovice 1202,Dětmarovice,2701795,2701795,2701795,2456468,2456468,2456468,2456468,2456468,40736,34289,28457,23230,18575,15517,12764,10111,2257834,2593041,3607388,2066538,1797506,2469711,2425588,1744423,2068701,1949108,2351694,2366731,,,,,,4850875,3607388,2066538,1797506,2469711,2425588,1744423,2068701,1949108,2351694,2366731,,,,
Czech Republic,Operator Holding Account,"ELEKTRARNA POCERADY, A.S.",Duhová 1444/2,Praha,7177091,7177091,7177091,6696795,6696795,6696795,6696795,6696795,7807,6986,6190,5418,4670,3946,3246,2571,6667871,6556532,6895997,6400901,6681835,6923072,6432919,5966653,5396799,4741866,5135531,5835379,,,,,290780,12933623,6895997,6400901,6681835,6923072,6432919,5966653,5396799,4741866,5135531,5835379,,,,
Czech Republic,Operator Holding Account,"ELEKTRARNA TISOVA, A.S.",Tisová 2,Březová,2075720,2075720,2075720,1891798,1891798,1891798,1891798,1891798,75518,65593,56349,47779,39857,33193,27304,21627,1481417,1891798,2041128,1932727,1902547,1820977,1632662,1477169,1473748,1449141,1562430,1385616,,,,,,3373215,2041128,1932727,1902547,1820977,1632662,1477169,1473748,1449141,1562430,1385616,,,,
Czech Republic,Operator Holding Account,"ELEKTRARNY OPATOVICE, A.S.",Pardubice 2,Opatovice nad Labem,2800000,2800000,2800000,2570577,2570577,2570577,2570577,2570577,297210,250105,207509,169323,141536,119608,98387,77929,2575298,2500913,2640187,2476187,2282368,2303445,2456904,2379994,2218701,2115475,1467416,1792259,,,,,2575298,2500913,2640187,2476187,2282368,2303445,2456904,2379994,2218701,2115475,1467416,1792259,,,,
Czech Republic,Operator Holding Account,"ELEKTRARNY OPATOVICE, A.S.",Pardubice 2,Opatovice nad Labem,10449,10449,10449,523,523,523,523,523,1,0,0,0,0,0,0,0,298,523,25,45,0,0,0,0,6,0,0,5,,,,,298,523,25,45,,,,,6,,,5,,,,
Czech Republic,Operator Holding Account,"ELEKTRARNY OPATOVICE, A.S.",Pardubice 2,Opatovice nad Labem,,,,203,203,203,203,203,11,6,2,0,0,0,0,0,203,124,0,101,12,0,0,0,6,0,0,18,,,,,203,124,,101,12,,,,6,,,18,,,,
Czech Republic,Operator Holding Account,"ELEKTRARNY OPATOVICE, A.S.",Pardubice 2,Opatovice nad Labem,,,,1147,1147,1147,1147,1147,37,12,0,0,0,0,0,0,1021,1123,0,213,68,95,22,10,8,0,99,398,,,,,1021,1123,,213,68,95,22,10,8,,99,398,,,,
Czech Republic,Operator Holding Account,"ELEKTRARNY OPATOVICE, A.S.",Pardubice 2,Opatovice nad Labem,,,,1247,1247,1247,1247,1247,47,19,0,0,0,0,0,0,1100,1230,27,242,164,91,137,58,179,50,191,463,,,,,1100,1230,27,242,164,91,137,58,179,50,191,463,,,,
Czech Republic,Operator Holding Account,"ELEKTRARNY OPATOVICE, A.S.",Pardubice 2,Opatovice nad Labem,,,,,,,,,,,,,,,,,,,,61,0,0,0,,,,,,,,,,,,,61,,,,,,,,,,,,
Czech Republic,Operator Holding Account,"EMBA, S.R.O.",čp. 235,Paseky nad Jizerou,7294,7294,7294,4250,4250,4250,4250,4250,2599,2554,2508,2462,2415,2368,2321,2273,3896,4047,3917,3912,3975,4036,3973,3939,3855,3851,3878,3928,,,,,,7943,3917,3912,3975,4036,3973,3939,3855,3851,3878,3928,,,,
Czech Republic,Operator Holding Account,"ENE20, S.R.O.",Ovocný trh 572/11,Praha 1 - Staré Město,,,,,,,,,,,,,,,,,,,,,,,,,,,972,9853,,,,,,,,,,,,,,,972,9853,,,,
Czech Republic,Operator Holding Account,"ENERGETICKE CENTRUM, S.R.O.",Otín 3,Jindřichův Hradec,23823,23823,23823,19203,19203,19203,19203,19203,5766,5160,4571,4001,3449,0,0,0,19620,16274,9535,2992,7192,4900,1426,1062,1050,513,621,569,,,,,,35894,9535,2992,7192,4900,1426,1062,1050,513,621,569,,,,
Czech Republic,Operator Holding Account,"ENERGETIKA CHROPYNE, A.S.",Komenského 75,Chropyně,22948,22948,22948,11798,11798,11798,11798,11798,,,,,,,,,11770,10283,8727,8486,7284,5857,5200,3869,,,,,,,,,,22053,8727,8486,7284,5857,5200,3869,,,,,,,,
Czech Republic,Operator Holding Account,"ENERGETIKA KURIM, A.S.","Štefánikova 41, č.p. 110",Brno,4714,4714,4714,3845,0,0,0,0,,,,,,,,,3598,3588,3014,1879,Not Reported,Not Reported,,,,,,,,,,,,7186,3014,1879,,,,,,,,,,,,
Czech Republic,Operator Holding Account,"ENERGETIKA TRINEC, A.S.",Průmyslová 1024,Třinec - Staré Město,1968898,1968898,1968898,1789184,1789184,1863211,1923967,1923967,98397,88342,79264,71134,63912,57560,52039,48162,1670629,1862536,1874839,1804575,1702976,2072928,1805317,1713877,1818359,1830527,1819211,1842539,,,,,,3533165,1874839,1804575,1702976,2072928,1805317,1713877,1818359,1830527,1819211,1842539,,,,
Czech Republic,Operator Holding Account,"ENERGIE HOLDING, A.S.",Kutvirtova 339/5,"Praha 5, Radlice",56188,56188,56188,45317,45317,45317,45317,45317,24901,20501,16576,13121,10111,8469,6959,5505,41669,43035,33661,30039,29778,33798,30162,28460,25169,22320,24954,23820,,,,,,84704,33661,30039,29778,33798,30162,28460,25169,22320,24954,23820,,,,
Czech Republic,Operator Holding Account,"ENERGIE HOLDING, A.S.",Kutvirtova 339/5,"Praha 5, Radlice",16600,16600,16600,16158,16158,16158,16158,16158,8740,7183,5795,4576,3515,2642,2171,1717,14858,15344,10188,10107,9586,10916,9997,10268,9345,8345,9365,9617,,,,,,30202,10188,10107,9586,10916,9997,10268,9345,8345,9365,9617,,,,
Czech Republic,Operator Holding Account,"ENERGIE HOLDING, A.S.",Kutvirtova 339/5,"Praha 5, Radlice",12746,12746,12746,11401,11401,11401,11401,11401,6488,5231,2365,0,0,0,0,0,10656,10655,8762,8887,9046,6977,4070,3592,2862,2120,1498,,,,,,,21311,8762,8887,9046,6977,4070,3592,2862,2120,1498,,,,,
Czech Republic,Operator Holding Account,"ENERGOAQUA, A.S.",1. máje 823,Rožnov pod Radhoštěm,36900,36900,36900,28195,28195,28195,28195,28195,15717,13326,11233,9828,8467,7149,5874,4647,27587,25113,21337,20575,19617,19787,17472,18818,17398,14294,14003,14336,,,,,,52700,21337,20575,19617,19787,17472,18818,17398,14294,14003,14336,,,,
Czech Republic,Operator Holding Account,"ENERGOCENTRUM VITKOVICE, A. S.",Duhová 1444/2,Praha 4 - Michle,627182,627182,627182,508577,508577,508577,508577,508577,73972,64596,55807,47605,40432,34168,28107,22261,549540,454765,502473,419609,375853,396082,316381,272764,273715,193934,148122,155278,,,,,,1004305,502473,419609,375853,396082,316381,272764,273715,193934,148122,155278,,,,
Czech Republic,Operator Holding Account,"ENERGOTRANS, A.S.",Duhová 2/1444,Praha 4,2570382,2570382,2570382,2209181,2209181,2209181,2209181,2209181,512461,428029,352105,297654,256570,216818,178351,141265,2270377,2092171,2081195,2075305,1930017,2110262,1893686,1895779,1866481,1560120,1568591,1715349,,,,,,4362548,2081195,2075305,1930017,2110262,1893686,1895779,1866481,1560120,1568591,1715349,,,,
Czech Republic,Operator Holding Account,"ENERGOTRANS, A.S.",Duhová 2/1444,Praha 4,1000,1000,1000,85,85,85,85,85,23,18,15,11,8,6,3,2,0,85,1232,12,28,175,39,0,17,1263,0,0,,,,,,85,1232,12,28,175,39,,17,1263,,,,,,
Czech Republic,Operator Holding Account,"ENERGY USTI NAD LABEM, A.S.",Žukovova 100,Ústí nad Labem,203556,203556,203556,146141,146141,146141,146141,146141,71406,69136,66920,64760,62654,60626,58662,56729,144031,144558,142958,137426,117740,106289,91238,95685,97313,104265,104597,90827,,,,,,288589,142958,137426,117740,106289,91238,95685,97313,104265,104597,90827,,,,
Czech Republic,Operator Holding Account,"ENERGZET, A.S.","Jedovnická 2a, č.p. 4303",Brno,50000,50000,50000,5475,5475,5475,5475,5475,,,,,,,,,5475,4206,318,0,0,0,0,0,,,,,,,,,,9681,318,,,,,,,,,,,,,
Czech Republic,Operator Holding Account,"ESAB CZ, S.R.O., CLEN KONCERNU",Smetanovo nábřeží 334,Vamberk,14845,14845,14845,14394,14394,14394,14394,14394,5987,0,0,0,0,0,0,0,13553,13351,12523,12716,12671,11747,10260,9589,7225,,,,,,,,,26904,12523,12716,12671,11747,10260,9589,7225,,,,,,,
Czech Republic,Operator Holding Account,"ETHANOL ENERGY, A.S.",Školská 118,Vrdy,29531,29531,29531,24695,24695,24695,24695,24695,5140,5050,4960,4869,4777,4683,4589,4495,24695,4122,8953,26,2392,10356,14141,45186,66011,64293,71737,71092,,,,,24695,4122,8953,26,2392,10356,14141,45186,66011,64293,71737,71092,,,,
Czech Republic,Operator Holding Account,"EUROSERUM, S.R.O.",Revoluční 1489,Stříbro,13340,13340,13340,12528,12528,12528,12528,12528,9731,8708,7713,6749,5813,4909,4034,3191,11852,11564,11399,11721,10785,12430,11800,10838,9346,8880,7458,7529,,,,,,23416,11399,11721,10785,12430,11800,10838,9346,8880,7458,7529,,,,
Czech Republic,Operator Holding Account,FAKULTNI NEMOCNICE BRNO,Jihlavská 340/20,Brno,,,,13179,13179,13179,13179,13179,10745,9616,8517,7452,6420,5421,4454,3523,,12174,11843,12012,12984,13577,12197,12061,12223,11505,12335,13221,,,,,,12174,11843,12012,12984,13577,12197,12061,12223,11505,12335,13221,,,,
Czech Republic,Operator Holding Account,FAKULTNI NEMOCNICE V MOTOLE,V Úvalu 84/1,Praha 5,26592,26592,26592,17943,17943,17943,17943,17943,11805,10565,9358,8187,7053,5956,4894,3871,17736,15803,15275,15503,14825,16330,15303,15917,14503,12981,13466,13627,,,,,,33539,15275,15503,14825,16330,15303,15917,14503,12981,13466,13627,,,,
Czech Republic,Operator Holding Account,Fakultní Thomayerova nemocnice s poliklinikou,Vídeňská 800,Praha 4 - Krč,8988,8988,8988,9007,9007,9007,9007,0,,,,,,,,,8890,7945,7207,7287,6852,5384,271,Not Reported,,,,,,,,,,16835,7207,7287,6852,5384,271,,,,,,,,,
Czech Republic,Operator Holding Account,"FOMA BOHEMIA, S.R.O.",ul. J. Krušinky čp. 1604,Hradec Králové,3500,3500,3500,2956,2956,2956,2956,0,,,,,,,,,2956,1666,1475,1191,1195,826,0,,,,,,,,,,,4622,1475,1191,1195,826,,,,,,,,,,
Czech Republic,Operator Holding Account,"FOSFA, A.S.",Hraniční 268/120,Břeclav - Poštorná,9384,9384,9384,9741,9741,9741,9741,9741,10427,10245,10062,9877,9690,9501,9309,9118,0,7512,6169,6900,6566,7831,8317,9511,18830,19304,20012,17661,,,,,,7512,6169,6900,6566,7831,8317,9511,18830,19304,20012,17661,,,,
Czech Republic,Operator Holding Account,"GAMA INVESTMENT, A.S.","Pobřežní 297/14, Karlín",Praha 8,,,,,,,,,,,,,,,,,,,,,,,,,273,213,311,501,,,,,,,,,,,,,273,213,311,501,,,,
Czech Republic,Operator Holding Account,"GEOPOS, S.R.O.",Dřínov č.p. 69,Morkovice,1272,1272,1272,1971,1971,1971,1971,1971,,,,,,,,,1812,1872,2208,773,228,134,154,0,,,,,,,,,540,3144,2208,773,228,134,154,,,,,,,,,
Czech Republic,Operator Holding Account,"GLAZURA, S.R.O.","Roudnice nad Labem, Roudnická 122",Dobříň,16028,16028,16028,15046,15046,15046,15046,15046,14479,14228,13974,13716,13456,13194,12928,12662,13132,14992,15741,17048,14885,15885,13536,10450,12218,11314,11434,13125,,,,,,28124,15741,17048,14885,15885,13536,10450,12218,11314,11434,13125,,,,
Czech Republic,Operator Holding Account,"GUMARNY ZUBRI, A.S.",Hamerská 9,Zubří,8146,8146,8146,,,,,,,,,,,,,,6469,5113,1352,0,Not Reported,Not Reported,,,,,,,,,,,,11582,1352,,,,,,,,,,,,,
Czech Republic,Operator Holding Account,"GZ MEDIA, A.S.",Tovární 340,Loděnice,2506,2506,2506,2873,2873,2873,2873,2873,2257,2020,1790,0,0,0,0,0,2653,2718,2772,3013,2858,3299,3410,3619,4198,4496,1933,,,,,,2653,2718,2772,3013,2858,3299,3410,3619,4198,4496,1933,,,,,
Czech Republic,Operator Holding Account,"HAME, S.R.O.",Na Drahách 814,Kunovice,9499,9499,9499,7202,7202,7202,7202,7202,4773,4271,3784,0,0,0,0,0,6978,6483,6058,6112,5746,6434,6138,5659,5104,4939,4512,,,,,,,13461,6058,6112,5746,6434,6138,5659,5104,4939,4512,,,,,
Czech Republic,Operator Holding Account,"HANACKA POTRAVINARSKA SPOLECNOST, S.R.O.",Maloprosenská 238,Prosenice,20522,20522,20522,13603,13603,13603,13603,13603,10608,10424,10238,10049,9859,9666,9472,9277,13890,11537,12357,9373,12223,10716,11719,11048,12360,13698,10379,12542,,,,,13890,11537,12357,9373,12223,10716,11719,11048,12360,13698,10379,12542,,,,
Czech Republic,Operator Holding Account,"HASIT SUMAVSKE VAPENICE A OMITKARNY, S. R.O.",Velké Hydčice 91,Horažďovice,120240,120240,120240,53143,53143,53143,53143,53143,42526,41694,40856,40014,39168,38318,37461,36605,56371,48573,56285,39508,36408,35462,33943,27848,31377,28256,27477,27933,,,,,,104944,56285,39508,36408,35462,33943,27848,31377,28256,27477,27933,,,,
Czech Republic,Operator Holding Account,"HEINEKEN CESKA REPUBLIKA, A.S.",U Pivovaru 1,Krušovice,4700,4700,4700,5776,5776,5776,5776,5776,3766,3371,2986,2612,2250,1900,1561,1235,5142,5654,4653,4898,4672,4428,4038,4470,4049,3298,3304,3561,,,,,442,10354,4653,4898,4672,4428,4038,4470,4049,3298,3304,3561,,,,
Czech Republic,Operator Holding Account,"HELUZ CIHLARSKY PRUMYSL, V.O.S.",U Cihelny 295,Dolní Bukovsko,10032,10032,10032,10409,10409,10409,10409,10409,0,0,0,0,0,0,0,0,10409,7707,10299,5530,0,0,0,0,0,0,,,,,,,377,17739,10299,5530,,,,,,,,,,,,
Czech Republic,Operator Holding Account,"HELUZ CIHLARSKY PRUMYSL, V.O.S.",U Cihelny 295,Dolní Bukovsko,33997,33997,33997,52230,52230,52230,52230,52230,29450,28938,28421,27898,27369,26835,26295,25753,26724,24219,43642,28412,30573,21472,17353,21649,23649,10700,9634,14306,,,,,26724,24219,43642,28412,30573,21472,17353,21649,23649,10700,9634,14306,,,,
Czech Republic,Operator Holding Account,"HELUZ CIHLARSKY PRUMYSL, V.O.S.",U Cihelny 295,Dolní Bukovsko,40351,40351,40351,26800,26800,26800,26800,26800,26293,25837,25375,24908,24436,23959,23477,22993,18303,22182,24115,23564,16026,9051,17269,16320,15328,6654,7066,8489,,,,,12952,27533,24115,23564,16026,9051,17269,16320,15328,6654,7066,8489,,,,
Czech Republic,Operator Holding Account,"HELUZ CIHLARSKY PRUMYSL, V.O.S.",U Cihelny 295,Dolní Bukovsko,18088,18088,18088,9746,9746,9746,9746,9746,12253,12040,11824,11607,11387,11165,10940,10714,9177,9040,11214,7418,8339,7809,9042,8849,9265,6368,6697,6910,,,,,9177,9040,11214,7418,8339,7809,9042,8849,9265,6368,6697,6910,,,,
Czech Republic,Operator Holding Account,"HELUZ, S.R.O.",Dolní Bukovsko 295,Dolní Bukovsko,,,,665,49800,49800,49800,49800,25114,24678,24237,23791,23340,22885,22424,21962,,,,665,15911,20383,26777,33500,34296,15511,17508,15258,,,,,,,,665,15911,20383,26777,33500,34296,15511,17508,15258,,,,
Czech Republic,Aircraft Operator Account,"HOLIDAYS CZECH AIRLINES, A.S.",Jana Kašpara 1069/1,Praha 6,,,,,,,,,,,,,,,,,,,,,,,,88064,2154,,,,,,,,,,,,,,,88064,,2154,,,,,,
Czech Republic,Operator Holding Account,"HOLOUBEK ENERGO, A.S.",Vodičkova 20,Praha 1,43880,43880,43880,38361,38361,38361,38361,38361,17969,17627,17282,16934,16586,16234,15879,15525,36796,34906,39363,33782,29138,25612,26998,25296,31287,32868,30510,31248,,,,,3524,68178,39363,33782,29138,25612,26998,25296,31287,32868,30510,31248,,,,
Czech Republic,Operator Holding Account,"HUHTAMAKI CESKA REPUBLIKA, A.S.",Přibyslavice 101,Přibyslavice,9808,9808,9808,8504,8504,8504,9089,9089,5975,5348,4736,4145,3570,3014,2477,1960,8491,7404,7933,7834,7390,7602,8187,8396,8741,8888,9740,10021,,,,,,15895,7933,7834,7390,7602,8187,8396,8741,8888,9740,10021,,,,
Czech Republic,Aircraft Operator Account,Hyundai Motor Company,"Yangjae-dong, 12, Heolleung-ro",Seoul,,,,,,,,,,,,,,,,,,,,,,,,31,Excluded,Excluded,Excluded,Excluded,,,,,,,,,,,,,31,,,,,,,
Czech Republic,Operator Holding Account,"HYUNDAI MOTOR MANUFACTURING CZECH, S.R. O.","Průmyslová zóna Nošovice, Hyundai 700/1",Nižní Lhoty,,,,,,,,,38926,34838,46959,46095,45221,44339,43446,42551,,,,,,,,,36574,32917,37905,39716,,,,,,,,,,,,,36574,32917,37905,39716,,,,
Czech Republic,Aircraft Operator Account,INCLEDON ENTERPRISES LIMITED,2-4 Arch. Makarios III Ave,Nicosia,,,,,,,,23,,,,,,,,,,,,,,,,653,,,,,,,,,,,,,,,,653,,,,,,,,
Czech Republic,Operator Holding Account,"INNOGY ENERGO, S.R.O.",Limuzská 3135/12,Praha 10 - Strašnice,132523,132523,132523,128404,128404,128404,128404,128404,43283,36845,30965,25638,20836,16653,13698,10850,123841,129723,131868,127529,124108,123032,128622,123986,98607,83247,69808,75780,,,,,,253564,131868,127529,124108,123032,128622,123986,98607,83247,69808,75780,,,,
Czech Republic,Operator Holding Account,"INNOGY ENERGO, S.R.O.",Limuzská 3135/12,Praha 10 - Strašnice,23875,23875,23875,6855,6855,6855,6855,6855,3795,3397,3009,2633,2267,1915,1573,1245,6721,6092,3673,2668,2641,2739,1675,3454,4537,6137,7385,11368,,,,,,12813,3673,2668,2641,2739,1675,3454,4537,6137,7385,11368,,,,
Czech Republic,Operator Holding Account,"INNOGY GAS STORAGE, S.R.O.",Limuzská 3135/12,Praha 10 - Strašnice,,,,0,0,0,262,13295,509,87,39,68,59,49,41,32,,,,,,,262,9108,7527,5440,10962,10626,,,,,,,,,,,262,9108,7527,5440,10962,10626,,,,
Czech Republic,Operator Holding Account,"INNOGY GAS STORAGE, S.R.O.",Limuzská 3135/12,Praha 10 - Strašnice,2540,2540,2540,2772,2772,2772,2772,2772,1655,650,1311,1147,988,835,686,543,2198,2772,1524,2156,2677,2581,3653,2390,834,2870,3475,4716,,,,,,4970,1524,2156,2677,2581,3653,2390,834,2870,3475,4716,,,,
Czech Republic,Operator Holding Account,"IROMEZ, S.R.O.",Pod Náspem 2005,Pelhřimov,16736,16736,16736,884,884,884,884,884,9287,8311,7363,6444,5555,4695,3862,3059,884,264,32,150,29,32,56,107,108,336,317,214,,,,,,1148,32,150,29,32,56,107,108,336,317,214,,,,
Czech Republic,Operator Holding Account,"IROMEZ, S.R.O.",Pod Náspem 2005,Pelhřimov,13015,13015,13015,6229,6229,6229,6229,6229,2970,1483,272,94,43,0,0,0,6229,4135,5029,2886,2807,2577,2062,2834,1733,316,325,127,,,,,,10364,5029,2886,2807,2577,2062,2834,1733,316,325,127,,,,
Czech Republic,Operator Holding Account,"IVECO CZECH REPUBLIC, A. S.",Dobrovského 74/II.,Vysoké Mýto,15810,15810,15810,13465,13465,13465,13465,13465,7608,6810,9177,9009,8839,8666,8491,8317,11966,13203,14583,15742,14146,14277,12676,12063,17243,16407,17026,17965,,,,,,25169,14583,15742,14146,14277,12676,12063,17243,16407,17026,17965,,,,
Czech Republic,Operator Holding Account,"JABLONECKA ENERGETICKA, A.S.",Liberecká 4191/120,Jablonec nad Nisou,58524,58524,58524,41244,41244,41244,41244,41244,26350,21800,17730,14716,6339,5352,4398,3480,42768,34323,30046,38520,29945,29242,23533,23052,22128,19471,21977,11369,,,,,,77091,30046,38520,29945,29242,23533,23052,22128,19471,21977,11369,,,,
Czech Republic,Operator Holding Account,"JABLONECKA ENERGETICKA, A.S.",Liberecká 4191/120,Jablonec nad Nisou,26639,26639,26639,30900,30900,30900,30900,30900,20654,17062,7347,0,0,0,0,0,28346,29411,27872,25347,30148,16705,14671,14647,13501,6641,0,,,,,,1707,56050,27872,25347,30148,16705,14671,14647,13501,6641,,,,,,
Czech Republic,Operator Holding Account,Jan Fiala - cihelna Štěrboholy,Nedokončená 163,"Praha 15, Štěrboholy",3492,3492,3492,2710,2710,2710,2710,2710,2833,2784,2734,1342,1317,1291,1265,1239,2813,2253,2637,1645,2656,2743,2562,1547,1819,1422,851,1223,,,,,,5066,2637,1645,2656,2743,2562,1547,1819,1422,851,1223,,,,
Czech Republic,Operator Holding Account,"JIHLAVAN, A.S.",Znojemská 64,Jihlava,1659,1659,1659,,,,,,,,,,,,,,1206,0,,,Not Reported,Not Reported,,,,,,,,,,,,1206,,,,,,,,,,,,,,
Czech Republic,Operator Holding Account,"JIHLAVSKE KOTELNY, S.R.O.",Havlíčkova 111,Jihlava,9840,9840,9840,9269,9269,9269,9269,9269,6167,5519,4889,4278,0,0,0,0,9046,8279,7557,7379,6842,6341,5116,4872,4252,4003,4057,2531,,,,,,17325,7557,7379,6842,6341,5116,4872,4252,4003,4057,2531,,,,
Czech Republic,Operator Holding Account,"JIP - PAPIRNY VETRNI, A. S.",Papírenská čp. 2,Větřní,86489,86489,86489,46471,46471,46471,46471,46471,23916,5875,11540,11328,11113,10897,10677,10457,43839,43023,41078,41069,41573,27841,15210,15287,5508,11489,11371,1752,,,,,,86862,41078,41069,41573,27841,15210,,20795,11489,11371,1752,,,,
Czech Republic,Operator Holding Account,"KAREL HOLOUBEK - TRADE GROUP, A.S.",Vodičkova 20,Praha 1,18125,18125,18125,6188,6188,6188,6188,6188,3746,3353,2970,2600,2240,0,0,0,6188,4606,5077,4774,5140,4022,4467,3146,4011,3624,4044,3116,,,,,,10794,5077,4774,5140,4022,4468,3147,4011,3624,4044,3116,,,,
Czech Republic,Operator Holding Account,"KASTL INVEST, S.R.O.",Vítkovická 3083/1,"Ostrava, Moravská Ostrava",41973,41973,41973,36459,36459,36459,36459,36459,,,,,,,,,36459,28981,36287,28862,939,468,0,0,,,,,,,,,,65440,36287,28862,939,468,,,,,,,,,,
Czech Republic,Operator Holding Account,"KAVALIER TEC, S.R.O.",Křížová 1018/6,Praha 5 - Smíchov,55000,55000,55000,43405,43405,43405,43405,43405,254,456,202,177,0,0,0,0,40286,40845,40738,34328,3445,3795,2560,0,337,248,285,39,,,,,,81131,40738,34328,3445,3795,2560,,337,248,285,39,,,,
Czech Republic,Operator Holding Account,"KAVALIERGLASS, A.S.",Křížová 1018/6,Praha 5 - Smíchov,21233,21233,21233,19530,19530,19530,19530,19530,17611,17304,16996,16684,16367,16048,15724,15400,17965,18539,19962,18765,13064,13552,13086,12418,12404,16834,16880,19500,,,,,,36504,19962,18765,13064,13552,13086,12418,12404,16834,16880,19500,,,,
Czech Republic,Operator Holding Account,"KERAMOST, A.S.",Žatecká 1899/25,Most,920,920,920,498,0,0,0,0,,,,,,,,,498,88,160,0,Not Reported,Not Reported,,,,,,,,,,,,586,160,,,,,,,,,,,,,
Czech Republic,Operator Holding Account,"KG ENERGO, S.R.O.",Bělehradská 55/15,Praha 4,36524,36524,36524,37892,37892,37892,37892,37892,15364,13219,11238,9421,0,0,0,0,36042,34785,33726,31444,29931,28208,28762,30311,29109,24231,23858,2802,,,,,,70827,33800,31444,29931,28208,28762,30311,29109,24231,23858,2802,,,,
Czech Republic,Operator Holding Account,"KLATOVSKA TEPLARNA, A.S.",Jateční 660,Klatovy II,31000,31000,31000,27828,27828,27828,27828,27828,10644,9534,8796,7810,6856,5931,5035,4170,27543,24472,22797,23892,21984,21214,18663,17983,16675,16331,17807,16897,,,,,,52015,22797,23892,21984,21214,18663,17983,16675,16331,17807,16897,,,,
Czech Republic,Operator Holding Account,"KLIMA, A.S.",Krumlovská 38,Prachatice,5618,5618,5618,4023,4023,4023,4023,4023,,,,,,,,,4007,3512,3273,2881,2563,2396,1943,370,,,,,,,,,,7519,3273,2881,2563,2396,1943,370,,,,,,,,
Czech Republic,Operator Holding Account,"KNAUF INSULATION, S.R.O.",Bucharova 2641/14,Praha 5,,,,35000,35000,35000,35000,35000,19755,19412,19064,18714,18359,18001,17639,17275,,18365,26660,22176,19955,20167,21363,22286,20628,19675,20769,20347,,,,,,18365,26660,22176,19955,20167,21363,22286,20628,19675,20769,20347,,,,
Czech Republic,Operator Holding Account,"KOMTERM CECHY, S.R.O.",Bělehradská 55/15,Praha 4,32571,32571,32571,23614,23614,23614,23614,23614,7367,6797,6280,1630,0,0,0,0,23614,16816,13644,12421,7018,3048,3725,1857,4637,6867,157,0,,,,,,40430,13644,12421,7018,3048,3725,1857,4637,6867,157,,,,,
Czech Republic,Operator Holding Account,"KOMTERM MORAVA, S.R.O.",Traťová 653/3,Brno - Bohunice,142774,142774,142774,122172,122172,122172,122172,122172,62561,53136,42311,37170,32719,28931,25768,24092,125803,115455,103380,100852,93407,116411,99007,81337,75623,34320,33776,33943,,,,,,241258,103380,100852,93407,116411,99007,81337,75623,34320,33769,33950,,,,
Czech Republic,Operator Holding Account,"KONGRESOVE CENTRUM PRAHA, A.S.",5. května 65,Praha 4,4800,4800,4800,5284,5284,5284,5284,5284,3453,3090,2738,2395,2063,0,0,0,5101,4775,4171,4228,4370,4803,3962,4218,4150,3443,3458,2993,,,,,301,9575,4171,4228,4370,4803,3962,4218,4150,3443,3458,2993,,,,
Czech Republic,Operator Holding Account,"KOSTELECKE UZENINY, A.S.",Kostelec 60,Kostelec,7960,7960,7960,6215,6215,6215,6215,6215,,,,,,,,,6422,5195,4444,4740,2466,28,12,8,,,,,,,,,,11617,4444,4740,2466,28,12,8,,,,,,,,
Czech Republic,Operator Holding Account,"KOTOUČ ŠTRAMBERK, spol. s r. o.",Libotín 500,Štramberk,155665,155665,155665,124427,124427,124427,124427,124427,116218,114199,112157,110093,108007,105901,103769,101629,121203,124508,165015,151839,110888,107073,119230,112727,101727,111302,128165,86201,,,,,,245711,165015,151839,110888,107073,119230,112727,101727,111302,128165,86201,,,,
Czech Republic,Operator Holding Account,"KOVOBRASIV Mníšek, spol. s r. o.",Mníšek pod Brdy 905,okres Praha-západ,4000,4000,4000,4029,4029,4029,4029,4029,2698,1079,544,534,0,0,0,0,3673,3857,3930,3660,2068,2946,2763,2497,488,45,4,0,,,,,,7530,3930,3660,2068,2946,2763,2497,488,45,4,,,,,
Czech Republic,Operator Holding Account,"KRALOVOPOLSKA, A.S.",Křižíkova 2989/68a,Brno - Královo Pole,5084,5084,5084,1711,1711,1711,1711,1711,,,,,,,,,1711,1322,695,664,675,966,865,698,Excluded,,,,,,,,627,2406,695,664,675,966,865,698,,,,,,,,
Czech Republic,Operator Holding Account,"KRKONOSSKE PAPIRNY, A.S.",Nádražní 266,Hostinné,16079,16079,16079,3611,0,0,0,0,,,,,,,,,3611,1201,0,0,Not Reported,Not Reported,,,,,,,,,,,2932,1880,,,,,,,,,,,,,,
Czech Republic,Operator Holding Account,"KROMERIZSKA NEMOCNICE, A.S.",Havlíčkova 660,Kroměříž,6057,6057,6057,6086,6086,6086,6086,6086,4234,3789,0,0,0,0,0,0,5905,5471,5477,5357,5191,5846,5471,5354,4654,1742,,,,,,,,11376,5477,5357,5191,5846,5471,5354,4654,1742,,,,,,
Czech Republic,Operator Holding Account,"KRONOSPAN CR,SPOL. S R.O.",Na hranici 6,Jihlava,33403,33403,33403,22028,22028,25887,25887,25887,30322,29795,19228,16823,14493,12237,10055,7954,18293,22028,13178,2867,1141,3047,2035,2824,6632,7842,19131,15947,,,,,,40321,13178,2867,1141,3047,2035,2824,6632,7842,19131,15947,,,,
Czech Republic,Operator Holding Account,"KRPA PAPER, A.S.",Nádražní 266,Hostinné,120078,120078,120078,67389,67389,67389,67389,67389,30214,29115,28071,27083,26151,25268,24432,23665,65511,67565,61753,52622,41836,34924,33742,36847,33894,32806,32290,32905,,,,,5433,127643,61753,52622,41836,34924,33742,36847,33894,32806,32290,32905,,,,
Czech Republic,Operator Holding Account,"KX POWER, A.S.",Šujanovo nám. 3,Brno,13059,13059,13059,4901,4901,4901,4901,4901,,,,,,,,,4901,3820,2320,1045,0,1,2,0,Excluded,,,,,,,,4901,3820,2320,1045,,1,2,,,,,,,,,
Czech Republic,Operator Holding Account,"LAFARGE CEMENT, A.S.",Čížkovice čp. 27,Čížkovice,518463,518463,518463,474355,474355,474355,474355,474355,446598,438841,430993,423063,415048,406954,398760,390537,471299,465427,565933,490969,369109,354004,368875,422207,325591,348099,350217,368962,,,,,,936726,565933,490969,369109,354004,368875,422207,325591,348099,350217,368962,,,,
Czech Republic,Operator Holding Account,"LASSELSBERGER, S.R.O.",Adelova 2549/1,"Plzeň, Jižní Předměstí",12840,12840,12840,13093,13093,13093,13093,13093,11635,11432,11228,11021,10812,10602,10388,10173,11922,12550,12982,12090,2911,11227,11810,11995,11466,11716,11479,12106,,,,,,24472,12982,12090,2911,11227,11810,11995,11466,11716,11479,12106,,,,
Czech Republic,Operator Holding Account,"LASSELSBERGER, S.R.O.",Adelova 2549/1,"Plzeň, Jižní Předměstí",63247,63247,63247,64594,64594,64594,64594,64594,53192,52270,51334,50390,49435,48471,47496,46515,62800,64756,67902,61773,53339,58995,61864,66390,60737,63191,65801,67299,,,,,,127556,67902,61773,53339,58995,61864,66390,60737,63191,65801,67299,,,,
Czech Republic,Operator Holding Account,"LASSELSBERGER, S.R.O.",Adelova 2549/1,"Plzeň, Jižní Předměstí",6968,6968,6968,7508,7508,7508,0,0,,,,,,,,,7341,6692,6835,5521,1902,104,,,,,,,,,,,373,13660,6835,5521,1902,104,,,,,,,,,,
Czech Republic,Operator Holding Account,"LASSELSBERGER, S.R.O.",Adelova 2549/1,"Plzeň, Jižní Předměstí",35777,35777,35777,37784,37784,43374,47690,47690,41242,40526,39802,39068,38328,37581,36824,36065,35216,35408,36484,35074,33679,43374,45268,43069,40510,43209,42381,53660,,,,,,70624,36484,35074,33679,43374,45268,43069,40510,43209,42381,53660,,,,
Czech Republic,Operator Holding Account,"LASSELSBERGER, S.R.O.",Adelova 2549/1,"Plzeň, Jižní Předměstí",26329,26329,26329,,,,,,,,,,,,,,21841,15686,,,Not Reported,Not Reported,,,,,,,,,,,,37527,,,,,,,,,,,,,,
Czech Republic,Operator Holding Account,"LASSELSBERGER, S.R.O.",Adelova 2549/1,"Plzeň, Jižní Předměstí",13521,13521,13521,22665,22665,22665,22665,22665,17747,17439,17126,16812,16493,16171,15846,15519,12311,12960,21827,20632,16659,20139,20349,17117,16769,17823,20071,19157,,,,,,25271,21827,20632,16659,20139,20349,17117,16769,17823,20071,19157,,,,
Czech Republic,Operator Holding Account,"LASSELSBERGER, S.R.O.",Adelova 2549/1,"Plzeň, Jižní Předměstí",37255,37255,37255,36042,36042,36042,36042,36042,,,,,,,,,32726,34643,34609,31165,19079,1552,208,135,,,,,,,,,,67369,34609,31165,19079,1552,208,135,,,,,,,,
Czech Republic,Operator Holding Account,"LAUFEN CZ, S.R.O.",V Tůních 3/1637,Praha 2,14641,14641,14641,,,,,,,,,,,,,,7184,4724,1888,0,Not Reported,Not Reported,,,,,,,,,,,,11908,1888,,,,,,,,,,,,,
Czech Republic,Operator Holding Account,"LAUFEN CZ, S.R.O.",V Tůních 3/1637,Praha 2,19787,19787,19787,22860,22860,22860,22860,22860,18883,18555,18223,17887,17548,17206,16861,16513,21534,21195,19837,16980,8789,7972,7538,8965,13675,14072,15599,16728,,,,,1747,40982,19837,16980,8789,7972,7538,8965,13675,14072,15599,16728,,,,
Czech Republic,Operator Holding Account,"LETISTE PRAHA, A. S.",K letišti 6/1019,Praha 6,20750,20750,20750,19494,19494,19494,19494,19494,15770,14113,12500,10937,9421,7955,6537,5171,15136,19494,18562,15952,14851,14926,14154,14783,17484,13296,13628,13946,,,,,,34630,18562,15952,14851,14926,14154,14783,17484,13296,13628,13946,,,,
Czech Republic,Operator Holding Account,"LIAS VINTIROV, LEHKY STAVEBNI MATERIAL, K.S.",Vintířov 176,Vintířov,27686,27686,27686,28128,28128,28128,28128,28128,17724,17417,17105,16790,16472,16151,15825,15499,27686,21076,15227,20177,22178,19451,15243,16668,18134,20564,21950,21762,,,,,21027,27735,15227,20177,22178,19451,15243,16668,18134,20564,21950,21762,,,,
Czech Republic,Operator Holding Account,"LITOVELSKA CUKROVARNA, A.S.",Loštická 131,Litovel,35658,35658,35658,15466,15466,15466,15466,15466,10008,9834,9658,9480,9301,9120,8936,8751,15964,12945,15506,14300,17373,15976,16746,19909,21104,15593,25890,20442,,,,,8000,20909,15506,14300,17373,15976,16746,19909,21104,15593,25819,20513,,,,
Czech Republic,Operator Holding Account,"LOSTR, a.s.",Husova 402,Louny,3739,3739,3739,4087,0,0,0,0,,,,,,,,,3537,4102,3490,1853,Not Reported,Not Reported,,,,,,,,,,,,7639,3490,1853,,,,,,,,,,,,
Czech Republic,Operator Holding Account,"LOVOCHEMIE, A.S.",Terezínská 57,Lovosice,175777,175777,175777,170684,170684,170684,170684,170684,98187,96138,94080,92020,89950,87879,85798,83724,131727,170684,154250,170497,163554,212651,192965,202032,196650,180800,209017,205761,,,,,131726,170685,154250,170497,163554,212651,192965,202032,196650,180800,209017,205761,,,,
Czech Republic,Operator Holding Account,"LOVOCHEMIE, A.S.",Terezínská 57,Lovosice,12241,12241,12241,1977,1977,1977,1977,1977,85470,83985,82484,80965,79432,77883,76315,74741,1557,1977,3693,2718,3483,8933,12330,6360,145368,221271,227541,169869,,,,,1556,1978,3693,2718,3483,8933,12330,6360,145368,221271,227541,169869,,,,
Czech Republic,Operator Holding Account,"MASOKOMBINAT POLICKA, A.S.",Kamenec u Poličky 300,Kamenec u Poličky,5102,5102,5102,4735,4735,4735,4735,4735,3395,3038,2692,0,0,0,0,0,4487,4363,4352,4373,4208,4557,4458,4233,3878,3989,2757,,,,,,,8850,4352,4373,4208,4557,4458,4233,3878,3989,2757,,,,,
Czech Republic,Operator Holding Account,"MEFRIT, S.R.O.",Českolipská 798,Mělník,,,,635,2342,2342,2342,2342,2141,1203,1181,1159,1138,1115,1093,1070,,,,635,1951,1719,1275,1155,1046,1048,1022,1069,,,,,,,,635,1951,1719,1275,1155,1046,1048,1022,1069,,,,
Czech Republic,Operator Holding Account,"MESIT REALITY, S.R.O.",Sokolovská 573,Uherské Hradiště,4390,4390,4390,3945,0,0,0,0,,,,,,,,,3745,3628,3110,2652,Not Reported,Not Reported,,,,,,,,,,,,7373,3110,2652,,,,,,,,,,,,
Czech Republic,Aircraft Operator Account,"MIDAMERICA HOLDINGS, LTD.",3801 20TH ST N,FARGO,,,,,,,,,,,,,,,,,,,,,,,,23,Excluded,Excluded,Excluded,Excluded,,,,,,,,,,,,,23,,,,,,,
Czech Republic,Operator Holding Account,"MITAS, A.S.",Švehlova 1900/3,Praha 10 - Záběhlice,29879,29879,29879,24636,24636,24636,24636,24636,21248,20861,20468,20074,19676,19274,18869,18464,23237,22811,23197,21584,17113,18893,18664,18422,18800,15687,14921,14595,,,,,208,45840,23197,21584,17113,18893,18664,18442,18800,15687,14921,14595,,,,
Czech Republic,Operator Holding Account,"MLEKARNA HLINSKO, A.S.",Kouty 53,Hlinsko,12395,12395,12395,12169,12169,12169,12169,12169,8039,7425,6826,0,0,0,0,0,11664,11081,10229,8810,7516,8032,8123,7577,9416,9973,3001,,,,,,369,22376,10229,8810,7516,8032,8123,7577,9416,9973,3001,,,,,
Czech Republic,Operator Holding Account,MLEKARNA KLATOVY A. S.,Za tratí 640,Klatovy IV,18971,18971,18971,19601,19601,0,0,0,,,,,,,,,17989,18649,16899,16374,0,0,,,,,,,,,,,,36638,16899,16374,,,,,,,,,,,,
Czech Republic,Operator Holding Account,"MND GAS STORAGE, A.S.",Úprkova 807/6,Hodonín,,,,0,0,0,0,4835,6197,5544,4912,4298,3702,3127,2568,2032,,,,,,,,4835,4884,4672,5546,6390,,,,,,,,,,,,4835,4884,4672,5546,6390,,,,
Czech Republic,Operator Holding Account,"MONDI STETI, A.S.",Litoměřická 272,Štětí,483009,483009,483009,494692,495984,509972,509972,509972,169138,164885,160644,156421,152214,148027,143851,139714,310735,268670,397391,343040,400557,430460,396518,355879,328356,330003,331381,326495,,,,,,637778,339018,343040,400557,430460,396518,355879,328356,330003,331381,326495,,,,
Czech Republic,Operator Holding Account,"MONDI STETI, A.S.",Litoměřická 272,Štětí,76314,76314,76314,,,,,,,,,,,,,,62645,58373,0,0,Not Reported,Not Reported,,,,,,,,,,,,121018,,,,,,,,,,,,,,
Czech Republic,Operator Holding Account,"MORAVIA GAS STORAGE, A.S.",Úprkova 807/6,Hodonín,,,,,,,,,,,,2138,3168,2677,2202,1744,,,,,,,,,,,,3249,,,,,,,,,,,,,,,,3249,,,,
Czech Republic,Operator Holding Account,"MORAVSKOSLEZSKE CUKROVARY, A.S.",Cukrovarská 657,Hrušovany nad Jevišovkou,53870,53870,53870,37813,37813,37813,37813,37813,15835,15504,15173,14840,14505,14171,13835,13501,36486,34192,38535,41812,33020,29711,33346,33248,35263,39904,56786,36252,,,,,,70678,38535,41812,33020,29711,33346,33248,35263,39904,56786,36252,,,,
Czech Republic,Operator Holding Account,"MORAVSKOSLEZSKE CUKROVARY, A.S.",Cukrovarská 657,Hrušovany nad Jevišovkou,50189,50189,50189,38131,38131,38131,38131,38131,23798,23282,22765,22247,21728,21209,20689,20170,38131,29364,28742,42773,42154,44955,44892,33994,30495,41720,49038,32886,,,,,,67495,28742,42773,42154,44955,44892,33994,30495,41720,49038,32886,,,,
Czech Republic,Operator Holding Account,"MS UTILITIES & SERVICES, A.S.",Bezručova 1200,Bohumín,128814,128814,128814,125836,125836,125836,125836,125836,20196,19828,19456,19082,18703,18324,17939,17552,127362,121130,76596,78511,61871,65923,61678,47931,26581,27326,29997,27530,,,,,,248492,76596,78511,61871,65923,61678,47931,26581,27326,29997,27530,,,,
Czech Republic,Operator Holding Account,"NATURAL KERAMIKA, S.R.O.",U Cihelny 93/375,Jevíčko,822,822,822,786,786,786,786,786,,,,,,,,,803,667,455,370,286,251,192,246,,,,,,,,,803,667,455,370,286,251,192,246,,,,,,,,
Czech Republic,Operator Holding Account,"NET4GAS, S.R.O.",Na Hřebenech II 1718/8,"Praha 4, Nusle",22277,22277,22277,9374,9374,9374,9374,9374,2438,637,3301,2888,2487,2100,1726,1365,1570,9374,1750,4319,9660,1327,791,2691,324,5966,4152,2550,,,,,,10944,1750,4319,9660,1327,791,2691,324,5966,4152,2550,,,,
Czech Republic,Operator Holding Account,"NET4GAS, S.R.O.",Na Hřebenech II 1718/8,"Praha 4, Nusle",27013,27013,27013,10496,10496,10496,10496,10496,9155,8193,7256,6349,454,383,315,249,1590,10496,2826,5502,22292,1862,1788,24154,7119,9492,7278,731,,,,,,12086,2826,5502,22292,1862,1788,24154,7119,9492,7278,731,,,,
Czech Republic,Operator Holding Account,"NET4GAS, S.R.O.",Na Hřebenech II 1718/8,"Praha 4, Nusle",35410,35410,35410,24394,24394,24394,0,0,,,,,,,,,23141,22456,6851,1258,647,0,,,,,,,,,,,,45597,6851,1258,647,,,,,,,,,,,
Czech Republic,Operator Holding Account,"NET4GAS, S.R.O.",Na Hřebenech II 1718/8,"Praha 4, Nusle",200000,200000,200000,80647,80647,80647,80647,80647,20107,6826,45614,39910,12014,10144,8335,6593,85476,73780,76788,73060,64256,60703,42149,8941,4788,39833,46529,8920,,,,,,159256,76788,73060,64256,60703,42149,8941,4788,39833,46529,8920,,,,
Czech Republic,Operator Holding Account,"NET4GAS, S.R.O.",Na Hřebenech II 1718/8,"Praha 4, Nusle",106270,106270,106270,46196,46196,46196,46196,46196,29518,0,0,0,0,0,0,0,46196,35047,18405,42840,12156,18795,5500,24619,644,,,,,,,,,81243,18405,42840,12156,18795,5500,24619,644,,,,,,,
Czech Republic,Operator Holding Account,"NET4GAS, S.R.O.",Na Hřebenech II 1718/8,"Praha 4, Nusle",65150,65150,65150,17636,17636,17636,17636,17636,6329,222,197,172,149,125,104,82,17636,2740,8168,16365,35863,28962,10515,7300,193,1373,340,325,,,,,,20376,8168,16365,35863,28962,10515,7300,193,1373,340,325,,,,
Czech Republic,Operator Holding Account,"NKT CABLES VRCHLABI, S.R.O., CLEN SKUPINY NKT",Českých bratří 509,Vrchlabí,3358,3358,3358,2946,2946,2946,2946,2946,,,,,,,,,2899,2607,2470,2626,2379,2651,2153,1308,,,,,,,,,,5506,2470,2626,2379,2651,2153,1308,,,,,,,,
Czech Republic,Operator Holding Account,"O-I MANUFACTURING CZECH REPUBLIC, A.S.",Ruská 113/80,Dubí - Bystřice,57437,57437,57437,62506,62506,62506,62506,62506,44865,44086,43297,42501,41695,40882,40059,39233,56515,60006,58621,54614,36828,50033,55936,57122,49224,54358,53379,53745,,,,,56515,60006,58621,54614,36828,50033,55936,57122,49224,54358,53379,53745,,,,
Czech Republic,Operator Holding Account,"O-I MANUFACTURING CZECH REPUBLIC, A.S.",Ruská 113/80,Dubí - Bystřice,40296,40296,40296,43034,43034,43034,43034,43034,21669,21293,20912,20528,20138,19746,19348,18949,39676,40762,41168,42199,39433,39917,40092,38010,32368,31349,31357,24842,,,,,39676,40762,41168,42199,39433,39917,40092,38010,32368,31349,31357,24842,,,,
Czech Republic,Operator Holding Account,"OAZA-ENERGO, A.S.",Dr. Milady Horákové 81/117,Liberec VI.,,,,11550,11550,11550,11550,11550,,,,,,,,,,,3807,6210,2541,0,0,0,,,,,,,,,,,3807,6210,2541,,,,,,,,,,,
Czech Republic,Operator Holding Account,"ODEVNI PODNIK, A.S.",Za Drahou 4239/2,Prostějov,10193,10193,10193,5850,5850,5850,5850,5850,,,,,,,,,5834,5101,4531,4159,3026,2193,1220,1107,,,,,,,,,,10935,4531,4159,3026,2193,1220,1107,,,,,,,,
Czech Republic,Aircraft Operator Account,"OKAY HOLDING, A.S.",Kšírova 259,Brno,,,,,,,,16,,,,,,,,,,,,,,,,172,Excluded,Excluded,Excluded,,,,,,,,,,,,,172,,4,,,,,,
Czech Republic,Operator Holding Account,"OKD, BASTRO, a.s.",Lihovarská 11/1378,Ostrava-Radvanice,3136,3136,3136,,,,,,,,,,,,,,3907,1760,,,Not Reported,Not Reported,,,,,,,,,,,771,4896,,,,,,,,,,,,,,
Czech Republic,Operator Holding Account,"OKK KOKSOVNY, A.S.",Koksární ulice 1112,Ostrava-Přívoz,121651,121651,121651,116224,123887,123887,154907,154907,195605,192208,188770,185297,181786,178242,174653,171051,115278,114233,103666,94710,78352,100961,126906,113601,106556,106855,102065,107849,,,,,,229511,103666,94710,78352,100961,126906,113601,106556,106855,102065,107849,,,,
Czech Republic,Operator Holding Account,"OKK KOKSOVNY, A.S.",Koksární ulice 1112,Ostrava-Přívoz,128176,128176,128176,129339,129339,129339,129339,129339,,,,,,,,,122768,132642,131107,130903,72830,69295,104,58,,,,,,,,,,255410,131107,130903,72830,69295,16205,58,,,,,,,,
Czech Republic,Operator Holding Account,"OLSANSKE PAPIRNY, A.S.",Lukavice č.p. 21,Lukavice,5872,5872,5872,,,,,,,,,,,,,,6764,1575,,,Not Reported,Not Reported,,,,,,,,,,,892,7447,,,,,,,,,,,,,,
Czech Republic,Operator Holding Account,"OMGD, S.R.O.",Křížová 1018/6,Praha 5 - Smíchov,50348,50348,50348,15010,15010,15010,15010,15010,0,0,0,0,0,0,0,0,11538,15010,4713,56,38,43,40,43,42,22,,,,,,,11538,15010,4713,56,38,43,40,43,42,22,,,,,,
Czech Republic,Operator Holding Account,"OMNICON, S.R.O.",V rovinách 103,Praha 4,12081,12081,12081,11332,11332,11332,11332,11332,5356,4793,4246,3716,3203,2707,2227,1764,10828,10354,9967,10925,10757,11204,10271,9853,9890,9253,8175,8372,,,,,,21182,9967,10925,10757,11204,10271,9853,9890,9253,8175,8372,,,,
Czech Republic,Operator Holding Account,"OP PAPIRNA, S.R.O.",Olšany 18,Olšany,35987,35987,35987,40561,40561,40561,40561,40561,39106,38426,37739,37045,36343,35635,34917,34197,36534,38187,35016,34482,33181,32846,32241,30061,27348,26727,25696,26181,,,,,547,74174,35016,34482,33181,32846,32241,30061,27348,26727,25696,26181,,,,
Czech Republic,Operator Holding Account,"OPATHERM, A.S.",Horní náměstí 283/58,Opava,8610,8610,8610,7740,7740,7740,7740,7740,5161,4620,2046,1790,3084,2604,2140,1692,7541,6926,6181,6116,5876,6681,4639,4591,3966,3251,3199,3671,,,,,421,14046,6181,6116,5876,6681,4639,4591,3966,3251,3199,3671,,,,
Czech Republic,Operator Holding Account,"OPATHERM, A.S.",Horní náměstí 283/58,Opava,11283,11283,11283,9467,9467,9467,9467,9467,6687,5880,5208,4557,3926,0,0,0,9326,8369,7951,7837,7792,8152,7363,7303,6720,5520,5776,5584,,,,,0,17695,7951,7837,7792,8152,7363,7303,6720,5520,5776,5584,,,,
Czech Republic,Operator Holding Account,"OSTROJ, A.S.",Těšínská 1586/66,Opava,7338,7338,7338,6233,6233,6233,6233,6233,,,,,,,,,6181,5470,3536,2339,2053,1540,306,0,,,,,,,,,,11651,3536,2339,2053,1540,306,,,,,,,,,
Czech Republic,Operator Holding Account,"OSTROVSKA TEPLARENSKA, A.S.",Mořičovská 1210,Ostrov,91523,91523,91523,89233,89233,89233,89233,89233,45327,37041,29694,23259,17694,12963,9027,7143,89803,86408,75619,79739,70841,75743,66752,58495,56993,54549,49418,47313,,,,,,176211,75619,79739,70841,75743,66752,58495,56993,54549,49418,47313,,,,
Czech Republic,Operator Holding Account,"P-D REFRACTORIES CZ, A.S.",Nádražní 218,Velké Opatovice,12320,12320,12320,12952,12952,12952,12952,12952,11608,11407,11202,10996,10788,10577,10365,10150,12055,12155,12493,12705,9444,9923,9504,7783,5753,8726,9379,9500,,,,,,24210,12493,12705,9444,9923,9504,7783,5753,8726,9379,9500,,,,
Czech Republic,Operator Holding Account,"P-D REFRACTORIES CZ, A.S.",Nádražní 218,Velké Opatovice,22156,22156,22156,27121,27121,27121,27121,27121,20645,20286,19923,19556,19186,18812,18434,18053,21162,21860,22771,21813,13158,14222,15755,14181,16203,17374,18871,17686,,,,,,43022,22771,21813,13158,14222,15755,14181,16203,17374,18871,17686,,,,
Czech Republic,Operator Holding Account,"PAPIRNA ALOISOV, A.S.",Čermenská 910,Vítkov,8233,8233,8233,4530,4530,4530,4530,4530,2934,2883,2833,2781,2727,2674,2620,2567,4437,4031,4275,3878,3675,3918,3999,3718,3811,3748,3982,4098,,,,,4437,4031,4275,3878,3675,3918,3999,3718,3811,3748,3982,4098,,,,
Czech Republic,Operator Holding Account,"PAPOS TRADE, S.R.O.",Moříčovská 251,Ostrov,13500,13500,13500,13699,13699,13699,13699,13699,6050,5945,5839,5732,5623,5513,5402,5291,12288,13318,12846,11108,11883,12737,11344,9694,10460,9277,9513,9654,,,,,,25606,12846,11108,11883,12737,11344,9694,10460,9277,9513,9654,,,,
Czech Republic,Operator Holding Account,"PARALAX, A.S.",Kotlaska 5/64,Praha 8,8020,8020,8020,7531,7531,7531,7531,7531,0,0,0,0,0,0,0,0,7491,6586,9481,5628,4710,4874,3656,496,0,0,0,,,,,,471,13606,9481,5628,4710,4874,3656,496,,,,,,,,
Czech Republic,Operator Holding Account,"PARAMO, A.S.",Přerovská 560,Pardubice,217519,217519,217519,171607,171607,171607,171607,171607,63230,23417,23002,22587,22172,21758,21343,20929,166585,172293,165184,150833,145758,141524,119877,72300,30219,21185,20330,20959,,,,,,338878,165184,150833,145758,141524,119877,72300,30219,21185,20330,20959,,,,
Czech Republic,Operator Holding Account,"PARAMO, A.S.",Přerovská 560,Pardubice,52732,52732,52732,27293,27293,27293,27293,27293,27394,26918,26436,25950,25459,24962,24459,23955,27644,23371,25421,25629,27872,28966,27896,22393,17222,15350,15734,15663,,,,,,51015,25421,25629,27872,28966,27896,22393,17222,15350,15734,15663,,,,
Czech Republic,Operator Holding Account,"PBS INDUSTRY, A.S.",Průmyslová č.p. 162,Třebíč,5100,5100,5100,2845,2845,2845,2845,2845,1373,1228,0,0,0,0,0,0,2822,2496,2236,2206,1401,1411,871,720,661,49,,,,,,,,5318,2236,2206,1401,1411,871,720,661,49,,,,,,
Czech Republic,Operator Holding Account,"PILSEN STEEL, S.R.O.",Tylova 1/57,Plzeň,8857,8857,8857,19858,19858,19858,19858,19858,37652,58928,57873,35668,55733,54647,53545,52441,7424,6965,18387,20116,13759,5824,9598,2810,37891,37577,17975,34970,,,,,,14389,18387,20116,13759,5824,9598,2810,37891,37577,17975,34970,,,,
Czech Republic,Operator Holding Account,"PITTSBURGH CORNING CR, S.R.O.",Průmyslová 3,Klášterec nad Ohří,,,,,,,,,,,,,,,,,,,,,,,,,,,,6911,,,,,,,,,,,,,,,,6911,,,,
Czech Republic,Operator Holding Account,Pivovary Staropramen a.s.,Nádražní 84,Praha 5,7952,7952,7952,8015,8015,8015,8015,8015,,,,,,,,,7445,7536,10942,10170,8441,7837,8278,7822,,,,,,,,,,14981,10942,10170,8441,7837,8278,7822,,,,,,,,
Czech Republic,Operator Holding Account,"PLEAS, A.S.",Havířská 144,Havlíčkův Brod,5924,5924,5924,5990,5990,5990,5990,5990,5666,5568,5469,5368,5267,5164,5060,4955,5634,5562,4755,4393,3945,4491,4179,4310,4993,4214,4493,4744,,,,,,11196,4755,4393,3945,4491,4179,4310,4993,4214,4493,4744,,,,
Czech Republic,Operator Holding Account,PLIVA-LACHEMA A.S.,Karásek 1/1767,Brno-Řečkovice,9534,9534,9534,,,,,,,,,,,,,,6883,5993,2708,0,Not Reported,Not Reported,,,,,,,,,,,,12876,2708,,,,,,,,,,,,,
Czech Republic,Aircraft Operator Account,PLORISTA LIMITED,Santa Roza Avenue 18,Nicosia,,,,,,,,,,,,,,,,,,,,,,,,,,,,,,,,,,,,,,,,,,,,,,,,
Czech Republic,Operator Holding Account,"PLZENSKA ENERGETIKA, A.S.",Tylova 57,Plzeň,848117,848117,848117,773324,870951,870951,870951,870951,99769,85680,72711,60849,50041,40253,31438,23574,796600,730510,726369,569699,506980,474378,435341,405134,321965,311055,318285,333293,,,,,,1527110,726369,569699,506980,474378,435341,405134,321965,311055,318285,333293,,,,
Czech Republic,Operator Holding Account,"PLZENSKA TEPLARENSKA, A.S.",Doubravecká 2760/1,Plzeň,560,560,560,0,0,0,0,0,,,,,,,,,0,0,0,0,0,0,,,,,,,,,,,,,,,,,,,,,,,,,,
Czech Republic,Operator Holding Account,"PLZENSKA TEPLARENSKA, A.S.",Doubravecká 2760/1,Plzeň,5282,5282,5282,771,771,771,771,0,,,,,,,,,771,0,134,0,0,81,0,,,,,,,,,,,771,134,,,81,,,,,,,,,,
Czech Republic,Operator Holding Account,"PLZENSKA TEPLARENSKA, A.S.",Doubravecká 2760/1,Plzeň,18424,18424,18424,1813,0,0,0,0,,,,,,,,,1813,938,0,0,Not Reported,Not Reported,,,,,,,,,,,,2751,,,,,,,,,,,,,,
Czech Republic,Operator Holding Account,"PLZENSKA TEPLARENSKA, A.S.",Doubravecká 2760/1,Plzeň,914973,914973,914973,827098,827098,827098,827098,827098,183969,152836,124946,100212,83355,70441,57944,45895,842261,791039,803024,731244,716433,736794,701579,716147,704377,648495,699517,504966,,,,,,1633300,803024,731244,716433,736794,701579,716147,704377,648495,699517,504966,,,,
Czech Republic,Operator Holding Account,"PLZENSKY PRAZDROJ, A. S.",U Prazdroje 7,Plzeň,25170,25170,25170,17008,17008,17008,17008,17008,12856,11906,10978,10076,9198,8345,7516,6715,16263,15528,14427,14917,14243,13684,12332,11266,10421,9996,10052,10160,,,,,,31791,14427,14917,14243,13684,12332,11266,10421,9996,10052,10160,,,,
Czech Republic,Operator Holding Account,"PLZENSKY PRAZDROJ, A. S.",U Prazdroje 7,Plzeň,14200,14200,14200,2227,2227,2227,2227,2227,38618,35763,32976,30265,27624,25061,22569,20162,1949,2214,2178,2307,2174,2146,2263,2175,2188,2086,2289,2468,,,,,,4163,2178,2307,2174,2146,2263,2175,2188,2086,2289,2468,,,,
Czech Republic,Operator Holding Account,"POLDI, S.R.O.",Průmyslová 1343,Kladno,26123,26123,26123,3283,3283,3283,4053,7166,28296,27805,27308,14889,2918,0,0,0,3029,3107,2672,2207,2219,4894,4053,3919,21274,22094,14223,899,,,,,,6136,2672,2207,2219,4894,4053,3919,21274,22094,14223,899,,,,
Czech Republic,Operator Holding Account,"POLDI TRADE, A.S.",Průmyslová 1343,Kladno,,,,,,,,,,4224,4494,4413,4332,4251,4170,4089,,,,,,,,,,5595,4679,686,,,,,,,,,,,,,,5595,4679,686,,,,
Czech Republic,Operator Holding Account,"PORR, A.S.",Dubečská 3238/36,Praha 10,,,,,,,,,0,1599,1423,1246,1074,907,746,591,,,,,,,,,364,1646,2198,2585,,,,,,,,,,,,,1877,133,2198,2585,,,,
Czech Republic,Operator Holding Account,"POWGEN, A.S.",Kutvirtova 339/5,Praha 5,,,,0,0,0,0,0,,,,,,,,,,,,,0,0,0,0,,,,,,,,,,,,,,,,,,,,,,,,
Czech Republic,Operator Holding Account,"POWGEN, A.S.",Kutvirtova 339/5,Praha 5,13744,13744,13744,7463,7463,7463,7463,7463,2308,2066,915,0,0,0,0,0,7411,6539,5548,4997,4696,4707,3151,2950,2645,1327,787,,,,,,,13950,5548,4997,4696,4707,3151,2950,2645,1327,787,,,,,
Czech Republic,Operator Holding Account,"PRAZSKA OBALOVNA HERINK, S.R.O.",Herink 26,Říčany u Prahy,,,,,,,,,1495,1337,1184,0,0,0,0,0,,,,,,,,,2409,2473,2281,,,,,,,,,,,,,,2409,2473,2281,,,,,
Czech Republic,Operator Holding Account,"PRAZSKA SPRAVA NEMOVITOSTI, S.R.O.",Seifertova 9,Praha 3,8000,8000,8000,7555,7555,7555,7555,7555,2432,2176,1928,1687,1453,1228,1009,798,7528,6594,4792,4277,3473,2366,2315,2434,2386,1676,1767,2407,,,,,,14122,4792,4277,3473,2366,2315,2434,2386,1676,1767,2407,,,,
Czech Republic,Operator Holding Account,"PRAZSKA TEPLARENSKA, A.S.",Partyzánská 7,Praha 7,463979,463979,463979,370543,370543,370543,370543,370543,56721,41885,2905,41330,30998,0,0,0,386012,345712,302809,317599,328027,306517,117660,70518,55650,19124,2803,3697,,,,,127033,604691,302809,317599,328027,306517,117660,70518,55650,19124,2803,3697,,,,
Czech Republic,Operator Holding Account,"PRAZSKA TEPLARENSKA, A.S.",Partyzánská 7,Praha 7,79920,79920,79920,40059,40059,40059,40059,40059,11533,9115,4023,858,643,0,0,0,38433,36443,17478,23672,26131,32581,20356,10638,7527,4454,2379,4905,,,,,,74876,17478,23672,26131,32581,20356,10638,7527,4454,2379,4905,,,,
Czech Republic,Operator Holding Account,"PRAZSKA TEPLARENSKA, A.S.",Partyzánská 7,Praha 7,74831,74831,74831,58887,58887,58887,58887,58887,44884,40363,35969,31713,14836,12821,10869,8988,59701,56585,52378,54050,53339,58192,49806,49457,43177,29555,27842,25752,,,,,,116286,52378,54050,53339,58192,49806,49457,43177,29555,27842,25752,,,,
Czech Republic,Operator Holding Account,"PRAZSKA TEPLARENSKA, A.S.",Partyzánská 7,Praha 7,52321,52321,52321,6173,6173,6173,6173,6173,7754,1735,0,0,0,0,0,0,6153,5386,4463,4271,7018,13732,4587,7043,1608,631,622,2117,,,,,,11539,4463,4271,7018,13732,4587,7043,1608,631,622,2117,,,,
Czech Republic,Operator Holding Account,"PRAZSKA TEPLARENSKA, A.S.",Partyzánská 7,Praha 7,6340,6340,6340,0,0,0,0,0,,,,,,,,,0,0,0,0,0,0,0,0,0,0,0,0,,,,,,,,,,,,,,,,,,,,
Czech Republic,Operator Holding Account,"PRAZSKE VODOVODY A KANALIZACE, A.S.",Pařížská 11,Praha 1,559,559,559,0,0,0,0,0,,,,,,,,,0,0,0,0,0,0,0,0,,,,,,,,,,,,,,,,,,,,,,,,
Czech Republic,Operator Holding Account,"PRECHEZA, A.S.",nábř. Dr. Edvarda Beneše 1170/24,Přerov I-Město,,,,,,,,,107680,112542,110338,108118,105884,103638,101372,99108,,,,,,,,,75482,84905,87156,90238,,,,,,,,,,,,,75482,84905,87156,90238,,,,
Czech Republic,Operator Holding Account,"PRECIOSA ORNELA, A.S.",Zásada 317,Zásada,23565,23565,23565,22211,22211,22211,22211,22211,17677,17370,17059,16746,16428,16108,15784,15458,21255,20261,17117,15000,15190,15064,15383,16303,14878,13600,12429,11905,,,,,,41516,17117,15000,15190,15064,15383,16303,14878,13600,12429,11905,,,,
Czech Republic,Operator Holding Account,"PRECYS, S.R.O.",Kateřinská 235,Stráž nad Nisou,11210,11210,11210,12523,12523,12523,12523,12523,,,,,,,,,11704,11704,8508,8380,5432,426,24,20,,,,,,,,,494,22914,8508,8380,5432,426,24,20,,,,,,,,
Czech Republic,Operator Holding Account,"PRIBRAMSKA TEPLARENSKA, A.S.",Obecnická 269,Příbram,7056,7056,7056,6792,6792,6792,6792,6792,,,,,,,,,6870,5826,5130,5206,5085,5302,3960,0,,,,,,,,,,12696,5130,5206,5085,5302,3960,,,,,,,,,
Czech Republic,Operator Holding Account,"PROCTER & GAMBLE - RAKONA, S.R.O.",Ottova 402,Rakovník,11117,11117,11117,8294,8294,8294,8294,8294,16660,14911,8799,7698,9954,8404,6906,5463,7794,7709,7392,7446,7233,7933,7177,7034,15713,12552,13214,15553,,,,,,15503,7392,7446,7233,7933,7177,7034,15713,12552,13214,15553,,,,
Czech Republic,Operator Holding Account,PSYCHIATRICKA NEMOCNICE V DOBRANECH,Ústavní ul.,Dobřany,4027,4027,4027,4143,4143,4143,4143,4143,3102,2776,2459,2152,1854,0,0,0,3948,3795,3734,3791,3592,3944,3488,3630,3686,3294,3313,3370,,,,,,7743,3734,3791,3592,3944,3488,3630,3686,3294,3313,3370,,,,
Czech Republic,Aircraft Operator Account,"Red.com, Inc.",19301 CAMPUS DRIVE,SANTA ANA,,,,,,,,,,,,,,,,,,,,,,,,10,Excluded,Excluded,Excluded,Excluded,,,,,,,,,,,,10,,,,,,,,
Czech Republic,Operator Holding Account,"REFRASIL, S.R.O.","Průmyslová 720, Konská",Třinec,2831,2831,2831,2965,2965,2965,2965,2965,5756,5656,5555,5453,5349,5245,5139,5034,2541,3001,3153,4277,4238,6207,4272,4217,4063,4042,4768,4866,,,,,,5542,3153,4277,4238,6207,4272,4217,4063,4042,4766,4868,,,,
Czech Republic,Aircraft Operator Account,RETENTURA LIMITED,Spirou Kyprianou 18,Nicosia,,,,,,,,4,1,1,1,1,,,,,,,,,,,,1157,447,647,430,451,,,,,,,,,,,,1157,,1094,430,451,,,,
Czech Republic,Aircraft Operator Account,"ROCKWELL AUTOMATION, INC.",5470 South Howell Ave.,Milwaukee,,,,,,,,,,,,,,,,,,,,,,,,56,Excluded,Excluded,Excluded,Excluded,,,,,,,,,,,,,56,,,,,,,
Czech Republic,Operator Holding Account,"ROCKWOOL, a.s.",Cihelní 769,Bohumín,,,,7868,44902,44902,44902,44902,31447,30901,30348,29790,29226,28656,28079,27500,,,,7868,18965,32082,34066,23440,25842,32259,36226,37363,,,,,,,,7868,18965,32082,34066,23440,25842,32259,36226,37363,,,,
Czech Republic,Operator Holding Account,"RYNOVICKA ENERGETICKA, S.R.O.",Belgická č.p. 4887,Jablonec nad Nisou,,,,6152,6152,6152,6152,6152,2398,2146,1901,1664,1435,1212,997,790,,4521,4502,4517,4632,4661,4533,4441,4465,4565,5346,5834,,,,,,4521,4502,4517,4632,4661,4533,4441,4465,4565,5346,5834,,,,
Czech Republic,Operator Holding Account,"SAINT-GOBAIN ADFORS CZ, S.R.O.",Sokolovská 106,Litomyšl,57322,57322,57322,52259,52259,52259,52259,52259,24597,24170,23738,23301,22860,22414,21962,21510,52378,50819,50981,45302,43153,45864,46982,46579,45554,42092,46681,42837,,,,,,103197,50981,45302,43153,45864,46982,46579,45554,42092,46681,42837,,,,
Czech Republic,Operator Holding Account,"SAINT-GOBAIN ADFORS CZ, S.R.O.",Sokolovská 106,Litomyšl,,,,38069,38069,38069,38069,38069,19335,18999,18660,18316,17969,17619,17264,16909,30738,38069,35931,31527,24419,26850,26628,19521,23822,24040,25732,25208,,,,,30738,38069,35931,31527,24419,26850,26628,19521,23822,24040,25732,25208,,,,
Czech Republic,Operator Holding Account,"SAINT-GOBAIN CONSTRUCTION PRODUCTS CZ, A.S.",Smrčkova 2485/4,Praha 8 - Libeň,,,,13370,44936,44936,44936,44936,44833,44053,43265,42470,41665,40853,40030,39204,,,,13370,37196,40151,41725,40710,44277,50458,54020,56662,,,,,,,,13370,37196,40151,41725,40710,44277,50458,54020,56662,,,,
Czech Republic,Operator Holding Account,"SCB FOUNDRY, A.S.",Okružní 621/1a,České Budějovice,20000,20000,20000,8053,8053,8053,8053,8053,8796,8643,8490,3161,3101,3041,2979,2919,19405,14630,10183,4858,1296,1982,4485,6481,6480,10969,151,698,,,,,,34035,10183,4858,1296,1982,4485,6481,6480,10969,151,698,,,,
Czech Republic,Operator Holding Account,"SCHIEDEL, S.R.O.",Horoušanská ul. 286,"Nehvizdy, okres Praha-východ",10005,10005,10005,6887,6887,6887,6887,6887,5969,5865,2226,2186,2144,2103,2060,2018,6399,6473,6340,5527,4341,4613,4336,3782,3019,1119,1090,1130,,,,,6399,6473,6340,5527,4341,4613,4336,3782,3019,1119,1090,1130,,,,
Czech Republic,Operator Holding Account,"SCHOTT CR, S.R.O.",Zašovská 850,Valašské Meziříčí,29721,29721,29721,,,,,,,,,,,,,,23453,3828,,,Not Reported,Not Reported,,,,,,,,,,,,27281,,,,,,,,,,,,,,
Czech Republic,Operator Holding Account,"SECO GROUP, A.S.",Podnikatelská 552,"Praha 9, Běchovice",4466,4466,4466,3599,3599,3599,3599,3599,2363,2321,2280,2238,2195,2152,2109,2065,3278,3449,2737,2705,2250,2294,1465,1364,1895,1671,1849,1969,,,,,,6727,2737,2705,2250,2294,1465,1364,1895,1671,1849,1969,,,,
Czech Republic,Operator Holding Account,"SEEIF CERAMIC, A.S.",Spešovská 243,Rájec - Jestřebí,6442,6442,6442,4874,4874,4874,4874,4874,,,,,,,,,4438,4673,4507,4777,3568,3840,3819,3706,,,,,,,,,,9111,4507,4777,3568,3840,3819,3706,,,,,,,,
Czech Republic,Operator Holding Account,"SEEIF CERAMIC, A.S.",Spešovská 243,Rájec - Jestřebí,2938,2938,2938,2761,2761,2761,2761,2761,,,,,,,,,0,2761,3016,2119,1470,2085,2217,2243,,,,,,,,,2294,2761,3016,2119,1470,2085,2217,2243,,,,,,,,
Czech Republic,Operator Holding Account,"SEEIF CERAMIC, A.S.",Spešovská 243,Rájec - Jestřebí,4900,4900,4900,6161,6161,6161,6161,6161,,,,,,,,,5727,5789,5878,5159,2981,3998,5603,3976,,,,,,,,,827,10689,5878,5159,2981,3998,5603,3976,,,,,,,,
Czech Republic,Operator Holding Account,"SELLIER & BELLOT, A.S.",Lidická 667,Vlašim,18950,18950,18950,9045,9045,9045,9045,9045,7519,7389,7256,7123,6988,6852,6714,6575,8875,8032,7406,7216,6618,7007,5536,5287,5352,4719,4741,5661,,,,,,16907,7406,7216,6618,7007,5536,5287,5352,4719,4741,5661,,,,
Czech Republic,Operator Holding Account,"SEMPERFLEX OPTIMIT, S.R.O.",Vítkovská 391/29,Odry,11405,11405,11405,8703,8703,8703,8703,8703,3928,3515,3114,2725,2347,1982,1629,1289,8703,6301,4795,4109,3576,4665,4327,4171,4464,3713,3807,4278,,,,,,15004,4795,4109,3576,4665,4327,4171,4464,3713,3807,4278,,,,
Czech Republic,Operator Holding Account,"SEV.EN EC, A.S.",K Elektrárně 227,Chvaletice,3416398,3416398,3416398,2719059,2719059,2719059,2719059,2719059,11019,9711,8469,7296,6188,5181,4262,3376,2677734,2691689,4115529,3361768,2921907,3471230,3109820,3376802,3020820,3763084,3413197,2285694,,,,,,5369423,4115529,3361768,2921907,3471230,3109820,3376802,3020820,3763084,3413197,2285694,,,,
Czech Republic,Operator Holding Account,"SIEMENS, S.R.O.",Siemensova 1,Praha 13,,,,5039,5039,5039,5039,5039,4011,3590,3180,2782,2397,2024,1662,1316,0,4850,4239,3933,3783,4222,3610,3247,3523,3068,3210,3437,,,,,,4850,4239,3933,3783,4222,3610,3247,3523,3068,3210,3437,,,,
Czech Republic,Operator Holding Account,"SIEMENS, S.R.O.",Siemensova 1,Praha 13,,,,4300,4300,4300,4300,4300,2946,2636,2335,2043,1760,1486,1221,966,0,4078,3781,4024,4004,4165,3499,3695,3857,2690,2625,2754,,,,,,4078,3781,4024,4004,4165,3499,3695,3857,2690,2625,2754,,,,
Czech Republic,Operator Holding Account,"SILIKE KERAMIKA, S.R.O.",Plachého 388/28,České Budějovice,3323,3323,3323,3224,3224,3224,3224,3224,3126,3072,3017,2962,2905,2849,2791,2734,2987,3040,2850,3004,1977,1897,1798,2453,2882,2952,3043,3369,,,,,,6027,2850,3004,1977,1897,1798,2453,2882,2952,3043,3369,,,,
Czech Republic,Operator Holding Account,"SKLARNY MORAVIA, A.S.",Úsobrno č.pop.79,"Úsobrno, okres Blansko",10509,10509,10509,11861,11861,11861,11861,11861,8296,8152,8006,7858,7710,7559,7408,7256,11678,10492,10866,10308,11328,10482,11442,12203,11903,10791,12097,12534,,,,,1169,21001,10866,10308,11328,10482,11442,12203,11903,10834,12097,12534,,,,
Czech Republic,Operator Holding Account,"SKO-ENERGO, S.R.O.",Tř. Václava Klementa 869,Mladá Boleslav,726508,726508,726508,527845,527845,527845,527845,527845,88865,76959,88730,84243,79863,75590,71418,67356,525758,516596,513088,480588,484114,508716,520877,486107,413346,386998,391981,392103,,,,,0,1042354,513088,480588,484114,508716,520877,486107,413346,386998,391981,392103,,,,
Czech Republic,Operator Holding Account,"SKO-ENERGO, S.R.O.",Tř. Václava Klementa 869,Mladá Boleslav,12560,12560,12560,5028,5028,5028,5028,5028,3118,2790,3761,3692,3622,3551,3480,3408,4734,4664,3847,3761,3434,3657,3235,3554,2599,2691,2797,2479,,,,,,9398,3847,3761,3434,3657,3235,3554,2599,2691,2797,2479,,,,
Czech Republic,Operator Holding Account,"SKODA AUTO, A.S.",Třída Václava Klementa 869,Mladá Boleslav,8541,8541,8541,15802,15802,15802,15802,15802,18302,16380,22079,16942,16622,16298,15969,15640,12498,15802,15288,14761,12706,15576,15515,14152,19716,17811,18357,18069,,,,,3957,24343,15288,14761,12706,15576,15515,14152,19716,17811,18357,18069,,,,
Czech Republic,Operator Holding Account,"SKODA JS, A.S.",Orlík 266,Pzeň,4500,4500,4500,3809,3809,3809,3809,3809,,,,,,,,,3612,3508,3137,2985,3322,3987,3328,2773,,,,,,,,,,7120,3137,2985,3322,3987,3328,2773,,,,,,,,
Czech Republic,Operator Holding Account,"SLADOVNY SOUFFLET CR, A.S.",Průmyslová 2170/12,Prostějov,,,,0,11947,20266,20266,20266,12202,11990,11775,11559,11340,11119,10895,10670,,,,,11947,11876,12166,12747,12306,11862,12025,11521,,,,,,,,,11947,11876,12166,12747,12306,11862,12025,11521,,,,
Czech Republic,Operator Holding Account,"SLEVARNY TRINEC, A.S.",Průmyslová 1001,"Třinec, Staré Město",,,,,,,,,10318,10139,9958,9774,9589,9402,9213,9023,,,,,,,,,10461,10597,10870,8189,,,,,,,,,,,,,10461,10597,10870,8189,,,,
Czech Republic,Operator Holding Account,SLEZAN FRYDEK - MISTEK A. S.,Na Příkopě 1221,Frýdek-Místek,31722,31722,31722,34060,34060,0,0,0,,,,,,,,,31575,32088,29145,20114,4796,0,,,,,,,,,,,,63663,29145,20114,4796,,,,,,,,,,,
Czech Republic,Operator Holding Account,SLEZAN FRYDEK - MISTEK A. S.,Na Příkopě 1221,Frýdek-Místek,29875,29875,29875,24492,24492,0,0,0,,,,,,,,,22104,23676,24492,22902,6259,0,,,,,,,,,,,,45780,24492,22902,6259,,,,,,,,,,,
Czech Republic,Operator Holding Account,"SMURFIT KAPPA CZECH, S.R.O.",Skandinávská 1000,Žebrák,26258,26258,26258,19335,19335,19335,19335,19335,13379,13147,12911,12674,12434,12192,11946,11699,18097,18043,17756,17649,15953,18035,18432,17811,17081,16466,17272,17960,,,,,,36140,17756,17649,15953,18035,18432,17811,17081,16466,17272,17960,,,,
Czech Republic,Operator Holding Account,"SOKOLOVSKA UHELNA, PRAVNI NASTUPCE, A.S.",Staré náměstí 69,Sokolov,4601658,4601658,4601658,4478948,4478948,4478948,4478948,4478948,487036,430427,376563,325498,280056,237060,195452,155336,4499704,4345035,4435381,4258461,4128086,4296606,4564211,4404435,4096236,4098901,4280672,4399928,,,,,,8844739,4435381,4258461,4128086,4296606,4564211,4404435,4096236,4098901,4280672,4399928,,,,
Czech Republic,Operator Holding Account,"SPH-SLUZBY, S.R.O.",Tovární 605,Hranice I - Město,9073,9073,9073,6410,6410,6410,6410,6410,2643,2431,2224,2024,0,0,0,0,5954,6028,6030,5606,6229,6714,5885,6626,7353,5204,6194,3904,,,,,5954,6028,6030,5606,6229,6714,5885,6626,7353,5204,6194,3904,,,,
Czech Republic,Operator Holding Account,"SPOLANA, A.S.",ul. Práce 657,Neratovice,412291,412291,412291,304225,304225,304225,304225,304225,140315,137831,135318,132782,130221,127637,125024,122404,283121,317642,310356,296999,299168,307058,284960,246384,231706,250596,239568,233445,,,,,,600763,310356,296999,299168,307058,284960,246384,231706,250596,239568,233445,,,,
Czech Republic,Operator Holding Account,"SPP STORAGE, S.R.O.",Sokolovská 651/136a,Praha 8,,,,0,0,0,3779,8804,4428,3962,3510,3071,2646,2234,1835,1453,,,,,,,3779,4992,8687,5582,3993,5107,,,,,,,,,,,3779,4992,8687,5582,3993,5107,,,,
Czech Republic,Operator Holding Account,"SPRAVA DOMU MESTA KAPLICE, S.R.O.",Českobudějovická 79,Kaplice,14145,14145,14145,10612,0,0,0,0,,,,,,,,,10237,9598,9722,916,Not Reported,Not Reported,,,,,,,,,,,4688,15147,9722,916,,,,,,,,,,,,
Czech Republic,Operator Holding Account,"STOLZLE - UNION, S.R.O.",U Sklárny 300,Heřmanova Huť,17456,17456,17456,19619,19619,19619,19619,19619,16443,16158,15869,15577,15282,14984,14682,14379,18465,18206,16744,15897,16103,8003,20093,21812,21525,21234,21750,22669,,,,,1009,35662,16744,15897,16103,8003,20093,21812,21525,21234,21750,22669,,,,
Czech Republic,Operator Holding Account,"SYNTHESIA, A.S.",Semtín 103,Pardubice,579044,579044,579044,482871,482871,482871,482871,482871,137216,132710,128481,124529,120831,117437,114765,112098,484050,469492,472080,466764,419144,431830,433119,411178,432120,366396,279493,285388,,,,,,953542,472080,466764,419144,431830,433119,411178,432120,366396,279493,285388,,,,
Czech Republic,Operator Holding Account,"SYNTHOMER, A.S.",Tovární č.p. 2093,Sokolov,76817,76817,76817,61644,61644,61644,61644,61644,56380,55350,41599,40784,39961,39134,38300,37462,61170,60561,58883,62246,60664,69804,58130,59198,106336,100980,101085,98648,,,,,,121731,58883,62246,60664,69804,58130,59198,106336,100980,101085,98648,,,,
Czech Republic,Operator Holding Account,"SYNTHOS KRALUPY, A.S.",O. Wichterleho 810,"Kralupy nad Vltavou, Lobeček",,,,,,,,,69789,68577,67350,66111,64858,63594,62313,61028,,,,,,,,,12510,17076,12985,12730,,,,,,,,,,,,,12510,17076,12985,12730,,,,
Czech Republic,Operator Holding Account,"SYNTHOS KRALUPY, A.S.",O. Wichterleho 810,"Kralupy nad Vltavou, Lobeček",,,,,,,,,47,46,45,45,44,43,43,41,,,,,,,,,26091,26807,19697,19182,,,,,,,,,,,,,26091,26807,19697,19182,,,,
Czech Republic,Operator Holding Account,"SYNTHOS KRALUPY, A.S.",O. Wichterleho 810,"Kralupy nad Vltavou, Lobeček",,,,,,,,,12722,12501,12278,12051,11823,11593,11359,11125,,,,,,,,,4503,4905,4087,3892,,,,,,,,,,,,,4503,4905,4087,3892,,,,
Czech Republic,Operator Holding Account,T E R M O  Frýdlant n.O. s.r.o.,Hamernická 233,Frýdlant nad Ostravicí,14144,14144,14144,10744,10744,10744,10744,10744,4323,3569,2896,2303,1783,1337,959,649,9260,10822,14963,7197,2814,2696,1032,4925,9471,7989,7882,8629,,,,,2601,17481,14963,7197,2814,2696,1032,4925,9471,7989,7882,8629,,,,
Czech Republic,Operator Holding Account,"TAMEH CZECH, S.R.O.",Vratimovská 689/117,"Ostrava, Kunčice",,,,0,0,0,2393963,2393963,193024,189665,186307,182948,179590,176231,172872,169514,,,,,,1808213,2325175,2311247,2489107,2439936,2209436,2374980,,,,,,,,,,1808213,2325175,2311247,2489107,2439936,2209436,2374980,,,,
Czech Republic,Operator Holding Account,"TAMERO INVEST, S.R.O.",O. Wichterleho 810,Kralupy nad Vltavou,548402,548402,548402,428873,428873,428873,428873,428873,150109,142089,134636,127735,121365,115504,110129,105223,435732,411178,373277,402590,352326,390124,401591,428547,372545,394051,374354,385060,,,,,,846910,373277,402590,352326,390124,401591,428547,372545,394051,374354,385060,,,,
Czech Republic,Operator Holding Account,"TEPELNE HOSPODARSTVI PRACHATICE, S.R.O.",Nádražní 52,Prachatice,10136,10136,10136,9553,9553,9553,9553,9553,6493,5825,5177,4547,3937,3347,2776,2225,9189,8667,8121,8047,7834,8613,7518,8823,9145,9033,9244,9512,,,,,,9189,16788,8047,7834,8613,7518,8823,9145,9033,9244,9512,,,,
Czech Republic,Operator Holding Account,"TEPELNE HOSPODARSTVI RYCHNOV NAD KNEZNOU, S. R. O.",Mírová 1411,Rychnov nad Kněžnou,19500,19500,19500,16530,16530,16530,16530,16530,9375,0,0,0,0,0,0,0,15416,15482,14831,14539,13215,14035,12409,12751,7414,,,,,,,,15416,15482,14831,14539,13215,14035,12409,12751,7414,,,,,,,
Czech Republic,Operator Holding Account,"Tepelné zásobování Rakovník, spol. s r.o.",Havlíčkova 2583,Rakovník,2700,2700,2700,2878,0,0,0,0,,,,,,,,,2773,2607,2424,2344,Not Reported,Not Reported,,,,,,,,,,,73,5307,2424,2344,,,,,,,,,,,,
Czech Republic,Operator Holding Account,"TEPLARNA CESKE BUDEJOVICE, A.S.",Novohradská 32,České Budějovice,508527,508527,508527,451663,451663,451663,451663,451663,177750,154345,133050,113823,96571,81216,70291,60651,450724,441191,394266,402033,387235,403261,383395,415455,353124,303435,299890,291108,,,,,,891915,394266,402033,387235,403261,383395,415455,353124,303435,299890,291108,,,,
Czech Republic,Operator Holding Account,"TEPLARNA CESKE BUDEJOVICE, A.S.",Novohradská 32,České Budějovice,33541,33541,33541,24009,24009,24009,24009,24009,10863,9451,5609,3648,5960,5048,4431,3836,21335,23542,16574,18848,15231,27158,29355,13698,9943,4693,3696,14520,,,,,,44877,16574,18848,15231,27158,29355,13698,9943,4693,3696,14520,,,,
Czech Republic,Operator Holding Account,"TEPLARNA KYJOV, A.S.",Havlíčkova 180,Kyjov,114155,114155,114155,17714,21441,21441,21441,21441,10234,9158,8113,7101,6121,5173,4255,3371,13993,9862,3862,12611,3778,2819,2191,1293,799,1495,1035,1114,,,,,13993,9862,3862,12611,3778,2819,2191,1293,799,1495,1035,1114,,,,
Czech Republic,Operator Holding Account,"TEPLARNA LIBEREC, A.S.",Dr. Milady Horákové 641/34a,Liberec IV-Perštýn,154290,154290,154290,120412,120412,120412,120412,120412,56888,50909,22550,10538,9084,7677,6315,5002,120412,91913,90152,87733,85177,64674,45604,43289,38230,22276,21762,23474,,,,,33878,178447,90152,87733,85177,64674,45604,43289,38230,22276,21762,23474,,,,
Czech Republic,Operator Holding Account,"Teplárna Loučovice, a.s.",Vrbenská 511/25a,České Budějovice,47677,47677,47677,29431,29431,29431,29431,29431,9455,2519,2155,1825,1574,1330,1094,867,27714,27297,25149,20637,20803,19836,19046,14894,9581,3030,0,0,,,,,,55011,25149,20637,20803,19836,19046,14894,9581,3030,,,,,,
Czech Republic,Operator Holding Account,"TEPLARNA OTROKOVICE, A.S.",Objízdná 1777,Otrokovice,528106,528106,528106,451231,451231,451231,451231,451231,135478,125359,115934,107193,99156,92948,86900,81023,460506,430555,448832,432702,411928,367497,390089,395846,370211,345960,358228,369609,,,,,,891061,448832,432702,411928,367497,390089,395846,370211,345960,358228,369609,,,,
Czech Republic,Operator Holding Account,"TEPLARNA OTROKOVICE, A.S.",Objízdná 1777,Otrokovice,16434,16434,16434,203,203,0,0,0,,,,,,,,,207,172,130,79,0,0,,,,,,,,,,,,379,130,79,,,,,,,,,,,,
Czech Republic,Operator Holding Account,"TEPLARNA OTROKOVICE, A.S.",Objízdná 1777,Otrokovice,,,,38347,38347,38347,38347,38347,11,0,0,0,0,0,0,0,,177,33,2,34,2,0,39,1,1,2,1,,,,,,177,33,2,34,2,,39,1,1,2,1,,,,
Czech Republic,Operator Holding Account,"TEPLARNA PISEK, A.S.",U Smrkovické silnice 2263,Písek,81500,81500,81500,76726,76726,76726,76726,76726,38204,31832,26138,21100,16692,13546,11349,9230,77653,73860,67371,67939,67279,69938,56394,57206,61493,55709,62567,67841,,,,,,151513,67371,67939,67279,69938,56394,57206,61493,55709,62567,67841,,,,
Czech Republic,Operator Holding Account,"TEPLARNA PISEK, A.S.",U Smrkovické silnice 2263,Písek,5021,5021,5021,2817,2817,2817,2817,2817,337,232,145,75,45,0,0,0,2817,1635,1536,1943,1816,154,0,0,0,0,1425,1473,,,,,,4452,1536,1943,1816,154,,,,,1425,1473,,,,
Czech Republic,Operator Holding Account,"TEPLARNA STRAKONICE, A.S.",Komenského 59,Strakonice,288480,288480,288480,242629,242629,242629,242629,242629,58975,51124,44039,37705,32086,27155,23552,20781,228936,250193,247661,247363,214862,213885,192291,190224,193896,151108,178888,125912,,,,,,479129,247661,247363,214862,213885,192291,190224,193896,151108,178888,125912,,,,
Czech Republic,Operator Holding Account,"TEPLARNA TABOR, A.S.",U Cihelny 2128,Tábor,109016,109016,109016,98342,220022,220022,220022,220022,87339,78132,69192,60541,52166,44069,36238,28696,92282,88450,80312,98342,142981,154396,150533,174747,175332,188381,145588,102731,,,,,,180732,80312,98342,142981,154396,150533,174747,175332,188381,145588,102731,,,,
Czech Republic,Operator Holding Account,"TEPLARNA TABOR, A.S.",U Cihelny 2128,Tábor,4512,4512,4512,1871,1871,1871,1871,1871,1611,1441,1277,1117,963,813,667,528,1871,928,2544,2437,1287,648,518,256,1330,185,188,939,,,,,,2799,2544,2437,1287,648,518,256,1330,185,188,939,,,,
Czech Republic,Operator Holding Account,"TEPLARNA TRMICE, A.S.",Edisonova 453,Trmice,121980,121980,121980,14720,14720,14720,14720,14720,,,,,,,,,2453,14720,1854,3177,9678,546,0,0,,,,,,,,,,17173,1854,3177,9678,546,,,,,,,,,,
Czech Republic,Operator Holding Account,"TEPLARNA TYNEC, S.R.O.",K Náklí 523,Týnec nad Sázavou,8982,8982,8982,6018,6018,6018,6018,6018,2473,2066,1823,1595,1375,1162,956,757,5741,5508,5368,4409,6647,6276,6826,6232,6255,4884,5510,6240,,,,,,11249,5368,4409,6647,6276,6826,6232,6255,4884,5510,6240,,,,
Czech Republic,Operator Holding Account,"TEPLARNA VARNSDORF, A.S.",Palackého 2760,Varnsdorf,65449,65449,65449,51740,51740,51740,51740,51740,22565,20138,17938,11866,10175,8686,7714,6839,52266,49906,41268,38675,37215,44036,39372,35351,33604,26798,25303,27866,,,,,,102172,41268,38675,37215,44036,39372,35351,33604,26798,25303,27866,,,,
Czech Republic,Operator Holding Account,"TEPLARNY BRNO, A.S.",Okružní 25,Brno-Lesná,19508,19508,19508,10398,10398,10398,10398,10398,2864,1265,922,807,0,0,0,0,10458,8978,7659,5915,7643,8058,5019,3265,2052,957,944,372,,,,,,19436,7659,5915,7643,8058,5019,3265,2052,957,944,372,,,,
Czech Republic,Operator Holding Account,"TEPLARNY BRNO, A.S.",Okružní 25,Brno-Lesná,10494,10494,10494,10442,10442,10442,10442,10442,,,,,,,,,10143,9374,8413,8232,8532,9047,7800,8271,,,,,,,,,,19517,8413,8232,8532,9047,7800,8271,,,,,,,,
Czech Republic,Operator Holding Account,"TEPLARNY BRNO, A.S.",Okružní 25,Brno-Lesná,,,,3112,3112,3112,3112,3112,,,,,,,,,1537,3112,2454,2760,3205,3769,3597,3252,,,,,,,,,1537,3112,2454,2760,3205,3769,3597,3252,,,,,,,,
Czech Republic,Operator Holding Account,"TEPLARNY BRNO, A.S.",Okružní 25,Brno-Lesná,103879,103879,103879,96271,96271,96271,96271,96271,18319,14775,11654,8945,3781,3195,2628,2082,96271,61101,46217,49316,53829,61590,22992,17731,19316,11237,13527,10155,,,,,,157372,46217,49316,53829,61590,22992,17731,19316,11237,13527,10155,,,,
Czech Republic,Operator Holding Account,"TEPLARNY BRNO, A.S.",Okružní 25,Brno-Lesná,198856,198856,198856,163949,163949,163949,163949,163949,93859,81911,72564,63513,54747,46264,38057,30143,157353,166402,160168,162501,161947,177581,136775,129617,128424,94087,105774,111156,,,,,,323755,160168,162501,161947,177581,136775,129617,128424,94087,105774,111156,,,,
Czech Republic,Operator Holding Account,"TEPLARNY BRNO, A.S.",Okružní 25,Brno-Lesná,180848,180848,180848,157353,157353,157353,157353,157353,37318,33397,29585,25896,22321,18863,15516,12290,113484,121008,108583,111933,109748,108910,105186,106874,105044,97668,96886,108572,,,,,,234492,108583,111933,109748,108910,105186,106874,105044,97668,96886,108572,,,,
Czech Republic,Operator Holding Account,TEPLO BRUNTAL A. S.,Šmilovského 659/6,Bruntál,24220,24220,24220,23849,23849,23849,23849,23849,14743,11969,9519,7382,5543,0,0,0,22387,22191,20374,19420,13475,14726,13666,15371,14611,13972,13639,13548,,,,,,44578,20374,19420,13475,14726,13666,15371,14611,13972,13639,13548,,,,
Czech Republic,Operator Holding Account,"TEPLOSPOL, A.S.",Vajgar 585/III,Jindřichův Hradec,13954,13954,13954,10397,10397,10397,10397,10397,2781,1951,1253,0,0,0,0,0,10012,9422,8628,8299,2687,1256,900,1341,838,792,536,789,,,,,,19434,8628,8299,2687,1256,900,1341,838,792,536,789,,,,
Czech Republic,Operator Holding Account,"TEPVOS, S.R.O.",Třebovská 287,Ústí nad Orlicí,5624,5624,5624,4323,4323,4323,0,0,,,,,,,,,4172,3908,3727,3797,3659,1763,,,,,,,,,,,,8080,3727,3797,3659,2511,,,,,,,,,,
Czech Republic,Operator Holding Account,"TEREA CHEB, S.R.O.",Májová 588/33,Cheb,7972,7972,7972,8019,8019,8019,8019,8019,4069,3642,3226,2823,2434,2057,1692,1340,7619,7369,5563,5507,5074,5450,4476,4629,4917,4135,4578,4569,,,,,,14988,5563,5507,5074,5450,4476,4629,4917,4135,4578,4569,,,,
Czech Republic,Operator Holding Account,"TEREA CHEB, S.R.O.",Májová 588/33,Cheb,4251,4251,4251,4266,4266,4266,4266,4266,2579,2308,2044,0,0,0,0,0,4275,3699,3144,3256,3172,3523,2950,2962,3169,2689,1496,,,,,,24,7950,3144,3256,3172,3523,2950,2962,3169,2689,1496,,,,,
Czech Republic,Operator Holding Account,"TEREA CHEB, S.R.O.",Májová 588/33,Cheb,6460,6460,6460,6239,6239,6239,6239,6239,4072,3644,0,0,0,0,0,0,6057,5604,5108,5012,4999,5149,4189,4151,4059,2197,,,,,,,6057,5604,5108,5012,4999,5149,4189,4151,4059,2197,,,,,,
Czech Republic,Operator Holding Account,"TEREOS TTD, A.S.",Palackého náměstí 1,Dobrovice,14420,14420,14420,16959,16959,16959,16959,16959,7722,7588,7452,7315,7177,7037,6895,6753,15620,16079,15865,8529,5910,5922,5195,4952,4186,5395,5870,6895,,,,,15620,16079,15865,8529,5910,5922,5195,4952,4186,5395,5870,6895,,,,
Czech Republic,Operator Holding Account,"TEREOS TTD, A.S.",Palackého náměstí 1,Dobrovice,29788,29788,29788,38203,38203,38203,38203,38203,14762,14506,14246,13984,13719,13452,13181,12909,31697,38203,31257,29488,27970,29218,29701,31977,28625,29176,33518,32525,,,,,1909,67991,31257,29488,27970,29218,29701,31977,28625,29176,33518,32525,,,,
Czech Republic,Operator Holding Account,"TEREOS TTD, A.S.",Palackého náměstí 1,Dobrovice,42340,42340,42340,51973,51973,51973,51973,51973,29797,29280,28756,28227,27692,27152,26605,26057,50281,46864,54281,49288,56471,56046,63728,74186,69973,66095,72429,75497,,,,,7941,89204,54281,49288,56471,56046,63728,74186,69973,66095,72429,75497,,,,
Czech Republic,Operator Holding Account,"TEREOS TTD, A.S.",Palackého náměstí 1,Dobrovice,58525,58525,58525,49870,49870,49870,49870,49870,72220,70966,69697,68414,67118,65810,64484,63154,47288,45927,53719,61188,65450,66802,70684,83622,93870,87302,86367,94079,,,,,47288,45927,53719,61188,65450,66802,70684,83622,93870,87302,86367,94079,,,,
Czech Republic,Operator Holding Account,"TERMO DECIN, A.S.",Oblouková 25,Děčín III,22140,22140,22140,10732,10732,10732,10732,10732,4702,4207,3728,3262,2813,0,0,0,10950,9022,8639,8776,8489,9164,8497,8090,9402,8606,8101,8586,,,,,,19972,8639,8776,8489,9164,8497,8090,9402,8606,8101,8586,,,,
Czech Republic,Operator Holding Account,"TERMO DECIN, A.S.",Oblouková 25,Děčín III,16189,16189,16189,7505,7505,7505,7505,7505,2873,2371,2100,1839,1584,0,0,0,7510,6518,5910,5816,5513,5842,5148,5463,5461,4738,4809,4929,,,,,,14028,5910,5816,5513,5842,5148,5463,5461,4738,4809,4929,,,,
Czech Republic,Operator Holding Account,"TERMO DECIN, A.S.",Oblouková 25,Děčín III,11643,11643,11643,11368,11368,11368,11368,11368,5845,4916,4355,3812,3286,2776,2284,1809,11037,10211,9724,9002,8400,10176,7807,8473,8733,6921,7497,7574,,,,,,21248,9724,9002,8400,10176,7807,8473,8733,6921,7497,7574,,,,
Czech Republic,Operator Holding Account,"TEVA CZECH INDUSTRIES, S.R.O.","Ostravská 29, č.p. 305",Opava - Komárov,16955,16955,16955,15647,15647,15647,15647,15647,13968,13726,13480,13232,12981,12728,12472,12215,14864,14383,12475,13837,14272,14011,15536,16864,15203,15055,14630,15625,,,,,14864,14383,12475,13837,14272,14011,15536,16864,15203,15055,14630,15625,,,,
Czech Republic,Operator Holding Account,"THERMOSERVIS, S.R.O.",gen. Sochora 2175,Nymburk,48250,48250,48250,26255,26255,26255,26255,26255,18238,15345,12727,10378,8288,6448,4846,3649,19349,26255,32357,24416,21637,21046,17673,17170,21297,23831,18682,20555,,,,,,45604,32357,24416,21637,21046,17673,17170,21297,23831,18682,20555,,,,
Czech Republic,Operator Holding Account,"THERMOSERVIS, S.R.O.",gen. Sochora 2175,Nymburk,4040,4040,4040,112,112,112,112,112,,,,,,,,,112,97,0,11,84,35,79,1019,33,11,0,508,,,,,,209,,11,84,35,79,1019,33,11,,508,,,,
Czech Republic,Aircraft Operator Account,"TimBer, LLC","370 17th Street, Suite 3900",Denver,,,,,,,,,,,,,,,,,,,,,,,,18,Excluded,Excluded,Excluded,Excluded,,,,,,,,,,,,18,,,,,,,,
Czech Republic,Operator Holding Account,"TON - ENERGO, A.S.",Michaela Thoneta 148,Bystřice pod Hostýnem,25000,25000,25000,21388,21388,21388,21388,21388,6630,5934,7352,7098,0,0,0,0,19301,20677,16524,16548,11217,12184,11021,12445,11085,9956,9546,6069,,,,,,39978,16524,16548,11217,12184,11021,12445,11085,9956,9546,6069,,,,
Czech Republic,Operator Holding Account,"TON - ENERGO, A.S.",Michaela Thoneta 148,Bystřice pod Hostýnem,27985,27985,27985,20372,20372,20372,20372,20372,6639,4408,4686,2050,1767,0,0,0,19210,18869,16338,13388,7091,6484,5798,5549,6058,4399,5243,4198,,,,,,38079,16338,13388,7091,6484,5798,5549,6058,4399,5243,4198,,,,
Czech Republic,Operator Holding Account,"TONDACH CESKA REPUBLIKA, S.R.O.",Bělotínská č.p. 722,Hranice,20669,20669,20669,18237,18237,18237,18237,18237,,,,,,,,,16881,17207,17401,16435,3616,0,0,0,,,,,,,,,,34088,17401,16435,3616,,,,,,,,,,,
Czech Republic,Operator Holding Account,"TONDACH CESKA REPUBLIKA, S.R.O.",Bělotínská č.p. 722,Hranice,17581,17581,17581,16876,16876,16876,16876,16876,11839,7426,11426,11214,11003,10788,10571,10353,15530,16013,16259,15031,9716,11547,11469,11403,7366,9243,9074,8165,,,,,,31543,16259,15031,9716,11547,11469,11403,7366,9243,9074,8165,,,,
Czech Republic,Operator Holding Account,"TONDACH CESKA REPUBLIKA, S.R.O.",Bělotínská č.p. 722,Hranice,5425,5425,5425,4894,4894,4894,4894,4894,3607,3544,3481,3417,1676,1644,1610,1577,4474,4674,4437,4285,2391,3298,2809,2939,2716,2632,2614,1948,,,,,,9148,4437,4285,2391,3298,2809,2939,2716,2632,2614,1948,,,,
Czech Republic,Operator Holding Account,"TONDACH CESKA REPUBLIKA, S.R.O.",Bělotínská č.p. 722,Hranice,19794,19794,19794,18678,23078,38000,38000,38000,12125,11915,11702,11486,11269,11049,10826,10603,17554,17359,17513,16734,23078,18928,23129,19825,20835,19475,14637,15105,,,,,,34913,17513,16734,23078,18928,23129,19825,20835,19475,14637,15105,,,,
Czech Republic,Operator Holding Account,"TONDACH CESKA REPUBLIKA, S.R.O.",Bělotínská č.p. 722,Hranice,37034,37034,37034,30674,30674,30674,30674,30674,20494,20138,19777,12221,8971,8796,8619,8442,30129,27206,24139,26911,23647,18403,16722,21205,18523,16093,10096,8812,,,,,,57335,24139,26911,23647,18403,16722,21205,18523,16093,10096,8812,,,,
Czech Republic,Operator Holding Account,"TORAY TEXTILES CENTRAL EUROPE, S.R.O.",Průmyslová 4235/4,Prostějov,4138,4138,4138,4453,4453,4453,4453,4453,4894,4810,4724,4637,0,0,0,0,4167,4157,3946,3764,2988,3344,3381,3340,5295,7330,7773,5383,,,,,29,8295,3946,3764,2988,3344,3381,3340,5295,7330,7773,5383,,,,
Czech Republic,Operator Holding Account,"TRANSTEPLO KDYNE, S.R.O.",Dělnická 425,Kdyně,18148,18148,18148,16230,16230,16230,16230,16230,7210,6201,5282,4452,3706,3042,2541,2128,15429,14907,15020,13568,11082,12653,10063,10708,10827,10239,11020,10493,,,,,,30336,15020,13568,11082,12653,10063,10708,10827,10239,11020,10493,,,,
Czech Republic,Aircraft Operator Account,"TRAVEL SERVICE, A.S.",K Letišti 1068/30,Praha,,,,,,,,311683,119632,119632,119632,119632,119632,119632,119632,119632,,,,,,,,375641,237827,249347,267184,292365,,,,,,,,,,,,375641,,487174,267184,292365,,,,
Czech Republic,Operator Holding Account,"TRINECKE ZELEZARNY, A. S.",Průmyslová 1000,Třinec - Staré Město,2586483,2586483,2586483,2507119,2507119,2533308,2832985,2832985,3839675,3772984,3705508,3637329,3568414,3498832,3428377,3357682,2386846,2564052,2661643,2712074,2459080,2533308,2629177,2700070,2735869,2630157,2497507,2513079,,,,,,4950898,2661643,2712074,2459080,2533308,2629177,2700070,2735869,2630157,2497507,2513079,,,,
Czech Republic,Operator Holding Account,"TRINECKE ZELEZARNY, A. S.",Průmyslová 1000,Třinec - Staré Město,,,,,,,,,53538,52607,51666,50716,49755,48785,47802,46817,,,,,,,,,48918,50987,47718,48514,,,,,,,,,,,,,48918,50987,47718,48514,,,,
Czech Republic,Operator Holding Account,"TRINECKE ZELEZARNY, A. S.",Průmyslová 1000,Třinec - Staré Město,,,,,,,,,,5291,24638,24194,23749,23305,22861,22417,,,,,,,,,,5251,23481,24944,,,,,,,,,,,,,,5251,23481,24944,,,,
Czech Republic,Operator Holding Account,"TTS ENERGO, S.R.O.",Průmyslová 163,Třebíč,3724,3724,3724,2736,2736,2736,2736,2736,,,,,,,,,2647,2467,1951,715,205,96,3,1,,,,,,,,,,5114,1951,715,205,96,3,1,,,,,,,,
Czech Republic,Operator Holding Account,"TTS ENERGO, S.R.O.",Průmyslová 163,Třebíč,,,,3429,3429,3429,3429,3429,207,67,0,0,0,0,0,0,2758,3429,1402,451,79,5,173,0,0,7,1,2,,,,,2758,3429,1402,451,79,5,173,,,7,1,2,,,,
Czech Republic,Operator Holding Account,"TYLEX LETOVICE, A.S.",Brněnská č.p. 20,Letovice,13198,13198,13198,11674,11674,11674,11674,11674,5912,5809,2853,2800,0,0,0,0,11369,10452,10139,9860,8267,7932,5621,5629,5189,4729,5106,3353,,,,,,21821,10139,9860,8267,7932,5621,5629,5189,4729,5106,3353,,,,
Czech Republic,Operator Holding Account,"UNION LESNI BRANA, A.S.",Novosedlická 248,Dubí,,,,,,,,,345,1795,1763,1732,1700,1668,1636,1604,,,,,,,,,555,2800,2888,3000,,,,,,,,,,,,,555,2800,2888,3000,,,,
Czech Republic,Operator Holding Account,"UNIPETROL RPA, S.R.O.","Litvínov, Záluží 1",Litvínov,3126277,3126277,3126277,2819782,2819782,2819782,2819782,2819782,694441,681095,667652,654131,227717,222086,216446,210840,2789358,2778966,2616878,2461839,2258873,2151751,1855820,1649971,2368045,2352248,2017036,1584691,,,,,1789358,3778966,2616878,2461839,2258873,2151751,1855820,1649971,2368045,2352248,2017036,1584691,,,,
Czech Republic,Operator Holding Account,"UNIPETROL RPA, S.R.O.","Litvínov, Záluží 1",Litvínov,564744,564744,564744,457765,457822,457822,457822,457822,481201,472843,464387,455842,447206,438485,429656,420796,413074,452528,385126,426318,401383,409891,374148,392690,405935,394512,412674,336328,,,,,,865602,385126,426318,401383,409891,374148,392690,405935,394512,412674,336328,,,,
Czech Republic,Operator Holding Account,"UNIPETROL RPA, S.R.O.","Litvínov, Záluží 1",Litvínov,535503,535503,535503,431461,431770,431770,431770,431770,384348,377672,370918,364093,357195,350229,343177,336101,389668,457291,519201,483991,404882,473414,466156,463962,366165,482653,476744,341334,,,,,,846959,519201,483991,404882,473414,466156,463962,366165,482653,476744,341334,,,,
Czech Republic,Operator Holding Account,"UNIPETROL RPA, S.R.O.","Litvínov, Záluží 1",Litvínov,368751,368751,368751,301096,301096,301096,301096,301096,689680,648736,637095,625334,599771,588037,576162,564245,281773,312812,272574,300690,299189,316418,280390,293568,694113,785752,824149,906544,,,,,281773,312812,272574,300690,299189,316418,280390,293568,694113,785752,824149,906544,,,,
Czech Republic,Operator Holding Account,"UNITED ENERGY, A.S.",Teplárenská 2,"Most, Komořany",1791980,1791980,1791980,1409704,1425075,1543230,1543230,1543230,192284,162126,134813,110283,88411,74327,61140,48427,1409704,861564,883588,1081777,947072,815309,1228901,1199906,1103040,771349,811611,918202,,,,,119509,2151759,883588,1081777,947072,815309,1228901,1199906,1103040,771349,811611,918202,,,,
Czech Republic,Operator Holding Account,"VALCOVNY TRUB CHOMUTOV, A.S.",Tovární 629,Chomutov,69570,69570,69570,19630,19630,19630,19630,19630,18234,17917,17597,17273,16946,16615,16280,15945,18771,17920,16822,14522,6103,10651,10714,9604,21238,19255,21626,19462,,,,,,36691,16822,14522,6103,10651,10714,9604,21238,19255,21626,19462,,,,
Czech Republic,Operator Holding Account,"VALCOVNY TRUB CHOMUTOV, A.S.",Tovární 629,Chomutov,,,,,,,,,29337,28827,28311,27790,27264,26733,26195,25654,,,,,,,,,22867,16018,24515,22252,,,,,,,,,,,,,22867,16018,24515,22252,,,,
Czech Republic,Operator Holding Account,"VAPENKA CERTOVY SCHODY, A.S.",Tmaň č.p. 200,Tmaň,466163,466163,466163,354338,354338,354338,354338,354338,305907,300594,295217,289786,284295,278751,273139,267507,347057,352667,360997,359308,346024,382038,392036,343036,357897,346671,320995,400873,,,,,,699724,360997,359308,346024,382038,392036,343036,357897,346671,320995,400873,,,,
Czech Republic,Operator Holding Account,"VAPENKA VITOSOV, S.R.O.",č.p. 54,Hrabová,345925,345925,345925,304857,304857,304857,304857,304857,282082,277084,272032,266932,261781,256585,251330,246060,296544,305468,313255,278425,234528,263502,288655,267594,296437,316802,307310,320238,,,,,,602012,313255,278425,234528,263502,288655,267594,296437,316802,307310,320238,,,,
Czech Republic,Operator Holding Account,"VARROC LIGHTING SYSTEMS, S.R.O.",Suvorovova 195,Šenov u Nového Jičína,6548,6548,6548,8269,8269,8269,8269,8269,6873,6150,5448,4767,4107,3467,2849,2254,8013,7444,7642,6551,4933,6193,5878,6168,7745,6319,6154,5386,,,,,1465,13992,7642,6551,4933,6193,5878,6168,7745,6319,6154,5386,,,,
Czech Republic,Operator Holding Account,"VEOLIA ENERGIE CR, A.S.",28. října 3337/7,Ostrava,1536408,1536408,1536408,1351122,1351122,1351122,1351122,1351122,472992,389053,313725,247729,190641,142082,101651,71865,1272513,1395596,1366581,1223158,1146898,1165809,1114460,1151088,1204552,1200413,1153778,1167923,,,,,,2668109,1366581,1223158,1146898,1165809,1114460,1151088,1204552,1200413,1153778,1167923,,,,
Czech Republic,Operator Holding Account,"VEOLIA ENERGIE CR, A.S.",28. října 3337/7,Ostrava,277,277,277,168,168,168,168,168,0,6,5,0,0,0,0,0,168,0,19,0,19,0,0,0,70,253,6,79,,,,,,168,19,,19,,,,70,253,6,79,,,,
Czech Republic,Operator Holding Account,"VEOLIA ENERGIE CR, A.S.",28. října 3337/7,Ostrava,12412,12412,12412,11119,11119,11119,11119,11119,8671,8192,7721,7262,6811,6373,5945,5529,10650,10133,9864,9148,8819,9348,8430,8514,7810,6827,7035,7212,,,,,,20783,9864,9148,8819,9348,8430,8514,7810,6827,7035,7212,,,,
Czech Republic,Operator Holding Account,"VEOLIA ENERGIE CR, A.S.",28. října 3337/7,Ostrava,1187,1187,1187,676,676,676,676,676,349,312,277,242,0,0,0,0,652,612,538,518,526,489,455,431,1776,1943,2017,2204,,,,,,1264,538,518,526,489,455,431,1776,1943,2017,2204,,,,
Czech Republic,Operator Holding Account,"VEOLIA ENERGIE CR, A.S.",28. října 3337/7,Ostrava,9694,9694,9694,6,6,6,6,6,,,,,,,,,6,0,0,0,0,0,0,0,0,,,,,,,,,6,,,,,,,,,,,,,,
Czech Republic,Operator Holding Account,"VEOLIA ENERGIE CR, A.S.",28. října 3337/7,Ostrava,25331,25331,25331,12526,12526,12526,12526,12526,3966,1389,1230,2146,979,899,822,746,10436,12526,3148,3090,4492,7784,5510,5837,2193,2326,3407,2565,,,,,,22962,3148,3090,4492,7784,5510,5837,2193,2326,3407,2565,,,,
Czech Republic,Operator Holding Account,"VEOLIA ENERGIE CR, A.S.",28. října 3337/7,Ostrava,259849,259849,259849,224425,224425,224425,224425,224425,108687,89817,72990,58153,46802,39704,32833,26210,231008,212172,212777,177053,176976,192470,178430,175328,175209,133319,136391,139980,,,,,,443180,212777,177053,176976,192470,178430,175328,175209,133319,136391,139980,,,,
Czech Republic,Operator Holding Account,"VEOLIA ENERGIE CR, A.S.",28. října 3337/7,Ostrava,145109,145109,145109,133269,133269,133269,133269,133269,78857,64874,52432,41485,31971,26008,21437,17030,134628,128543,120889,115493,103805,112268,99490,98778,65450,49619,52364,59055,,,,,,263171,120889,115493,103805,112268,99490,98778,65450,49619,52364,59055,,,,
Czech Republic,Operator Holding Account,"VEOLIA ENERGIE CR, A.S.",28. října 3337/7,Ostrava,500434,500434,500434,467600,467600,467600,467600,467600,137274,112531,90555,71273,54557,42995,35411,28099,459501,463885,422977,440217,430260,450370,337274,307993,303868,277703,314451,285948,,,,,,923386,422977,440217,430260,450370,337274,307993,303868,277703,314451,285948,,,,
Czech Republic,Operator Holding Account,"VEOLIA ENERGIE CR, A.S.",28. října 3337/7,Ostrava,83906,83906,83906,77131,77131,77131,77131,77131,36369,32449,28684,25451,23207,21031,18918,16874,74250,78063,79149,73392,62013,40863,27075,27825,41696,19382,20551,14934,,,,,,152313,79149,73392,62013,40863,27075,27825,41696,19382,20551,14934,,,,
Czech Republic,Operator Holding Account,"VEOLIA ENERGIE CR, A.S.",28. října 3337/7,Ostrava,485373,485373,485373,424142,424142,424142,424142,424142,135669,119166,104073,91430,82086,73030,64250,55767,438908,398661,425107,349546,332712,352613,321376,315477,350792,320364,327122,326192,,,,,,837569,425107,349546,332712,352613,321376,315477,350792,320364,327122,326192,,,,
Czech Republic,Operator Holding Account,"VEOLIA ENERGIE CR, A.S.",28. října 3337/7,Ostrava,530000,530000,530000,552888,552888,552888,552888,552888,126697,106035,87594,71317,57104,44871,34522,27769,547298,544509,436681,439658,427926,425204,416600,396249,385664,381929,406498,316692,,,,,17298,1074509,436681,439658,427926,425204,416600,396249,385664,381929,406498,316692,,,,
Czech Republic,Operator Holding Account,"VEOLIA ENERGIE CR, A.S.",28. října 3337/7,Ostrava,198090,198090,198090,168343,168343,168343,168343,168343,75494,64426,54369,47635,41112,34799,28691,22801,172429,160004,155261,148371,155699,164714,172315,176876,156150,135801,147131,132382,,,,,,332433,155261,148371,155699,164714,172315,176876,156150,135801,147131,132382,,,,
Czech Republic,Operator Holding Account,"VEOLIA ENERGIE CR, A.S.",28. října 3337/7,Ostrava,47017,47017,47017,36459,36459,36459,36459,36459,,,,,,,,,33895,34253,35112,33677,30996,27698,0,0,,,,,,,,,,68148,35112,33677,30996,27698,,,,,,,,,,
Czech Republic,Operator Holding Account,"VEOLIA ENERGIE CR, A.S.",28. října 3337/7,Ostrava,6872,6872,6872,5366,5366,5366,5366,5366,3467,3103,2748,2405,2072,1749,1438,1137,5169,4860,4312,3951,2828,3395,2247,2213,2152,1492,1437,1801,,,,,,10029,4312,3951,2828,3395,2247,2213,2152,1492,1437,1801,,,,
Czech Republic,Operator Holding Account,"VEOLIA ENERGIE KOLIN, A.S.",Tovární 21,Kolín,3753,3753,3753,977,977,977,977,977,619,539,473,413,357,301,247,195,977,398,463,1698,2125,1022,480,392,513,479,438,374,,,,,,1375,463,1698,2125,1022,480,392,513,479,438,374,,,,
Czech Republic,Operator Holding Account,"VEOLIA ENERGIE KOLIN, A.S.",Tovární 21,Kolín,240000,240000,240000,212189,212189,212189,212189,212189,79648,69967,61195,53316,46286,40459,36460,32594,212358,206659,210714,236060,180150,208108,159306,150253,172524,174734,174560,125802,,,,,,419017,210714,236060,180150,208108,159306,150253,172524,174734,174560,125802,,,,
Czech Republic,Operator Holding Account,"VEOLIA ENERGIE KOLIN, A.S.",Tovární 21,Kolín,7426,7426,7426,5855,5855,5855,5855,5855,3894,0,0,0,0,0,0,0,5680,5263,5009,5068,4758,4977,4149,4091,2127,,,,,,,,5680,5263,5009,5068,4758,4977,4149,4091,2127,,,,,,,
Czech Republic,Operator Holding Account,"VEOLIA ENERGIE MARIANSKE LAZNE, S.R.O.",Nádražní náměstí 294,Mariánské Lázně,50022,50022,50022,38239,38239,38239,38239,38239,21837,18479,15425,13182,11355,9589,7879,6233,28599,38239,35559,32293,30449,27629,22316,21803,21816,9792,8840,8678,,,,,3577,63261,35559,32293,30449,27629,22316,21803,21816,9792,8840,8678,,,,
Czech Republic,Operator Holding Account,"VEOLIA ENERGIE PRAHA, A.S.",Na Florenci 2116/15,"Praha 1, Nové Město",83195,83195,83195,46116,46116,46116,46116,46116,31571,28253,25030,21907,18883,15958,13127,10397,44509,41690,37788,38321,36679,39215,33785,33800,34436,28250,29330,30728,,,,,,86199,37788,38321,36679,39215,33785,33800,34436,28250,29330,30728,,,,
Czech Republic,Operator Holding Account,"VEOLIA ENERGIE PRAHA, A.S.",Na Florenci 2116/15,"Praha 1, Nové Město",41897,41897,41897,29988,29988,29988,29988,29988,21238,19006,16835,14729,12689,10714,8804,6964,28942,27222,25329,27100,26885,30291,26211,26885,26451,21912,22350,23799,,,,,,56164,25329,27100,26885,30291,26211,26885,26451,21912,22350,23799,,,,
Czech Republic,Operator Holding Account,"VEOLIA PRUMYSLOVE SLUZBY CR, A.S.",Zelená 2061/88a,"Ostrava, Mariánské Hory",205607,205607,205607,141174,141174,141174,141174,141174,60388,29670,29139,28603,28061,27514,26960,26404,141741,137041,124748,142855,97051,89863,92687,75956,57050,43905,52518,53636,,,,,,278782,124748,142855,97051,89863,92687,75956,57050,43905,52518,53636,,,,
Czech Republic,Operator Holding Account,"VEOLIA PRUMYSLOVE SLUZBY CR, A.S.",Zelená 2061/88a,"Ostrava, Mariánské Hory",26877,26877,26877,25933,25933,25933,25933,25933,5971,2934,2881,2828,2775,2720,2666,2611,25418,23054,22772,18451,12450,14178,12016,6132,3496,3597,3598,3546,,,,,,48472,22772,18451,12450,14178,12016,6132,3496,3597,3598,3546,,,,
Czech Republic,Operator Holding Account,"VEOLIA PRUMYSLOVE SLUZBY CR, A.S.",Zelená 2061/88a,"Ostrava, Mariánské Hory",16713,16713,16713,17723,17723,17723,17723,17723,7661,3764,1848,1814,0,0,0,0,16374,16754,13119,15035,12713,12105,9691,8161,5254,3171,2631,1482,,,,,,33128,13119,15035,12713,12105,9691,8161,5254,3171,2631,1482,,,,
Czech Republic,Operator Holding Account,"VEOLIA PRUMYSLOVE SLUZBY CR, A.S.",Zelená 2061/88a,"Ostrava, Mariánské Hory",17011,17011,17011,,,,,,,,,,,,,,15514,13671,4310,0,Not Reported,Not Reported,,,,,,,,,,,,29185,4310,,,,,,,,,,,,,
Czech Republic,Operator Holding Account,"VEOLIA PRUMYSLOVE SLUZBY CR, A.S.",Zelená 2061/88a,"Ostrava, Mariánské Hory",1944,1944,1944,2076,2076,2076,2076,2076,654,643,0,0,0,0,0,0,2033,1848,1190,101,488,611,437,550,392,83,27,27,,,,,89,3792,1190,101,488,611,437,550,392,83,27,27,,,,
Czech Republic,Operator Holding Account,"VEOLIA PRUMYSLOVE SLUZBY CR, A.S.",Zelená 2061/88a,"Ostrava, Mariánské Hory",5024,5024,5024,4037,4037,4037,4037,4037,3173,3118,1531,1503,1475,1446,1417,1388,3617,3929,3175,3301,3125,3981,2533,2613,2125,1492,1512,1242,,,,,,7546,3175,3301,3125,3981,2533,2613,2125,1492,1512,1242,,,,
Czech Republic,Operator Holding Account,"VEOLIA PRUMYSLOVE SLUZBY CR, A.S.",Zelená 2061/88a,"Ostrava, Mariánské Hory",9287,9287,9287,8187,8187,8187,8187,8187,5833,5731,2815,2763,1355,1329,1302,1275,7729,7573,5938,5313,4293,5327,3863,3777,3033,1991,1828,1177,,,,,,15302,5938,5313,4293,5327,3863,3777,3033,1991,1828,1177,,,,
Czech Republic,Operator Holding Account,"VETROPACK MORAVIA GLASS, A.S.",Havlíčkova 180/18,Kyjov,94644,94644,94644,90501,90501,90501,90501,90501,64780,63655,62517,61366,60203,59030,57841,56648,90643,88072,89482,86845,86768,79356,81940,80917,79281,66825,77118,78129,,,,,,178715,89482,86845,86768,79356,81940,80917,79281,66825,77118,78129,,,,
Czech Republic,Operator Holding Account,"VIADRUS, A.S.",Bezručova 300,Bohumín,,,,,,,,,20300,19947,19593,19240,18887,18534,18181,17828,,,,,,,,8945,22021,19893,22466,20847,,,,,,,,,,,,8945,22021,19893,22466,20847,,,,
Czech Republic,Operator Holding Account,"VITKOVICE HEAVY MACHINERY, A.S.",Ruská 2887/101,Ostrava,274473,274473,274473,210564,210564,210564,210564,210564,117575,113935,110328,106758,67109,64318,61570,58879,149685,159346,182656,161338,104444,102092,81188,81627,73856,72947,69731,49655,,,,,,309031,182656,161338,104444,102092,81188,81627,73856,72947,69731,49655,,,,
Czech Republic,Operator Holding Account,"VITKOVICE STEEL, A. S.",Českobratrská 3321/46,Ostrava,464505,464505,464505,340001,340001,340001,340001,340001,145098,142578,140028,137452,134847,132218,129555,126884,342580,328832,344525,318702,197451,189425,315216,191670,133441,140586,135832,66866,,,,,,671412,344525,318702,197451,189425,315216,191670,133441,140586,135832,66866,,,,
Czech Republic,Operator Holding Account,"VITRABLOK, S.R.O.",Bílinská 782/42,Duchcov,42531,42531,42531,42995,42995,42995,42995,42995,37849,37192,36527,35854,35175,34489,33795,33098,40250,40114,36506,42074,31115,40302,41848,44106,41689,28103,32467,27742,,,,,,80364,36506,42074,31115,40302,41848,44106,41689,28103,32467,27742,,,,
Czech Republic,Operator Holding Account,Vlastimil Bělák - cihelna Bořinov,"Bořinov 71, Ujčov",Nedvědice,1111,1111,1111,909,909,909,909,909,,,,,,,,,909,646,833,736,431,392,315,309,,,,,,,,,,1555,833,736,431,392,315,309,,,,,,,,
Czech Republic,Operator Holding Account,"VYROBA A PRODEJ TEPLA PRIBRAM, A.S.",ÚVR Mníšek pod Brdy 600,Mníšek pod Brdy,327030,327030,327030,300869,300869,300869,300869,300869,71673,59591,48868,39467,31327,24391,20794,17541,304464,289672,275324,313962,289384,176367,199984,219214,230748,198486,195089,167283,,,,,,594143,275324,313962,289384,176367,199984,219214,230748,198486,195089,167283,,,,
Czech Republic,Operator Holding Account,"WET WIPES INTERNATIONAL, S.R.O.",Nelahozeves 163,Nelahozeves,11033,11033,11033,10169,10169,10169,10169,10169,,,,,,,,,9249,9759,10691,10886,11159,2909,155,270,,,,,,,,,,19008,10691,10886,11159,2909,155,270,,,,,,,,
Czech Republic,Operator Holding Account,"WIENERBERGER CIHELNA HODONIN, S.R.O.",Plachého 388/28,České Budějovice,9055,9055,9055,8833,8833,8833,8833,8833,,,,,,,,,8681,7830,0,0,0,0,0,0,,,,,,,,,,16511,,,,,,,,,,,,,,
Czech Republic,Operator Holding Account,"WIENERBERGER CIHLARSKY PRUMYSL, A. S.",Plachého 388/28,České Budějovice,14368,14368,14368,3044,0,0,0,0,,,,,,,,,3044,1363,0,0,Not Reported,Not Reported,,,,,,,,,,,,4407,,,,,,,,,,,,,,
Czech Republic,Operator Holding Account,"WIENERBERGER CIHLARSKY PRUMYSL, A. S.",Plachého 388/28,České Budějovice,8962,8962,8962,5861,5861,0,0,0,,,,,,,,,5861,0,3630,3325,0,0,,,,,,,,,,,,5861,3630,3325,,,,,,,,,,,,
Czech Republic,Operator Holding Account,"WIENERBERGER CIHLARSKY PRUMYSL, A. S.",Plachého 388/28,České Budějovice,11760,11760,11760,10298,10298,10298,10298,10298,7269,7143,7015,6886,6755,6624,6491,6357,9319,9930,10855,10525,8395,5361,6727,5708,5778,5665,5230,5696,,,,,,19249,10855,10525,8395,5361,6727,5708,5778,5665,5230,5696,,,,
Czech Republic,Operator Holding Account,"WIENERBERGER CIHLARSKY PRUMYSL, A. S.",Plachého 388/28,České Budějovice,16062,16062,16062,14135,14135,14135,14135,14135,,,,,,,,,13179,13242,13709,14252,9240,5740,0,0,,,,,,,,,,26421,13709,14252,9240,5740,,,,,,,,,,
Czech Republic,Operator Holding Account,"WIENERBERGER CIHLARSKY PRUMYSL, A. S.",Plachého 388/28,České Budějovice,7554,7554,7554,5154,0,0,0,0,,,,,,,,,5154,0,0,0,Not Reported,Not Reported,,,,,,,,,,,,5154,,,,,,,,,,,,,,
Czech Republic,Operator Holding Account,"WIENERBERGER CIHLARSKY PRUMYSL, A. S.",Plachého 388/28,České Budějovice,23407,23407,23407,26379,26379,26379,26379,26379,14952,14692,14429,14164,13896,13625,13350,13076,24511,24795,22941,22137,16417,6059,15922,13169,12644,14204,13454,11857,,,,,1104,48202,22941,22137,16417,6059,15922,13169,12644,14204,13454,11857,,,,
Czech Republic,Operator Holding Account,"WIENERBERGER CIHLARSKY PRUMYSL, A. S.",Plachého 388/28,České Budějovice,16744,16744,16744,16535,16535,16535,16535,16535,,,,,,,,,16535,12514,15721,15721,0,0,0,0,,,,,,,,,,29049,15721,15721,,,,,,,,,,,,
Czech Republic,Operator Holding Account,"WIENERBERGER CIHLARSKY PRUMYSL, A. S.",Plachého 388/28,České Budějovice,16713,16713,16713,14485,14485,14485,14485,14485,7869,7732,7594,7454,7313,7170,7026,6881,13749,13326,13147,6290,8387,5960,6887,4736,6582,6411,5535,6883,,,,,,27075,13147,6290,8387,5960,6887,4736,6582,6411,5535,6883,,,,
Czech Republic,Operator Holding Account,"WIENERBERGER CIHLARSKY PRUMYSL, A. S.",Plachého 388/28,České Budějovice,15818,15818,15818,12211,12211,0,0,0,,,,,,,,,12211,6866,14896,7554,0,0,,,,,,,,,,,,19077,14896,7554,,,,,,,,,,,,
Czech Republic,Operator Holding Account,"WIENERBERGER CIHLARSKY PRUMYSL, A. S.",Plachého 388/28,České Budějovice,21849,21849,21849,19414,19414,19414,19414,19414,,,,,,,,,18250,18037,18694,14219,0,0,0,0,,,,,,,,,,36287,18694,14219,,,,,,,,,,,,
Czech Republic,Operator Holding Account,"WIENERBERGER CIHLARSKY PRUMYSL, A. S.",Plachého 388/28,České Budějovice,12996,12996,12996,15238,15238,15238,15238,15238,12105,11894,11681,11466,11250,11030,10808,10586,14466,14017,14530,14484,9425,9607,14285,12076,9465,11502,14935,12925,,,,,1470,27013,14530,14484,9425,9607,14285,12076,9465,11502,14935,12925,,,,
Czech Republic,Operator Holding Account,"WIENERBERGER CIHLARSKY PRUMYSL, A. S.",Plachého 388/28,České Budějovice,2864,2864,2864,0,0,0,0,0,,,,,,,,,0,0,0,0,Not Reported,Not Reported,,,,,,,,,,,,,,,,,,,,,,,,,,
Czech Republic,Operator Holding Account,"WIENERBERGER CIHLARSKY PRUMYSL, A. S.",Plachého 388/28,České Budějovice,4291,4291,4291,0,0,0,0,0,,,,,,,,,0,0,0,0,Not Reported,Not Reported,,,,,,,,,,,,,,,,,,,,,,,,,,
Czech Republic,Operator Holding Account,"WIENERBERGER CIHLARSKY PRUMYSL, A. S.",Plachého 388/28,České Budějovice,,,,35138,35138,35138,35138,35138,22729,22334,21934,21531,21123,20711,20294,19876,30841,34837,39022,41488,36800,16765,26469,24306,19383,22609,19683,21878,,,,,30841,34837,39022,41488,36800,16765,26469,24306,19383,22609,19683,21878,,,,
Czech Republic,Operator Holding Account,"WOTAN FOREST, A.S.",Rudolfovská tř. 202/88,České Budějovice,1324,1324,1324,192,192,192,192,192,8339,8194,5289,4627,3985,3366,2765,2188,192,87,101,59,29,145,86,1,10,56,89,111,,,,,,279,101,59,29,145,86,1,10,56,89,111,,,,
Czech Republic,Operator Holding Account,"Z-GROUP, A.S.",Opletalova 27,Praha 1,4223,4223,4223,1906,1906,0,0,0,,,,,,,,,1853,1710,278,84,184,0,,,,,,,,,,,130,3433,278,84,184,,,,,,,,,,,
Czech Republic,Operator Holding Account,"Z-GROUP STEEL HOLDING, A.S.",Kollárova 1229,Veselí nad Moravou,,,,,,,,,5323,5230,5137,5042,4946,0,0,0,,,,,,,,,3674,2854,3345,2820,,,,,,,,,,,,,3674,2854,3345,2820,,,,
Czech Republic,Operator Holding Account,"ZASOBOVANI TEPLEM ADAMOV, S.R.O.",Nádražní 455,Adamov,18366,18366,18366,15738,15738,15738,15738,0,,,,,,,,,16137,13280,9604,7878,6036,2538,768,Not Reported,,,,,,,,,,29417,9604,7878,6036,2538,768,,,,,,,,,
Czech Republic,Operator Holding Account,"ZASOBOVANI TEPLEM VSETIN, A.S.",Jiráskova 1326,Vsetín,1809,1809,1809,0,0,0,0,0,,,,,,,,,0,0,0,0,0,0,0,0,0,0,0,0,,,,,,,,,,,,,,,,,,,,
Czech Republic,Operator Holding Account,"ZASOBOVANI TEPLEM VSETIN, A.S.",Jiráskova 1326,Vsetín,15923,15923,15923,15127,15127,15127,15127,15127,4852,4343,3847,3365,2899,2448,2012,1591,14177,14098,14692,14090,9455,10712,8217,8708,9046,8910,9843,9001,,,,,,28275,14692,14090,9455,10712,8217,8708,9046,8910,9843,9001,,,,
Czech Republic,Operator Holding Account,"ZASOBOVANI TEPLEM VSETIN, A.S.",Jiráskova 1326,Vsetín,44570,44570,44570,29381,29381,29381,29381,29381,14575,13043,11555,10114,8718,7367,6061,4800,29381,22394,26455,20205,19888,19176,18528,19204,17327,12329,13283,15087,,,,,,51775,26455,20205,19888,19176,18528,19204,17327,12329,13283,15087,,,,
Czech Republic,Operator Holding Account,"ZASOBOVANI TEPLEM VSETIN, A.S.",Jiráskova 1326,Vsetín,6208,6208,6208,13192,13192,13192,13192,13192,1985,3552,3146,2752,2371,0,0,0,13192,6917,3452,2926,3444,4905,3388,2304,3587,4647,5236,3788,,,,,,20109,3452,2926,3444,4905,3388,2304,3587,4647,5236,3788,,,,
Czech Republic,Operator Holding Account,"ZATECKA TEPLARENSKA, A.S.",Žatec čp. 3149,Žatec,37074,37074,37074,37652,37652,37652,37652,37652,19797,16534,13598,10980,8669,6742,5539,4382,36709,33668,30331,29887,27736,24120,13582,8799,8414,5635,7168,8652,,,,,,70377,30331,29887,27736,24120,13582,8799,8414,5635,7168,8652,,,,
Czech Republic,Operator Holding Account,"ZDAS, A.S.",Strojírenská 6,Žďár nad Sázavou,190431,190431,190431,130532,130532,130532,130532,130532,68475,62900,57837,53278,49198,46040,43679,41376,134892,122875,124683,126870,108885,121330,108087,111756,109963,91692,88361,91468,,,,,101657,156110,124683,126870,108885,121330,108087,111756,109963,91692,88361,91468,,,,
Czech Republic,Operator Holding Account,"ZEOLIT KLADNO, S.R.O. V LIKVIDACI",Průmyslová 1343,Kladno,1742,1742,1742,1589,1589,1589,1589,1589,,,,,,,,,1645,1325,738,1497,1147,1460,1412,1283,,,,,,,,,1645,1325,738,1497,1147,1460,1412,1283,,,,,,,,
Czech Republic,Operator Holding Account,"ZEVETA BOJKOVICE, A.S.",Tovární 532,Bojkovice,9242,9242,9242,5298,0,0,0,0,,,,,,,,,5373,4529,3958,3851,Not Reported,Not Reported,,,,,,,,,,,,9902,3958,3851,,,,,,,,,,,,
Czech Republic,Operator Holding Account,"ZLINSKE CIHELNY, S.R.O.",Šrámkova 1211,Zlín 4 - Malenovice,20693,20693,20693,9652,9652,9652,9652,9652,3154,3100,3044,2988,2932,2874,2816,2758,7984,9652,6510,2757,2574,1869,1726,1540,1109,1948,1033,2137,,,,,,17636,6510,2757,2574,1869,1726,1540,1109,1948,1033,2137,,,,
Czech Republic,Operator Holding Account,"ZLINSKE CIHELNY, S.R.O.",Šrámkova 1211,Zlín 4 - Malenovice,15863,15863,15863,12538,12538,12538,12538,12538,4358,2142,4206,4129,2025,1986,1946,1906,12538,8339,8838,2758,1422,580,1192,1908,244,1096,380,806,,,,,12538,8339,8838,2758,1422,580,1192,1908,244,1096,380,806,,,,
Czech Republic,Operator Holding Account,"ZOS CESKE VELENICE CZ, A.S.",Jana Pernera 159,České Velenice,9128,9128,9128,6385,6385,6385,6385,6385,,,,,,,,,5865,6070,5058,3977,4015,3982,2768,2155,Excluded,,,,,,,,,11935,5058,3977,4015,3982,2768,2155,,,,,,,,
Czech Republic,Operator Holding Account,"ZVVZ ENERGO, S.R.O.",Sažinova 888,Milevsko,27270,27270,27270,25549,25549,25549,25549,25549,12230,10617,9180,7912,6805,5853,5148,4710,24230,23526,20884,20637,19911,21435,16448,16162,16077,12922,9674,9472,,,,,,47756,20884,20637,19911,21435,16448,16162,16077,12922,9674,9472,,,,