Country,Account Type,Account Holder Name,Main Address Line,City,Allowance In Allocation In 2005,Allowance In Allocation In 2006,Allowance In Allocation In 2007,Allowance In Allocation In 2008,Allowance In Allocation In 2009,Allowance In Allocation In 2010,Allowance In Allocation In 2011,Allowance In Allocation In 2012,Allowance In Allocation In 2013,Allowance In Allocation In 2014,Allowance In Allocation In 2015,Allowance In Allocation In 2016,Allowance In Allocation In 2017,Allowance In Allocation In 2018,Allowance In Allocation In 2019,Allowance In Allocation In 2020,Verified Emissions In 2005,Verified Emissions In 2006,Verified Emissions In 2007,Verified Emissions In 2008,Verified Emissions In 2009,Verified Emissions In 2010,Verified Emissions In 2011,Verified Emissions In 2012,Verified Emissions In 2013,Verified Emissions In 2014,Verified Emissions In 2015,Verified Emissions In 2016,Verified Emissions In 2017,Verified Emissions In 2018,Verified Emissions In 2019,Verified Emissions In 2020,Units Surrendered In 2005,Units Surrendered In 2006,Units Surrendered In 2007,Units Surrendered In 2008,Units Surrendered In 2009,Units Surrendered In 2010,Units Surrendered In 2011,Units Surrendered In 2012,Units Surrendered In 2013,Units Surrendered In 2014,Units Surrendered In 2015,Units Surrendered In 2016,Units Surrendered In 2017,Units Surrendered In 2018,Units Surrendered In 2019,Units Surrendered In 2020
Denmark,Operator Holding Account,A/S BACHMANNS TEGLVAERK,Amtsvejen 23,Sønderborg,6236,4677,4678,4941,4940,4940,4940,4940,,,,,,,,,6018,6333,7608,6369,3625,996,1777,1728,,,,,,,,,6018,6333,7608,6369,3625,996,1777,1728,,,,,,,,
Denmark,Operator Holding Account,A/S CARL MATZENS TEGLVAERKER,Havnevej 44,Egernsund,4395,3296,3296,4487,4484,4484,4484,4484,3892,3825,3756,3687,3618,3547,3476,3404,5151,5825,5822,5421,3416,3406,3763,3431,3310,3688,3756,4229,,,,,5822,5825,5151,5421,3416,3406,3763,3431,3310,3688,3756,4229,,,,
Denmark,Operator Holding Account,A/S DANSK SHELL,c/o Finans fortroligt,Fredericia,600169,450127,450127,433099,433096,433096,433096,433096,402124,388977,375959,363101,350393,337846,325435,313240,409597,454074,473685,418579,425897,383168,380470,428801,393480,425453,436947,454127,,,,,409597,454074,473685,418579,425897,383168,380470,428801,393480,425453,436947,454127,,,,
Denmark,Operator Holding Account,A/S GRAASTEN TEGLVAERK,Teglværksvej 14,Gråsten,5518,4138,4139,6383,7995,7995,7995,7995,6621,6506,6389,6272,6153,6033,5912,5790,4758,5217,5383,4503,4022,4819,5781,4841,4934,5116,5533,5750,,,,,10141,5217,,4503,4022,4819,5781,4841,4934,5116,5533,5750,,,,
Denmark,Operator Holding Account,A/S KNUD JEPSEN,Skanderborgvej 193,Hinnerup,14456,10842,10843,12805,12803,12803,12803,12803,5936,5313,4705,4119,3551,3000,2469,1955,11551,11846,10724,11404,11573,12008,9623,8095,7630,6288,2763,4842,,,,,11551,11846,10724,11404,11573,12008,9623,8095,7630,6288,2763,4842,,,,
Denmark,Operator Holding Account,AABENRAA - ROEDEKRO FJERNVARME,Egelund 60,Aabenraa,1671,1252,1253,716,713,713,713,713,395,354,313,0,0,0,0,0,50,12,0,0,0,18,61,45,19,12,0,0,,,,,50,12,,,,18,61,45,19,12,,,,,,
Denmark,Operator Holding Account,AABENRAA - ROEDEKRO FJERNVARME,Egelund 60,Aabenraa,247,185,186,296,296,296,296,296,122,0,0,0,0,0,0,0,1763,721,192,19,58,328,191,228,133,,,,,,,,1763,721,192,19,58,328,191,228,133,,,,,,,
Denmark,Operator Holding Account,AABENRAA - ROEDEKRO FJERNVARME,Egelund 60,Aabenraa,359,269,269,284,280,280,280,280,172,39,0,0,0,0,0,0,1274,340,171,136,162,477,358,355,34,0,,,,,,,1637,340,,136,162,477,358,355,34,,,,,,,
Denmark,Operator Holding Account,AABENRAA - ROEDEKRO FJERNVARME,Egelund 60,Aabenraa,1598,1199,1199,1008,1004,1004,1004,1004,352,315,278,0,0,0,0,0,4415,746,567,187,58,1255,244,364,485,632,3,59,,,,,4982,746,,1442,58,,244,364,485,632,3,59,,,,
Denmark,Operator Holding Account,AAK DENMARK A/S,Slipvej 4,Aarhus C,142518,106888,106889,98702,98702,98702,98702,98702,60483,39909,37017,34201,31459,28792,26197,23685,113214,110094,104293,93655,99872,99760,92036,90756,57366,57039,50874,54753,,,,,113214,110094,104293,93655,99872,99760,92036,90756,57366,57039,50874,54753,,,,
Denmark,Operator Holding Account,AALBORG PORTLAND HOLDING A/S,Rørdalsvej 44,Aalborg Øst,3333987,2500490,2500491,2567181,2567177,2567177,2567177,2567177,2094007,2051548,2008872,1966040,1923034,1879891,1836497,1793211,2565970,2695400,2764907,2235680,1513917,1420067,1683864,1658029,1647199,1718011,1780564,2054900,,,,,2565970,2695400,2764907,2402648,1513917,1420067,1516896,1658029,1647199,1718011,1780564,2054900,,,,
Denmark,Operator Holding Account,Aalborg Varme A/S,Hjulmagervej 20,Aalborg,5910,4433,4433,8695,8691,8691,8691,8691,2879,2576,2282,1997,1720,1453,1194,944,6013,1429,298,9005,475,1833,8948,5314,2098,6086,3906,9027,,,,,6013,1429,298,9480,,1833,8948,5314,2098,6086,3906,9027,,,,
Denmark,Operator Holding Account,Aalborg Varme A/S,Hjulmagervej 20,Aalborg,2115,1586,1586,1159,1156,1156,1156,1156,206,46,0,143,124,104,86,68,1297,75,165,543,117,33,11,360,50,8,329,313,,,,,1297,75,165,543,117,33,11,360,50,8,329,313,,,,
Denmark,Operator Holding Account,Aalborg Varme A/S,Hjulmagervej 20,Aalborg,612,459,460,321,320,320,320,320,51,45,0,35,30,26,21,16,427,13,100,72,64,40,16,122,69,11,53,277,,,,,427,13,100,88,64,40,,122,69,11,53,277,,,,
Denmark,Operator Holding Account,Aalborg Varme A/S,Hjulmagervej 20,Aalborg,3472,2604,2603,2333,2333,2333,2333,2333,1117,1000,885,387,668,564,463,366,2903,172,48,2845,218,99,3183,274,103,1972,475,1907,,,,,2903,172,48,3162,,,3183,274,103,1972,475,1907,,,,
Denmark,Operator Holding Account,Aalborg Varme A/S,Hjulmagervej 20,Aalborg,440,330,329,182,181,181,181,181,17,16,0,12,11,9,8,6,227,21,40,15,36,5,2,97,18,3,22,74,,,,,227,21,40,51,,5,2,97,18,3,22,74,,,,
Denmark,Operator Holding Account,Aalborg Varme A/S,Hjulmagervej 20,Aalborg,,,,,,,,,,,,,,,,,,,,,,,,,656,2278,2564,3365,,,,,,,,,,,,,656,2278,2564,3365,,,,
Denmark,Operator Holding Account,AARHUS KOMMUNE,Rådhuspladsen 2,Aarhus C,649,487,487,752,750,750,750,750,769,688,610,533,460,388,319,252,520,279,2101,296,117,2431,5456,1249,1886,1228,1953,745,,,,,2621,279,,2844,,,5456,1249,1886,1228,1953,745,,,,
Denmark,Operator Holding Account,AARHUS KOMMUNE,Rådhuspladsen 2,Aarhus C,779,584,585,675,674,674,674,674,695,1243,551,964,830,701,576,456,640,115,1855,306,212,4316,3257,1155,2162,719,2481,2276,,,,,2495,230,,4834,,,3257,1155,2162,719,2481,2276,,,,
Denmark,Operator Holding Account,AARHUS KOMMUNE,Rådhuspladsen 2,Aarhus C,285,214,213,171,167,167,167,167,154,275,0,213,184,155,128,101,56,21,144,154,71,1033,748,155,327,21,1331,596,,,,,200,21,,1258,,,748,155,327,21,1331,596,,,,
Denmark,Operator Holding Account,AARHUS KOMMUNE,Rådhuspladsen 2,Aarhus C,2882,2162,2162,2460,2459,2459,2459,2459,1540,2755,0,2135,1839,1553,1276,1010,579,580,2316,690,513,10172,4779,2239,3192,506,4561,3418,,,,,2895,580,,11375,,,4779,2239,3192,506,4561,3418,,,,
Denmark,Operator Holding Account,AARHUS KOMMUNE,Rådhuspladsen 2,Aarhus C,306,230,229,212,212,212,212,212,64,229,0,178,152,129,106,84,80,59,434,159,40,857,1291,74,427,32,565,749,,,,,514,59,,1056,,,1291,74,427,32,565,749,,,,
Denmark,Operator Holding Account,AARHUS KOMMUNE,Rådhuspladsen 2,Aarhus C,,,,,,,,,94153,84258,74644,65334,56315,47590,39147,31007,,,,,,,,,144494,100510,157243,144526,,,,,,,,,,,,,145886,99118,157243,144526,,,,
Denmark,Operator Holding Account,AARS FJERNVARME AMBA,Dybvad Mølle Vej 1,Aars,,,,,,,,,17978,16088,14252,12475,10753,9087,7475,5921,,,,,,,,,18937,18331,19062,18497,,,,,,,,,,,,,18937,18331,19062,18497,,,,
Denmark,Operator Holding Account,AFFALDSSELSKABET VENDSYSSEL VEST I/S,Mandøvej 4,Hjørring,,,,,,,,,26474,23691,20988,18370,15834,13381,11007,8719,,,,,,,,,33350,33441,33475,33104,,,,,,,,,,,,,33350,33441,33475,33104,,,,
Denmark,Aircraft Operator Account,AIR ALSIE A/S,c/o Sønderborg Lufthavn,Sønderborg,,,,,,,,824,403,403,403,403,403,403,403,403,,,,,,,,8184,8039,8836,7592,11087,,,,,,,,,,,,8184,,18754,10523,10000,,,,
Denmark,Aircraft Operator Account,AIR GREENLAND A/S,c/o B - 1842 Siaqqinneq 1,Nuussuaq,,,,,,,,33881,158,158,158,158,158,158,158,158,,,,,,0,0,45785,238,349,1006,674,,,,,,,,,,,,45785,,587,1006,674,,,,
Denmark,Operator Holding Account,AKZO NOBEL SALT A/S,Hadsundvej 17,Mariager,31404,23553,23553,17184,17181,17181,17181,17181,58308,57296,56271,55236,54189,53133,52063,50989,886,28679,19034,20453,22047,11028,28471,28535,27630,25415,27116,28089,,,,,886,28679,19034,20453,22047,11028,28471,28535,27630,25415,27116,28089,,,,
Denmark,Operator Holding Account,ALBERTSLUND KOMMUNE,Nordmarks Alle 1,Albertslund,1082,812,811,1639,1637,1637,1637,1637,1712,1532,679,594,511,432,355,281,387,1268,273,1144,429,4310,406,1593,2051,757,892,788,,,,,387,1268,273,1573,,4310,406,1593,2051,757,892,788,,,,
Denmark,Operator Holding Account,ALFRED PEDERSEN & SOEN APS,Assensvej 217,Odense SV,37707,28280,28281,26458,26454,26454,26454,26454,9230,8261,7318,6405,5521,4665,3838,3039,24963,18304,16864,14868,16211,14804,13655,11085,11088,10813,11612,16477,,,,,24963,18304,16864,14868,16211,14804,13655,11085,11088,10813,11612,16477,,,,
Denmark,Aircraft Operator Account,ALIGAP A/S,c/o Harbour House,København Ø,,,,,,,,14,10,0,0,0,,,,,,,,,,,,853,654,,,,,,,,,,,,,,,853,,654,,,,,,
Denmark,Aircraft Operator Account,ALUMECO A/S,Næsbyvej 26,Odense C,,,,,,,,,,,,,,,,,,,,,,,,67,Excluded,Excluded,Excluded,Excluded,,,,,,,,,,,,67,,,,,,,,
Denmark,Operator Holding Account,ANDELS-KARTOFFELMELSFABRIKKEN SOENDERJYLLAND,Tøndervej 3,Toftlund,,,,,,,,,,,,2851,6777,6650,6523,6397,,,,,,,,,,,,5397,,,,,,,,,,,,,,,,5397,,,,
Denmark,Operator Holding Account,ANDELSSELSKABET IKAST EL- OG FJERNVARMEVÆRK A M B A,Europavej 2,Ikast,4265,3199,3199,1948,1944,1944,1944,1944,3637,3255,2883,2523,2173,1835,1508,1193,1892,665,1347,1158,3050,5298,4108,2248,7263,2182,2706,5277,,,,,1892,1330,1347,1158,3050,5298,4108,2248,7263,2182,2706,5277,,,,
Denmark,Operator Holding Account,ANDELSSELSKABET MOELHOLM VARMEVAERK,Mølholm Landevej 14,Vejle,113,85,85,73,72,72,72,72,370,331,0,256,221,186,153,121,18,365,10,320,1120,256,28,418,866,3,546,2654,,,,,18,365,10,324,1120,256,24,418,866,3,546,2654,,,,
Denmark,Operator Holding Account,ANDELSSELSKABET OKSBOEL VARMEVAERK,Industrivej 10,Oksbøl,21698,16274,16273,13287,13283,13283,13283,13283,5988,5359,4747,4155,3582,3027,2490,1972,11071,9844,9208,8632,9809,12240,8100,6539,6673,4633,5049,5082,,,,,11071,9844,9208,8632,9809,12240,8100,6539,6673,4633,5049,5082,,,,
Denmark,Operator Holding Account,Arcus Denmark A/S,C.A. Olesens gade 1,Aalborg,7406,5555,5555,7526,7525,7525,7525,7525,,,,,,,,,7844,7125,7534,7408,7463,6915,7565,3763,1062,950,500,,,,,,7844,7125,7534,7408,7463,6915,7565,3763,1062,950,500,,,,,
Denmark,Operator Holding Account,ARDAGH GLASS HOLMEGAARD A/S,Glasværksvej 52,Holmegaard,86502,64877,64877,61473,61470,61470,61470,61470,51491,50555,49610,48658,47697,46728,45749,44770,60793,58181,59872,62017,48627,55950,57097,59533,54246,56875,56929,57875,,,,,60793,58181,59872,119114,48627,55950,,59533,54246,56875,56929,57875,,,,
Denmark,Operator Holding Account,ARGO I/S,Håndværkervej 70,Roskilde,,,,,,,,,70988,63527,56279,49259,42460,35882,29515,23379,,,,,,,,,73680,154404,175352,140041,,,,,,,,,,,,,73680,154404,175352,140041,,,,
Denmark,Operator Holding Account,ARKIL A/S,Søndergård Alle 4,Vojens,1940,1455,1456,1902,1898,1898,1898,1898,1407,1260,1116,0,0,0,0,0,2134,1675,1755,2029,1279,1583,2045,1848,1904,1979,1757,,,,,,2134,1675,1755,3308,,1583,2045,1848,1904,1979,1757,,,,,
Denmark,Operator Holding Account,ARLA FOODS ENERGY A/S,Sønderhøj 14,Viby J,42155,31616,31616,37538,37538,37538,37538,37538,26938,26470,25997,25519,25035,24547,24053,23557,36725,36717,37702,38397,31988,36540,37574,39665,40982,45154,55298,48729,,,,,74427,36717,,70385,,36540,37574,39665,40982,45154,55298,48729,,,,
Denmark,Operator Holding Account,ARLA FOODS ENERGY A/S,Sønderhøj 14,Viby J,38294,28721,28721,40884,40883,40883,40883,40883,35318,34703,34089,33474,32860,32245,31631,31016,41701,42407,43038,43890,42965,48900,48950,46840,44751,39567,40152,26457,,,,,41701,42407,43038,86855,,48900,48950,46840,44751,39567,40152,26457,,,,
Denmark,Operator Holding Account,ARLA FOODS ENERGY A/S,Sønderhøj 14,Viby J,49200,36900,36900,38484,38480,38480,38480,38480,27710,27229,26742,26250,25753,25251,24742,24232,38579,40906,38131,36070,27075,28457,29935,29425,28432,27502,29108,30431,,,,,38579,40906,38131,63145,,28457,29935,29425,28432,27502,29108,30431,,,,
Denmark,Operator Holding Account,ARLA FOODS ENERGY A/S,Sønderhøj 14,Viby J,43199,32399,32399,31982,31982,31982,31982,31982,30430,29901,29371,28842,28312,27783,27253,26724,38390,37904,39869,40181,38764,40574,38166,40538,32307,40481,39836,38597,,,,,38390,37904,39869,78946,,40574,38165,40538,32307,40481,39836,38597,,,,
Denmark,Operator Holding Account,ASSENS FJERNVARME A.M.B.A.,Stejlebjergvej 4,Assens,32,24,24,0,0,0,0,0,,,,,,,,,0,0,0,0,0,0,0,0,,,,,,,,,,,,,,,,,,,,,,,,
Denmark,Operator Holding Account,AULUM FJERNVARME AMBA,Rugbjergvej 3,Aulum,,,,291,290,290,290,290,16,0,0,0,0,0,0,0,0,0,6,1,12,174,28,19,0,1,55,,,,,,,,6,1,12,174,28,19,,1,55,,,,,
Denmark,Operator Holding Account,AULUM FJERNVARME AMBA,Rugbjergvej 3,Aulum,,,,8603,8603,8603,8603,8603,5938,5314,4707,4120,3551,3001,2469,1956,0,0,9620,8896,8182,12615,11067,9644,8982,7299,7200,7394,,,,,,,9620,21511,8182,,11067,9644,8982,7299,7200,7394,,,,
Denmark,Operator Holding Account,AVEDOERE FJERNVARME,c/o EBO Consult,Hvidovre,621,466,466,396,396,396,396,396,147,66,58,0,88,74,61,48,121,73,4,13,181,619,360,125,51,86,65,120,,,,,121,73,4,13,181,619,360,125,51,86,65,120,,,,
Denmark,Aircraft Operator Account,BGR I/S,Birk Centerpark 40,Herning,,,,,,,,,,,,,,,,,,,,,,,,32,Excluded,Excluded,Excluded,Excluded,,,,,,,,,,,,32,,,,,,,,
Denmark,Operator Holding Account,BILLUND VARMEVAERK,Møllevej 9,Billund,12582,9437,9437,,,,,,,,,,,,,,4701,4984,4026,,,,,,,,,,,,,,8727,4984,,,,,,,,,,,,,,
Denmark,Operator Holding Account,BILLUND VARMEVAERK,Møllevej 9,Billund,37704,28278,28279,22136,22133,22133,22133,22133,10263,9184,8137,7122,6139,5188,4268,3380,12162,9291,9856,12209,2692,3371,2900,2245,2960,1799,210,59,,,,,12162,9291,9856,12209,2692,3371,2900,2245,2960,1799,210,59,,,,
Denmark,Operator Holding Account,BIOGEN (DENMARK) MANUFACTURING APS,Biogen Alle 1,Hillerød,,,,,,,,,,,,,,,,,,,,,,2602,2446,3250,3396,3548,3758,4844,,,,,,,,,,2602,2446,3250,3396,3548,3758,4844,,,,
Denmark,Operator Holding Account,Bjerringbro Varmeværk Amba,Realskolevej 18,Bjerringbro,58974,44231,44231,36754,36750,36750,36750,36750,8997,8051,7133,6243,5381,4548,3741,2963,22025,27433,11532,18776,12491,17681,14586,15394,13501,12725,11756,20524,,,,,33557,27433,,18776,12491,17681,14586,15394,13501,12725,11756,20524,,,,
Denmark,Operator Holding Account,Bjerringbro Varmeværk Amba,Realskolevej 18,Bjerringbro,1488,1116,1116,1170,1168,1168,1168,1168,10051,8995,3984,6971,3003,2536,2084,1648,7303,4131,11302,8154,11585,11114,9023,8636,7648,5226,6610,4128,,,,,18605,4131,,8154,11585,11114,9023,8636,7648,5226,6610,4128,,,,
Denmark,Operator Holding Account,BOGENSE FORSYNINGSSELSKAB,Fynsvej 5,Bogense,21751,16313,16314,13116,13115,13115,13115,13115,7061,6319,5598,4899,4223,3569,2936,2325,10860,8173,3896,3265,2209,5928,4457,2070,997,596,484,830,,,,,14756,8173,,3265,2209,5928,4457,2070,997,596,484,830,,,,
Denmark,Operator Holding Account,BORDING KRAFT-VARMEVAERK,Europavej 2,Ikast,,,,0,0,11868,9493,9493,,,,,,,,,,,,,7484,9368,7646,6774,,,,,,,,,,,,,7484,9368,7646,6774,,,,,,,,
Denmark,Operator Holding Account,Børge Heidmann  Bech,Ågade 16,Bindslev,4948,3711,3711,3542,0,0,0,0,,,,,,,,,3765,4624,4801,2980,0,,,,,,,,,,,,8566,4624,,2980,,,,,,,,,,,,
Denmark,Operator Holding Account,BORNHOLMS EL-PRODUKTION A/S,Skansevej 2,Rønne,76257,57193,57193,54250,54250,54250,54250,54250,30026,24974,20443,16422,13941,11780,9690,7675,68320,79355,57270,64917,71837,80708,48195,48744,67007,40855,45809,49648,,,,,68320,79355,57270,167349,,80708,17600,48744,67007,40855,45809,49690,,,,
Denmark,Operator Holding Account,BRAEDSTRUP TOTALENERGIANLAEG A/S,Fjernvarmevej 2,Brædstrup,28586,21439,21439,18282,18282,18282,18282,18282,7386,6609,5855,5125,4418,3733,3071,2433,14811,14858,10696,11306,10616,14707,12996,8530,8508,6637,5746,7654,,,,,25507,14858,,11306,10616,14707,12996,8530,8508,6637,5746,7654,,,,
Denmark,Operator Holding Account,BRAMMING FJERNVARME AMBA,Grønningen 7,Bramming,49634,37226,37226,30416,30414,30414,30414,30414,13521,12100,10720,9382,8087,6834,5622,4452,25365,20334,15061,16381,17756,19964,17968,15139,14289,12342,13011,13469,,,,,40426,20334,,52105,,19964,,15139,14289,12342,13011,13469,,,,
Denmark,Operator Holding Account,BRANDE FJERNVARME A.M.B.A.,Præstevænget 11,Brande,24862,18646,18647,15233,15229,15229,15229,15229,3560,3186,1411,1235,2129,1799,1480,1173,13898,12753,11414,10980,10143,11785,9843,3810,2734,1717,1863,2395,,,,,13898,12753,11414,10980,10143,11785,9843,3810,2734,1717,1863,2395,,,,
Denmark,Operator Holding Account,BROAGER FJERNVARMESELSKAB AMBA,Østergade 21,Broager,15333,11500,11499,10599,10599,10599,10599,10599,,,,,,,,,8905,7927,7104,7452,5800,6778,6317,5302,,,,,,,,,16009,7927,,13769,5800,6778,,5302,,,,,,,,
Denmark,Operator Holding Account,BRODRENE HARTMANN A/S,Ørnegårdsvej 18,Gentofte,97632,73224,73224,72836,72833,72833,72833,72833,42682,38277,33990,29833,25805,21904,18129,14497,84924,80834,81483,73541,60265,61736,57593,56642,54572,51001,35594,41156,,,,,,165758,81483,73541,60265,61736,57593,56642,54572,51001,35594,41156,,,,
Denmark,Operator Holding Account,BROENDBY FJERNVARME A.M.B.A.,Kirkebjerg Allé 92 A,Brøndby,1070,802,803,743,742,742,742,742,626,560,496,434,374,316,259,205,478,661,195,338,515,1339,356,1201,1254,732,577,837,,,,,478,661,195,338,515,1339,356,1201,1254,732,577,837,,,,
Denmark,Operator Holding Account,BROENDBY FJERNVARME A.M.B.A.,Kirkebjerg Allé 92 A,Brøndby,1536,1152,1153,988,985,985,985,985,930,832,369,645,278,235,193,153,673,269,354,369,900,2274,204,1097,1164,569,788,664,,,,,673,269,354,369,900,2274,204,1097,1164,569,788,664,,,,
Denmark,Operator Holding Account,BROENDBY FJERNVARME A.M.B.A.,Kirkebjerg Allé 92 A,Brøndby,727,545,546,502,501,501,501,501,348,623,138,242,416,351,289,228,325,180,172,148,343,1581,119,368,526,228,447,856,,,,,325,180,172,491,,1581,119,368,526,228,447,856,,,,
Denmark,Operator Holding Account,BROENDERSLEV VARME A/S,Virksomhedsvej 20,Brønderslev,88981,66736,66736,61480,61479,61479,61479,61479,22932,20522,18181,15913,13716,11591,9535,7553,51329,50574,42138,46695,34744,46956,40713,34972,32972,28049,23997,34869,,,,,93467,50574,,46695,34744,46956,40713,34972,32972,28049,23997,34869,,,,
Denmark,Operator Holding Account,BROERUP FJERNVARME A M B A,Vandværksvej 5,Brørup,16189,12142,12142,10831,10830,10830,10830,10830,5370,4806,4257,3727,3212,2714,2233,1769,9371,8568,7850,8330,8598,10088,4527,2622,2654,1125,1009,1176,,,,,9371,8568,7850,18418,8598,,4527,2622,2654,1125,1009,1176,,,,
Denmark,Operator Holding Account,BROVST FJERNVARME ANDELSSELSKAB,Bøge Bakker 3,Brovst,21074,15806,15805,12999,12999,12999,12999,12999,6204,5552,4919,4305,3710,3136,2579,2044,11464,10914,10138,9292,10620,12294,10692,8456,7244,6076,5049,5660,,,,,11464,10914,10138,19984,10620,12294,,8456,7244,6076,5049,5660,,,,
Denmark,Aircraft Operator Account,"CANYON GATE FLIGHT SERVICES, INC.",8904 Canyon Springs DRIVE,Las Vegas,,,,,,,,,,,,,,,,,,,,,,,,46,Excluded,Excluded,Excluded,Excluded,,,,,,,,,,,,,,46,,,,,,
Denmark,Operator Holding Account,CARLSBERG DANMARK A/S,Vesterfælledvej 6,København V,40722,30542,30541,28105,28104,28104,28104,28104,5395,0,0,0,0,0,0,0,24412,18773,14342,12049,6819,6851,6092,5870,5379,,,,,,,,38754,18773,,18868,,6851,6092,5870,5379,,,,,,,
Denmark,Operator Holding Account,CARLSBERG SUPPLY COMPANY DANMARK A/S,Vesterfælledvej 6,København V,27647,20735,20735,22769,22769,22769,22769,22769,18518,16572,14678,12843,11064,9342,7676,6072,20596,20076,20526,18736,24602,18422,17149,14995,16843,13847,14324,17580,,,,,41122,20076,,43338,,18422,17149,14995,16843,13847,14324,17580,,,,
Denmark,Operator Holding Account,Carsten  Nielsen,Skanderborgvej 277,Viby J,36815,27611,27611,,,,,,,,,,,,,,27602,11467,0,,,,,,,,,,,,,,27602,11467,,,,,,,,,,,,,,
Denmark,Operator Holding Account,CHEMINOVA A/S,Thyborønvej 78,Harboøre,111670,83752,83752,78507,78505,78505,78505,78505,54403,53456,52510,51563,25595,25117,24639,24160,85700,80544,71815,74276,65406,56721,47809,44726,45249,43829,40384,34907,,,,,157515,80544,,74276,65406,56721,47809,44726,45249,43829,40384,34907,,,,
Denmark,Aircraft Operator Account,CIMBER A/S,Kystvejen 2 - 4,Kastrup,,,,,,,,,102360,102360,102360,102360,102360,102360,102360,102360,,,,,,,,,Excluded,Excluded,Excluded,Excluded,,,,,,,,,,,,,,,,,,,,
Denmark,Aircraft Operator Account,Cimber Sterling A/S,c/o Kromann Reumert,Cph Ø,,,,,,,,126196,,,,,,,,,,,,,,,,64965,Excluded,Excluded,Excluded,Excluded,,,,,,,,,,,,64965,,,,,,,,
Denmark,Operator Holding Account,COLAS DANMARK A/S,Fabriksparken 40,Glostrup,2444,1833,1834,1646,1642,1642,1642,1642,1534,0,0,0,0,0,0,0,1912,2078,2266,1949,2133,2001,2233,2401,2336,,,,,,,,1912,2078,2266,1949,2133,2001,2233,2401,2336,,,,,,,
Denmark,Operator Holding Account,COLAS DANMARK A/S,Fabriksparken 40,Glostrup,1672,1254,1253,1127,1126,1126,0,0,,,,,,,,,1242,1139,1241,1067,962,1107,,,,,,,,,,,1242,1139,1241,1067,962,1107,,,,,,,,,,
Denmark,Operator Holding Account,COLAS DANMARK A/S,Fabriksparken 40,Glostrup,1866,1400,1399,1562,1561,1561,1561,1561,,,,,,,,,1865,1772,1914,1232,1254,1308,1699,2907,,,,,,,,,1865,1772,1914,1232,1254,1308,1699,2907,,,,,,,,
Denmark,Operator Holding Account,COLAS DANMARK A/S,Fabriksparken 40,Glostrup,1484,1113,1114,1236,1232,1232,1232,1232,991,888,786,688,592,500,411,326,1779,2260,1121,1324,1097,1426,1229,947,1187,1650,1459,1287,,,,,1779,2260,1121,1324,1097,1426,1229,947,1187,1650,1459,1287,,,,
Denmark,Operator Holding Account,COLAS DANMARK A/S,Fabriksparken 40,Glostrup,,,,0,0,0,0,0,1388,1242,1100,962,828,700,575,456,1466,1726,1756,1912,1812,1941,2194,1887,1832,2422,2417,2520,,,,,1466,1726,1756,1912,1812,1941,2194,1887,1832,2422,2417,2520,,,,
Denmark,Operator Holding Account,CP KELCO APS,Ved Banen 16,Lille Skensved,132797,99598,99598,91081,91081,91081,91081,91081,71913,70664,69400,68123,66832,65529,64210,62886,95073,88241,82571,79518,70759,86149,77547,68954,73274,74628,77026,76508,,,,,95073,88241,82571,79518,70759,86149,77547,68954,73274,74628,77026,76509,,,,
Denmark,Operator Holding Account,CTR I/S,Stæhr Johansens Vej 38,Frederiksberg,1142,856,857,,,,,,,,,,,,,,999,714,0,,,,,,,,,,,,,,999,714,,,,,,,,,,,,,,
Denmark,Operator Holding Account,CTR I/S,Stæhr Johansens Vej 38,Frederiksberg,802,602,602,1438,1434,1434,1434,1434,1089,488,432,189,163,138,113,89,830,261,85,554,781,2959,475,1753,488,365,345,261,,,,,830,261,85,554,781,2959,475,1753,488,365,345,261,,,,
Denmark,Operator Holding Account,CTR I/S,Stæhr Johansens Vej 38,Frederiksberg,392,294,293,1955,1954,1954,1954,1954,1521,1361,603,264,909,767,630,499,1523,277,100,741,1781,3392,784,3076,1436,942,291,1819,,,,,1523,277,100,741,1781,3392,784,3076,1436,942,291,1819,,,,
Denmark,Operator Holding Account,CTR I/S,Stæhr Johansens Vej 38,Frederiksberg,10079,7559,7560,12925,12921,12921,12921,12921,13257,11864,2627,4597,1980,1672,1374,1087,6304,3404,4516,7795,14272,30446,16054,12549,14196,3273,5943,4801,,,,,6304,3404,4516,7795,14272,30446,16054,12549,14196,3273,5943,4801,,,,
Denmark,Operator Holding Account,CTR I/S,Stæhr Johansens Vej 38,Frederiksberg,2852,2139,2140,3307,3304,3304,3304,3304,2411,2157,956,1672,1440,1216,999,791,1290,1161,546,235,693,8079,6259,8172,9660,1323,2793,5198,,,,,1290,1161,546,235,693,8079,6259,8172,9660,1323,2793,5198,,,,
Denmark,Operator Holding Account,CTR I/S,Stæhr Johansens Vej 38,Frederiksberg,1116,837,837,1866,1862,1862,1862,1862,913,817,1447,1266,1091,921,757,599,1177,468,405,732,1970,4317,1127,1070,1200,2198,1796,2493,,,,,1177,468,405,732,1970,4317,1127,1070,1200,2198,1796,2493,,,,
Denmark,Operator Holding Account,CTR I/S,Stæhr Johansens Vej 38,Frederiksberg,289,217,217,548,545,545,545,545,307,137,487,213,92,78,64,50,112,173,426,832,826,1218,369,448,222,549,417,175,,,,,112,173,426,832,826,1218,369,448,222,549,417,175,,,,
Denmark,Operator Holding Account,CTR I/S,Stæhr Johansens Vej 38,Frederiksberg,,,,6000,6000,6000,6000,6000,2577,1154,2042,0,0,0,0,0,0,22,366,1909,2782,5843,2977,2437,1681,2443,420,776,,,,,,22,366,1909,2782,5843,2977,2437,1681,2443,420,776,,,,
Denmark,Operator Holding Account,CTR I/S,Stæhr Johansens Vej 38,Frederiksberg,,,,,,,,,,,,,,,,,,,,,,,,,,134,776,1967,,,,,,,,,,,,,,134,776,1967,,,,
Denmark,Operator Holding Account,Daka Denmark A/S,Dakavej 10,Løsning,29818,22363,22363,18028,18024,18024,18024,18024,21650,19377,17162,15015,12936,10922,8975,7100,7498,1592,1848,10976,9223,14985,16293,16034,14579,13556,13242,13901,,,,,7498,1592,1848,10976,9223,14985,16293,16034,14579,13556,13242,13901,,,,
Denmark,Operator Holding Account,Daka Denmark A/S,Dakavej 10,Løsning,21407,16055,16055,15094,15094,15094,15094,15094,,,,,,,,,13854,11418,3104,6880,6658,7152,5618,216,0,0,0,,,,,,13854,11418,3104,13538,,7152,5618,216,,,,,,,,
Denmark,Operator Holding Account,Daka Denmark A/S,Dakavej 10,Løsning,23208,17406,17407,15991,15987,15987,15987,15987,26924,24095,21343,18674,16087,13582,11161,8829,9417,614,602,25861,25496,28361,26608,24747,24273,26072,24732,26317,,,,,9417,614,602,54222,25496,,26608,24747,24273,26072,24732,26317,,,,
Denmark,Operator Holding Account,Dalum Kraftvarme A/S,Billedskærervej 7,Odense M,,,,,,,,,0,26191,23198,20297,17485,14763,12131,9597,,,,,,,,,131,75,161,95,,,,,,,,,,,,,131,75,161,95,,,,
Denmark,Operator Holding Account,DALUM PAPIR A/S,Dalumvej 116,Odense SV,6912,5184,5184,6005,6005,6005,6005,6005,,,,,,,,,6737,6445,6835,6772,6383,5331,4916,4099,0,,,,,,,,6737,6445,6835,18071,,5331,,4099,,,,,,,,
Denmark,Operator Holding Account,DALUM PAPIR A/S,Dalumvej 116,Odense SV,73846,55385,55385,52024,52024,52024,52024,52024,29265,0,0,0,0,0,0,0,56123,54493,8788,6386,5119,4598,2127,1833,92,,,,,,,,56123,54493,8788,16103,,,2127,1833,92,,,,,,,
Denmark,Operator Holding Account,DANFOSS A/S,Nordborgvej 81,Nordborg,35420,26565,26564,24865,24865,24865,24865,24865,19020,18690,18355,18018,9119,8941,8761,8581,25900,23347,23084,21972,20758,20765,18982,15854,18245,12255,17063,12390,,,,,25900,23347,23084,21972,20758,20765,18982,15854,18245,12255,17063,12390,,,,
Denmark,Aircraft Operator Account,DANISH AIR TRANSPORT A/S,Lufthavnsvej 7 A,Vamdrup,,,,,,,,12518,5849,5849,5849,5849,5849,5849,5849,5849,,,,,,,,13553,20982,20996,38620,44976,,,,,,,,,,,,13553,,41978,38620,44976,,,,
Denmark,Operator Holding Account,DANISH CROWN A/S,Marsvej 43,Randers SØ,12165,9124,9123,8585,8581,8581,8581,8581,7825,7003,6203,5427,4674,3947,3244,2566,7866,7022,7728,7618,7610,7430,7883,8821,9043,8654,8283,8571,,,,,7866,7022,15456,7618,7610,7430,7883,8821,9043,8654,8283,8571,,,,
Denmark,Operator Holding Account,DANISH CROWN A/S,Marsvej 43,Randers SØ,14573,10930,10929,11934,11934,11934,11934,11934,12570,11250,9963,8718,7510,6341,5210,4123,4220,5246,5957,6298,5506,6060,8361,11060,10561,10159,9338,9302,,,,,4220,5246,5957,6298,5506,6060,8361,11060,10561,10159,9338,9302,,,,
Denmark,Operator Holding Account,DC GENERATION A/S,Anker Engelunds Vej 411,Kgs. Lyngby,2634,1976,1975,2868,2864,2864,2864,2864,1338,2395,2121,1856,1599,1350,1109,877,3115,711,1826,851,1769,4483,1418,1154,9924,16576,18436,19485,,,,,3115,711,1826,851,1769,4483,1418,1154,9924,16576,18436,19485,,,,
Denmark,Operator Holding Account,DC GENERATION A/S,Anker Engelunds Vej 411,Kgs. Lyngby,131947,98960,98961,88580,88576,88576,88576,88576,24430,10931,4842,4238,3653,3087,2539,2011,64832,76324,68215,74867,67066,62542,63665,59026,26928,6809,8781,8331,,,,,64832,76324,68215,74867,67066,62542,63665,59026,26928,6809,8781,8331,,,,
Denmark,Operator Holding Account,DIN FORSYNING VARME A/S,Ulvsundvej 1,Esbjerg N,799,599,599,453,451,451,451,451,0,0,0,0,0,0,0,0,51,138,73,720,0,0,0,0,0,0,0,0,,,,,124,138,,720,,,,,,,,,,,,
Denmark,Operator Holding Account,DIN FORSYNING VARME A/S,Ulvsundvej 1,Esbjerg N,64,48,49,132,128,128,128,128,0,98,86,0,33,28,23,18,208,250,15,137,0,0,0,0,873,382,5,73,,,,,223,250,,137,,,,,873,382,5,73,,,,
Denmark,Operator Holding Account,DIN FORSYNING VARME A/S,Ulvsundvej 1,Esbjerg N,1162,872,872,1390,1388,1388,1388,1388,708,0,562,246,212,179,147,116,813,648,0,0,0,0,0,0,0,0,0,0,,,,,813,648,,,,,,,,,,,,,,
Denmark,Operator Holding Account,DIN FORSYNING VARME A/S,Ulvsundvej 1,Esbjerg N,2557,1918,1917,1496,1496,1496,1496,1496,888,397,704,1232,531,448,368,291,1307,0,0,0,0,0,0,0,0,0,5,1,,,,,1307,,,,,,,,,,5,1,,,,
Denmark,Operator Holding Account,DK PLANT APS,Gartnerivej 5,Otterup,,,,0,15017,8581,8581,8581,2167,1939,859,752,648,548,451,357,0,0,1886,6116,5005,5965,3630,2079,1709,556,567,909,,,,,,,1886,6116,5005,6005,3630,2079,1709,556,567,909,,,,
Denmark,Operator Holding Account,Dong Energy Power A/S,Kraftværksvej 53,Fredericia,953,715,715,306,302,302,302,0,,,,,,,,,2211,1293,1760,2315,1810,1701,0,,,,,,,,,,2211,1293,1760,2315,1810,1701,,,,,,,,,,
Denmark,Operator Holding Account,Dorthe Bundgaard,Teglholmen,København SV,1360954,1020716,1020715,,,,,,,,,,,,,,878425,1371966,,,,,,,,,,,,,,,878425,1371966,,,,,,,,,,,,,,
Denmark,Operator Holding Account,Dorthe Bundgaard,Teglholmen,København SV,,,,,,,,,,,,,,,,,0,0,0,0,,,,,,,,,,,,,,,,,,,,,,,,,,,,
Denmark,Aircraft Operator Account,"THE DUCHOSSOIS GROUP, INC. PENSION TRUST",845 N. Larch Avenue,Elmhurst,,,,,,,,4,0,0,0,0,0,0,0,0,,,,,,,,11,Excluded,Excluded,Excluded,Excluded,,,,,,,,,,,,11,,,,,,,,
Denmark,Operator Holding Account,DUFERCO DANISH STEEL A/S,Havnevej 47,Frederiksværk,28135,21101,21102,10272,10272,10272,10272,10272,10651,10466,10279,10090,9898,9705,9510,9314,9193,5873,10759,13815,9896,12950,15602,13369,12942,12317,12251,12172,,,,,,15066,10759,13815,9896,12950,15602,13369,12942,12317,12251,12172,,,,
Denmark,Operator Holding Account,DUPONT NUTRITION BIOSCIENCES APS,Langebrogade 1,København K.,69402,52051,52051,49555,49551,49551,49551,49551,26485,26024,25559,25089,24614,24134,23648,23160,51525,51696,52900,46868,44541,43096,42388,43594,45744,45939,42886,22837,,,,,51525,51696,52900,132352,44541,,,43594,45744,45939,42886,22837,,,,
Denmark,Operator Holding Account,E.ON PRODUKTION DANMARK A/S,Dirch Passers Allé 76,Frederiksberg,51294,38470,38470,34400,34398,34398,34398,34398,14071,12592,2789,4882,4208,3556,2926,2317,31092,30730,30352,29061,30547,32812,21519,15914,12935,5304,4790,6254,,,,,31092,30730,30352,29061,30547,32812,21519,15914,12935,5304,4790,6254,,,,
Denmark,Operator Holding Account,EBELTOFT FJERNVARMEVAERK,Hans Winthers Vej 9,Ebeltoft,54,41,41,0,0,60,60,60,,,,,,,,,410,0,0,0,0,685,6,10,,,,,,,,,410,,,,,685,6,10,,,,,,,,
Denmark,Operator Holding Account,EFFEKTMARKED.DK A/S,Europavej 2,Ikast,,,,5137,5137,5137,5137,5137,6,10,9,4,0,0,0,0,0,235,153,176,115,121,60,44,56,48,29,25,,,,,,470,153,236,115,121,,44,56,48,29,25,,,,
Denmark,Operator Holding Account,EFFEKTPARTNER AS,Estrupvej 28,Esbjerg,,,,9875,9875,9875,9875,9875,,,,,,,,,697,453,560,614,38,49,45,7,0,0,0,0,,,,,1267,453,,614,38,49,45,7,,,,,,,,
Denmark,Operator Holding Account,Elin Lambertsen,Hovedgaden 501,Hedehusene,35320,26490,26491,,,,,,,,,,,,,,2559,1819,,,,,,,,,,,,,,,2559,1819,,,,,,,,,,,,,,
Denmark,Operator Holding Account,ENERGI FYN PRODUKTION A/S,Sanderumvej 16,Odense SV,,,,7595,7595,7595,7595,7595,0,0,0,29,0,0,0,0,0,168,406,687,196,325,89,38,2,14,118,9,,,,,406,168,,687,196,325,89,38,2,14,118,9,,,,
Denmark,Operator Holding Account,ENERGI FYN PRODUKTION A/S,Sanderumvej 16,Odense SV,,,,0,0,0,0,0,0,0,0,0,0,0,0,0,0,0,526,677,184,241,88,34,3,16,119,7,,,,,,,526,677,184,241,88,34,3,16,119,7,,,,
Denmark,Operator Holding Account,ENERGI FYN PRODUKTION A/S,Sanderumvej 16,Odense SV,,,,,,,,,,,,,,,,,,,,,239,205,120,49,1,18,60,62,,,,,,,,,239,205,120,49,1,18,61,62,,,,
Denmark,Operator Holding Account,ENERGI FYN PRODUKTION A/S,Sanderumvej 16,Odense SV,,,,0,0,0,0,0,0,0,0,0,0,0,0,0,0,0,123,759,75,49,3,3,2,8,33,56,,,,,,,123,759,75,49,3,3,2,8,34,56,,,,
Denmark,Operator Holding Account,ENERGI FYN PRODUKTION A/S,Sanderumvej 16,Odense SV,,,,,,,,,7,0,0,19,0,0,0,0,,,,,173,110,79,35,8,15,96,9,,,,,,,,,173,110,79,35,8,15,96,9,,,,
Denmark,Operator Holding Account,ENERGI VIBORG KRAFTVARME A/S,Industrivej 40,Viborg,976,732,733,674,674,674,674,674,2546,2279,2018,1766,1521,1284,1056,835,597,1001,460,1525,4255,1757,1555,5064,10498,13179,5428,4339,,,,,597,1001,460,1525,4255,1757,1555,5064,10498,13179,5428,4339,,,,
Denmark,Operator Holding Account,ENERGI VIBORG KRAFTVARME A/S,Industrivej 40,Viborg,1267,950,950,978,975,975,975,975,3792,3393,3006,2630,2266,1913,1572,1243,416,811,577,762,4542,4490,2744,5175,9908,11978,6676,4227,,,,,416,811,577,762,4542,4490,2744,5175,9908,11978,6676,4227,,,,
Denmark,Operator Holding Account,ENERGI VIBORG KRAFTVARME A/S,Industrivej 40,Viborg,242651,181988,181988,145079,145077,145077,145077,145077,51242,45857,20312,35558,30649,25901,21305,16875,127970,126379,121366,118146,103518,136405,119625,109620,73542,43149,58466,90122,,,,,127970,126379,121366,118146,103518,136405,119625,109620,73542,43149,58466,90122,,,,
Denmark,Operator Holding Account,ENERGNIST,Uldjydevej 2,Herning,,,,,,,,,58849,52664,46655,40836,35199,29746,24469,19380,,,,,,,,,46881,56946,82867,92106,,,,,,,,,,,,,46881,56946,82867,92106,,,,
Denmark,Operator Holding Account,ENERGNIST,Uldjydevej 2,Herning,,,,,,,,,78310,70079,62084,54339,46839,39582,32560,25789,,,,,,,,,118478,127330,114999,116109,,,,,,,,,,,,,118478,127330,114999,116109,,,,
Denmark,Operator Holding Account,ENIIG VARME A/S,Industrivej Nord 9 B,Herning,53,40,40,31,29,29,29,29,0,99,88,39,132,112,92,73,6,28,0,0,23,745,661,11,142,82,90,369,,,,,6,28,,,23,745,661,11,142,82,90,369,,,,
Denmark,Operator Holding Account,ENIIG VARME A/S,Industrivej Nord 9 B,Herning,4794,3596,3595,2414,2410,2410,2410,2410,5440,4869,4312,1887,3250,2745,2255,1784,2505,467,1973,1832,3933,9320,5435,3936,7221,4553,2939,10859,,,,,2505,467,1973,1832,3933,9320,5435,3936,7221,4553,2939,10859,,,,
Denmark,Operator Holding Account,ENIIG VARME A/S,Industrivej Nord 9 B,Herning,1735,1301,1301,1676,1675,1675,3675,3675,2589,2317,1026,1796,1547,1306,1073,849,707,461,201,114,1633,4755,5408,2435,13310,1266,3269,4183,,,,,707,461,201,114,1633,4755,5408,2435,13310,1266,3269,4183,,,,
Denmark,Aircraft Operator Account,EXECUJET EUROPE A/S,"Ledreborg Alle 128C, 1. th.",Roskilde,,,,,,,,,0,0,0,0,100,100,100,100,,,,,,,,3424,2148,2613,2412,3284,,,,,,,,,,,,3424,,4761,2412,3284,,,,
Denmark,Operator Holding Account,FAELLENGGAARD VARMEFORSYNING APS,Ny Vestergade 72A,Broby,22244,16683,16683,16165,16165,16165,16165,16165,7306,6538,5792,5070,4370,3693,3038,2406,16955,13886,10855,13031,11573,14855,8491,11071,9442,7712,8381,6691,,,,,16955,13886,10855,24604,,14855,8491,11071,9442,7712,8381,6691,,,,
Denmark,Operator Holding Account,FARUM FJERNVARME A M B A,Stavnsholtvej 33,Farum,3058,2294,2293,1597,1594,1594,1594,1594,3640,3257,2885,2525,2175,1836,1508,1194,4468,2490,901,6492,4858,4710,4224,10216,6294,6831,5046,6480,,,,,4468,2490,901,6492,4858,4710,,14440,6294,6831,5046,6480,,,,
Denmark,Operator Holding Account,FARUM FJERNVARME A M B A,Stavnsholtvej 33,Farum,1072,804,804,2736,2732,2732,2732,2732,1450,1298,1150,1006,866,732,601,476,3437,1953,1199,1858,1219,1600,603,2083,2491,2171,2377,2127,,,,,3437,1953,1199,1858,1219,1600,,2686,2491,2171,2377,2127,,,,
Denmark,Operator Holding Account,FAXE KALK A/S,Hovedgaden 13,Faxe Ladeplads,132805,99604,99603,99777,99777,99777,99777,99777,54021,52923,51820,50713,49602,48488,47366,46247,93159,101644,91292,92855,63066,41331,33887,47233,46920,60092,47608,58689,,,,,93159,101644,91292,92855,63066,41331,33887,47233,46920,60092,47608,58689,,,,
Denmark,Operator Holding Account,FD HVIDOVRE AMBA,c/o EBO Consult A/S,Hvidovre,263,197,198,622,622,622,622,622,15,0,45,40,34,29,24,19,1,192,26,77,159,21,1,1,8,497,129,59,,,,,1,192,26,77,159,21,1,1,8,497,129,59,,,,
Denmark,Operator Holding Account,FF HANSTHOLM A/S,Nordre Strandvej 54,Hanstholm,21542,16156,16157,13082,13082,13082,13082,13082,8374,14617,14207,13800,13396,12995,12596,12202,14047,17163,12400,12319,18369,20386,14801,6753,8440,12053,15392,17252,,,,,14047,17163,12400,27120,18369,20386,,6753,8440,12053,15392,17252,,,,
Denmark,Operator Holding Account,FF SKAGEN A/S,Havnevagtvej 5,Skagen,72307,54230,54230,50054,50052,50052,50052,50052,47937,47105,46262,45411,44551,43682,42802,41920,44506,46535,43253,44588,46780,49030,41219,27646,37829,37286,42339,29155,,,,,44506,46535,43253,44588,46780,49030,41219,27646,37829,37286,42339,29155,,,,
Denmark,Operator Holding Account,FFV VARME A/S,Korsvangen 6,Ringe,36916,27687,27686,22598,22596,22596,22596,22596,9479,8483,7515,6578,5670,4791,3942,3122,20155,18079,10594,12487,10649,14063,12194,12210,10893,9320,10613,10494,,,,,20155,18079,10594,12487,10649,14063,12194,12210,10893,9320,10613,10494,,,,
Denmark,Operator Holding Account,FJERNVARME FYN AFFALDSENERGI A/S,Havnegade 120,Odense C,,,,,,,,,99790,89302,79113,69244,59687,50440,41490,32863,,,,,,,,,127247,126848,119927,136610,,,,,,,,,,,,,127247,126848,119927,136610,,,,
Denmark,Operator Holding Account,FJERNVARME FYN DISTRIBUTION A/S,Billedskærervej 7,Odense M,930,697,697,689,686,686,686,686,303,543,120,211,181,153,126,100,149,67,386,501,173,1689,480,322,497,121,212,306,,,,,149,67,386,501,173,1689,480,322,497,121,212,306,,,,
Denmark,Operator Holding Account,FJERNVARME FYN DISTRIBUTION A/S,Billedskærervej 7,Odense M,1066,799,799,718,714,714,714,714,202,181,0,0,61,51,42,33,351,25,323,728,136,460,246,510,239,16,13,113,,,,,351,25,323,728,136,460,246,510,239,16,13,113,,,,
Denmark,Operator Holding Account,FJERNVARME FYN DISTRIBUTION A/S,Billedskærervej 7,Odense M,4536,3402,3401,2216,2215,2215,2215,2215,1837,822,364,637,549,464,381,302,41,215,2043,2721,982,3585,1773,1870,1280,590,749,1102,,,,,41,215,2043,2721,982,3585,1773,1870,1280,590,749,1102,,,,
Denmark,Operator Holding Account,FJERNVARME FYN DISTRIBUTION A/S,Billedskærervej 7,Odense M,2130,1597,1597,1324,1321,1321,1321,1321,756,338,0,0,226,191,157,124,718,128,1535,1491,408,1256,3049,1282,601,30,48,391,,,,,718,128,1535,1491,408,1256,3049,1282,601,30,48,391,,,,
Denmark,Operator Holding Account,FJERNVARME FYN DISTRIBUTION A/S,Billedskærervej 7,Odense M,2968,2226,2225,2004,2004,2004,2004,2004,2615,1171,1037,1814,1563,1319,1084,857,424,214,3388,3652,910,5809,4629,1625,1546,840,5354,5983,,,,,424,214,3388,3652,910,5809,4629,1625,1546,840,5354,5983,,,,
Denmark,Operator Holding Account,FJERNVARME FYN DISTRIBUTION A/S,Billedskærervej 7,Odense M,459,344,345,365,365,365,365,365,444,397,176,77,66,56,46,37,70,182,208,654,216,1009,730,653,466,236,123,94,,,,,70,182,208,654,216,1009,730,653,466,236,123,94,,,,
Denmark,Operator Holding Account,FJERNVARME FYN DISTRIBUTION A/S,Billedskærervej 7,Odense M,1590,1192,1192,991,991,991,991,991,253,0,0,0,0,0,0,0,316,234,741,1464,491,1114,109,388,37,146,36,33,,,,,316,234,741,1464,491,1114,109,388,37,146,36,33,,,,
Denmark,Operator Holding Account,FJERNVARME FYN DISTRIBUTION A/S,Billedskærervej 7,Odense M,1464,1098,1097,833,833,833,833,833,244,109,194,0,0,0,0,0,0,89,0,1424,253,668,1335,312,102,256,18,187,,,,,,89,,1424,253,668,1335,312,102,256,18,187,,,,
Denmark,Operator Holding Account,FJERNVARME FYN DISTRIBUTION A/S,Billedskærervej 7,Odense M,1869,1402,1401,1185,1182,1182,1182,1182,803,719,0,0,0,0,0,0,245,132,823,1223,504,2268,1943,704,766,79,19,194,,,,,245,132,823,1223,504,2268,1943,704,766,79,19,194,,,,
Denmark,Operator Holding Account,FJERNVARME FYN DISTRIBUTION A/S,Billedskærervej 7,Odense M,1271,953,953,827,825,825,825,825,124,0,0,0,0,0,0,0,0,9,105,766,21,745,614,195,41,11,7,10,,,,,,9,105,766,21,745,614,195,41,11,7,10,,,,
Denmark,Operator Holding Account,FJERNVARME FYN DISTRIBUTION A/S,Billedskærervej 7,Odense M,1233,925,925,844,842,842,842,842,545,244,108,95,163,138,113,90,422,0,613,1799,442,1460,1576,680,360,155,194,262,,,,,422,,613,1799,442,1460,1576,680,360,155,194,262,,,,
Denmark,Operator Holding Account,FJERNVARME FYN DISTRIBUTION A/S,Billedskærervej 7,Odense M,1752,1314,1314,1062,1061,1061,1061,1061,1129,1011,448,783,675,570,468,370,617,50,2074,2059,310,3171,3700,1340,785,444,1708,2510,,,,,617,50,2074,2059,310,3171,3700,1340,785,444,1708,2510,,,,
Denmark,Operator Holding Account,FJERNVARME FYN DISTRIBUTION A/S,Billedskærervej 7,Odense M,8388,6291,6291,6063,6063,6063,6063,6063,0,0,0,0,302,255,209,166,6825,3363,64,118,111,160,87,16,12,246,320,399,,,,,6825,3363,64,118,111,160,87,16,12,246,320,399,,,,
Denmark,Operator Holding Account,FJERNVARME FYN DISTRIBUTION A/S,Billedskærervej 7,Odense M,432,324,324,275,273,273,273,273,402,359,0,0,240,203,167,132,87,27,176,578,103,967,518,423,281,40,109,289,,,,,87,27,176,578,103,967,518,423,281,40,109,289,,,,
Denmark,Operator Holding Account,Fjernvarme Fyn Fynsværket A/S,Billedskærervej 7,Odense M,2055991,1541993,1541994,1331051,1331048,1331048,1331048,1331048,488806,411007,340776,295608,255324,216345,178621,142249,1771954,2118231,1802814,1964639,1956875,1996064,1329553,1636993,1659785,1254385,901683,1155662,,,,,3574768,2118231,,1964639,1956875,1996064,1329553,1636993,1659785,1254385,901683,1155662,,,,
Denmark,Operator Holding Account,FJERNVARME HORSENS A.M.B.A,Endelavevej 7,Horsens,225,169,168,144,143,143,143,143,266,237,210,184,159,134,110,87,258,885,272,97,570,446,1187,797,194,2145,2229,1782,,,,,258,885,272,1284,570,446,,797,194,2145,2229,1782,,,,
Denmark,Operator Holding Account,FJERNVARME HORSENS A.M.B.A,Endelavevej 7,Horsens,3075,2306,2307,2587,2583,2583,2583,2583,4377,1959,1735,759,654,552,454,359,3736,4038,1443,1622,2563,8044,5896,5965,1421,4232,854,547,,,,,3737,4038,1443,10081,,8044,,5965,1421,4232,854,547,,,,
Denmark,Operator Holding Account,FJERNVARME HORSENS A.M.B.A,Endelavevej 7,Horsens,638,479,479,339,336,336,336,336,33,30,26,23,20,16,13,11,750,0,0,1,10,76,10,44,1830,5459,4314,5878,,,,,750,,,11,10,76,,44,1830,5459,4314,5878,,,,
Denmark,Operator Holding Account,FJERNVARME HORSENS A/S,Endelavevej 7,Horsens,73994,55496,55496,44477,44475,44475,44475,44475,47814,42788,37906,33179,28599,24168,19880,15746,46979,47643,36801,46147,45443,54841,41543,32429,82157,39709,45403,71707,,,,,46979,47643,36801,46147,45443,54841,41543,32429,82157,39709,45403,71707,,,,
Denmark,Operator Holding Account,FJERNVARMECENTRALEN AVEDOERE HOLME,Nordholmen 1,Hvidovre,3787,2840,2841,3322,3321,3321,3321,3321,914,409,1449,1268,1093,923,758,599,5131,3031,3632,2711,3134,3522,2659,1801,854,4144,4902,8549,,,,,5131,3031,3632,9367,,,2659,1801,854,4144,4902,8549,,,,
Denmark,Operator Holding Account,"FJERNVARMEFORSYNINGEN I OE TOREBY, TOREBY, SUNDBY OG NAGELSTI AMBA",Agrovej 3,Nykøbing F,0,0,0,0,0,0,600,800,,,,,,,,,,,31,0,12,40,64,13,,,,,,,,,,,,,,83,33,44,,,,,,,,
Denmark,Operator Holding Account,FLEXENERGI A/S,Pårup Møllevej 222,Nørreballe,,,,0,0,0,0,0,,,,,,,,,0,0,171,522,49,114,43,31,6,2,0,2,,,,,,,171,522,49,114,72,31,6,2,,2,,,,
Denmark,Operator Holding Account,"FORS VARME HOLBAEK, JYDERUP A/S",Tåstrup Møllevej 5,Holbæk,19863,14897,14897,13320,13318,13318,13318,13318,5822,5211,4616,4040,3482,2943,2421,1917,11917,10808,8583,10548,10344,13196,10748,9384,9835,7022,7084,8594,,,,,11917,10808,8583,10548,10344,13196,10748,9384,9835,7022,7084,8594,,,,
Denmark,Operator Holding Account,FORS VARME ROSKILDE A/S,Betonvej 12,Roskilde,3386,2540,2539,2277,2276,2276,2276,2276,4395,3933,871,762,657,554,456,360,1041,1526,584,528,3461,9421,1584,3387,5714,1045,970,1015,,,,,1041,1526,584,528,3461,9421,1584,3387,5714,1045,970,1015,,,,
Denmark,Operator Holding Account,FORS VARME ROSKILDE A/S,Betonvej 12,Roskilde,765,574,573,1365,1361,1361,1361,1361,823,1472,0,0,0,0,0,0,0,815,0,241,1362,4141,630,1042,2400,183,240,252,,,,,,815,1,241,1362,4141,630,1042,2400,183,240,252,,,,
Denmark,Operator Holding Account,FORSYNING HELSINGOER VARME A/S,Haderslevvej 25,Helsingør,854,640,641,593,589,589,1293,1239,7480,6694,5928,5187,4468,3773,3100,2453,892,34,170,721,1742,1681,6200,7032,10587,20675,26542,21234,,,,,892,34,170,8663,,1681,,7032,10587,20675,26542,21234,,,,
Denmark,Operator Holding Account,FORSYNING HELSINGOER VARME A/S,Haderslevvej 25,Helsingør,3218,2413,2413,1818,1814,1814,2518,2464,3799,1700,3011,2634,2270,1917,1575,1246,943,478,1335,1277,4580,3695,5117,2826,1802,7169,4664,4313,,,,,943,478,1335,6448,,3104,5117,2826,1802,7169,4664,4313,,,,
Denmark,Operator Holding Account,FREDERICIA FJERNVARME AMBA,Dalegade 38,Fredericia,218,164,163,207,206,206,206,206,531,475,105,0,0,0,0,0,58,389,190,956,1252,592,68,594,1048,153,43,218,,,,,58,389,190,2208,,592,68,594,1048,153,43,218,,,,
Denmark,Operator Holding Account,FREDERICIA FJERNVARME AMBA,Dalegade 38,Fredericia,33,25,25,115,112,112,112,112,769,344,0,0,460,388,319,252,16,1,14,746,1910,726,548,660,590,7,63,1123,,,,,16,1,14,746,1910,727,547,660,590,7,63,1123,,,,
Denmark,Operator Holding Account,FREDERIKSHAVN VARME A/S,Knivholtvej 15,Frederikshavn,68476,51357,51356,42889,42889,42889,42889,42889,0,0,0,0,0,0,0,0,47074,43956,34825,34184,16376,28793,20746,3450,1728,973,394,1231,,,,,47074,43956,34825,34184,16376,28793,20746,3450,1728,973,394,1231,,,,
Denmark,Operator Holding Account,FREDERIKSHAVN VARME A/S,Knivholtvej 15,Frederikshavn,6457,4843,4843,2691,2687,2687,2687,2687,10829,9691,8584,7510,6470,5463,4489,3551,1259,2912,6474,6316,14648,13005,12421,21939,24340,22032,24063,24322,,,,,1259,2912,6474,6316,14648,13005,12421,21939,24340,22032,24063,24322,,,,
Denmark,Operator Holding Account,FREDERIKSHAVN VARME A/S,Knivholtvej 15,Frederikshavn,3458,2594,2594,2442,2441,2441,2441,2441,5986,5357,2373,2076,1788,1510,1241,982,1588,2823,3208,3208,6496,8660,5013,8567,4342,3136,2341,3550,,,,,1588,2823,3208,3208,6496,8660,5013,8567,4342,3136,2341,3550,,,,
Denmark,Operator Holding Account,GARTNERIET KRONBORG APS,Bladstrupvej 300,Otterup,15479,11609,11609,10714,10712,10712,10712,10712,1628,1457,1291,1130,974,823,677,536,12435,8085,7756,3914,3234,3439,2097,1204,1353,1235,1599,1308,,,,,,20520,7756,3914,3234,3439,2097,1204,1359,1229,1599,1308,,,,
Denmark,Operator Holding Account,GARTNERIET MASNEDOE A/S,Tuborgvej 48,Fårevejle,39577,29683,29683,27389,27389,27389,27389,27389,7982,7143,6328,5539,4774,4035,3318,2628,25316,14723,10393,8734,7250,7549,8039,6906,8063,7237,5910,5445,,,,,25316,14723,10393,8734,7250,7549,8039,6906,8063,7237,5910,5445,,,,
Denmark,Operator Holding Account,GEV VARME A/S,Tårnvej 24,Grindsted,31650,23738,23738,18960,18957,18957,18957,18957,7654,3425,6068,1328,2289,1935,1592,1260,11169,12078,9496,11801,11217,13299,8723,5307,4873,5609,2134,3637,,,,,11169,12078,9496,11801,11217,13299,8723,5307,4873,5609,2134,3637,,,,
Denmark,Operator Holding Account,GEV VARME A/S,Tårnvej 24,Grindsted,58042,43531,43531,34344,34344,34344,34344,34344,11885,10636,9422,4124,3554,3004,2471,1957,29888,25570,18849,22822,20178,17132,17641,13086,11051,8717,6636,5309,,,,,29888,25570,18849,22822,20178,17132,17641,13086,11051,8717,6636,5309,,,,
Denmark,Operator Holding Account,GILLELEJE FJERNVARME A M B A,Fiskerengen 2,Gilleleje,,,,0,0,0,750,1000,,,,,,,,,,,,,,,0,0,,,,,,,,,,,,,,,,,,,,,,,,
Denmark,Operator Holding Account,GLOSTRUP VARME A/S,Ørnebjergvej 7,Glostrup,171,128,128,107,103,103,0,0,,,,,,,,,19,10,14,65,138,0,,,,,,,,,,,19,10,14,65,138,,,,,,,,,,,
Denmark,Operator Holding Account,Græsted Fjernvarme A.m.b.a.,Mesterbuen 8-10,Græsted,,,,0,0,0,1417,1000,,,,,,,,,,,,,,2,1,4,,,,,,,,,,,,,,2,1,4,,,,,,,,
Denmark,Operator Holding Account,Gram Fjernvarme,Sønderbyvej 24,Gram,19440,14580,14579,12337,12333,12333,12333,12333,5075,4542,4024,3522,3036,2566,2110,1671,10278,8875,6900,8955,8666,9691,7578,6071,5776,4285,3955,2773,,,,,10278,8875,6900,8955,8666,9691,7578,6071,5776,4285,3955,2773,,,,
Denmark,Operator Holding Account,GRAASTEN VARME A/S,Sønderborg Landevej 3,Gråsten,21080,15810,15810,13289,13288,13288,13288,13288,6182,2766,0,0,0,0,0,0,11394,9383,7115,10323,8516,10943,9705,6509,3135,93,82,69,,,,,11394,9383,7115,10323,8516,10943,9705,6509,3135,93,82,69,,,,
Denmark,Operator Holding Account,GRENAA VARMEVAERK A.M.B.A.,Energivej 6,Grenaa,653,490,490,358,356,356,356,356,150,134,119,26,89,76,62,49,60,120,202,229,343,186,730,198,188,317,40,190,,,,,60,120,202,406,166,186,730,198,188,317,40,190,,,,
Denmark,Operator Holding Account,GRENAA VARMEVAERK A.M.B.A.,Energivej 6,Grenaa,340,255,254,206,206,206,206,206,220,196,174,76,131,111,91,72,163,154,437,177,202,574,1682,320,265,460,102,312,,,,,600,154,,177,202,574,1682,320,265,460,102,312,,,,
Denmark,Operator Holding Account,GRENAA EFFEKTRESERVE AS,Estrupvej 28,Esbjerg,,,,,,,,,,,,,,,,,,,,553,88,42,11,10,0,0,0,0,,,,,,,,595,88,,11,10,,,,,,,,
Denmark,Operator Holding Account,GREVE FJERNVARME A.M.B.A.,Over Bølgen 4,Greve,591,443,444,421,420,420,420,420,280,250,111,97,42,35,29,23,36,22,126,102,302,722,110,505,417,170,186,95,,,,,36,22,126,102,302,722,110,505,417,170,186,95,,,,
Denmark,Operator Holding Account,GRUNDEJERFORENINGEN SMOERMOSEN,Smørmosevej 25 / Novo Allé 1,Bagsværd,32181,24136,24136,24109,24105,24105,24105,24105,13838,13597,13356,13116,12875,12634,12393,12153,28281,24890,22835,21239,21675,21412,18030,16924,14284,12581,12160,5923,,,,,28281,24890,22835,21239,43350,21412,,13279,14284,12581,12160,5923,,,,
Denmark,Aircraft Operator Account,"GTCPA, LLC","20875 Crossroads Circle, #100",Waukesha,,,,,,,,,,,,,,,,,,,,,,0,0,17,Excluded,Excluded,Excluded,Excluded,,,,,,,,,,,,17,,,,,,,,
Denmark,Operator Holding Account,GULDBORGSUND VARME A/S,Gaabensevej 116,Nykøbing F,2362,1771,1771,1331,1331,1331,1331,1331,375,335,149,65,224,189,156,123,0,84,0,132,33,0,0,70,4,1,0,0,,,,,,84,,132,33,,,70,4,1,,,,,,
Denmark,Operator Holding Account,GULDBORGSUND VARME A/S,Gaabensevej 116,Nykøbing F,8668,6501,6500,5083,5083,5083,5083,5083,2199,984,436,381,329,277,228,180,258,73,0,0,6,0,0,0,4,2,0,0,,,,,258,73,,,6,,,,4,2,,,,,,
Denmark,Operator Holding Account,HADERSLEV FJERNVARME,Fjordagervej 15,Haderslev,4791,3593,3593,4212,4212,4212,4212,4212,4968,4446,3938,0,0,0,0,0,3295,3555,4548,4863,4096,7681,4239,4472,8402,8769,360,462,,,,,7843,3555,,8956,4096,7827,,4472,8402,8769,360,462,,,,
Denmark,Operator Holding Account,HADERSLEV FJERNVARME,Fjordagervej 15,Haderslev,21930,16447,16447,13448,13446,13446,13446,13446,4952,4432,3925,859,741,626,515,408,10378,9758,6457,7810,7585,10176,8152,5905,7237,3665,707,885,,,,,16835,9758,,15962,7585,10373,,5708,7237,3665,707,885,,,,
Denmark,Operator Holding Account,HADERSLEV KRAFTVARMEVAERK A/S,Kraftværksvej 53,Fredericia,,,,,,,,,17254,0,0,0,0,0,0,0,,,,,,,,,11980,,,,,,,,,,,,,,,,11980,,,,,,,
Denmark,Operator Holding Account,HADSTEN VARMEVAERK A M B A,Toftegårdsvej 30 A,Hadsten,330,248,248,239,238,238,238,238,,,,,,,,,30,63,7,15,29,95,32,113,,,,,,,,,30,63,7,15,29,95,32,113,,,,,,,,
Denmark,Operator Holding Account,HALDOR TOPSOEE A/S,Haldor Topsøes Allé 1,Kgs. Lyngby,37166,27875,27875,23791,23787,23787,23787,23787,28126,27637,27143,26644,26139,25629,25113,24595,27759,29537,29356,33007,28908,31581,29966,35994,38038,41878,41182,39954,,,,,27759,29537,29356,64588,28908,,29966,35994,38038,41878,41182,39954,,,,
Denmark,Operator Holding Account,Halsnæs Kommunale Varmeforsyning,Undalsvej 3,Frederiksværk,3968,2976,2975,2357,2357,2357,2357,2357,,,,,,,,,0,0,0,0,0,0,0,0,,,,,,,,,,,,,,,,,,,,,,,,
Denmark,Operator Holding Account,HAMMEL FJERNVARME A.M.B.A.,Irlandsvej 6,Hammel,,,,,,,,,13379,11973,10605,9279,7994,6749,5546,4387,,,,,,,,,12391,10329,12002,11726,,,,,,,,,,,,,12391,10329,12002,11726,,,,
Denmark,Operator Holding Account,HARBOES BRYGGERI A/S,Spegerborgvej 34,Skælskør,8044,6033,6032,6902,6901,6901,6901,6901,4255,3808,3373,2952,2543,2147,1764,1396,7029,6271,6486,7360,6727,7951,8060,6246,5719,6275,6719,6979,,,,,7029,6271,6486,7360,6727,7951,8060,6246,5719,6275,6719,6979,,,,
Denmark,Operator Holding Account,Haslev Fjernvarme Amba,Nygade 68,Haslev,0,0,0,0,0,0,0,0,,,,,,,,,0,0,0,0,0,0,0,0,,,,,,,,,,,,,,,,,,,,,,,,
Denmark,Operator Holding Account,HEDENSTED FJERNVARME,Løsningvej 26,Hedensted,49788,0,0,9852,9852,9852,9852,9852,7849,7024,6223,5446,4695,3967,3264,2585,13039,3194,200,56,3007,10165,9137,9748,9430,7550,7815,7759,,,,,13239,3194,,56,3007,10165,9137,9748,9430,7550,7815,7759,,,,
Denmark,Operator Holding Account,HELLIGSOE TEGLVAERK A/S,Helligsøvej 15,Hurup Thy,8096,6072,6072,5712,5710,5710,5710,5710,5240,5149,5057,4964,4869,4775,4678,4582,6852,6713,6411,4635,2434,4453,5696,5294,3755,4641,4544,6167,,,,,6852,6713,6413,7069,,4453,5696,5294,3755,4641,4544,6167,,,,
Denmark,Operator Holding Account,HELSINGE FJERNVARME,Skovgårdsvej 4a,Helsinge,28824,21618,21618,26194,26194,26194,26194,26194,8591,7688,6811,5962,5139,4342,3572,2830,16310,14205,13250,14003,14142,20387,12618,9213,10215,8350,7634,8109,,,,,16310,14205,13250,26621,14142,20387,,9213,10215,8350,7634,8109,,,,
Denmark,Operator Holding Account,HELSINGOER KRAFTVARMEVAERK A/S,Haderslevvej 25,Helsingør,206480,154860,154859,115228,115225,115225,115225,115225,34062,30482,13502,11818,10187,8608,7081,5609,95858,90804,77356,81469,66701,107579,70510,87511,72781,34077,24538,43096,,,,,173214,90804,,151979,66701,107579,,87511,72781,34077,24538,43096,,,,
Denmark,Operator Holding Account,HESS DENMARK APS,Østergade 26B,København K,286587,214940,214940,208086,208084,208084,208084,208084,36203,35575,34938,34295,33646,32990,32325,31659,255983,214510,209570,181559,188849,184435,184206,197852,180858,174527,195546,189643,,,,,465553,214510,,181559,188849,184435,184206,197852,180858,174527,195546,189643,,,,
Denmark,Operator Holding Account,HILLEROED KRAFTVARME APS,Ægirsvej 4,Hillerød,333631,250223,250223,201864,201862,201862,201862,201862,60042,53732,11900,10416,8978,7587,6241,4944,139551,163566,163188,117248,137638,160739,136639,85695,74835,14984,17028,35626,,,,,302739,163566,,117248,137638,160739,136639,85695,74835,14984,17028,35626,,,,
Denmark,Operator Holding Account,HILLEROED VARME A/S,Ægirsvej 4,Hillerød,588,441,440,480,476,476,476,476,1580,1414,1253,1096,944,797,655,519,2369,1156,490,2823,2371,1686,1489,4139,4808,8587,7288,4677,,,,,2369,1156,490,5194,,1686,1489,4139,4808,8587,7288,4677,,,,
Denmark,Operator Holding Account,HILLEROED VARME A/S,Ægirsvej 4,Hillerød,688,516,516,528,524,524,524,524,3536,3164,2803,2452,2113,1784,1465,1160,2905,1383,604,3448,3997,5085,3011,7541,4419,5344,5773,5132,,,,,2905,1383,604,3448,3997,5085,3011,7541,4419,5344,5773,5132,,,,
Denmark,Operator Holding Account,HILLEROED VARME A/S,Ægirsvej 4,Hillerød,697,523,522,650,649,649,649,649,1548,1385,1226,1073,924,781,641,508,3194,514,319,1347,1161,2814,1300,1859,2012,4632,9534,4388,,,,,3194,514,319,1347,1161,2814,1300,1859,2012,4632,9534,4388,,,,
Denmark,Operator Holding Account,HILLEROED VARME A/S,Ægirsvej 4,Hillerød,2169,1627,1627,2020,2019,2019,2019,2019,5285,4730,4190,3666,3158,2666,2191,1733,6094,4378,2535,4115,4952,8625,5343,9733,9081,13762,8837,10152,,,,,6094,4378,2535,9067,,8625,5343,9733,9081,13762,8837,10152,,,,
Denmark,Operator Holding Account,Hinnerup Fjernvarme amba,Fanøvej 15,Hinnerup,928,696,697,636,633,633,633,633,,,,,,,,,836,916,487,364,469,1043,492,573,,,,,,,,,836,916,487,833,,1043,492,573,,,,,,,,
Denmark,Operator Holding Account,HINNERUP FJERNVARME,Søndergade 12,Hirtshals,33396,25047,25047,20213,20209,20209,20209,20209,2142,0,0,0,0,0,0,0,15459,15063,12775,13310,9879,9731,1740,2988,1048,624,512,798,,,,,15459,15063,12775,23041,9879,,1740,2988,1048,624,512,798,,,,
Denmark,Operator Holding Account,HJALLERUP FJERNVARMEVAERK,Gravensgade 18,Hjallerup,23318,17489,17489,14752,14751,14751,14751,14751,6945,6215,5506,4819,4154,3510,2887,2287,13645,13900,12685,10686,9232,15156,13419,11142,12198,8666,7979,8534,,,,,13645,13900,12685,35074,,,13419,11142,12198,8666,7979,8534,,,,
Denmark,Operator Holding Account,HJOERRING VARMEFORSYNING,Buen 7,Hjørring,434,325,325,467,467,467,467,0,,,,,,,,,185,209,354,30,179,674,366,,,,,,,,,,539,209,,30,179,674,366,,,,,,,,,
Denmark,Operator Holding Account,HJOERRING VARMEFORSYNING,Buen 7,Hjørring,1056,792,791,1053,1050,1050,1050,1050,5378,4813,4263,1865,3213,2713,2229,1763,3622,2320,3940,3198,3871,8883,5000,9366,7352,3768,2746,4285,,,,,7562,2320,,3198,3871,8883,5000,9366,7352,3768,2746,4285,,,,
Denmark,Operator Holding Account,HJOERRING VARMEFORSYNING,Buen 7,Hjørring,147923,110942,110943,88079,88079,88079,88079,88079,21829,19535,17306,15147,13056,11034,9076,7189,24040,18443,8750,713,2720,6735,9371,1382,0,790,321,233,,,,,32790,18443,,713,2720,6735,9371,1382,,790,321,233,,,,
Denmark,Operator Holding Account,HJORTEBJERG A/S,Hjortebjergvej 26,Søndersø,,,,5138,5134,5134,5134,5134,2173,1945,862,754,1300,1098,904,716,0,2520,3290,2937,2352,4262,2680,2383,1600,948,1279,1569,,,,,,2520,3300,5289,,4262,2680,2383,1600,948,1279,1569,,,,
Denmark,Operator Holding Account,HOBRO VARMEVAERK A M B A,Lupinvej 21,Hobro,2098,1574,1573,1213,1213,1213,1213,0,,,,,,,,,715,1164,549,865,883,1225,451,,,,,,,,,,715,1164,549,865,883,1225,451,,,,,,,,,
Denmark,Operator Holding Account,HOFOR ENERGIPRODUKTION A/S,c/o HOFOR,København S,2095018,1571264,1571264,1250995,1250992,1250992,1250992,1250992,399799,332123,271497,217737,170536,133551,109857,87014,1242910,1494879,1335663,1089604,1684995,1397806,1254754,994804,1232563,1262754,862186,1109048,,,,,2578573,1494879,,1106347,1684995,1397806,1238011,994804,1232563,1262754,862186,1109048,,,,
Denmark,Operator Holding Account,HOFOR FJERNVARME P/S,c/o HOFOR,København S,672,504,504,502,499,499,499,499,2773,621,0,0,0,0,0,0,140,798,5523,1091,1655,9571,1870,3872,635,629,1289,578,,,,,140,798,5523,2961,1655,9571,,3872,635,629,1289,578,,,,
Denmark,Operator Holding Account,HOFOR FJERNVARME P/S,c/o HOFOR,København S,814,610,610,929,925,925,925,925,2366,1059,469,821,354,299,245,194,193,1634,356,465,1823,6392,2543,3924,1355,589,1734,777,,,,,193,1634,356,3008,1823,6392,,3924,1355,589,1734,777,,,,
Denmark,Operator Holding Account,HOFOR FJERNVARME P/S,c/o HOFOR,København S,5923,4442,4443,4862,4860,4860,4860,4860,2736,1224,2169,1898,1635,1380,1134,897,866,975,740,870,2266,7037,2939,5408,1933,2634,3232,2188,,,,,866,975,740,3809,2266,7037,,5408,1933,2634,3232,2188,,,,
Denmark,Operator Holding Account,HOEJE TAASTRUP FJERNVARME A.M.B.A.,Malervej 7a,Taastrup,200,150,149,109,108,108,108,108,32,57,0,0,0,0,0,0,10,7,40,24,8,385,0,89,153,0,,,,,,,10,7,40,24,8,385,,89,153,,,,,,,
Denmark,Operator Holding Account,HOEJE TAASTRUP FJERNVARME A.M.B.A.,Malervej 7a,Taastrup,,,,,,,,,,,,,,,,,,,,,,,,,156,434,351,562,,,,,,,,,,,,,156,434,351,562,,,,
Denmark,Operator Holding Account,HOEJSLEV TEGLVAERK A/S,Mineralvej 2-4,Aalborg,7385,5539,5538,6232,6232,6232,6232,6232,4007,3938,3868,3797,3725,3652,3578,3504,4987,5135,4920,5357,4464,4199,4017,4055,3896,3969,4216,4427,,,,,4987,5135,4920,5357,4464,4199,4017,4055,3896,3969,4216,4427,,,,
Denmark,Operator Holding Account,HOLME-LUNDSHOEJ FJERNVARMEV A M B A,Holme Byvej 14,Højbjerg,15,11,12,13,9,9,9,9,0,0,25,43,37,31,25,21,8,13,3,2,5,211,318,1,1,51,97,159,,,,,11,13,,218,,,318,1,1,51,97,159,,,,
Denmark,Operator Holding Account,HOENG VARMEVAERK,Banemarken 8,Høng,876,657,656,607,607,607,607,607,,,,,,,,,61,61,169,27,34,129,2,2,,,,,,,,,61,61,169,29,34,129,,2,,,,,,,,
Denmark,Operator Holding Account,HURUP FJERNVARME A M B A,Nygade 22,Hurup Thy,,,,0,0,0,16,39,,,,,,,,,,,,,,,2,0,,,,,,,,,,,,3,,,2,,,,,,,,,
Denmark,Operator Holding Account,HVIDE SANDE FJERNVARME A.M.B.A.,Numitvej 25,Hvide Sande,30019,22514,22514,18134,18130,18130,18130,18130,8273,7403,6559,5741,4948,4182,3440,2724,14919,15176,11759,14592,14461,16015,12066,8939,8774,8092,6482,8334,,,,,14919,15176,11759,14592,14461,16015,12066,8939,8774,8092,6482,8334,,,,
Denmark,Operator Holding Account,I/S AFFALDPLUS,Ved Fjorden 20,Næstved,37079,27809,27809,24418,24414,24414,24414,24414,40108,35892,31798,27831,23989,20273,16676,13209,13278,7852,4875,5995,9729,13850,8751,8152,9617,2037,2,0,,,,,13278,,12727,5995,9729,13850,8751,8152,9617,2037,2,,,,,
Denmark,Operator Holding Account,I/S AFFALDPLUS,Ved Fjorden 20,Næstved,,,,,,,,,14953,13383,11854,0,0,0,0,0,,,,,,,,,22138,18701,17872,,,,,,,,,,,,,,22138,18701,17872,,,,,
Denmark,Operator Holding Account,I/S AFFALDPLUS,Ved Fjorden 20,Næstved,,,,,,,,,,,,,,,,,,,,,,,,,43181,41073,42682,45819,,,,,,,,,,,,,43181,41073,42682,45819,,,,
Denmark,Operator Holding Account,I/S AMAGER RESSOURCECENTER,Vindmøllevej 6,København S,,,,,,,,,151298,135396,119947,104987,90495,76475,62907,49826,,,,,,,,,127588,119033,120732,119901,,,,,,,,,,,,,127588,119033,120732,119901,,,,
Denmark,Operator Holding Account,I/S NORFORS,Savsvinget 2,Hørsholm,,,,,,,,,44953,40229,35638,31193,26888,22722,18690,14804,,,,,,,,,45869,41352,43175,40972,,,,,,,,,,,,,45869,41352,43175,40972,,,,
Denmark,Operator Holding Account,I/S REFA,Energivej 4,Nykøbing F,,,,,,,,,33542,30017,26592,23275,20063,16954,13946,11046,,,,,,,,,44698,39652,42738,42568,,,,,,,,,,,,,44698,39652,42738,42568,,,,
Denmark,Operator Holding Account,I/S RENO-NORD,Troensevej 2,Aalborg Øst,,,,,,,,,68774,61546,54524,47723,41136,34762,28596,22649,,,,,,,,,67182,85669,96746,98147,,,,,,,,,,,,,67182,85669,96746,98147,,,,
Denmark,Operator Holding Account,I/S VESTFORBRAENDING,Ejby Mosevej 219,Glostrup,1049,787,786,913,909,909,909,909,203756,182342,161536,141388,121873,102990,84718,67102,1094,860,910,63,834,1219,930,1063,210914,188582,195595,197759,,,,,1094,860,910,897,,1219,930,1063,210914,188582,195595,197759,,,,
Denmark,Operator Holding Account,I/S VESTFORBRAENDING,Ejby Mosevej 219,Glostrup,108,81,81,137,133,133,133,133,535,479,424,371,320,270,221,176,163,326,276,28,74,1506,734,1848,1508,1550,2040,4880,,,,,163,326,276,102,,1506,734,1848,1508,1550,2040,4880,,,,
Denmark,Operator Holding Account,I/S VESTFORBRAENDING,Ejby Mosevej 219,Glostrup,,,,,,,,,,,,,,,,,,,,,,,,,,,,1016,,,,,,,,,,,,,,,,1016,,,,
Denmark,Operator Holding Account,IMERYS INDUSTRIAL MINERALS DENMARK A/S,Kønsborgvej 9,Fur,13331,9998,9998,9236,9236,9236,9236,9236,5409,5316,5220,5124,5027,4930,4829,4730,7620,7513,8466,7859,7620,7911,8160,9484,9032,9452,9917,7141,,,,,7620,7513,8644,7859,7620,7911,8160,9484,9032,9452,9917,7141,,,,
Denmark,Operator Holding Account,IMERYS INDUSTRIAL MINERALS DENMARK A/S,Kønsborgvej 9,Fur,33487,25115,25116,23690,23686,23686,23686,23686,24401,23976,23548,23115,22677,22234,21787,21337,20066,18167,18732,11650,6873,4612,3606,3997,4097,3821,4228,4859,,,,,20066,18167,18732,11650,6873,4612,3606,3997,4097,3821,4228,4859,,,,
Denmark,Operator Holding Account,INEOS E&P A/S,Nesa Allé 1,Gentofte,124488,93366,93367,226446,226445,226445,226445,226445,80804,6089,5980,5870,40427,39638,38841,38040,128825,99372,106706,104669,79871,241832,105526,89565,64957,73429,100421,123020,,,,,128825,99372,106706,104669,79871,241832,105526,89565,64957,73429,100421,123020,,,,
Denmark,Operator Holding Account,Ingolf  Zeuch,Møllegade 18,Augustenborg,1266,950,949,,,,,,,,,,,,,,971,0,,,,,,,,,,,,,,,971,,,,,,,,,,,,,,,
Denmark,Operator Holding Account,Ishøj Varmeværk,Industrivangen 34,Ishøj,432,324,325,229,228,228,228,228,,,,,,,,,0,0,1834,3,2,42,8,49,,,,,,,,,,,1834,3,2,42,8,49,,,,,,,,
Denmark,Operator Holding Account,JAEGERSPRIS KRAFTVARME A.M.B.A,Håndværkervej 9,Jægerspris,24244,18183,18182,15427,15427,15427,15427,15427,6793,6079,5385,4713,4063,3434,2825,2237,14343,14431,14130,13204,14324,15183,11771,9646,7596,6134,6481,6805,,,,,14343,14431,14130,13204,14324,15183,11771,9646,7596,6134,6481,6805,,,,
Denmark,Operator Holding Account,Jan  Olsen,Savsvinget 2,Hørsholm,605,454,0,,,,,,,,,,,,,,0,0,,,,,,,,,,,,,,,,,,,,,,,,,,,,,,
Denmark,Aircraft Operator Account,JET TIME A/S,Amager Strandvej 390-392,Kastrup,,,,,,,,81124,37740,37740,37740,37740,37740,37740,37740,37740,,,,,,0,0,132326,75693,79746,73092,72158,,,,,,,,,,,,132326,,155439,73092,72158,,,,
Denmark,Operator Holding Account,JETSMARK ENERGIVAERK A.M.B.A.,Nørregade 81,Pandrup,21173,15880,15880,15672,15668,15668,15668,15668,7382,6606,5852,5122,4415,3731,3069,2431,13881,13484,13777,13804,14407,15420,14684,13571,14064,10838,8673,9719,,,,,27658,,13484,13804,14407,15420,14684,13571,14064,10838,8673,9719,,,,
Denmark,Aircraft Operator Account,JJO INVEST APS,Rørbækvej 1,Give,,,,,,,,,,,,,,,,,,,,,,,,32,,,,,,,,,,,,,,,,,32,,,,,,,
Denmark,Operator Holding Account,Jørgen  Jepsen,Søndergade 35,Egtved,15743,11807,11807,,,,,,,,,,,,,,8602,7744,,,,,,,,,,,,,,,17486,,,,,,,,,,,,,,,
Denmark,Operator Holding Account,Kent  Skovsager,Københavnsvej 104,Køge,6220,4665,4666,,,,,,,,,,,,,,4691,3988,3295,,,,,,,,,,,,,,4691,3988,3295,,,,,,,,,,,,,
Denmark,Operator Holding Account,KERTEMINDE FORSYNING - VARME A/S,Kohaven 12,Kerteminde,370,278,277,260,256,256,256,256,52,92,163,0,0,0,0,0,5,45,220,385,131,591,430,72,111,1114,13,29,,,,,5,45,220,385,131,591,430,72,111,1114,13,29,,,,
Denmark,Operator Holding Account,KERTEMINDE FORSYNING - VARME A/S,Kohaven 12,Kerteminde,960,720,719,542,540,540,540,540,140,126,0,49,84,70,58,46,7,52,326,563,197,294,1013,265,541,19,83,411,,,,,7,52,326,563,197,294,1013,265,541,19,83,411,,,,
Denmark,Operator Holding Account,KERTEMINDE FORSYNING - VARME A/S,Kohaven 12,Kerteminde,,,,,,,,,1331,1191,1055,0,0,0,0,0,,,,,,,,939,109,633,247,446,,,,,,,,,,,,939,109,633,247,446,,,,
Denmark,Operator Holding Account,Kim  Madsen,Øresundsvej 2,Esbjerg N,13786,10340,10339,,,,,,,,,,,,,,12445,11520,,,,,,,,,,,,,,,12445,11520,,,,,,,,,,,,,,
Denmark,Operator Holding Account,KJELLERUP FJERNVARME AMBA,Tværgade 4,Kjellerup,272,204,205,0,0,0,129,172,9051,8100,7175,6277,5407,4566,3752,2968,122,91,16,0,0,129,50,133,132,24,34,84,,,,,122,91,452,50,,129,,133,132,24,34,84,,,,
Denmark,Operator Holding Account,Klaus Winther  Hansen,Overgade 45,Fredericia,14106,10580,10579,0,0,0,0,0,,,,,,,,,10021,1287,0,0,,,,,,,,,,,,,10021,1287,,,,,,,,,,,,,,
Denmark,Operator Holding Account,"KMC, KARTOFFELMELCENTRALEN, AMBA",Herningvej 60,Brande,,,,,,,,,7925,12393,12173,11953,11734,11515,11295,11076,,,,,,,,,6203,12032,11539,12487,,,,,,,,,,,,,6203,12032,11539,12487,,,,
Denmark,Operator Holding Account,KNAUF A/S,Kirkebjerg Parkvej 9 - 11 e.,Brøndby,25363,19022,19023,21037,21036,21036,21036,21036,20029,24602,24162,23718,23268,22815,22355,21894,26718,31791,30210,27381,19664,18643,18245,16836,14838,15793,19262,19017,,,,,26718,31791,30210,64269,19664,,,16836,14838,15793,19262,19017,,,,
Denmark,Operator Holding Account,KRONOSPAN APS,Fabriksvej 2,Ryomgård,20901,15676,15676,17162,17160,17160,17160,17160,36316,35686,23029,20150,17358,14657,12043,9527,18821,12677,9456,9143,7512,17531,9078,7619,7242,6975,4880,6612,,,,,18821,12677,9456,9143,7512,17531,9078,7619,7242,6975,4880,6612,,,,
Denmark,Operator Holding Account,Lars Højgaard Madsen,Kastelsvej 5,Fredericia,73813,55360,55360,,,,,,,,,,,,,,2042,1630,,,,,,,,,,,,,,,2042,1630,,,,,,,,,,,,,,
Denmark,Operator Holding Account,Leif O.  Rasmussen,Engvej 2,Bredsten,10712,8034,8035,,,,,,,,,,,,,,5994,5381,,,,,,,,,,,,,,,5994,5381,,,,,,,,,,,,,,
Denmark,Operator Holding Account,LEM VARMEVAERK,Askevej 5,Lem st,23902,17927,17927,14107,14106,14106,14106,14106,8156,7299,6466,5659,4878,4122,3391,2686,12627,12748,9247,6746,2395,3179,2347,2369,2236,1825,1726,2157,,,,,21874,12748,,6746,2395,3179,2347,2369,2236,1825,1726,2157,,,,
Denmark,Operator Holding Account,LEMMINKAINEN A/S,Nørreskov Bakke 1,Silkeborg,1319,989,989,884,884,884,884,884,831,743,658,0,0,0,0,0,940,1075,1567,1492,1369,966,1690,1451,1311,1658,1247,,,,,,940,1075,1567,1492,1369,966,1690,1451,1311,1658,1247,,,,,
Denmark,Operator Holding Account,LEMMINKAINEN A/S,Nørreskov Bakke 1,Silkeborg,1195,896,896,1465,1463,1463,1463,1463,,,,,,,,,1409,1362,1038,647,33,0,0,0,,,,,,,,,1409,1362,1038,647,33,,,,,,,,,,,
Denmark,Operator Holding Account,LEMMINKAINEN A/S,Nørreskov Bakke 1,Silkeborg,,,,0,0,0,0,0,1459,1306,1156,1012,872,736,605,479,0,2058,3575,2065,1576,2338,3486,2529,3832,3059,1702,2951,,,,,,2058,3575,2065,1576,2338,3486,2529,3832,3059,1702,2951,,,,
Denmark,Operator Holding Account,LEMVIG VARMEVAERK A M B A,Vestavej 2,Lemvig,11291,1550,1549,1629,1625,1625,1625,1625,15884,14214,12593,11022,9500,8029,6604,5231,1,0,17,0,162,238,0,0,0,0,0,0,,,,,,,18,,162,238,,,,,,,,,,
Denmark,Operator Holding Account,LOEGSTOER FJERNVARMEVAERK AMBA,Blekingevej 8,Løgstør,17671,13253,13254,11059,11055,11055,11055,11055,12526,11210,9930,8691,7492,6331,5208,4125,4835,1164,272,9010,2396,1020,724,546,1346,1840,249,369,,,,,4835,1164,272,12130,,1020,,546,1346,1840,249,369,,,,
Denmark,Operator Holding Account,LUNDGAARD TEGLVAERK A/S,Lundgårdsvej 10,Stoholm Jyll,12316,9237,9237,9741,9740,9740,9740,9740,6772,0,0,0,0,0,0,0,10870,11248,10942,9514,5833,5421,4204,3909,3937,,,,,,,,21812,11248,,14935,5833,,4204,3909,3937,,,,,,,
Denmark,Operator Holding Account,LYSTRUP FJERNVARME A.M.B.A.,Hovmarken 2,Lystrup,86,65,65,57,54,54,54,54,0,91,0,36,60,52,42,34,0,114,31,86,0,356,507,7,112,0,70,282,,,,,31,114,,442,,,507,7,112,,70,282,,,,
Denmark,Operator Holding Account,MAABJERG ENERGY CENTER - BIOHEAT&POWER A/S,c/o Vestforsyning A/S,Holstebro,14620,10965,10965,8028,8027,8027,8027,8027,82738,74042,65594,57412,49488,41821,34401,27248,10203,6768,6079,4567,3685,5971,3787,3147,64119,77977,87253,63163,,,,,10203,6768,6079,4567,3685,5971,3787,3147,64119,77977,87253,63163,,,,
Denmark,Operator Holding Account,MAERSK OLIE OG GAS A/S,Esplanaden 50,København K,156448,117336,117335,92484,92482,92482,92482,276117,102177,100402,98607,96792,94958,93107,91232,89351,135545,131007,126353,105940,98505,94487,156553,190150,191476,195351,184634,176537,,,,,135545,131007,126353,200427,98505,,156553,190150,191476,195351,184634,176537,,,,
Denmark,Operator Holding Account,MAERSK OLIE OG GAS A/S,Esplanaden 50,København K,844514,633385,633385,620823,620821,620821,620821,620821,526593,517446,508192,498842,489391,479848,470186,460490,669076,671360,654216,631201,581868,536528,505727,459264,448095,434534,415552,426097,,,,,669076,671360,654216,1167729,581868,,505727,459264,448095,434534,415552,426097,,,,
Denmark,Operator Holding Account,MAERSK OLIE OG GAS A/S,Esplanaden 50,København K,733619,550214,550214,647752,647750,647750,647750,647750,446919,439156,431302,423367,415345,407246,399046,390817,512824,550749,572247,580951,514839,499539,439676,411536,431919,427446,460212,371013,,,,,512824,550749,572247,1595329,,,439676,411536,431919,427446,460212,371013,,,,
Denmark,Operator Holding Account,MAERSK OLIE OG GAS A/S,Esplanaden 50,København K,636882,477662,477662,446895,446894,446894,446894,446894,322053,316460,310800,305082,299301,293465,287556,281626,484686,454560,448273,400724,333704,303900,299941,298739,303326,282156,282623,278086,,,,,484686,454560,448273,704624,333704,,299941,298739,303326,282156,282623,278086,,,,
Denmark,Operator Holding Account,MAERSK OLIE OG GAS A/S,Esplanaden 50,København K,62802,47102,47102,37979,37977,37977,37977,37977,6188,6081,5972,5862,5751,5639,5525,5411,19484,22917,21661,21751,21254,29422,48420,49350,61543,42206,46694,41211,,,,,19484,22917,21661,51173,21254,,48420,49350,61543,42206,46694,41211,,,,
Denmark,Operator Holding Account,MARIBO VARMEVAERK AMBA,C.E. Christiansens Vej 40,Maribo,0,0,0,0,0,0,0,0,,,,,,,,,0,0,0,0,0,0,0,0,,,,,,,,,,,,,,,,,,,,,,,,
Denmark,Operator Holding Account,MARICOGEN A/S,Hadsundvej 17,Mariager,156537,117403,117403,100716,100716,100716,100716,100716,,,,,,,,,129310,69973,74697,1918,12917,82455,1560,773,1577,5347,2930,3778,,,,,129310,69973,74697,1918,12917,82455,1560,773,1577,5347,2930,3778,,,,
Denmark,Operator Holding Account,MIDDELFART FJERNVARME A.M.B.A.,Hessgade 21 b,Middelfart,14636,10977,10976,8773,8769,8769,8769,8769,3559,3186,1411,0,0,0,0,0,7138,6899,5411,5161,3548,4484,3810,3267,2963,1418,84,49,,,,,7138,6899,5411,8971,3548,4484,,3267,2963,1418,84,49,,,,
Denmark,Operator Holding Account,MIDDELFART FJERNVARME A.M.B.A.,Hessgade 21 b,Middelfart,180,135,57,1244,1242,1242,1242,1242,1193,1068,946,828,713,602,495,392,38,857,493,1793,3176,880,75,1935,2913,1057,1173,6349,,,,,38,857,493,1793,3176,880,75,1935,2913,1057,1173,6349,,,,
Denmark,Operator Holding Account,MONIER A/S,Kong Christians Alle 53,Aalborg,6964,5223,5222,4746,4745,4745,4745,4745,4217,2270,4070,3994,2146,2105,2063,2019,4289,4778,3849,4280,2855,3202,3405,3285,2733,2681,2746,2559,,,,,4289,4778,3849,4280,2855,3202,3405,3285,2733,2681,2746,2559,,,,
Denmark,Operator Holding Account,MPM INVEST APS,Nørregårdsvej 9,Sakskøbing,,,,0,0,0,0,0,,,,,,,,,0,0,249,468,57,117,57,28,8,0,0,3,,,,,,,249,525,57,117,,28,8,,,3,,,,
Denmark,Operator Holding Account,MUNCK ASFALT A/S,Toftegårdsvej 18,Nyborg,3422,2567,2567,2216,2216,2216,2216,2216,1242,1111,984,861,741,626,515,408,2124,3264,2389,1778,1288,898,2375,1666,2248,2024,2531,1418,,,,,2124,3264,2389,2676,1288,,2375,1666,2248,2024,2531,1418,,,,
Denmark,Operator Holding Account,MUNCK ASFALT A/S,Toftegårdsvej 18,Nyborg,3247,2435,2436,2810,2807,2807,2807,2807,1424,1275,1129,988,852,719,591,467,2690,3119,2352,1904,2571,2510,2621,1900,1993,3126,3119,2438,,,,,2690,3119,2352,1904,2571,2510,2621,1900,1993,3126,3119,2438,,,,
Denmark,Operator Holding Account,MUNCK ASFALT A/S,Toftegårdsvej 18,Nyborg,2910,2182,2183,2582,2579,2579,2579,2579,1525,1365,1208,1058,912,770,632,501,1907,2966,3158,2658,1682,1755,2650,2372,2136,2920,3795,3483,,,,,1907,2966,3158,2658,1682,1755,2650,2372,2136,2920,3795,3483,,,,
Denmark,Operator Holding Account,NAESTVED VARMEVAERK A.M.B.A.,Åderupvej 22-24,Næstved,265,199,199,208,205,205,205,205,29,0,0,79,17,15,12,9,291,103,730,7,5,4,24,15,10,8,112,42,,,,,291,103,730,11,5,,24,15,10,8,112,42,,,,
Denmark,Operator Holding Account,NAESTVED VARMEVAERK A.M.B.A.,Åderupvej 22-24,Næstved,741,556,556,1184,1183,1183,1183,1183,474,424,376,329,283,240,197,156,776,707,25,563,758,878,94,1104,364,639,502,803,,,,,776,707,25,1441,758,,94,1104,364,639,502,803,,,,
Denmark,Operator Holding Account,Nakskov Fjernvarme,Nørrevold 2,Nakskov,82,62,62,0,0,0,0,0,,,,,,,,,0,0,0,0,0,0,0,0,,,,,,,,,,,,,,,,,,,,,,,,
Denmark,Operator Holding Account,NCC INDUSTRY A/S,Hørkær 8,Herlev,1215,911,911,4493,4491,4491,4491,4491,1681,1504,1333,1166,1004,848,697,552,1963,2979,2022,1972,1848,2664,1955,1937,2221,2149,2596,2839,,,,,1963,2979,2022,4636,1848,,1955,1937,2221,2149,2596,2839,,,,
Denmark,Operator Holding Account,NCC INDUSTRY A/S,Hørkær 8,Herlev,2869,2152,2152,2659,2655,2655,2655,2655,1878,1680,1488,1302,1123,948,778,616,2190,2531,2615,2620,2367,2200,2445,2718,2962,2659,2899,2454,,,,,4805,2531,,4820,2367,,2445,2718,2962,2659,2899,2454,,,,
Denmark,Operator Holding Account,NCC INDUSTRY A/S,Hørkær 8,Herlev,2977,2233,2232,2601,2601,2601,2601,2601,2273,2034,1802,1576,1358,1147,942,746,3271,3368,2955,2511,2288,2745,3089,2571,2922,2186,2646,2564,,,,,3271,3368,2955,5256,2288,,3089,2571,2922,2186,2646,2564,,,,
Denmark,Operator Holding Account,NCC INDUSTRY A/S,Hørkær 8,Herlev,2822,2117,2117,2190,2187,2187,2187,2187,2083,1863,1651,1444,1244,1050,863,683,2617,3067,3136,2596,2501,2845,3541,2888,3218,2944,2859,3153,,,,,2617,3067,3136,5441,2501,,3542,2887,3218,2944,2859,3153,,,,
Denmark,Operator Holding Account,NIBE VARMEVAERK A M B A,Hobrovej 46,Nibe,,,,10342,10342,10342,10342,10342,,,,,,,,,0,0,11740,12314,11504,14598,14015,13696,,,,,,,,,,,11740,26912,11504,,14015,13696,,,,,,,,
Denmark,Operator Holding Account,Niels Vandall H,Langebrogade 1,København K,26190,19642,19643,13814,0,0,0,0,,,,,,,,,972,897,872,1178,,,,,,,,,,,,,1844,897,,1178,,,,,,,,,,,,
Denmark,Operator Holding Account,Niels Vandall H,Langebrogade 1,København K,85840,64380,64379,58883,0,0,0,0,,,,,,,,,68022,45743,2693,1663,,,,,,,,,,,,,68022,45743,2693,1663,,,,,,,,,,,,
Denmark,Aircraft Operator Account,NILAN A/S,Nilanvej 2,Hedensted,,,,,,,,,,,,,,,,,,,,,,,,142,Excluded,Excluded,Excluded,Excluded,,,,,,,,,,,,,,142,,,,,,
Denmark,Operator Holding Account,Nils-Aage Gregersen,Hjulmagervej 20,Aalborg,779,584,584,,,,,,,,,,,,,,411,0,,,,,,,,,,,,,,,411,,,,,,,,,,,,,,,
Denmark,Operator Holding Account,NLMK DANSTEEL A/S,Havnevej 33,Frederiksværk,108806,81605,81605,66369,66369,66369,66369,66369,70758,69529,68285,67029,65759,64476,63178,61876,67369,74295,80675,77677,39256,69766,75923,54510,69636,70603,76154,79294,,,,,67369,74295,80675,147443,39256,,75923,54510,69636,70603,76154,79294,,,,
Denmark,Aircraft Operator Account,NORDIC AVIATION CAPITAL A/S,Stratusvej 12,Billund,,,,,,,,29,9,9,9,9,9,9,9,9,,,,,,0,0,439,Excluded,Excluded,489,1189,,,,,,,,,,,,439,,,489,1198,,,,
Denmark,Operator Holding Account,NORDIC SUGAR A/S,Langebrogade 1,København K,121886,91415,91415,83926,83925,83925,83925,83925,66754,65595,64422,63236,62039,60829,59604,58375,83885,86692,86803,107330,121655,99514,103420,130130,122319,126374,94211,95988,,,,,83885,86692,86803,134648,121655,99514,76102,130130,122319,126374,94211,95988,,,,
Denmark,Operator Holding Account,NORDIC SUGAR A/S,Langebrogade 1,København K,160339,120254,120255,107293,107292,107292,107292,107292,77052,75713,74360,72992,71607,70212,68797,67379,110432,110187,112490,135826,136005,110148,135520,141748,106526,92788,78540,79597,,,,,110432,110187,112490,271346,136005,110148,,141748,106526,92788,78540,79597,,,,
Denmark,Operator Holding Account,Nordjyllandsværket A/S,Stigsborg Brygge 5,Nørresundby,1855302,1391476,1391476,1103702,1103698,1103698,1103698,1103698,335507,277319,225365,179479,140207,118484,97463,77196,1862211,2629588,2760325,2018875,2377528,2694732,1790296,1401217,2167889,2038561,1269764,1633507,,,,,4622536,2629588,,2018875,2377528,2694732,1790296,1401217,2167889,2038561,1269764,1633507,,,,
Denmark,Operator Holding Account,Nørresundby Fjernvarmeforsyning A.m.b.a.,Galstersgade 6,Nørresundby,456,342,341,243,0,0,0,0,,,,,,,,,503,0,0,0,0,0,0,36,0,,,,,,,,503,,,,,,,36,,,,,,,,
Denmark,Operator Holding Account,NOVO NORDISK A/S,Novo Allé,Bagsværd,13321,9991,9991,4589,4587,4587,4587,4587,3954,3885,3816,3745,3674,3603,3530,3457,5263,4957,4889,5022,5219,5698,5009,5208,5303,5111,3227,5,,,,,5263,4957,4889,5022,5219,5698,5009,5208,5303,5111,3227,5,,,,
Denmark,Operator Holding Account,NOVOZYMES A/S,Krogshøjvej 36,Bagsværd,19107,14330,14330,15916,15912,15912,15912,15912,11599,11398,11194,10988,10780,10570,10357,10143,18168,18271,17333,16534,13482,12570,12876,11409,8798,8334,7617,6779,,,,,18168,18271,17333,30016,,12570,12876,11409,8798,8334,7617,6779,,,,
Denmark,Operator Holding Account,NYBORG FORSYNING OG SERVICE A/S,Gasværksvej 2,Nyborg,834,626,625,432,432,432,432,432,,,,,,,,,0,0,0,0,0,0,0,0,,,,,,,,,,,,,,,,,,,,,,,,
Denmark,Operator Holding Account,NYBRO TOERRERI A.M.B.A.,Nybrovej 167,Janderup,22219,16664,16665,15798,15796,15796,15796,15796,6663,2986,5282,2314,3981,3361,2762,2185,15408,10708,14826,15081,11922,8739,11875,10259,4386,8782,6656,10252,,,,,15408,10708,14826,15081,11922,8739,11875,10259,4386,8782,6656,10252,,,,
Denmark,Operator Holding Account,NYKOEBING M FJERNVARMEVAERK A.M.B.A.,Kjærgaardsvej 20,Nykøbing M,30093,22570,22570,17848,17845,17845,17845,17845,9142,8181,7248,6344,5468,4621,3801,3010,14236,14090,12104,11949,11356,15863,13081,9820,9758,8811,8414,11199,,,,,14236,14090,12104,11949,11356,15863,13081,9820,9758,8811,8414,11199,,,,
Denmark,Operator Holding Account,NYKOEBING SJ VARMEVAERK,Billesvej 10,Nykøbing Sj,28848,21636,21635,18521,18520,18520,18520,18520,8729,7812,6920,6057,5221,4412,3629,2874,17246,15837,8683,7242,8168,7899,8090,9549,9250,7210,6482,7548,,,,,17246,15837,8683,9210,6200,7899,8090,9549,9250,7210,6482,7548,,,,
Denmark,Operator Holding Account,ODDER VARMEVAERK A M B A,Skovdalsvej 8,Odder,388,291,290,402,400,400,400,400,126,0,0,174,150,126,104,82,257,363,157,83,86,793,628,167,43,35,350,630,,,,,414,,363,962,,,628,167,43,35,350,630,,,,
Denmark,Operator Holding Account,Odense Staalskibsværft A/S,Lindø Alleen 150,Munkebo,19621,14716,14716,14795,14792,14792,14792,14792,,,,,,,,,16726,17230,15811,15178,18935,15829,5866,228,,,,,,,,,16726,17230,15811,15178,18935,15829,5866,228,,,,,,,,
Denmark,Operator Holding Account,Ole  Holm,Orebovej 29,Dianalund,7232,5424,5425,,,,,,,,,,,,,,1203,0,,,,,,,,,,,,,,,1203,,,,,,,,,,,,,,,
Denmark,Operator Holding Account,OERSTED BIOENERGY & THERMAL POWER A/S,Kraftværksvej 53,Fredericia,1767963,1325972,1325973,1051489,1051487,1051487,1051487,1051487,189575,156770,127471,101583,84059,71035,58432,46282,1502942,2042001,1806807,1158930,1318927,1322607,1832387,1620813,2045749,1448072,875783,1212705,,,,,3309749,2042001,,1158930,1318927,1322607,1832387,1620813,2045749,1448072,875783,1212705,,,,
Denmark,Operator Holding Account,OERSTED BIOENERGY & THERMAL POWER A/S,Kraftværksvej 53,Fredericia,2502100,1876575,1876576,1397043,1397041,1397041,1397041,1397041,79390,0,0,0,0,0,0,0,939184,2171344,1861782,2174363,1715396,1979481,1105643,224712,834,0,0,0,,,,,939184,2171344,1861782,2174363,1715396,1979481,1105643,224712,834,,,,,,,
Denmark,Operator Holding Account,OERSTED BIOENERGY & THERMAL POWER A/S,Kraftværksvej 53,Fredericia,337302,252977,252977,176939,176936,176936,176936,176936,119197,106669,94498,82712,71296,60249,49560,39255,75535,73203,53966,65662,64745,44694,45960,25904,15324,7148,4736,5408,,,,,75535,73203,53966,65662,64745,44694,45960,25904,15324,7148,4736,5408,,,,
Denmark,Operator Holding Account,OERSTED BIOENERGY & THERMAL POWER A/S,Kraftværksvej 53,Fredericia,821116,615837,615838,653087,653085,653085,653085,653085,211846,181413,160713,140668,121252,102466,84287,66760,638177,903377,507639,604095,835827,769047,521906,502038,449130,369045,392024,304322,,,,,638177,903377,507639,604095,835827,769047,521906,502038,449130,369045,392024,304322,,,,
Denmark,Operator Holding Account,OERSTED BIOENERGY & THERMAL POWER A/S,Kraftværksvej 53,Fredericia,2494800,1871100,1871099,1574675,1574675,1574675,1574675,1574675,717776,588831,474241,373598,293969,248423,204348,161857,2227935,3138306,2339894,2743711,2624864,2470171,2226004,2197138,2555142,1849965,1477579,1380714,,,,,2227935,3138306,2339894,2743711,2624864,2470171,2226004,2197138,2555142,1849965,1477579,1380714,,,,
Denmark,Operator Holding Account,OERSTED BIOENERGY & THERMAL POWER A/S,Kraftværksvej 53,Fredericia,478029,358522,358522,332663,332659,332659,332659,332659,166829,149295,66130,57882,49893,42163,34682,27471,363801,358075,244636,208242,179573,158002,165849,147271,120168,75258,100383,91728,,,,,363801,358075,244636,208242,179573,158002,165849,147271,120168,75258,100383,91728,,,,
Denmark,Operator Holding Account,OERSTED BIOENERGY & THERMAL POWER A/S,Kraftværksvej 53,Fredericia,562438,421828,421828,318976,318974,318974,318974,318974,249919,223654,99067,86711,74743,63163,51956,41153,382251,334218,334107,358421,409959,402843,204524,244245,236420,121323,147826,191391,,,,,382251,334218,334107,358421,409959,402843,204524,244245,236420,121323,147826,191391,,,,
Denmark,Operator Holding Account,OERSTED BIOENERGY & THERMAL POWER A/S,Kraftværksvej 53,Fredericia,636274,477205,477205,389526,389524,389524,389524,389524,3709,0,0,0,0,0,0,0,621590,1647231,903489,579664,216269,155899,18400,13049,75,0,0,0,,,,,621590,1647231,903489,735563,216269,,18400,13049,75,,,,,,,
Denmark,Operator Holding Account,OERSTED BIOENERGY & THERMAL POWER A/S,Kraftværksvej 53,Fredericia,3294023,2470517,2470518,1765318,1765314,1765314,1765314,1765314,135778,123151,111718,101448,92290,84197,78601,73799,2499732,4167135,3246567,2484733,2430356,1929476,1607061,727317,1179576,943707,695549,952588,,,,,2499732,4167135,3246567,2484733,2430356,1929476,1607061,727317,1179576,943707,695549,952588,,,,
Denmark,Operator Holding Account,OERSTED BIOENERGY & THERMAL POWER A/S,Kraftværksvej 53,Fredericia,1668232,1251174,1251174,1763673,1763671,1763671,1763671,1763671,648326,538566,466851,408622,352222,297650,244842,193929,902466,1425592,2192353,1890106,1772512,1625381,1543126,1007432,1458805,884002,721170,593983,,,,,902466,1425592,2192353,1890106,1772512,1625381,1543126,1007432,1458805,884002,721170,593983,,,,
Denmark,Operator Holding Account,OERSTED BIOENERGY & THERMAL POWER A/S,Kraftværksvej 53,Fredericia,25344,19008,19008,34389,34386,34386,34386,34386,9249,8276,7333,6418,5532,4675,3846,3046,76900,54156,78298,58880,63068,84664,80193,69260,49352,31238,22140,17504,,,,,76900,54156,78298,58880,63068,84664,80193,69260,49352,31238,22140,17504,,,,
Denmark,Operator Holding Account,OERSTED BIOENERGY & THERMAL POWER A/S,Kraftværksvej 53,Fredericia,,,,0,0,0,0,239,,,,,,,,,,,,,,,1085,2971,1096,369,577,1240,,,,,,,,,,,1085,2971,1096,369,577,1240,,,,
Denmark,Operator Holding Account,OERSTED SALG & SERVICE A/S,Kraftværksvej  53,Fredericia,29020,21765,21765,19898,19895,19895,19895,19895,11986,10726,9503,8317,7169,6059,4983,3947,20761,23173,22346,23448,24646,16747,13740,12421,11722,7315,7332,7058,,,,,43107,23173,,23448,24646,16747,13740,12421,11722,7315,7332,6048,,,,
Denmark,Operator Holding Account,Østermose BioEnergi A/S,Nedre Hestlundvej 15,Bording,,,,0,0,0,0,0,,,,,,,,,0,0,0,0,0,0,0,0,,,,,,,,,,,,,,,,,,,,,,,,
Denmark,Operator Holding Account,OESTERVANG SJAELLAND A/S,Myrekærvej 3,Hårlev,29160,21870,21869,20982,20982,20982,20982,20982,4662,8343,3696,6470,2789,2357,1938,1535,22461,20520,13363,16349,14169,14296,13157,8474,10489,6936,8976,6308,,,,,22461,20520,13363,16349,14169,14296,13157,8474,10489,6936,8976,6308,,,,
Denmark,Operator Holding Account,OESTERVRAA VARMEVAERK AMBA,Industrivej 3,Øster Vrå,10866,8150,8150,6528,6525,6525,6525,6525,,,,,,,,,6110,5952,5189,5807,3891,5949,4874,3942,,,,,,,,,11299,5952,,5807,3891,5949,4874,3942,,,,,,,,
Denmark,Operator Holding Account,Ove Lund,Korsgade 22,Grenaa,0,0,0,,,,,,,,,,,,,,0,0,,,,,,,,,,,,,,,,,,,,,,,,,,,,,,
Denmark,Aircraft Operator Account,"P/F ATLANTIC AIRWAYS, FAROE ISLANDS",Vágar Airport,Sørvágur,,,,,,,,19460,608,608,608,608,608,608,608,608,,,,,,,,45192,8515,4226,1585,4717,,,,,,,,,,,,45192,,12741,1585,4717,,,,
Denmark,Operator Holding Account,PALSGAARD A/S,Palsgaardvej 10,Juelsminde,7961,5971,5970,5967,5967,5967,5967,5967,,,,,,,,,7489,6870,8327,8720,7943,6222,5981,6424,,,,,,,,,7489,6870,8327,14701,7943,6222,,6424,,,,,,,,
Denmark,Aircraft Operator Account,PARTNERSELSKABET OY - KVP,Vibe Alle 3,Kokkedal,,,,,,,,,,,,,,,,,,,,,,,,253,Excluded,Excluded,Excluded,Excluded,,,,,,,,,,,,253,,,,,,,,
Denmark,Operator Holding Account,Per  Westergaard,Bredstrupvej 42,Grenaa,40836,30627,30626,,,,,,,,,,,,,,1203,199,0,,,,,,,,,,,,,,1203,199,,,,,,,,,,,,,,
Denmark,Operator Holding Account,PETERSEN TEGL A/S,Nybølnorvej 14,Broager,9478,7109,7109,9703,9699,9699,9699,9699,6009,5905,5799,5692,5584,5475,5365,5254,9993,10424,10963,9719,6766,6161,8111,7808,7976,8747,9102,9289,,,,,9993,10424,10963,22646,,,8111,7808,7976,8747,9102,9289,,,,
Denmark,Operator Holding Account,Pinholt Peter,Værftsvej 4,Køge,4309,3232,3231,,,,,,,,,,,,,,10,82,,,,,,,,,,,,,,,10,82,,,,,,,,,,,,,,
Denmark,Aircraft Operator Account,PRIMERA AIR SCANDINAVIA A/S,Digevej 114,København S,,,,,,,,136293,44049,44049,44049,44049,44049,44049,44049,44049,,,,,,,,181607,82069,96942,41949,51766,,,,,,,,,,,,181607,,179011,41949,51766,,,,
Denmark,Operator Holding Account,RANDERS TEGL A/S,Mineralvej 4,Aalborg Øst,23081,17311,17310,15521,15517,15517,15517,15517,7305,7179,7050,13840,13578,13313,13045,12776,14204,17866,20617,12962,7885,7483,7750,6346,5105,8393,9774,11763,,,,,14204,17866,20617,20445,7885,,7750,6346,5105,8393,9774,11763,,,,
Denmark,Operator Holding Account,RANDERS TEGL A/S,Mineralvej 4,Aalborg Øst,20050,15038,15037,13857,13854,13854,13854,13854,16283,8142,7997,15425,15133,14838,14539,14239,16870,18836,20860,15937,10857,12494,12378,11478,10332,10617,13796,13777,,,,,37730,18836,,15937,10857,12494,12378,11478,10332,10617,13796,13777,,,,
Denmark,Operator Holding Account,RANDERS TEGL A/S,Mineralvej 4,Aalborg Øst,10729,8047,8046,7426,7426,7426,7426,7426,2864,2814,2764,5425,5322,5219,5114,5008,7431,7860,8128,5852,3370,2062,3948,2719,2953,3199,5251,6869,,,,,15559,7860,,5852,3370,2062,3948,2719,2953,3199,5251,6869,,,,
Denmark,Operator Holding Account,REFA ENERGI A/S,Energivej 4,Nykøbing F,151,113,113,79,77,77,77,77,,,,,,,,,86,62,34,42,51,39,57,30,,,,,,,,,86,62,34,42,51,39,57,30,,,,,,,,
Denmark,Operator Holding Account,REFA ENERGI A/S,Energivej 4,Nykøbing F,444,333,333,246,246,246,246,246,8,30,7,23,0,0,0,0,74,4,24,9,91,21,14,14,95,6,43,11,,,,,74,4,24,9,91,21,14,14,95,6,43,11,,,,
Denmark,Operator Holding Account,REGION HOVEDSTADEN,Kongens Vænge 2,Hillerød,3065,2299,2298,2397,2396,2396,2396,2396,1232,1103,977,855,736,622,511,404,2355,2201,2314,2149,2245,2076,2103,1218,1126,1194,962,1505,,,,,2355,2201,2314,4225,2245,,2103,1218,1126,1194,962,1505,,,,
Denmark,Operator Holding Account,REGION HOVEDSTADEN,Kongens Vænge 2,Hillerød,14742,11057,11057,8800,8800,8800,8800,8800,2784,2492,2207,0,0,0,0,0,6549,6223,5707,5129,5237,5822,4279,3899,3418,2533,727,,,,,,6549,6223,5707,5129,5237,5822,4279,3899,3418,2533,727,,,,,
Denmark,Operator Holding Account,REGION HOVEDSTADEN,Kongens Vænge 2,Hillerød,2208,1656,1656,1515,1514,1514,1514,1514,2124,951,1683,1473,1269,1071,880,697,1492,1427,1757,1647,3413,3118,1606,2801,1486,1846,2347,2167,,,,,1492,1427,1757,1647,3413,3118,1606,2801,1486,1846,2347,2167,,,,
Denmark,Operator Holding Account,REGULERKRAFT IKAST APS,Grundtvigsvej 9,Herning,,,,0,0,0,0,0,,,,,,,,,,,,220,81,201,468,193,47,21,9,0,,,,,,,,220,81,201,468,193,12,60,5,,,,,
Denmark,Operator Holding Account,Renno Rokkjær,Industrivej Nord 25,Herning,7822,5866,5867,5397,5394,0,0,0,,,,,,,,,5840,6116,6070,5472,4042,,,,,,,,,,,,5840,6116,6070,5951,3563,,,,,,,,,,,
Denmark,Operator Holding Account,RENOSYD I/S,Norgesvej 13,Skanderborg,,,,,,,,,22079,19759,17504,15321,13206,11161,9180,7271,,,,,,,,,22485,24348,26204,26611,,,,,,,,,,,,,22485,24348,26204,26611,,,,
Denmark,Aircraft Operator Account,RHEINLAND AIR SERVICE GMBH,Flughafenstr. 31,Mönchengladbach,,,,,,,,,,,,,,,,,,,,,,,,3,Excluded,Excluded,Excluded,Excluded,,,,,,,,,,,,,,,,3,,,,
Denmark,Operator Holding Account,RIBE FJERNVARME AMBA,Mosevej 100,Ribe,82,61,61,1512,1509,1509,1509,1509,1119,0,0,0,0,0,0,0,1358,1387,984,1217,543,1995,928,918,23,4,0,,,,,,2342,1387,,4683,,,,918,23,4,,,,,,
Denmark,Operator Holding Account,RIBE FJERNVARME AMBA,Mosevej 100,Ribe,40148,30111,30111,23905,23902,23902,23902,23902,11011,9854,8729,7641,6586,5566,4578,3626,14356,12994,11037,13670,15983,16973,15855,12021,5741,2706,2414,3125,,,,,25393,12994,,62481,,,,12021,5741,2706,2414,3125,,,,
Denmark,Operator Holding Account,RINGE FJERNVARMESELSKAB A M B A,Østre Ringvej 43,Ringe,24570,18427,18427,14681,14677,14677,14677,14677,,,,,,,,,8426,4082,7230,4293,3600,4164,3631,2060,,,,,,,,,8426,4082,7230,4293,3600,4164,3631,2060,,,,,,,,
Denmark,Operator Holding Account,RINGKOEBING FJERNVARMEVAERK A.M.B.A.,Kongevejen 19 A,Ringkøbing,22763,17072,17073,22312,22310,22310,22310,22310,10851,9711,8603,7529,6490,5484,4512,3573,18206,16832,12212,15693,20334,23607,23441,15331,15647,13149,11585,11822,,,,,30418,16832,,15693,20334,23607,23441,15331,15647,13149,11585,11822,,,,
Denmark,Operator Holding Account,RINGKOEBING FJERNVARMEVAERK A.M.B.A.,Kongevejen 19 A,Ringkøbing,28291,21218,21219,18570,18568,18568,18568,18568,11567,10352,9170,8027,6918,5847,4809,3810,13820,3972,15933,15051,11401,14359,11339,11399,10512,8163,7625,10034,,,,,29753,3972,15933,15051,11401,14359,11339,11399,10512,8163,7625,10034,,,,
Denmark,Operator Holding Account,RINGSTED KRAFTVARMEVAERK A/S,Bragesvej 18,Ringsted,47494,35620,35621,30380,30376,30376,30376,30376,2603,1165,0,0,0,0,0,0,9576,11678,10301,13448,8822,16290,7389,3478,1933,948,1036,1069,,,,,9576,11678,10301,13448,8822,16290,7389,3478,1933,948,1036,1069,,,,
Denmark,Operator Holding Account,ROCKWOOL A/S,Hovedgaden 501,Hedehusene,53238,39929,39929,48867,48867,48867,48867,48867,49096,48123,47143,46161,45173,44180,43182,42183,50744,52305,59561,55351,44682,50852,46739,39394,29310,30823,38584,57180,,,,,50744,52305,59561,106203,44682,,46739,39394,29310,30823,38584,57180,,,,
Denmark,Operator Holding Account,ROCKWOOL A/S,Hovedgaden 501,Hedehusene,60536,45402,45402,58123,58119,58119,58119,58119,51634,50527,49418,48305,24648,23972,23298,22632,58144,58137,70296,63018,48985,49463,44347,36504,42884,48356,41090,21498,,,,,58144,58137,70296,156828,48985,,,36504,42884,48356,41090,21498,,,,
Denmark,Operator Holding Account,ROENNE VARME A/S,Sandemandsvej 1 A,Rønne,70,52,53,99,95,95,95,95,70,63,55,48,42,35,29,23,242,376,6,14,9,53,3377,233,325,1628,160,297,,,,,242,376,6,14,9,53,3377,233,325,1628,160,297,,,,
Denmark,Operator Holding Account,ROULUNDS ENERGY APS,Hestehaven 39,Odense S,27333,20500,20499,18330,18330,18330,18330,18330,0,0,0,0,0,0,0,0,12180,8751,5601,1787,452,3,3,46,60,,,,,,,,12180,8751,5601,1790,,455,,46,60,,,,,,,
Denmark,Operator Holding Account,SAEBY VARMEVAERK A M B A,Energivej 1,Sæby,55654,41740,41741,33049,33047,33047,33047,33047,15359,13745,12177,10658,9187,7763,6387,5058,26755,25745,22950,28137,28202,31664,28182,20474,17268,18285,17142,23279,,,,,26755,25745,,41339,15000,31664,28182,20474,17268,18285,17142,23279,,,,
Denmark,Operator Holding Account,SAINT-GOBAIN DENMARK A/S,Robert Jacobsens Vej 62A,København S,24772,18579,18579,17085,17085,17085,17085,17085,12326,15139,14868,14595,14319,14040,13756,13473,16901,17834,17630,17120,13600,12157,13234,12166,12665,12683,13811,14272,,,,,16901,17834,17630,17120,13600,12157,13234,12166,12665,12683,13811,14272,,,,
Denmark,Operator Holding Account,SAINT-GOBAIN DENMARK A/S,Robert Jacobsens Vej 62A,København S,11389,8542,8542,12003,9485,9485,9485,9485,10270,10092,9911,9728,9545,9358,9170,8981,10531,11960,11976,10820,8392,6909,7575,6802,8851,8863,9865,10491,,,,,10531,11960,11976,19212,,6909,7575,6802,8851,8863,9865,10491,,,,
Denmark,Operator Holding Account,SAINT-GOBAIN DENMARK A/S,Robert Jacobsens Vej 62A,København S,69788,52341,52341,53328,53328,53328,53328,53328,,,,,,,,,65442,59576,61117,38364,15330,6485,3434,23,17,,,,,,,,126559,59576,,41798,15330,6485,,23,17,,,,,,,
Denmark,Operator Holding Account,SAINT-GOBAIN DENMARK A/S,Robert Jacobsens Vej 62A,København S,78285,58714,58713,53828,53827,53827,53827,53827,55087,54130,53162,52184,51195,50197,49186,48172,63445,98042,117118,65233,20209,54126,62908,50230,59584,63195,67562,73538,,,,,180563,98042,,65233,20209,54126,62908,50230,59584,63195,67562,73538,,,,
Denmark,Operator Holding Account,SILKEBORG VARME A/S,Tietgensvej 3,Silkeborg,1950,1462,1463,1477,1476,1476,1476,1476,5658,5064,4485,3925,3381,2855,2346,1856,3319,1244,4168,3379,3908,9369,8138,37899,26657,19879,24266,15432,,,,,3319,1244,4168,3379,3908,9369,8138,37899,26657,19879,24266,15432,,,,
Denmark,Operator Holding Account,SILKEBORG VARME A/S,Tietgensvej 3,Silkeborg,6045,4534,4534,2903,2902,2902,2902,2902,794,1421,1258,1101,949,801,658,521,1795,2538,5828,3304,2029,3321,366,814,9781,24137,35442,20411,,,,,1795,2538,5828,3670,2029,3321,,814,9781,24137,35442,20411,,,,
Denmark,Operator Holding Account,SILKEBORG VARME A/S,Tietgensvej 3,Silkeborg,363194,272396,272395,226802,226802,226802,226802,226802,68781,61552,27265,11932,41139,34766,28597,22651,184617,188861,170309,186205,195434,213143,180781,103704,114576,69332,35491,108179,,,,,354926,188861,,366986,195434,213143,,103704,114576,69332,35491,108179,,,,
Denmark,Operator Holding Account,SINDAL VARMEFORSYNING A M B A,Baggesvognsvej 32,Sindal,22300,16725,16725,13758,13754,13754,13754,13754,6426,5751,5094,4459,3843,3248,2672,2116,12551,12008,10705,11696,12265,13994,10813,8217,7581,6590,6106,6305,,,,,12551,12008,10705,11936,12265,13754,10813,8217,7581,6590,6106,6305,,,,
Denmark,Operator Holding Account,SK VARME A/S,Lilleøvej 3,Korsør,0,0,0,0,0,0,0,0,,,,,,,,,0,0,0,0,0,0,0,0,,,,,,,,,,,,,,,,,,,,,,,,
Denmark,Operator Holding Account,SK VARME A/S,Lilleøvej 3,Korsør,912,684,685,893,890,890,890,890,,,,,,,,,620,392,266,413,679,2588,1153,1367,,,,,,,,,620,392,266,3001,679,,1153,1367,,,,,,,,
Denmark,Operator Holding Account,SK VARME A/S,Lilleøvej 3,Korsør,743,557,558,764,764,764,764,764,1139,1019,903,789,681,575,472,373,777,64,166,406,613,2481,1280,1640,1716,1263,1770,2059,,,,,777,64,166,406,613,2481,1280,1640,1716,1263,1770,2059,,,,
Denmark,Operator Holding Account,SK VARME A/S,Lilleøvej 3,Korsør,31273,23455,23455,19710,19706,19706,19706,19706,,,,,,,,,16348,14454,10948,8644,5962,6973,7874,7884,,,,,,,,,16348,14454,10948,8644,5962,6973,7874,7884,,,,,,,,
Denmark,Operator Holding Account,SKAGEN VARMEVAERK AMBA,Ellehammervej 21,Skagen,2457,1843,1843,1361,1360,1360,1360,1360,3826,1712,0,0,0,0,0,0,2887,843,824,2272,6395,2320,2224,4402,1555,198,170,98,,,,,2887,843,824,6415,5952,,844,4402,1555,198,170,98,,,,
Denmark,Operator Holding Account,SKAGEN VARMEVAERK AMBA,Ellehammervej 21,Skagen,38252,28689,28689,23264,23261,23261,23261,23261,3419,6119,5421,4745,4090,3456,2843,2252,15132,18651,14997,12742,3595,15356,9991,5615,10498,9994,9094,12085,,,,,15132,18651,14997,12742,3595,15356,9991,5615,10498,9994,9094,12085,,,,
Denmark,Operator Holding Account,SKANDERBORG-HOERNING FJERNVARME,Danmarksvej 15,Skanderborg,337,253,252,372,372,372,372,372,2212,1979,1753,1533,1321,1116,917,725,204,141,11,39,50,1268,166,8,5,5,3,32,,,,,204,141,22,1357,,,166,8,5,5,3,32,,,,
Denmark,Operator Holding Account,SKIVE FJERNVARME A.M.B.A.,Marius Jensens Vej 3,Skive,59519,44639,44639,36338,36336,36336,36336,36336,12478,5583,2473,0,0,0,0,0,24570,17944,8488,9377,5125,10260,9220,5661,1860,117,866,1798,,,,,24570,17944,8488,9377,5125,10260,9220,5661,1860,117,866,1798,,,,
Denmark,Operator Holding Account,SKIVE FJERNVARME A.M.B.A.,Marius Jensens Vej 3,Skive,1145,859,859,594,593,593,593,593,,,,,,,,,0,0,122,0,0,36,24,19,,,,,,,,,,,122,24,,36,,19,,,,,,,,
Denmark,Operator Holding Account,SKJERN FJERNVARME,Nykærsvej 8,Skjern,36699,27524,27524,22568,22565,22565,22565,22565,8281,3706,1641,2874,4953,4185,3443,2727,21641,16787,8433,7835,6656,9135,7404,8277,5302,2306,2236,2053,,,,,21641,16787,8433,15239,6656,9135,,8277,5302,2306,2236,2053,,,,
Denmark,Operator Holding Account,SKJERN PAPIRFABRIK A/S,Birkvej 14,Skjern,15735,11801,11801,12153,12151,12151,12151,12151,15999,15634,15268,14904,14539,14175,13811,13449,14483,14582,14740,14141,13336,14104,14148,14422,14197,14492,13094,5483,,,,,14483,14582,14740,28245,13336,,14148,14422,14197,14492,13094,5483,,,,
Denmark,Operator Holding Account,Skou Hansen I/S v/Carl Skou og Lars Peter Skou Hansen,Storemarksvej 30,Rødvig Stevns,,,,0,0,0,0,0,,,,,,,,,0,0,239,381,58,72,72,43,4,4,0,6,,,,,239,,,439,,72,72,43,4,4,,6,,,,
Denmark,Operator Holding Account,SMOERUM KRAFTVARME AMBA,Skebjergvej 25,Smørum,31487,23615,23616,20561,20559,20559,20559,20559,9228,8258,7316,6403,5519,4665,3837,3039,17000,15702,10793,13474,11170,14507,12635,12426,12178,9365,9081,8980,,,,,17000,15702,10793,27981,11170,,12635,12426,12178,9365,9081,8980,,,,
Denmark,Operator Holding Account,SOENDERBORG FJERNVARME A.M.B.A.,Nørrekobbel 54,Sønderborg,619,464,465,124,122,122,122,122,203,182,0,0,0,0,0,0,163,286,5,26,17,505,86,344,1339,21,40,16,,,,,163,286,5,548,,,86,344,1339,21,40,16,,,,
Denmark,Operator Holding Account,SOENDERBORG FJERNVARME A.M.B.A.,Nørrekobbel 54,Sønderborg,1422,1066,1067,960,958,958,958,958,3218,2879,2550,2232,1922,1623,1333,1055,1254,1626,746,578,2172,5744,3819,8166,7815,3500,3059,3300,,,,,1254,1626,746,2750,,5744,3819,8166,7815,3500,3059,3300,,,,
Denmark,Operator Holding Account,SOENDERBORG KRAFTVARMEVAERK I/S,Vestermark 16,Sønderborg,126310,94733,94733,72627,72624,72624,72624,72624,44974,40247,35654,31207,26900,22733,18699,14811,66514,66695,59199,56278,53893,49325,45119,4914,24716,28605,29438,28248,,,,,66514,66695,59199,56278,53893,49325,45119,4914,24716,28605,29438,28248,,,,
Denmark,Operator Holding Account,"SOPHUS FUGLSANG, EXPORT-MALTFABRIK A/S",Ribe Landevej 12,Haderslev,40264,30198,30199,33991,33987,33987,33987,33987,16776,16484,8096,7950,15608,15316,15025,14733,33695,27270,16867,18951,11240,15082,12321,9149,9555,8912,11097,14760,,,,,33695,27270,16867,18951,11240,15082,12321,9149,9555,8912,11097,14760,,,,
Denmark,Operator Holding Account,Søren Langeland  Jensen,Sohngaardsholmsvej 2,Aalborg,13546,10159,10159,0,0,0,0,0,,,,,,,,,0,0,0,0,,,,,,,,,,,,,,,,,,,,,,,,,,,,
Denmark,Operator Holding Account,Søren S. Mortensen,Nygade 29,Ikast,19436,14577,14576,,,,,,,,,,,,,,637,0,,,,,,,,,,,,,,,637,,,,,,,,,,,,,,,
Denmark,Aircraft Operator Account,STAR AIR A/S,Lufthavnen 2,Dragør,,,,,,,,103739,97821,97821,97821,97821,97821,97821,97821,97821,,,,,,0,0,149622,151162,152071,156251,152653,,,,,,,,,,,,149622,,303233,156251,152653,,,,
Denmark,Operator Holding Account,STATOIL REFINING DENMARK A/S,Melbyvej 17,Kalundborg,648450,486338,486338,431357,431356,431356,431356,431356,481607,473242,464779,456227,447583,438855,430019,421151,514584,499266,487164,497534,501597,492044,474806,520190,536998,518011,554033,430953,,,,,514584,499266,487164,497534,501597,492044,474806,520190,536998,518011,554033,430953,,,,
Denmark,Operator Holding Account,STOEVRING KRAFTVARMEVAERK A.M.B.A.,Hjedsbækvej 2,Støvring,35431,26573,26574,22046,22042,22042,22042,22042,11587,10369,9186,8040,6931,5857,4817,3816,22633,20619,16102,18726,19354,24036,21121,16750,17151,15936,15830,19478,,,,,22633,20619,16102,18726,19354,24036,21121,16750,17151,15936,15830,19478,,,,
Denmark,Operator Holding Account,STROEJER TEGL A/S,Bogyden 12,Assens,16256,12192,12193,13758,13755,13755,13755,13755,13271,13040,12807,12572,12333,12092,11849,11605,14929,15301,16219,14308,9686,12464,15614,15289,15784,17209,18963,19877,,,,,31148,15301,,29922,9686,12464,,15289,15784,17209,18963,19877,,,,
Denmark,Operator Holding Account,SUN CHEMICAL A/S,Københavnsvej 112,Køge,19163,14372,14372,13711,13710,13710,13710,13710,5828,5726,2812,0,0,0,0,0,14857,14378,12588,10586,5201,5542,4693,4713,4086,2829,897,,,,,,14857,14378,12588,15787,,5542,4693,4713,4086,2829,897,,,,,
Denmark,Aircraft Operator Account,SUN-AIR of SCANDINAVIA A/S,Cumulusvej 10,Billund,,,,,,,,6449,6004,6004,6004,6004,6004,6004,6004,6004,,,,,,,,26661,38125,33544,37787,33282,,,,,,,,,,,,26661,,71669,37787,33282,,,,
Denmark,Operator Holding Account,SVENDBORG FJERNVARME A.M.B.A.,Bagergade 40A,Svendborg,56781,42586,42585,36306,36803,36803,36803,36803,7525,6734,5966,5221,4501,3804,3128,2478,24004,16850,7965,8649,11080,10707,18782,14344,10826,6508,9289,14112,,,,,24004,16850,7965,19729,,10707,18782,14344,10826,6508,9289,14112,,,,
Denmark,Operator Holding Account,SVENDBORG FJERNVARME A.M.B.A.,Bagergade 40A,Svendborg,1646,1234,1235,1505,1504,1504,1504,1504,1296,2321,2055,1799,387,327,269,213,2922,0,928,0,0,0,0,0,0,0,0,0,,,,,2922,,928,,,,,,,,,,,,,
Denmark,Operator Holding Account,SVENDBORG FJERNVARME A.M.B.A.,Bagergade 40A,Svendborg,5245,3934,3933,2717,2716,2716,2716,2716,3282,5874,5203,2276,981,828,680,538,0,0,0,0,0,0,0,0,0,0,0,0,,,,,,,,,,,,,,,,,,,,
Denmark,Operator Holding Account,SVENDBORG KRAFTVARME A/S,Bodøvej 15,Svendborg,,,,,,,,,17814,15942,14123,12361,10655,9004,7407,5866,,,,,,,,,19345,19007,19646,19662,,,,,,,,,,,,,19345,19007,19646,19662,,,,
Denmark,Operator Holding Account,Svogerslev Fjernvarmecentral,Stamvejen 11,Roskilde,39,29,29,620,618,618,618,618,248,222,99,43,37,31,26,21,3,3,0,0,129,529,182,173,245,116,77,37,,,,,3,3,1,,129,529,182,173,245,116,77,37,,,,
Denmark,Operator Holding Account,TARM VARMEVAERK A M B A,Skolegade 23,Tarm,0,0,0,0,0,0,0,0,,,,,,,,,0,0,0,0,0,0,0,0,,,,,,,,,,,,,,,,,,,,,,,,
Denmark,Operator Holding Account,TAARS VARMEVAERK,Damhusvej 27,Tårs,13970,10477,10477,8721,8721,8721,8721,8721,,,,,,,,,7204,7331,7828,7149,7055,9113,7388,7279,,,,,,,,,7204,7331,7828,11537,7055,9113,3000,7279,,,,,,,,
Denmark,Operator Holding Account,THISTED VARMEFORSYNING A M B A,Ringvej 26,Thisted,2268,1701,1701,1204,1200,1200,1200,1200,305,273,241,211,182,154,127,100,718,394,140,214,243,448,161,616,657,397,220,822,,,,,718,394,140,214,243,448,161,616,657,397,220,822,,,,
Denmark,Operator Holding Account,THISTED VARMEFORSYNING A M B A,Ringvej 26,Thisted,,,,1000,1000,1000,1000,1000,,,,,,,,,0,899,143,142,990,917,231,357,,,,,,,,,,899,143,142,990,917,231,357,,,,,,,,
Denmark,Aircraft Operator Account,THOMAS COOK AIRLINES SCANDINAVIA A/S,Lufthavnen 2,Dragør,,,,,,,,553658,176545,176545,176545,176545,176545,176545,176545,176545,,,,,,0,0,603712,172768,172851,171352,182336,,,,,,,,,,,,603712,,345619,171352,182336,,,,
Denmark,Operator Holding Account,TOFTLUND FJERNVARME A.M.B.A.,Østerdalen 3,Toftlund,21515,16136,16136,12694,12691,12691,12691,12691,5253,4701,4165,3645,3142,2655,2184,1730,10639,10671,8025,10000,9133,11678,8997,7892,6968,5332,5099,5000,,,,,10639,10671,8025,10000,9133,11678,8997,7892,6968,5332,5099,5000,,,,
Denmark,Operator Holding Account,TOENDER FJERNVARMESELSKAB A.M.B.A.,Østergade 83,Tønder,2029,1522,1522,986,983,983,983,983,1386,1239,1098,961,828,699,574,454,970,967,530,355,1260,2085,830,962,1315,1146,6445,1140,,,,,970,967,530,355,1260,2085,830,962,1315,1146,6445,1140,,,,
Denmark,Operator Holding Account,Torben Rud Nielsen,Rosenvænget 78,Odense SV,1275,956,0,,,,,,,,,,,,,,0,0,,,,,,,,,,,,,,,,,,,,,,,,,,,,,,
Denmark,Operator Holding Account,TOERRING KRAFTVARMEVAERK A.M.B.A.,Bygade 5 a,Tørring,16340,12255,12254,11841,11838,11838,11838,11838,,,,,,,,,10176,10277,8718,8592,7329,9507,7606,7607,,,,,,,,,21854,10277,,8592,7329,9507,7606,7607,,,,,,,,
Denmark,Operator Holding Account,Tove Merrild,Vestermøllevej 11,Trige,3618,2714,2713,,,,,,,,,,,,,,0,0,0,,,,,,,,,,,,,,,,,,,,,,,,,,,,,
Denmark,Operator Holding Account,Tove Merrild,Vestermøllevej 11,Trige,1996,1497,1498,,,,,,,,,,,,,,2319,1714,1749,,,,,,,,,,,,,,2319,1714,1749,,,,,,,,,,,,,
Denmark,Operator Holding Account,TRANBJERG VARMEVAERK A.M.B.A.,Jegstrupvænget 630,Tranbjerg J,156,117,118,96,92,92,92,92,0,0,0,36,61,52,43,34,38,0,34,18,3,339,459,2,28,20,73,199,,,,,72,,,360,,,459,2,28,20,73,199,,,,
Denmark,Operator Holding Account,TREFOR VARME A/S,Kokbjerg 30,Kolding,13347,0,0,2170,2170,2170,2170,2170,98,88,0,0,59,50,40,32,16,127,21,376,167,168,35,88,555,3,10,174,,,,,37,127,,376,167,168,35,88,555,3,10,174,,,,
Denmark,Operator Holding Account,TREFOR VARME A/S,Kokbjerg 30,Kolding,10532,704,704,1800,1800,1800,1800,1800,1153,1032,229,800,689,582,478,378,114,351,215,1013,2993,915,812,1789,2286,326,1130,5924,,,,,329,351,,1928,2993,,812,1789,2286,326,1130,5924,,,,
Denmark,Operator Holding Account,TREFOR VARME A/S,Kokbjerg 30,Kolding,690,518,517,602,598,598,598,598,455,408,0,158,272,230,189,149,64,191,33,142,1047,451,323,943,1203,44,288,2708,,,,,97,191,,142,1047,451,323,943,1203,44,288,2708,,,,
Denmark,Operator Holding Account,TREFOR VARME A/S,Kokbjerg 30,Kolding,124,93,92,127,126,126,126,126,259,233,0,0,155,131,108,85,9,133,17,580,550,338,272,273,349,0,36,2214,,,,,26,133,,852,550,338,,273,349,,36,2214,,,,
Denmark,Operator Holding Account,TREFOR VARME A/S,Kokbjerg 30,Kolding,11685,0,0,1900,1900,1900,1900,1900,152,272,0,0,0,0,0,0,27,161,8,346,859,145,18,147,376,10,4,133,,,,,35,161,,364,859,145,,147,376,10,4,133,,,,
Denmark,Operator Holding Account,TREFOR VARME A/S,Kokbjerg 30,Kolding,112,84,84,206,203,203,203,203,552,495,110,383,330,279,229,181,50,398,43,400,1094,758,565,689,1561,139,810,2891,,,,,93,398,,1158,1094,,565,689,1561,139,810,2891,,,,
Denmark,Operator Holding Account,TREFOR VARME A/S,Kokbjerg 30,Kolding,148,111,110,241,241,241,241,241,564,504,224,391,336,284,233,185,64,456,40,432,1315,618,521,596,1313,192,725,2502,,,,,104,456,,432,1315,618,521,596,1313,192,725,2502,,,,
Denmark,Operator Holding Account,TRIPLENINE A/S,Trafikhavnskaj 9,Esbjerg,63754,47816,46287,45227,45227,45227,45227,45227,31275,30732,30182,29626,29065,28498,27925,27349,43704,34255,25724,49937,56875,57019,51062,32913,45495,60053,83217,60973,,,,,43704,34255,25724,49937,56875,57019,51062,32913,45495,60053,83217,60973,,,,
Denmark,Operator Holding Account,TRIPLENINE A/S,Trafikhavnskaj 9,Esbjerg,74580,55935,55936,43572,43570,43570,43570,43570,9155,8802,8455,1967,1747,1535,1327,1128,30248,29922,23881,10599,9170,4421,4260,3897,3041,2848,2517,3179,,,,,30248,29922,23881,10599,9170,4421,4260,3897,3041,2848,2517,3179,,,,
Denmark,Operator Holding Account,TULIP FOOD COMPANY A/S,Tulipvej 1,Randers SV,7095,5321,5321,5272,5271,5271,5271,5271,5069,4536,4018,3515,3029,2557,2101,1662,5401,5536,5933,6440,5839,6509,6165,5834,5775,5484,5438,5704,,,,,5401,5536,5933,6440,5839,6509,6165,5834,5775,5484,5438,5704,,,,
Denmark,Operator Holding Account,Tychsens Teglværk A/S,Nybølnorvej 17,Broager,5832,4374,4374,4105,4102,4102,4102,4102,2573,0,0,0,0,0,0,0,5207,5657,5707,2902,2123,2002,2836,2507,2278,9,,,,,,,10914,5657,,2902,2123,2002,2836,2507,2278,9,,,,,,
Denmark,Operator Holding Account,VÆKST & MILJØ V/ULRIK DAHL,Skovsøvej 10,Slagelse,,,,0,0,0,0,0,,,,,,,,,0,0,317,467,91,86,130,71,2,0,0,6,,,,,,,317,467,91,86,130,71,2,,,6,,,,
Denmark,Operator Holding Account,VAERLOESE VARMEVAERK A M B A,Klostergårdsvej 59.,Værløse,874,656,656,712,712,712,712,712,1703,1525,675,591,509,430,353,280,2361,1704,640,2064,1777,2138,1748,2852,1977,711,561,855,,,,,2361,1704,640,2064,1777,2138,1748,2852,1977,711,561,855,,,,
Denmark,Operator Holding Account,VAMDRUP FJERNVARME A M B A,Nygade 6,Vamdrup,15643,11732,11732,9048,9048,9048,9048,9048,4962,4441,3934,3443,2968,2508,2063,1634,8456,6688,5575,5245,6174,7360,5377,5363,4862,3083,3391,4311,,,,,8456,6688,5575,5245,6174,7360,5377,5363,4862,3083,3391,4311,,,,
Denmark,Operator Holding Account,Varde Varmeforsyning A/S,Ulvsundvej 1,Esbjerg N,929,697,697,3173,3170,3170,3170,3170,1503,336,596,521,449,379,312,247,1769,1251,1082,4506,2626,2633,309,1350,202,1325,678,756,,,,,1769,1251,1082,4815,2626,2633,,1350,202,1325,678,756,,,,
Denmark,Operator Holding Account,Varde Varmeforsyning A/S,Ulvsundvej 1,Esbjerg N,482,362,361,615,614,614,614,614,536,120,213,0,0,0,0,0,992,642,576,2690,1448,429,163,492,23,489,91,13,,,,,992,642,576,2690,1448,429,163,492,23,489,91,13,,,,
Denmark,Operator Holding Account,VEJLE FJERNVARME A M B A,Langelinie 60,Vejle,433,325,325,702,702,702,702,702,1623,1453,1287,1126,970,820,673,533,209,1035,896,2429,4124,1391,193,1423,3425,1278,1925,7175,,,,,1105,1035,,2429,4124,1391,193,1423,3425,1278,1925,7175,,,,
Denmark,Operator Holding Account,VEJLE FJERNVARME A M B A,Langelinie 60,Vejle,,,,,,,,,,,,,,,,,,,,,,,,,311,410,630,3366,,,,,,,,,,,,,311,410,630,3366,,,,
Denmark,Operator Holding Account,VERDO PRODUKTION A/S,Agerskellet 7,Randers NV,101075,75806,75806,78752,78749,78749,78749,78749,40435,37556,34751,32027,29379,26808,24312,21896,112446,66006,51170,57343,48162,55962,50581,52919,56181,32792,33693,39978,,,,,112446,66006,51170,57343,48162,55962,50581,52919,56181,32792,33693,39978,,,,
Denmark,Operator Holding Account,VERDO PRODUKTION A/S,Agerskellet 7,Randers NV,1107,830,831,1154,1152,1152,1152,1152,142,255,113,0,0,0,0,0,1324,1085,678,814,385,1603,502,223,331,166,17,166,,,,,1324,1085,678,814,385,1603,502,223,331,166,17,166,,,,
Denmark,Operator Holding Account,VERDO PRODUKTION A/S,Agerskellet 7,Randers NV,299766,224824,224824,192097,192096,192096,192096,192096,108500,97097,86018,75289,64897,54842,45112,35732,228931,192508,186179,158181,87036,48286,14737,465,3158,4636,1339,1739,,,,,228931,192508,186179,158181,87036,48286,14737,465,3158,4636,1339,1739,,,,
Denmark,Operator Holding Account,VERDO PRODUKTION A/S,Agerskellet 7,Randers NV,240,180,179,341,341,341,341,341,0,23,0,0,0,0,0,0,127,51,35,116,30,139,33,6,24,8,5,7,,,,,127,51,35,116,30,139,33,6,24,8,5,7,,,,
Denmark,Operator Holding Account,VERDO PRODUKTION A/S,Agerskellet 7,Randers NV,6236,4677,4677,3369,3365,3365,3365,3365,157,281,248,218,187,158,130,103,328,484,250,612,48,748,108,107,663,632,439,619,,,,,328,484,250,612,48,748,108,107,663,632,439,619,,,,
Denmark,Operator Holding Account,VESTEGNENS KRAFTVARMESELSKAB I/S,Roskildevej 175,Albertslund,722,541,541,505,502,502,502,502,399,358,158,554,477,403,331,262,317,285,178,188,720,2074,207,472,643,306,270,20,,,,,317,285,178,188,720,2074,207,472,643,306,270,20,,,,
Denmark,Operator Holding Account,VESTEGNENS KRAFTVARMESELSKAB I/S,Roskildevej 175,Albertslund,5344,4008,2357,3125,3123,3123,3123,3123,17230,15419,13660,11956,10305,8709,7164,5674,2199,3102,2600,3107,593,317,194,51,2230,1012,171,253,,,,,2199,3102,2600,3107,593,317,194,51,2230,1012,171,253,,,,
Denmark,Operator Holding Account,VESTERLED TEGLVAERK A/S,Vandmøllevej 1,Sønderborg,5652,4239,4240,,,,,,,,,,,,,,1085,0,,,,,,,,,,,,,,,1085,,,,,,,,,,,,,,,
Denmark,Operator Holding Account,VESTERLED TEGLVAERK A/S,Vandmøllevej 1,Sønderborg,7558,5669,5669,11607,11605,11605,11605,11605,11021,10830,10636,10441,10243,10043,9841,9638,8162,10750,11614,10525,7068,6748,8976,8696,7241,9530,11146,12872,,,,,8162,10750,11614,10525,7068,6748,8976,8696,7241,9530,11146,12872,,,,
Denmark,Operator Holding Account,VESTFORSYNING VARME A/S,Nupark 51,Holstebro,1869,1402,1401,1644,1643,1643,1643,1643,1899,1699,753,329,0,0,0,0,1317,1625,1290,1320,1558,3434,1443,2309,2610,1124,292,175,,,,,1317,1625,1290,1320,1558,3434,1443,2309,2610,1124,292,175,,,,
Denmark,Operator Holding Account,VESTFORSYNING VARME A/S,Nupark 51,Holstebro,608,456,455,397,393,393,393,393,413,370,328,0,0,0,0,0,210,117,530,456,442,648,294,381,463,771,41,38,,,,,210,117,530,898,,648,294,381,463,771,41,38,,,,
Denmark,Operator Holding Account,VESTFORSYNING VARME A/S,Nupark 51,Holstebro,1813,1360,1360,1277,1275,1275,1275,1275,1654,1479,655,287,494,417,343,271,916,1257,541,965,1323,3025,1637,1951,1856,993,405,623,,,,,916,1257,541,965,1323,3025,1637,1951,1856,993,405,623,,,,
Denmark,Operator Holding Account,VESTFORSYNING VARME A/S,Nupark 51,Holstebro,1448,1086,1086,957,953,953,953,953,912,1632,0,0,0,0,0,0,140,500,4,45,1132,3666,589,612,1703,109,169,43,,,,,140,500,4,45,1132,3666,589,612,1703,109,169,43,,,,
Denmark,Operator Holding Account,VESTFORSYNING VARME A/S,Nupark 51,Holstebro,3911,2933,2934,2484,2483,2483,2483,2483,2878,2575,1141,998,430,363,298,236,1949,2271,1416,2000,2927,4030,2562,2257,2287,1844,991,725,,,,,1949,2271,1416,2000,2927,4030,2562,2257,2287,1844,991,725,,,,
Denmark,Operator Holding Account,VIDEBAEK VARME A/S,Godthaabsvej 3,Videbæk,27631,20723,20723,17767,17766,17766,17766,17766,7642,6839,3030,2652,4571,3863,3178,2517,14248,12022,13018,13548,15150,17522,14303,11041,10336,6894,4529,11240,,,,,14248,12022,13018,14548,14150,17522,14303,11041,10336,6894,4529,11240,,,,
Denmark,Operator Holding Account,VIDEBAEK VARME A/S,Godthaabsvej 3,Videbæk,337,253,252,200,198,198,198,198,918,822,728,0,0,0,0,0,1177,2138,1020,1047,397,530,857,2596,1847,2946,3674,,,,,,1177,2138,1020,1904,397,530,,2596,1847,2946,3674,,,,,
Denmark,Operator Holding Account,VIKING MALT A/S,Spirevej 5,Vordingborg,40180,30135,30135,29567,29563,29563,29563,29563,16255,15972,15690,15406,15124,14841,14558,14275,30326,23284,16749,17190,15395,19976,18550,16532,16244,15524,7035,4660,,,,,30326,23284,16749,32585,,19976,18550,16532,16244,15524,7035,4660,,,,
Denmark,Operator Holding Account,VILDBJERG VARMEVAERK A.M.B.A.,Islandsvej 2,Vildbjerg,27778,20834,20834,17685,17682,17682,17682,17682,7845,7021,6220,5443,4692,3965,3262,2584,13215,14051,10947,12541,15289,17026,11678,10593,10633,9727,6223,8462,,,,,24162,14051,10947,12541,15289,17026,11678,10593,10633,9727,6223,8462,,,,
Denmark,Operator Holding Account,VILLEMOES TEGLVAERK A/S,Lourupvej 2,Gørding,6836,5127,5127,4655,4652,4652,4652,4652,2480,2437,2394,2349,2305,2260,2215,2169,3360,4802,5687,3111,2650,3190,3755,4498,3548,3254,3433,4025,,,,,3360,4802,5687,9513,,3193,,4498,3548,3254,3433,4025,,,,
Denmark,Operator Holding Account,VINDERUP VARMEVAERK A M B A,Sevelvej 67 A,Vinderup,22344,16758,16757,14259,14258,14258,14258,14258,6319,5655,5009,4385,3779,3194,2628,2081,12286,10853,8403,11123,10364,11505,10516,6373,2836,2330,2260,3630,,,,,12286,10853,8403,11123,10364,11505,10516,6373,2836,2330,2260,3630,,,,
Denmark,Operator Holding Account,VITFOSS A/S,Vesterbrogade 4 A,København V,16254,12190,12191,10745,10745,10745,10745,10745,5940,2675,29,26,22,19,15,12,13735,10219,14862,11963,13832,12728,13144,8893,5627,10,11,14,,,,,13735,10219,14862,20650,13832,17185,,8893,5627,10,11,14,,,,
Denmark,Operator Holding Account,VITFOSS A/S,Vesterbrogade 4 A,København V,22212,16659,16659,17171,17168,17168,17168,17168,0,0,0,0,0,0,0,0,17168,13481,19008,17073,21779,6990,5414,146,58,31,225,88,,,,,17168,13481,19008,17073,21779,6990,5414,146,58,31,225,88,,,,
Denmark,Operator Holding Account,VOJENS FJERNVARME A.M.B.A.,Tingvejen 47,Vojens,41593,31195,31195,20790,20786,20786,20786,20786,7738,1731,0,0,0,0,0,0,16243,14207,9882,11091,11527,12416,12885,6522,2772,853,386,499,,,,,16243,14207,9882,11091,11527,12416,12885,6522,2772,853,386,499,,,,
Denmark,Operator Holding Account,VORDINGBORG FJERNVARME A/S,Brovejen 10,Vordingborg,1365,1024,1024,937,934,934,934,934,0,412,0,0,0,0,0,0,896,867,408,317,620,1652,206,100,48,3,72,25,,,,,896,867,408,317,620,1652,206,100,48,3,72,25,,,,
Denmark,Operator Holding Account,VORDINGBORG KRAFTVARME A/S,Færgegårdsvej 3,Vordingborg,,,,0,0,0,0,63,,,,,,,,,,,,,,,0,85,,,,,,,,,,,,,,,,85,,,,,,,,
Denmark,Operator Holding Account,VORSKLA STEEL DENMARK A/S,Havnevej 31,Frederiksværk,,,,3174,3809,3809,3809,3809,,,,,,,,,4893,258,257,4790,646,0,0,0,0,0,0,0,,,,,,5151,257,4790,646,,,,,,,,,,,
Denmark,Operator Holding Account,VRAA VARMEVAERK AMBA,Korsgade 9,Vrå,11781,8836,8836,7650,7650,7650,7650,7650,5329,4769,4225,3697,3188,2693,2216,1755,8764,8095,9042,9487,8726,9807,7862,8979,8982,7494,6204,4807,,,,,8764,8095,9042,9487,8726,9807,7862,8979,8982,7494,6204,4807,,,,
Denmark,Aircraft Operator Account,Weibel Scientific A/S,Stumpedyssevej 40,Hørsholm,,,,,,,,,,,,,,,,,,,,,,,,89,Excluded,Excluded,Excluded,Excluded,,,,,,,,,,,,89,,,,,,,,
Denmark,Operator Holding Account,WIENERBERGER A/S,Rørmosevej 85,Helsinge,15889,11917,11917,11503,11500,11500,11500,11500,6479,3184,3127,6138,6022,5904,5785,5666,9234,9835,11205,6364,4579,5844,7477,6777,4837,4672,6253,7307,,,,,9234,9835,11205,6954,4579,5844,6887,6777,4837,4672,6253,7307,,,,
Denmark,Operator Holding Account,WIENERBERGER A/S,Rørmosevej 85,Helsinge,13097,9823,9823,9207,0,0,0,0,,,,,,,,,7735,8836,8161,5708,0,0,,,,,,,,,,,7735,8836,9207,5708,,,,,,,,,,,,
Denmark,Operator Holding Account,WIENERBERGER A/S,Rørmosevej 85,Helsinge,12958,9718,9719,8952,8950,8950,8950,8950,6148,6042,5934,5824,5714,5603,5490,5377,10166,9396,9478,7103,5541,5645,6587,4847,5239,5552,6777,7235,,,,,10166,9396,9478,13690,5541,5645,,4847,5239,5552,6777,7235,,,,
Denmark,Operator Holding Account,WIENERBERGER A/S,Rørmosevej 85,Helsinge,6814,5110,5111,4788,4784,4784,4784,4784,,,,,,,,,5464,5850,5834,5297,3504,1871,0,0,,,,,,,,,11298,5850,,5297,3504,1871,,,,,,,,,,
Denmark,Operator Holding Account,YDBY TEGLVAERK A/S,Ydby Stationsvej 2,Hurup Thy,10704,8028,8027,6157,6156,0,0,0,,,,,,,,,7821,8488,7912,6447,2387,0,,,,,,,,,,,15736,8488,,8834,,,,,,,,,,,,