Country,Account Type,Account Holder Name,Main Address Line,City,Allowance In Allocation In 2005,Allowance In Allocation In 2006,Allowance In Allocation In 2007,Allowance In Allocation In 2008,Allowance In Allocation In 2009,Allowance In Allocation In 2010,Allowance In Allocation In 2011,Allowance In Allocation In 2012,Allowance In Allocation In 2013,Allowance In Allocation In 2014,Allowance In Allocation In 2015,Allowance In Allocation In 2016,Allowance In Allocation In 2017,Allowance In Allocation In 2018,Allowance In Allocation In 2019,Allowance In Allocation In 2020,Verified Emissions In 2005,Verified Emissions In 2006,Verified Emissions In 2007,Verified Emissions In 2008,Verified Emissions In 2009,Verified Emissions In 2010,Verified Emissions In 2011,Verified Emissions In 2012,Verified Emissions In 2013,Verified Emissions In 2014,Verified Emissions In 2015,Verified Emissions In 2016,Verified Emissions In 2017,Verified Emissions In 2018,Verified Emissions In 2019,Verified Emissions In 2020,Units Surrendered In 2005,Units Surrendered In 2006,Units Surrendered In 2007,Units Surrendered In 2008,Units Surrendered In 2009,Units Surrendered In 2010,Units Surrendered In 2011,Units Surrendered In 2012,Units Surrendered In 2013,Units Surrendered In 2014,Units Surrendered In 2015,Units Surrendered In 2016,Units Surrendered In 2017,Units Surrendered In 2018,Units Surrendered In 2019,Units Surrendered In 2020
Finland,Operator Holding Account,AANEVOIMA OY,PL 200,Äänekoski,80730,86580,83652,60245,60242,60242,60242,60242,62412,60347,58316,56322,54362,52436,50543,48687,43122,63217,83346,32644,51120,63755,61488,36164,39462,39587,43072,43055,,,,,43122,63217,83346,94132,51120,63755,,36164,39462,39587,43072,43055,,,,
Finland,Operator Holding Account,ADVEN OY,PL 162,Vantaa,,,,13056,13055,13055,13055,13055,12023,11581,11144,10714,10290,9872,9461,9058,0,6272,4754,6626,4259,4348,2792,3137,1769,895,791,454,,,,,,6272,4754,6626,4259,4348,2792,3137,1769,895,791,454,,,,
Finland,Operator Holding Account,ADVEN OY,PL 162,Vantaa,29778,29778,29778,27700,48147,39965,39965,39965,16607,15547,14703,13728,12776,11849,10944,10068,25296,24448,23437,20777,25265,29521,24245,25720,29237,30877,30889,32412,,,,,25296,24448,23437,20777,25265,29521,24245,25720,29237,30877,30889,32412,,,,
Finland,Operator Holding Account,ADVEN OY,PL 162,Vantaa,26728,26728,26728,34933,34929,53717,55424,55424,18962,18633,18299,17963,17622,17279,16931,16582,26580,26293,26083,21253,19216,3874,1099,2652,3503,2238,2997,2864,,,,,26580,26293,26083,21253,19216,3874,1099,2652,3503,2238,2997,2864,,,,
Finland,Operator Holding Account,ADVEN OY,PL 162,Vantaa,3541,3542,3542,3255,3252,3252,3252,3252,6304,5812,3927,3946,3509,3086,2675,2279,3905,3370,3761,6233,7834,8533,7714,9074,8705,7707,7025,7069,,,,,3905,3370,3761,6233,7834,8533,7714,9074,8705,7707,7025,7069,,,,
Finland,Operator Holding Account,ADVEN OY,PL 162,Vantaa,64569,64570,64570,68374,68373,68373,68373,68373,27357,24801,29780,28860,27953,27060,26181,25317,72862,68215,65375,68712,66958,66300,59442,53119,23566,33146,31210,41648,,,,,72862,68215,65375,68712,66958,66300,59442,53119,23566,33146,31210,41648,,,,
Finland,Operator Holding Account,ADVEN OY,PL 162,Vantaa,2476,2476,2476,2110,2109,2109,2109,2109,15696,14364,11866,10382,8943,7552,6205,4909,3589,3136,4061,4105,3862,6102,3785,5059,4037,1459,1307,1795,,,,,3589,3136,4061,4105,3862,6102,3785,5059,4037,1459,1307,1795,,,,
Finland,Operator Holding Account,ADVEN OY,PL 162,Vantaa,12609,12608,12608,9242,9241,9241,9241,9241,8816,8663,4254,4176,4097,4017,3936,3855,11035,12803,13256,11941,10355,12696,13091,14463,10822,5489,3647,2615,,,,,11035,12803,13256,11941,10355,12696,13091,14463,10822,5489,3647,2615,,,,
Finland,Operator Holding Account,ADVEN OY,PL 162,Vantaa,1213,1214,1214,947,944,944,944,944,11126,10612,10107,9611,9126,8651,8186,7732,1403,1444,1252,1590,1435,2317,1885,1625,1156,980,602,1426,,,,,1403,1444,1252,1590,1435,2317,1885,1625,1156,980,602,1426,,,,
Finland,Operator Holding Account,ADVEN OY,PL 162,Vantaa,15522,15522,15522,15682,15679,15679,15679,15679,18038,16142,14300,12517,10789,9117,7500,5940,16828,19049,25359,20849,22959,16799,15603,14832,15778,12595,12715,12465,,,,,16828,19049,25359,20849,22959,16799,15603,14832,15778,12595,12715,12465,,,,
Finland,Operator Holding Account,ADVEN OY,PL 162,Vantaa,70934,70934,70934,65150,65149,65149,65149,65149,11378,10183,9021,7895,6806,5751,4731,3747,74667,65115,70038,61737,74957,77942,71602,64734,59332,54073,49798,44196,,,,,74667,65115,70038,61737,74957,77942,71602,64734,59332,54073,49798,44196,,,,
Finland,Operator Holding Account,ADVEN OY,PL 162,Vantaa,3492,3493,3493,480,476,476,476,476,18463,17864,12209,10683,9203,7770,6385,5051,180,490,1555,1370,1317,615,461,254,433,1292,792,1116,,,,,180,490,1555,1370,1317,615,461,254,433,1292,792,1116,,,,
Finland,Operator Holding Account,ADVEN OY,PL 162,Vantaa,21388,21387,21387,13529,13529,13529,13529,13529,5611,5513,5416,5318,5220,5123,5025,4928,10685,10912,10550,10106,9923,10700,8630,8246,7841,8281,7409,7960,,,,,10685,10912,10550,10106,9923,10700,8630,8246,7841,8281,7409,7960,,,,
Finland,Operator Holding Account,ADVEN OY,PL 162,Vantaa,16972,16973,16973,13614,13611,13611,13611,13611,37638,36983,23871,20894,18010,15220,12520,9916,5303,3198,7771,1370,2072,2699,2401,1010,1819,1970,2249,2802,,,,,5303,3198,7771,1370,2072,2699,2401,1010,1819,1970,2249,2802,,,,
Finland,Operator Holding Account,ADVEN OY,PL 162,Vantaa,,,,,,,,,,,,,,,,,,,,,,,,299,0,0,,,,,,,,,,,,,,299,,,,,,,,
Finland,Operator Holding Account,ADVEN OY,PL 162,Vantaa,,,,,,,,,3393,10101,9922,9743,9565,9386,9207,9028,,,,,,,,,1030,5064,5982,6019,,,,,,,,,,,,,1030,5064,5982,6019,,,,
Finland,Operator Holding Account,ADVEN OY,PL 162,Vantaa,,,,,,,,,18184,16273,14416,12618,10876,9191,7561,5988,,,,,,,,,80,42,69,121,,,,,,,,,,,,,80,42,69,121,,,,
Finland,Operator Holding Account,ADVEN OY,PL 162,Vantaa,,,,,,,,,,,,,,,,,,,,,,,,,,,,1430,,,,,,,,,,,,,,,,1430,,,,
Finland,Operator Holding Account,AHLSTROM-MUNKSJO GLASSFIBRE OY,PL 140,Kotka,37650,37649,37649,34493,34493,34493,34493,34493,,,,,,,,,28967,28261,27345,28543,19419,22236,26622,0,,,,,,,,,28967,28261,27345,28543,19419,22236,26622,,,,,,,,,
Finland,Operator Holding Account,AHLSTROM-MUNKSJO TAMPERE OY,Aunankaari 4,Tampere,,,,,,,,,4292,4217,4142,0,0,0,0,0,,,,,,,,,0,0,0,,,,,,,,,,,,,,,,,,,,,
Finland,Aircraft Operator Account,AIRFIX AVIATION OY,Tullimiehentie 4-6,Vantaa,,,,,,,,,,,,,,,,,,,,,,,,,1963,2135,,,,,,,,,,,,,,,,4098,,,,,,
Finland,Operator Holding Account,ALTIA OYJ,PL 350,HELSINKI,19142,19142,19142,17623,17620,17620,17620,17620,,,,,,,,,0,0,1,1,1,1,0,1,,,,,,,,,,,1,1,1,1,,1,,,,,,,,
Finland,Aircraft Operator Account,Alticor Inc.,7575 Fulton Street East,Ada,,,,,,,,4,3,3,3,3,3,3,3,3,,,,,,,,43,30,44,75,66,,,,,,,,,,,,43,,74,75,66,,,,
Finland,Operator Holding Account,AVILON FIBRES OY KONKURSSIPESA,Yliopistonkatu 15 B,TURKU,168940,168939,168939,138818,138815,138815,138815,138815,,,,,,,,,174212,183768,160167,170029,5889,2998,45328,0,,,,,,,,,174212,183768,160167,4146,5889,,45328,,,,,,,,,
Finland,Aircraft Operator Account,Blue1 Oy,Fraktvägen 3,Vanda,,,,,,,,121209,0,0,0,0,,,,,,,,,,,,139721,Excluded,Excluded,Excluded,,,,,,,,,,,,,139721,,,,,,,,
Finland,Operator Holding Account,BOLIDEN HARJAVALTA OY,Teollisuuskatu 1,Harjavalta,,,,,,,,,110709,108221,105728,103237,100747,98257,95763,93284,,,,,,,,,83154,82113,80908,82310,,,,,,,,,,,,,83154,82113,80908,82310,,,,
Finland,Operator Holding Account,BOLIDEN KOKKOLA OY,Outokummuntie 8,Kokkola,,,,,,,,,66468,64224,62003,59811,57646,55511,53401,51330,,,,,,,,,8652,7864,7827,7310,,,,,,,,,,,,,8652,7864,7827,7310,,,,
Finland,Operator Holding Account,BOREALIS POLYMERS OY,Muovintie 19,Kulloo,,,,412919,412915,412915,412915,412915,592149,581863,571457,560943,550316,539585,528721,517818,,,,442414,429918,456840,441851,400199,540165,537361,554162,572356,,,,,,,,442414,429918,456840,441851,400199,540165,537361,554162,572356,,,,
Finland,Operator Holding Account,EKENAS ENERGI AB,Kuninkaanlahdenkatu 14,Pori,1324,1323,1323,1276,1272,1272,1272,1272,35519,34902,34277,33647,33009,32367,31715,31060,947,962,1021,915,588,706,719,487,0,0,0,0,,,,,947,962,1021,915,588,706,719,487,,,,,,,,
Finland,Operator Holding Account,EPV ENERGIA OY,PL 31,Tammisaari,,,,,,,,,,,,,,,,,,,,,0,0,0,23,0,0,1,12,,,,,,,,,,,,23,,,1,12,,,,
Finland,Operator Holding Account,EPV ENERGIA OY,PL 31,Tammisaari,17061,17060,17060,17679,29857,38551,38551,38551,21014,18805,16659,14582,12569,10622,8737,6920,1722,7663,2797,3351,8385,1246,421,222,32,29,51,151,,,,,5000,4385,2797,3772,8385,1215,,253,32,29,51,151,,,,
Finland,Operator Holding Account,ELENIA LAMPO OY,PL 4,Hämeenlinna,1870,1870,1870,1391,1388,1388,1388,1388,7961,7202,6461,2059,1872,1692,1516,1347,812,3010,6538,4108,10838,7399,4714,7456,6515,5513,2214,6323,,,,,812,3010,6538,4108,10838,7399,4714,7456,6515,5513,2214,6323,,,,
Finland,Operator Holding Account,ELENIA LAMPO OY,PL 4,Hämeenlinna,0,0,0,,,,,,,,,,,,,,0,0,0,,Not Reported,Not Reported,,,,,,,,,,,,,,,,,,,,,,,,,,
Finland,Operator Holding Account,ELENIA LAMPO OY,PL 4,Hämeenlinna,859,859,859,528,524,524,524,524,94,65,42,28,27,27,26,26,295,553,947,504,115,355,237,9,12,25,75,112,,,,,295,553,947,504,115,355,237,9,12,25,75,112,,,,
Finland,Operator Holding Account,ELENIA LAMPO OY,PL 4,Hämeenlinna,1,2,2,0,0,0,0,0,1,5,3,1,1,1,1,1,0,0,0,0,0,22,3,0,9,4,0,0,,,,,,,,,,22,3,,9,4,,,,,,
Finland,Operator Holding Account,ELENIA LAMPO OY,PL 4,Hämeenlinna,3206,3206,3206,2105,2101,2101,2101,2101,7422,6714,3407,3064,2733,2410,2098,1797,3442,5159,10522,7486,9848,8464,3991,11315,6694,4366,3315,4629,,,,,3442,5159,10522,7486,9848,8464,3991,11315,6694,4366,3315,4629,,,,
Finland,Operator Holding Account,ELENIA LAMPO OY,PL 4,Hämeenlinna,7,8,8,0,0,0,0,0,8,7,7,7,7,7,7,7,0,101,1061,0,1,0,0,0,39,0,0,0,,,,,,101,1061,,1,,,,39,,,,,,,
Finland,Operator Holding Account,ELENIA LAMPO OY,PL 4,Hämeenlinna,2,1,1,32,32,32,32,32,12,8,5,4,4,3,3,3,0,101,90,39,0,0,1,5,5,11,0,0,,,,,,101,90,39,,,1,5,5,11,,,,,,
Finland,Operator Holding Account,ELENIA LAMPO OY,PL 4,Hämeenlinna,0,0,0,0,0,0,0,0,2,5,1,1,1,1,1,1,0,1,35,24,10,0,0,0,8,1,1,2,,,,,,1,35,24,10,,,,8,1,1,2,,,,
Finland,Operator Holding Account,ELENIA LAMPO OY,PL 4,Hämeenlinna,0,0,0,17,14,14,0,0,,,,,,,,,0,0,0,0,4,0,,,,,,,,,,,,,,,4,,,,,,,,,,,
Finland,Operator Holding Account,ELENIA LAMPO OY,PL 4,Hämeenlinna,0,1,1,,,,,,,,,,,,,,0,0,0,,Not Reported,Not Reported,,,,,,,,,,,,,,,,,,,,,,,,,,
Finland,Operator Holding Account,ELENIA LAMPO OY,PL 4,Hämeenlinna,10,9,9,0,0,0,0,0,,,,,,,,,0,5,0,0,0,0,13,0,0,0,0,0,,,,,,5,,,,,13,,,,,,,,,
Finland,Operator Holding Account,ELENIA LAMPO OY,PL 4,Hämeenlinna,32,31,31,18,14,14,14,14,1,1,0,1,1,0,0,0,5,0,9,0,0,4,8,0,0,0,1,2,,,,,5,,9,,,4,8,,,,1,2,,,,
Finland,Operator Holding Account,ELENIA LAMPO OY,PL 4,Hämeenlinna,70,71,71,151,147,147,147,147,76,53,33,25,25,24,24,23,333,756,588,190,0,21,12,0,0,12,0,2,,,,,333,756,588,190,,21,12,,,12,,2,,,,
Finland,Operator Holding Account,ELENIA LAMPO OY,PL 4,Hämeenlinna,9092,9093,9093,8657,8654,8654,8654,8654,9585,5707,5306,6057,5368,4701,4055,3431,13011,12391,11579,6372,6400,8312,6325,7798,5818,3566,1164,1361,,,,,13011,12391,11579,6372,6400,8312,6325,7798,5818,3566,1164,1361,,,,
Finland,Operator Holding Account,ELENIA LAMPO OY,PL 4,Hämeenlinna,11,12,12,,,,,,,,,,,,,,0,13,99,,Not Reported,Not Reported,,,,,,,,,,,,13,99,,,,,,,,,,,,,
Finland,Operator Holding Account,ELENIA LAMPO OY,PL 4,Hämeenlinna,0,0,0,0,0,0,0,0,,,,,,,,,0,0,0,0,0,0,1,0,0,0,0,1,,,,,,,,,,,1,,,,,1,,,,
Finland,Operator Holding Account,ELENIA LAMPO OY,PL 4,Hämeenlinna,619,619,619,859,856,856,856,856,516,262,363,312,273,237,201,166,2731,541,658,833,603,351,657,595,205,177,1457,824,,,,,2731,541,658,833,603,351,657,595,205,177,1457,824,,,,
Finland,Operator Holding Account,ELENIA LAMPO OY,PL 4,Hämeenlinna,,,,759,759,759,759,759,53,49,42,13,12,11,10,9,,0,76,151,149,19,64,191,180,96,16,167,,,,,,,76,151,149,19,64,191,180,96,16,167,,,,
Finland,Operator Holding Account,ELENIA LAMPO OY,PL 4,Hämeenlinna,,,,,63,60,60,60,7,5,4,3,3,3,3,2,,,,16,1,1,1,0,0,1,0,0,,,,,,,,16,1,1,1,,,1,,,,,,
Finland,Operator Holding Account,ELENIA LAMPO OY,PL 4,Hämeenlinna,,,,0,142,565,565,565,388,358,113,111,109,107,104,102,,,,,463,2196,889,470,84,101,469,478,,,,,,,,,463,2196,889,470,84,101,469,478,,,,
Finland,Operator Holding Account,ELENIA LAMPO OY,PL 4,Hämeenlinna,185878,185879,185879,154837,164146,210680,210680,210680,78746,71230,63923,56843,49979,43333,36898,30689,199073,184418,158981,149726,141391,121611,93110,61747,52068,59402,57201,55493,,,,,199073,184418,158981,149726,141391,121611,93110,61747,52068,59402,57201,55493,,,,
Finland,Operator Holding Account,ELENIA LAMPO OY,PL 4,Hämeenlinna,0,0,0,381,379,379,379,379,6,3,3,3,3,2,2,2,0,4,23,2,8,12,4,11,3,18,4,24,,,,,,8,23,2,8,12,4,11,3,18,4,24,,,,
Finland,Operator Holding Account,ELENIA LAMPO OY,PL 4,Hämeenlinna,,,,,,,,,,,,,,,,,,,,,,,,,,,,156,,,,,,,,,,,,,,,,156,,,,
Finland,Operator Holding Account,EPV ENERGIA OY,Frilundintie 7,VAASA,45,45,0,,,,,,,,,,,,,,31,679,,,Not Reported,Not Reported,,,,,,,,,,,31,679,,,,,,,,,,,,,,
Finland,Operator Holding Account,EPV ENERGIA OY,Frilundintie 7,VAASA,34,33,0,,,,,,,,,,,,,,23,1286,,,Not Reported,Not Reported,,,,,,,,,,,23,1286,,,,,,,,,,,,,,
Finland,Operator Holding Account,ER-SAHA OY,Kokkilantie 4,Viitasaari,,,,14258,14255,14255,14255,14255,8788,8635,5572,4876,4200,3547,2914,2306,,,0,96,54,67,39,86,103,65,57,50,,,,,,,,150,,67,39,86,103,65,57,50,,,,
Finland,Operator Holding Account,ETELA-SAVON ENERGIA OY,PL 166,MIKKELI,,,,2277,3795,3036,3036,3036,434,388,344,301,259,219,180,143,847,417,371,316,283,1358,830,1226,765,490,720,2115,,,,,847,417,371,599,,1358,830,1226,765,490,720,2115,,,,
Finland,Operator Holding Account,ETELA-SAVON ENERGIA OY,PL 166,MIKKELI,,,,1806,1804,1804,1804,1804,,,,,,,,,65,24,69,26,0,57,49,62,18,32,8,54,,,,,,89,69,26,,57,49,62,18,32,8,54,,,,
Finland,Operator Holding Account,ETELA-SAVON ENERGIA OY,PL 166,MIKKELI,,,,0,0,0,753,475,,,,,,,,,,,,,Not Reported,2,2,1,1,0,0,4,,,,,,,,,,2,2,1,1,,,4,,,,
Finland,Operator Holding Account,ETELA-SAVON ENERGIA OY,PL 166,MIKKELI,0,0,0,0,0,0,0,0,,,,,,,,,4,3,0,14,0,8,9,7,3,1,12,0,,,,,4,3,,14,,8,9,7,3,1,12,,,,,
Finland,Operator Holding Account,ETELA-SAVON ENERGIA OY,PL 166,MIKKELI,339,339,339,264,263,263,263,263,,,,,,,,,410,64,41,0,0,0,0,0,3,0,,,,,,,410,64,41,,,,,,3,,,,,,,
Finland,Operator Holding Account,ETELA-SAVON ENERGIA OY,PL 166,MIKKELI,160582,160583,160583,158502,158501,158501,158501,158501,82732,74349,65024,56913,49058,41457,34102,27011,120404,194587,204984,191527,123953,149414,137496,135977,103226,63809,59999,66392,,,,,120404,194587,204984,315480,,149414,137496,135977,103226,63809,59999,66392,,,,
Finland,Operator Holding Account,ETELA-SAVON ENERGIA OY,PL 166,MIKKELI,2508,2508,2508,1692,1688,1688,1688,1688,230,206,182,160,138,116,95,76,3998,1054,1196,190,259,721,890,605,955,381,951,2010,,,,,3998,1054,1196,190,259,721,890,605,955,381,951,2010,,,,
Finland,Operator Holding Account,ETELA-SAVON ENERGIA OY,PL 166,MIKKELI,401,400,400,263,261,261,261,261,1352,1210,1072,938,808,682,561,444,311,369,428,359,286,449,288,368,300,383,464,369,,,,,311,369,428,359,286,449,288,368,300,383,464,369,,,,
Finland,Operator Holding Account,ETELA-SAVON ENERGIA OY,PL 166,MIKKELI,127,127,127,,,,,,,,,,,,,,0,1,0,,Not Reported,Not Reported,,,,,,,,,,,,1,,,,,,,,,,,,,,
Finland,Operator Holding Account,ETELA-SAVON ENERGIA OY,PL 166,MIKKELI,,,,,,,,,,,,,,,,,,,,,,,,,19,4,45,126,,,,,,,,,,,,,19,4,45,126,,,,
Finland,Operator Holding Account,EVONIK SILICA FINLAND OY,Telakkatie 5,Hamina,18062,18062,18062,23904,23901,23901,23901,23901,18074,17759,17443,17121,16797,16470,16137,15804,17410,12220,20968,23520,17855,20659,21182,20600,20641,16110,20427,20634,,,,,17410,12220,20968,23520,17855,20659,21182,20600,20641,16110,20427,20634,,,,
Finland,Operator Holding Account,FC ENERGIA OY,PL 1,Ikaalinen,1897,1897,1897,1819,1815,1815,1815,1815,21241,20763,20286,19807,19329,18852,18374,17899,1788,1222,1072,560,574,1170,815,1020,511,1678,2374,2835,,,,,,4232,1072,1120,574,1170,255,1020,511,1678,2374,2835,,,,
Finland,Operator Holding Account,FC POWER OY,PL 1,Ikaalinen,,,,18659,18655,18655,18655,18655,13382,13150,12914,12677,12437,12194,11948,11702,0,369,184,68,99,50,156,62,83,68,89,167,,,,,,738,184,136,99,50,88,62,83,68,89,167,,,,
Finland,Operator Holding Account,FINAVIA OYJ,PL 50,VANTAA,1987,1987,1987,921,917,917,917,917,,,,,,,,,453,1570,1038,195,0,0,0,0,0,,,,,,,,,2023,1038,195,,,,,,,,,,,,
Finland,Operator Holding Account,FINAVIA OYJ,PL 530,Helsinki,,,,22466,22463,22463,22463,22463,,,,,,,,,,,5358,831,819,674,515,844,573,1126,786,918,,,,,,,5358,1505,819,,515,844,573,1126,786,918,,,,
Finland,Operator Holding Account,FINAVIA OYJ,PL 530,Helsinki,1411,1411,1411,1290,1288,1288,1288,1288,,,,,,,,,936,822,1054,828,780,883,679,1273,832,1781,1006,1513,,,,,936,822,1054,828,780,883,679,1273,832,1781,1006,1513,,,,
Finland,Operator Holding Account,FINAVIA OYJ,PL 530,Helsinki,107,107,107,97,95,95,95,95,,,,,,,,,368,93,98,94,71,123,89,103,111,199,139,177,,,,,368,93,98,94,71,123,89,103,111,199,139,177,,,,
Finland,Operator Holding Account,FINAVIA OYJ,PL 530,Helsinki,289,290,290,267,263,263,263,263,,,,,,,,,85,154,166,235,197,387,343,289,400,1531,288,390,,,,,85,154,166,235,197,387,343,289,400,1531,288,390,,,,
Finland,Operator Holding Account,FINAVIA OYJ,PL 530,Helsinki,239,238,238,221,219,219,219,0,,,,,,,,,191,155,174,137,145,197,54,Not Reported,,,,,,,,,191,155,174,137,145,197,54,,,,,,,,,
Finland,Operator Holding Account,FINAVIA OYJ,PL 530,Helsinki,223,223,223,207,205,205,205,205,,,,,,,,,288,206,209,200,149,132,146,207,139,188,144,260,,,,,288,206,209,332,149,,146,207,139,188,144,260,,,,
Finland,Operator Holding Account,FINAVIA OYJ,PL 530,Helsinki,286,285,285,260,260,260,260,260,,,,,,,,,313,338,295,171,279,361,135,224,241,266,276,332,,,,,313,338,295,171,279,361,135,224,241,266,276,332,,,,
Finland,Operator Holding Account,FINAVIA OYJ,PL 530,Helsinki,179,178,178,159,159,159,159,159,,,,,,,,,199,380,125,117,119,204,214,434,298,407,303,736,,,,,199,380,125,117,119,204,214,434,298,407,303,736,,,,
Finland,Operator Holding Account,FINAVIA OYJ,PL 530,Helsinki,221,221,221,204,201,201,201,201,,,,,,,,,782,153,200,289,542,425,147,208,174,219,180,313,,,,,782,153,200,714,542,,147,208,174,219,180,313,,,,
Finland,Operator Holding Account,FINAVIA OYJ,PL 530,Helsinki,99,98,98,90,90,90,90,90,,,,,,,,,104,76,103,108,357,184,58,98,243,235,127,269,,,,,104,76,206,108,357,184,58,98,243,235,127,269,,,,
Finland,Operator Holding Account,FINAVIA OYJ,PL 530,Helsinki,,,,,,,,9468,,,,,,,,,,,,,,,,17632,2494,5189,3385,5427,,,,,,,,,,,,17632,2494,5189,3385,5427,,,,
Finland,Aircraft Operator Account,FINAVIA OYJ,"PL 15, 01053 FINNAIR",Helsinki,,,,,,,,1910096,465564,465564,465564,465564,493033,493033,493033,493033,,,,,,,,860669,613762,644271,890632,988568,,,,,,,,,,,,860669,,1258033,890632,988568,,,,
Finland,Operator Holding Account,FINNSEMENTTI OY,Skräbbölentie 18,Parainen,446306,446305,446305,624272,624270,624270,624270,624270,387840,380940,373966,366927,359821,352653,345403,338135,347309,348117,368411,444153,168886,313909,342200,257230,250369,216036,222858,334986,,,,,347309,348117,368411,444153,168886,313909,342200,257230,250369,216036,222858,334986,,,,
Finland,Operator Holding Account,FINNSEMENTTI OY,Skräbbölentie 18,Parainen,665947,665948,665948,627691,627689,627689,627689,627689,533141,523682,514122,504470,494725,484894,474950,464979,573703,614415,621006,574413,455171,517836,539931,525069,497465,501024,479132,492412,,,,,573703,614415,621006,574413,455171,517836,539931,525069,497465,501024,479132,492412,,,,
Finland,Operator Holding Account,FNSTEEL OY AB KONKURSSIPESA,Yliopistonkatu 21,Turku,1016208,1016209,1016209,1046718,1046716,1046716,1046716,1046716,,,,,,,,,825513,896378,884865,854208,510180,824884,757998,293281,,,,,,,,,825513,896378,884865,854208,510180,824884,757998,3312,,289969,,,,,,
Finland,Operator Holding Account,FORTUM POWER AND HEAT OY,PL 10,FORTUM,,,,,,,,,,,,,,,,,6704,,,,Not Reported,Not Reported,,,,,,,,,,,6704,,,,,,,,,,,,,,,
Finland,Operator Holding Account,FORTUM POWER AND HEAT OY,PL 10,FORTUM,,,,973,971,971,971,971,370,166,293,256,221,186,153,121,299,802,414,135,864,666,176,804,310,561,771,1292,,,,,299,802,414,135,864,666,176,804,310,561,771,1292,,,,
Finland,Operator Holding Account,FORTUM POWER AND HEAT OY,PL 10,FORTUM,,,,18786,20492,20492,20492,20492,15766,14109,3125,0,0,0,0,0,,,0,17869,19943,20213,15647,16701,9460,2111,963,1123,,,,,,,,17869,19943,20213,15647,16701,9460,2111,963,1123,,,,
Finland,Operator Holding Account,FORTUM POWER AND HEAT OY,PL 10,FORTUM,,,,12468,13602,13602,13602,13602,2383,564,0,0,0,0,0,0,,,0,3657,2617,2696,998,1659,487,7,1,51,,,,,,,,3657,2617,2696,998,1659,487,7,1,51,,,,
Finland,Operator Holding Account,FORTUM POWER AND HEAT OY,PL 10,FORTUM,,,,3682,4017,4017,4017,4017,0,0,0,0,0,0,0,0,,,0,1,324,0,22,0,0,0,,,,,,,,,,1,324,,22,,,,,,,,,
Finland,Operator Holding Account,FORTUM POWER AND HEAT OY,PL 10,FORTUM,,,,0,203,344,344,344,341,610,539,236,204,172,141,112,,,,374,7,74,22,413,933,840,276,573,,,,,,,,374,7,74,22,413,933,840,276,573,,,,
Finland,Operator Holding Account,FORTUM POWER AND HEAT OY,PL 10,FORTUM,,,,0,0,0,24416,24415,34767,31114,27559,24112,20772,17539,14411,11401,,,,,,2476,28063,29265,15228,293,3997,9427,,,,,,,,,,2476,28063,29265,15228,293,3997,9427,,,,
Finland,Operator Holding Account,FORTUM POWER AND HEAT OY,PL 10,FORTUM,116,116,116,47,47,47,47,47,,,,,,,,,45,21,15,0,0,1,149,37,2,,,,,,,,45,21,15,,,1,149,37,2,,,,,,,
Finland,Operator Holding Account,FORTUM POWER AND HEAT OY,PL 10,FORTUM,26,26,26,38,34,34,34,34,,,,,,,,,17,38,31,3,45,6,11,20,7,26,7,10,,,,,17,38,31,3,45,6,11,20,7,26,7,10,,,,
Finland,Operator Holding Account,FORTUM POWER AND HEAT OY,PL 10,FORTUM,4883,4883,4883,5969,5968,5968,5968,5968,5459,4886,4328,3786,3262,2754,2263,1791,5876,6005,7582,5845,4851,8457,5372,11006,9142,10304,7483,6782,,,,,5876,6005,7582,5845,4851,8457,5372,11006,9142,10304,7483,6782,,,,
Finland,Operator Holding Account,FORTUM POWER AND HEAT OY,PL 10,FORTUM,9711,9710,9710,2500,2500,2500,2500,2500,846,628,442,0,0,0,0,0,2372,4120,6031,122,124,218,540,691,706,461,172,1171,,,,,2372,4120,6031,122,124,218,540,691,706,461,172,1171,,,,
Finland,Operator Holding Account,FORTUM POWER AND HEAT OY,PL 10,FORTUM,3,2,2,2,1,1,1,1,,,,,,,,,0,1,0,0,0,0,8,7,0,15,4,0,,,,,,1,,,,,8,7,,15,4,,,,,
Finland,Operator Holding Account,FORTUM POWER AND HEAT OY,PL 10,FORTUM,3296,3297,3297,15832,15832,15832,15832,15832,0,0,0,0,0,0,0,0,726,3353,3102,446,4568,7385,5795,4018,2985,1532,4940,5057,,,,,726,3353,3102,446,4568,7385,5795,4018,2985,1532,4940,5057,,,,
Finland,Operator Holding Account,FORTUM POWER AND HEAT OY,PL 10,FORTUM,268115,268114,268114,202202,204350,215078,215078,215078,102924,92107,81597,71420,61562,52024,42794,33896,151191,212743,258496,169686,153644,156501,164848,133514,117003,106246,88071,111110,,,,,151191,212743,258496,169686,153644,156501,164848,133514,117003,106246,88071,111110,,,,
Finland,Operator Holding Account,FORTUM POWER AND HEAT OY,PL 10,FORTUM,14133,14134,14134,15260,15257,15257,15257,15257,6464,1858,2361,1834,1580,1334,1096,867,10684,12028,7908,8783,8514,8022,3219,5870,1902,3276,3889,3784,,,,,10684,12028,7908,8783,8514,8022,3219,5870,1902,3276,3889,3784,,,,
Finland,Operator Holding Account,FORTUM POWER AND HEAT OY,PL 10,FORTUM,2277,2276,2276,2885,2883,2883,2883,2883,1296,1085,477,734,633,533,439,347,1707,2613,1467,2123,2725,1129,911,1277,1035,897,2230,1514,,,,,1707,2613,1467,2123,2725,1129,911,1277,1035,897,2230,1514,,,,
Finland,Operator Holding Account,FORTUM POWER AND HEAT OY,PL 10,FORTUM,23389,23388,23388,13562,13562,13562,13562,13562,13135,11754,10412,9110,7847,6627,5444,4307,13302,16032,21081,15499,25803,14061,5402,18338,15935,9968,11384,9156,,,,,13302,16032,21081,15499,25803,14061,5402,18338,15935,9968,11384,9156,,,,
Finland,Operator Holding Account,FORTUM POWER AND HEAT OY,PL 10,FORTUM,117,116,116,74,74,74,74,74,,,,,,,,,8,77,16,20,5,24,12,344,38,37,225,215,,,,,8,77,16,20,5,24,12,344,38,37,225,215,,,,
Finland,Operator Holding Account,FORTUM POWER AND HEAT OY,PL 10,FORTUM,10363,10364,10364,6201,6197,6197,6197,6197,2684,1209,757,388,97,0,0,0,1334,8436,9342,12411,10318,1635,816,1277,318,964,1667,1614,,,,,1334,8436,9342,12411,10318,1635,816,1277,318,964,1667,1614,,,,
Finland,Operator Holding Account,FORTUM POWER AND HEAT OY,PL 10,FORTUM,922889,922889,922889,780768,844097,1034077,1034077,1034077,440428,375966,327228,286414,246881,208631,171616,135930,755906,815118,820611,799272,812514,1016622,949514,811754,907479,845947,744633,812810,,,,,755906,815118,820611,799272,812514,1016622,949514,811754,907479,845947,744633,812810,,,,
Finland,Operator Holding Account,FORTUM POWER AND HEAT OY,PL 10,FORTUM,16368,16369,16369,14459,14459,14459,14459,14459,19875,17788,15755,6893,5938,5014,4120,3259,14186,22117,24555,13610,36165,19640,12811,36106,23745,34102,9558,13385,,,,,14186,22117,24555,13610,36165,19640,12811,36106,23745,34102,9558,13385,,,,
Finland,Operator Holding Account,FORTUM POWER AND HEAT OY,PL 10,FORTUM,1531,1530,1530,973,971,971,971,971,1646,737,653,571,492,416,342,270,826,1783,1863,3180,3954,2188,1101,2142,1052,1036,1377,1383,,,,,826,1783,1863,3180,3954,2188,1101,2142,1052,1036,1377,1383,,,,
Finland,Operator Holding Account,FORTUM POWER AND HEAT OY,PL 10,FORTUM,378,378,378,349,346,346,346,346,186,83,129,113,97,82,67,54,221,718,229,289,434,341,158,402,157,269,373,380,,,,,221,718,229,289,434,341,158,402,157,269,373,380,,,,
Finland,Operator Holding Account,FORTUM POWER AND HEAT OY,PL 10,FORTUM,25241,25240,25240,30916,30912,30912,30912,30912,19836,17752,15723,6878,5926,5004,4111,3252,23670,25290,12360,21957,42008,17774,16181,34771,21404,16830,13681,11030,,,,,23670,25290,12360,21957,42008,17774,16181,34771,21404,16830,13681,11030,,,,
Finland,Operator Holding Account,FORTUM POWER AND HEAT OY,PL 10,FORTUM,10761,10762,10762,12984,12980,12980,12980,12980,3910,3496,3097,2709,2334,1971,1620,1281,12781,8827,1547,371,964,6302,8198,10931,8155,8860,5358,5233,,,,,12781,8827,1547,371,964,6302,8198,10931,8155,8860,5358,5233,,,,
Finland,Operator Holding Account,FORTUM POWER AND HEAT OY,PL 10,FORTUM,948037,948036,948036,310236,310234,310234,310234,310234,,,,,,,,,25102,1599549,897380,77237,120705,986147,994434,203802,827784,5854,4243,4167,,,,,25102,1599549,897380,77237,120705,986147,994434,203802,827784,5854,4243,4167,,,,
Finland,Operator Holding Account,FORTUM POWER AND HEAT OY,PL 10,FORTUM,1452629,1452630,1452630,475169,475168,475168,475168,475168,,,,,,,,,295946,2420094,2528711,1354694,2279886,2814440,1355013,728246,1368183,1069973,356485,838570,,,,,295946,2420094,2528711,1354694,2279886,2814440,1355013,728246,1368183,1069973,356485,838570,,,,
Finland,Operator Holding Account,FORTUM POWER AND HEAT OY,PL 10,FORTUM,211,211,211,,,,,,,,,,,,,,362,,,,Not Reported,Not Reported,,,,,,,,,,,362,,,,,,,,,,,,,,,
Finland,Operator Holding Account,FORTUM POWER AND HEAT OY,PL 10,FORTUM,4172,0,0,,,,,,,,,,,,,,0,,,,Not Reported,Not Reported,,,,,,,,,,,,,,,,,,,,,,,,,,
Finland,Operator Holding Account,FORTUM POWER AND HEAT OY,PL 10,FORTUM,107231,107232,107232,0,0,0,0,0,,,,,,,,,111968,103518,68949,78,,,,,,,,,,,,,111968,103518,68949,78,,,,,,,,,,,,
Finland,Operator Holding Account,FORTUM POWER AND HEAT OY,PL 10,FORTUM,35972,35973,35973,40653,51748,50894,50894,50894,30274,13547,0,0,0,0,0,0,29933,32187,31249,33741,37362,36740,15922,20550,10871,2356,653,1354,,,,,29933,32187,31249,33741,37362,36740,15922,20550,10871,2356,653,1354,,,,
Finland,Operator Holding Account,FORTUM POWER AND HEAT OY,PL 10,FORTUM,7057,7058,7058,9512,9508,9508,9508,9508,864,100,0,0,0,0,0,0,10125,4458,3052,1566,3013,5974,334,610,306,67,0,0,,,,,10125,4458,3052,1566,3013,5974,334,610,306,67,,,,,,
Finland,Operator Holding Account,FORTUM POWER AND HEAT OY,PL 10,FORTUM,5107,5106,5106,6980,6977,6977,6977,6977,0,0,0,0,0,0,0,0,7818,7054,10914,8044,7707,7628,1588,361,1336,0,0,,,,,,7818,7054,10914,8044,7707,7628,1588,361,1336,,,,,,,
Finland,Operator Holding Account,FORTUM POWER AND HEAT OY,PL 10,FORTUM,10728,10729,10729,,,,,,,,,,,,,,10342,11192,4043,,Not Reported,Not Reported,,,,,,,,,,,10342,11192,4043,,,,,,,,,,,,,
Finland,Operator Holding Account,FORTUM POWER AND HEAT OY,PL 10,FORTUM,489,490,490,429,427,0,0,0,,,,,,,,,0,0,0,0,0,,,,,,,,,,,,,,,,,,,,,,,,,,,
Finland,Operator Holding Account,FORTUM POWER AND HEAT OY,PL 10,FORTUM,889,888,888,1940,2504,2504,2504,2504,,,,,,,,,1242,803,661,391,594,1763,42,0,,,,,,,,,1242,803,661,391,594,1763,42,,,,,,,,,
Finland,Operator Holding Account,FORTUM POWER AND HEAT OY,PL 10,FORTUM,14768,0,0,,,,,,,,,,,,,,3390,,,,Not Reported,Not Reported,,,,,,,,,,,3390,,,,,,,,,,,,,,,
Finland,Operator Holding Account,FORTUM POWER AND HEAT OY,PL 10,FORTUM,556,555,555,508,507,507,507,507,,,,,,,,,489,483,501,569,565,559,763,1162,595,797,636,772,,,,,489,483,501,569,565,559,763,1162,595,797,636,772,,,,
Finland,Operator Holding Account,FORTUM POWER AND HEAT OY,PL 10,FORTUM,,,,,,,,,,,,,,,,,,,,,,,,,,,24,410,,,,,,,,,,,,,,,24,410,,,,
Finland,Operator Holding Account,Gasum Oy,Kiehuvantie 189,Kouvola,21868,21868,21868,19518,19517,19517,19517,19517,9160,8198,3631,0,0,0,0,0,16320,19555,7398,1759,5533,14048,5712,5208,2701,4543,644,2558,,,,,16320,19555,7398,1759,5533,14048,5712,5208,2701,4543,644,2558,,,,
Finland,Operator Holding Account,Gasum Oy,Kiehuvantie 189,Kouvola,7282,7283,7283,,,,,,,,,,,,,,7331,7032,4716,,Not Reported,Not Reported,,,,,,,,,,,7331,7032,4716,,,,,,,,,,,,,
Finland,Operator Holding Account,Gasum Oy,Kiehuvantie 189,Kouvola,10201,10201,10201,9373,9369,9369,9369,9369,12356,11058,5974,3554,3063,2586,2124,1681,17809,12961,14870,17672,13542,13173,8501,10190,9087,6678,3436,6376,,,,,17809,12961,14870,17672,13542,13173,8501,10190,9087,6678,3436,6376,,,,
Finland,Operator Holding Account,HAAPAJARVEN LAMPO OY,Viikatetie 20,Haapajärvi,,,,7943,7939,7939,7939,7939,12698,11976,9520,8470,7450,6462,5505,4583,783,2215,3653,1961,185,278,266,278,268,223,301,409,,,,,,2998,3653,1961,185,278,266,278,268,223,301,409,,,,
Finland,Operator Holding Account,HAAPAJARVEN LAMPO OY,Viikatetie 20,Haapajärvi,,,,0,0,0,0,0,,,,,,,,,0,3,8,0,0,5,0,0,0,0,0,28,,,,,,3,8,,,5,,,,,,28,,,,
Finland,Operator Holding Account,HAAPAJARVEN LAMPO OY,Viikatetie 20,Haapajärvi,,,,0,0,0,0,0,,,,,,,,,0,6,13,16,0,4,12,0,2,0,1,0,,,,,,6,13,16,,4,12,,2,,1,,,,,
Finland,Operator Holding Account,HAAPAJARVEN LAMPO OY,Viikatetie 20,Haapajärvi,,,,,14537,10903,10903,11664,7860,7724,4998,4378,3776,3194,2631,2088,,,,10,254,57,192,194,488,155,143,664,,,,,,,,10,254,57,192,194,488,155,143,664,,,,
Finland,Operator Holding Account,HAMEENKYRON VOIMA OY,Töölönkatu 4,Helsinki,,,,,,,,40991,1542,1430,1289,1178,1070,965,862,763,,,,,,,20166,48966,21897,57664,46368,46866,,,,,,,,,,,20166,48966,21897,57664,46368,46866,,,,
Finland,Operator Holding Account,HAMINAN ENERGIA OY,Reutsinkatu 12,Hamina,,,,,,,,,,,,,,,,,,,,,,,,,1043,817,35,,,,,,,,,,,,,,1043,817,35,,,,,
Finland,Aircraft Operator Account,HANGAR AVIATION MANAGEMENT LLC,6400 Highland Road,Waterford,,,,,,,,,,,,,,,,,,,,,,,,,7,5,0,41,,,,,,,,,,,,,,,12,41,,,,
Finland,Operator Holding Account,HANKKIJA OY,PL 390,Hyvinkää,,,,,,,,,8665,8515,8363,8209,8053,7896,7737,7578,,,,,,,,,10464,13252,9020,8900,,,,,,,,,,,,,10464,13252,9020,8900,,,,
Finland,Operator Holding Account,HAUKIPUTAAN ENERGIA OY,PL 14,Haukipudas,,,,,,,,,,,,,,,,,,,,,0,960,4033,0,,,,,,,,,,,,,,960,4033,,,,,,,,,
Finland,Operator Holding Account,HELEN OY,Kampinkuja 2,HELEN,,,,0,2656,15938,15938,15938,236,53,0,163,141,119,98,77,,,,,4624,7593,7026,2568,103,26,463,359,,,,,,,,,4624,7593,7026,2568,103,26,463,359,,,,
Finland,Operator Holding Account,HELEN OY,Kampinkuja 2,HELEN,3271,3271,3271,170,166,166,166,166,0,0,737,0,0,0,0,0,171,2897,1382,74,345,6408,167,218,232,1326,21,416,,,,,171,2897,1382,74,345,6408,167,218,232,1326,21,416,,,,
Finland,Operator Holding Account,HELEN OY,Kampinkuja 2,HELEN,1455622,1455621,1455621,950870,950869,950869,950869,950869,388655,324018,265971,214351,183757,155287,127736,101175,946105,1501492,1141605,774612,846980,1046316,983340,1176261,912810,1061223,715833,1268514,,,,,946105,1501492,1141605,774612,846980,1046316,983340,1176261,912810,1061223,715833,1268514,,,,
Finland,Operator Holding Account,HELEN OY,Kampinkuja 2,HELEN,2014,2015,2015,1624,1623,1623,1623,1623,1639,1467,325,284,245,207,170,134,1646,1895,1663,290,2294,4313,1928,2970,1907,442,441,2737,,,,,1646,1895,1663,290,2294,4313,1928,2970,1907,442,441,2737,,,,
Finland,Operator Holding Account,HELEN OY,Kampinkuja 2,HELEN,27070,27070,27070,24952,24951,24951,24951,24951,14490,12968,11486,10049,8657,7310,6007,4752,25765,22578,14853,13837,18825,20529,21855,41635,22416,30875,18236,33673,,,,,25765,22578,14853,13837,18825,20529,21855,41635,22416,30875,18236,33673,,,,
Finland,Operator Holding Account,HELEN OY,Kampinkuja 2,HELEN,10652,10652,10652,17839,17835,17835,17835,17835,7208,1613,2857,1250,1077,909,747,591,130,6648,6464,9287,8517,16487,7286,14382,2979,3659,2823,9039,,,,,130,6648,6464,9287,8517,16487,7286,14382,2979,3659,2823,9039,,,,
Finland,Operator Holding Account,HELEN OY,Kampinkuja 2,HELEN,13783,13782,13782,2620,2616,2616,2616,2616,3627,3030,2493,2116,1822,1539,1264,1001,2656,10264,7979,726,4200,6136,3354,13582,16599,18553,3009,12666,,,,,2656,10264,7979,726,4200,6136,3354,13582,16599,18553,3009,12666,,,,
Finland,Operator Holding Account,HELEN OY,Kampinkuja 2,HELEN,18476,18475,18475,7906,7903,7903,7903,7903,21989,19678,17430,7625,6569,5547,4558,3606,8027,13106,7098,3593,14093,43346,18065,26115,14914,23458,13553,13964,,,,,8027,13106,7098,3593,14093,43346,18065,26115,14914,23458,13553,13964,,,,
Finland,Operator Holding Account,HELEN OY,Kampinkuja 2,HELEN,17263,17263,17263,7375,7372,7372,7372,7372,8287,1854,6570,5748,4952,4181,3435,2718,7483,13902,11146,2562,8594,21465,7697,12546,4293,8612,8220,19026,,,,,7483,13902,11146,2562,8594,21465,7697,12546,4293,8612,8220,19026,,,,
Finland,Operator Holding Account,HELEN OY,Kampinkuja 2,HELEN,1030716,1030717,1030717,701697,701694,701694,701694,701694,285471,238159,195648,157824,132763,112193,92288,73098,683390,1122457,915469,578014,856873,617236,606792,467357,671910,549367,635540,991391,,,,,683390,1122457,915469,578014,856873,617236,606792,467357,671910,549367,635540,991391,,,,
Finland,Operator Holding Account,HELEN OY,Kampinkuja 2,HELEN,77328,77328,77328,99042,99041,99041,99041,99041,56603,47482,40190,17582,15146,12789,10509,8313,102323,92031,64953,24812,83832,132739,56609,109799,96032,60364,34949,48190,,,,,102323,92031,64953,81421,83832,132739,,109799,96032,60364,34949,48190,,,,
Finland,Operator Holding Account,HELEN OY,Kampinkuja 2,HELEN,425466,425465,425465,347952,347948,347948,347948,347948,144074,128932,114220,99974,86175,72824,59903,47447,351647,425105,362462,399334,344193,371812,275526,247723,240041,233787,227325,134016,,,,,351647,425105,362462,674860,344193,371812,,247723,240041,233787,227325,134016,,,,
Finland,Operator Holding Account,HELEN OY,Kampinkuja 2,HELEN,1321248,1321248,1321248,1311934,1311930,1311930,1311930,1311930,531095,475279,421047,368531,317665,268448,220820,174903,1382927,1301950,1295923,1403097,1305449,1417154,1281533,1291753,1266786,1150480,1239837,715702,,,,,1382927,1301950,1295923,2684630,1305449,1417154,,1291753,1266786,1150480,1239837,715702,,,,
Finland,Operator Holding Account,HELEN OY,Kampinkuja 2,HELEN,5385,5386,5386,16569,16566,16566,16566,16566,11230,5025,8901,3894,3355,2833,2328,1842,17116,7199,5580,5818,4524,22720,11400,11244,6330,14372,5987,18231,,,,,17116,7199,5580,5818,4524,22720,11400,11244,6330,14372,5987,18231,,,,
Finland,Operator Holding Account,HELEN OY,Kampinkuja 2,HELEN,551,552,552,504,504,504,504,504,,,,,,,,,231,735,371,464,205,257,329,1025,239,475,1407,541,,,,,231,735,371,464,205,257,329,1025,239,475,1407,541,,,,
Finland,Operator Holding Account,HELSINGIN JA UUDENMAAN SAIRAANHOITOPIIRIN KUNTAYHTYMA,PL 750,HUS,2982,2983,2983,2741,2739,2739,2739,2739,0,0,0,0,0,0,0,0,3027,2770,2823,2981,3445,3172,3431,3371,0,,,,,,,,3027,2770,2823,2981,3445,3172,3431,3371,,,,,,,,
Finland,Operator Holding Account,HEXION OY,Teollisuustie 20B,Puhos,4537,4538,4538,4203,4200,4200,4200,4200,3547,3486,3424,3361,3297,3233,3167,3102,4863,2949,2363,2254,2391,2990,2895,2401,3408,2752,2412,2471,,,,,4863,2949,2363,2254,2391,2990,2895,2401,3408,2752,2412,2471,,,,
Finland,Operator Holding Account,HOYRYTYS OY,PL 16,Kerava,,,,,4419,3535,3535,3535,,,,,,,,,,,,0,215,36,300,53,,,,,,,,,,,,,215,36,300,53,,,,,,,,
Finland,Operator Holding Account,HUISKULAN PUUTARHA OY,Huiskulantie 52,Turku,12426,12425,12425,11441,11440,11440,11440,11440,,,,,,,,,11400,10652,11467,10097,11636,12057,12783,9611,,,,,,,,,11400,10652,11467,10097,11636,12057,12783,9611,,,,,,,,
Finland,Operator Holding Account,HUNTSMAN P&A FINLAND OY,Titaanitie,Pori,,,,,,,,,233681,229446,225166,220853,216501,212116,207683,203243,,,,,,,,,97472,90212,88790,90208,,,,,,,,,,,,,97472,90212,88790,90208,,,,
Finland,Operator Holding Account,HYVINKAAN LAMPOVOIMA OY,Kerkkolankatu 35,Hyvinkää,99,100,100,0,0,0,0,0,,,,,,,,,0,0,0,0,0,4,0,1,0,0,0,0,,,,,,,,,,4,,1,,,,,,,,
Finland,Operator Holding Account,HYVINKAAN LAMPOVOIMA OY,Kerkkolankatu 35,Hyvinkää,9889,9888,9888,98680,100160,100160,100160,100160,27075,12115,10731,4695,4044,3415,2806,2220,4057,8333,28111,25660,29059,34257,22390,23838,13836,11197,4374,4890,,,,,4057,8333,28111,25660,29059,34257,22390,23838,13836,11197,4374,4890,,,,
Finland,Operator Holding Account,HYVINKAAN LAMPOVOIMA OY,Kerkkolankatu 35,Hyvinkää,149,148,148,3106,3103,3103,3103,3103,80,36,32,28,24,20,17,13,140,268,327,12,90,341,489,617,77,35,85,899,,,,,140,268,327,12,90,341,489,617,77,35,85,899,,,,
Finland,Operator Holding Account,HYVINKAAN LAMPOVOIMA OY,Kerkkolankatu 35,Hyvinkää,1419,1420,1420,14718,14715,14715,14715,14715,2043,457,405,1417,1220,1031,847,670,470,1211,1358,262,4585,3170,1092,1681,480,690,1655,3024,,,,,470,1211,1358,262,4585,3170,1092,1681,480,690,1655,3024,,,,
Finland,Operator Holding Account,IMATRAN ENERGIA OY,Karhumäenkatu 2,Imatra,23946,23947,23947,20486,20483,20483,20483,20483,15982,14302,12670,11090,0,0,0,0,26173,26828,26618,25027,25541,31807,26864,26301,23569,21019,16377,10,,,,,26173,26828,26618,25027,25541,31807,26864,26301,23569,21019,16377,10,,,,
Finland,Operator Holding Account,IMATRAN LAMPO OY,Kuusirinne 30,Imatra,162,0,0,,,,,,,,,,,,,,0,,,,Not Reported,Not Reported,,,,,,,,,,,,,,,,,,,,,,,,,,
Finland,Operator Holding Account,IMATRAN LAMPO OY,Kuusirinne 30,Imatra,1335,1335,1335,550,547,547,547,547,1425,1276,1130,989,852,719,591,467,1092,595,248,530,2415,1057,869,1702,1670,2869,4327,1655,,,,,1092,595,248,530,2415,1057,869,1702,1670,2869,4327,1655,,,,
Finland,Operator Holding Account,IMATRAN LAMPO OY,Kuusirinne 30,Imatra,1419,1420,1420,12,12,12,12,12,17,16,0,0,0,0,0,0,19,20,11,3,37,8,2,2,37,2,0,183,,,,,19,20,11,3,37,8,2,2,37,2,,183,,,,
Finland,Operator Holding Account,IMATRAN LAMPO OY,Kuusirinne 30,Imatra,,,,,,,,,,,1309,19921,17171,14511,11936,9454,,,,,,,,,,,0,1892,,,,,,,,,,,,,,,,1892,,,,
Finland,Operator Holding Account,ISOJOEN LAMPO OY,PL 23,Isojoki,,,,11392,11390,11390,11390,11390,7431,7176,4939,4321,3723,3143,2583,2044,0,89,115,325,153,131,321,341,165,189,231,115,,,,,,89,115,646,153,131,,341,165,189,231,115,,,,
Finland,Operator Holding Account,Järvi-Suomen Voima Oy,Niemenkatu 16,Lahti,85358,85905,85630,27022,27018,27018,27018,27018,45670,42349,34848,30501,26291,22218,18276,14475,17832,20815,28756,15268,21174,19526,13459,12612,14759,11318,8791,10204,,,,,17832,20815,28756,15268,21174,19526,13459,12612,14759,11318,8791,10204,,,,
Finland,Operator Holding Account,Järvi-Suomen Voima Oy,Niemenkatu 16,Lahti,3226,3227,3227,1696,1696,1696,1696,1696,74417,73122,47197,41311,35609,30092,24753,19606,3622,4421,4341,2136,1147,1186,1148,2082,1260,422,667,323,,,,,3622,4421,4341,2136,1147,1186,1148,2082,1260,422,667,323,,,,
Finland,Aircraft Operator Account,JET TIME OY,Rahtitie 3,Vantaa,,,,,,,,,,,,,,,,,,,,,,,,,,226,59,,,,,,,,,,,,,,,226,59,,,,,
Finland,Aircraft Operator Account,JETFLITE OY,Siipitie 5-7,Vantaa,,,,,,,,,,,,,,,,,,,,,,,,Not Reported,Excluded,Excluded,Excluded,Excluded,,,,,,,,,,,,,,,,,,,,
Finland,Operator Holding Account,JUANKOSKEN BIOLAMPO OY,Juankoskentie 2,Juankoski,,,,23162,23160,23160,23160,23160,2906,2601,0,0,0,0,0,0,0,11207,24192,9903,4233,6790,6216,9205,642,0,0,0,,,,,,11207,24192,9903,4233,6790,6216,9205,642,,,,,,,
Finland,Operator Holding Account,JUJO THERMAL OY,PL 92,Kauttua,1205,1205,1205,3099,3095,3095,3095,3095,33353,32774,32189,31596,30998,30392,29780,29166,1607,1855,1658,2900,2566,2948,2769,2535,3110,3244,3691,3899,,,,,1607,1855,1658,2900,2566,2948,2769,2535,3110,3244,3691,3899,,,,
Finland,Operator Holding Account,JUNNIKKALA OY,PL 47,Kalajoki,,,,7818,7814,7814,7814,7814,10742,10251,7412,6500,5616,4761,3933,3136,2,3,0,0,0,1,38,25,61,21,20,22,,,,,,5,,,,1,38,25,61,21,20,22,,,,
Finland,Operator Holding Account,JYVASKYLAN ENERGIA OY,PL 4,Jyväskylä,,,,1077,1986,1529,1529,1529,59,53,4,4,4,3,3,3,,,,41,182,79,0,3,15,0,0,0,,,,,,,,41,182,79,,3,15,,,,,,,
Finland,Operator Holding Account,JYVASKYLAN ENERGIA OY,PL 4,Jyväskylä,0,0,0,0,0,0,0,0,2068,1862,1663,465,416,368,323,278,0,0,0,0,0,0,0,0,0,0,0,0,,,,,,,,,,,,,,,,,,,,
Finland,Operator Holding Account,JYVASKYLAN ENERGIA OY,PL 4,Jyväskylä,,,,,,,,,,,,,,,,,,,,,,,,,0,0,,,,,,,,,,,,,,,,,,,,,,
Finland,Operator Holding Account,JYVASKYLAN ENERGIA OY,PL 4,Jyväskylä,,,,,,,,,,,,,,,,,,,,,,,,,60,0,,,,,,,,,,,,,,,60,,,,,,,
Finland,Operator Holding Account,JYVASKYLAN ENERGIANTUOTANTO OY,PL 4,Jyväskylä,0,1,1,6,2,2,2,2,,,,,,,,,3,0,48,3,0,5,0,1,3,1,0,24,,,,,3,,48,3,,5,,1,3,1,,24,,,,
Finland,Operator Holding Account,JYVASKYLAN ENERGIANTUOTANTO OY,PL 4,Jyväskylä,10,9,9,6,2,2,2,2,,,,,,,,,3,16,15,0,0,0,0,40,0,0,,,,,,,3,16,15,,,,,40,,,,,,,,
Finland,Operator Holding Account,JYVASKYLAN ENERGIANTUOTANTO OY,PL 4,Jyväskylä,45,44,44,110,107,107,107,107,269,242,17,17,17,16,16,16,100,164,432,107,223,785,677,551,0,1,0,0,,,,,100,164,432,107,223,785,677,551,,1,,,,,,
Finland,Operator Holding Account,JYVASKYLAN ENERGIANTUOTANTO OY,PL 4,Jyväskylä,132,133,133,19,18,18,18,18,,,,,,,,,17,0,296,8,19,104,0,1,2,48,2,0,,,,,17,,296,8,19,104,,1,2,48,2,,,,,
Finland,Operator Holding Account,JYVASKYLAN ENERGIANTUOTANTO OY,PL 4,Jyväskylä,2151,2151,2151,744,744,744,744,744,1207,1087,971,79,78,76,75,73,682,1083,1352,3697,2258,2515,604,687,1016,1358,39,222,,,,,682,1083,1352,3697,2258,2515,604,687,1016,1358,39,222,,,,
Finland,Operator Holding Account,JYVASKYLAN ENERGIANTUOTANTO OY,PL 4,Jyväskylä,1,1,1,0,0,0,0,0,,,,,,,,,0,5,2,0,0,0,0,0,0,0,0,0,,,,,,5,2,,,,,,,,,,,,,
Finland,Operator Holding Account,JYVASKYLAN ENERGIANTUOTANTO OY,PL 4,Jyväskylä,1706,1706,1706,1426,1424,1424,1424,1424,2498,2251,167,164,161,158,155,152,1306,2651,3800,1362,4805,4794,4,0,6,0,1,0,,,,,1306,2651,3800,1362,4805,4794,4,,6,,1,,,,,
Finland,Operator Holding Account,JYVASKYLAN ENERGIANTUOTANTO OY,PL 4,Jyväskylä,8,8,8,21,19,19,19,19,,,,,,,,,9,45,953,421,0,0,0,154,,,,,,,,,9,45,953,421,,,,154,,,,,,,,
Finland,Operator Holding Account,JYVASKYLAN ENERGIANTUOTANTO OY,PL 4,Jyväskylä,590103,590102,590102,508341,508338,508338,508338,508338,213596,197722,109911,48102,41462,35038,28822,22829,419039,487882,504808,454415,445821,325798,166030,223458,198205,152894,144112,140406,,,,,419039,487882,504808,454415,445821,325798,166030,223458,198205,152894,144112,140406,,,,
Finland,Operator Holding Account,JYVASKYLAN ENERGIANTUOTANTO OY,PL 4,Jyväskylä,69801,69801,69801,56484,56484,56484,56484,56484,38063,31984,13601,6624,4488,2857,2783,2725,52086,63781,64885,61429,79591,33566,5381,5784,6565,7719,5508,3036,,,,,52086,63781,64885,61429,79591,33566,5381,5784,6565,7719,5508,3036,,,,
Finland,Operator Holding Account,JYVASKYLAN ENERGIANTUOTANTO OY,PL 4,Jyväskylä,65,64,64,53,53,53,53,53,,,,,,,,,49,366,109,67,51,0,0,0,,,,,,,,,49,732,109,67,51,,,,,,,,,,,
Finland,Operator Holding Account,JYVASKYLAN ENERGIANTUOTANTO OY,PL 4,Jyväskylä,2612,2613,2613,7720,7717,7717,7717,7717,6742,6074,452,444,435,427,418,410,7075,7711,8306,7051,11921,12025,4207,6530,556,722,111,749,,,,,7075,7711,8306,7051,11921,12025,4207,6530,556,722,111,749,,,,
Finland,Operator Holding Account,JYVASKYLAN VOIMA OY,PL 4,Jyväskylä,,,,0,25122,301436,301436,301436,108086,97385,86985,76908,67144,57694,48543,39717,,,,,6024,599859,669617,356620,336542,302682,364686,267182,,,,,,,,,6024,599859,669617,356620,336542,302682,364686,267182,,,,
Finland,Operator Holding Account,KAINUUN VOIMA OY,Tehdaskatu 17,Kajaani,296460,296460,296460,230354,230354,230354,230354,230354,147976,140836,101775,44541,38393,32445,26688,21139,289700,368962,291238,255425,124771,171721,186457,150121,114495,100395,84033,83897,,,,,289700,368962,291238,255425,124771,171721,186457,150121,114495,98541,85887,83897,,,,
Finland,Operator Holding Account,KANNUKSEN KAUKOLAMPO OY,PL 7,Kannus,,,,6562,12664,11137,11137,11137,8203,7340,6502,5689,4901,4138,3400,2690,2111,5892,6257,4067,3845,3320,3113,3130,2593,1349,1514,1481,,,,,,8003,6257,4067,3845,3320,3113,3130,2593,1349,1514,1481,,,,
Finland,Operator Holding Account,KANNUKSEN KAUKOLAMPO OY,PL 7,Kannus,,,,52,50,50,50,50,,,,,,,,,1,0,1,0,0,3,0,0,4,1,1,0,,,,,,1,1,,,3,,,4,1,1,,,,,
Finland,Operator Holding Account,KANTELEEN VOIMA OY,PL 47,HAAPAVESI,536654,536654,536654,173681,173678,173678,173678,173678,,,,,,,,,65256,688809,989090,503582,372351,742385,493830,208457,176127,345426,49214,3830,,,,,65256,688809,989090,503582,372351,742385,493830,208457,176127,345426,49882,3162,,,,
Finland,Operator Holding Account,Karstulan Lämpöverkko Oy,PL 390,Jyväskylä,,,,3,0,0,0,0,,,,,,,,,,0,0,0,0,0,0,2,0,,,,,,,,,,,,,,,2,,,,,,,,
Finland,Operator Holding Account,KAUHAVAN KAUKOLAMPO OY,Kallenkuja 5,Kauhava,,,,2291,2288,2288,2288,2288,5462,0,0,0,0,0,0,0,73,537,701,93,776,2862,1139,1187,800,Not Reported,,,,,,,,610,701,93,776,2862,1139,1187,800,,,,,,,
Finland,Operator Holding Account,KAUKAAN VOIMA OY,PL 40,HELSINKI,,,,0,68167,409001,409001,409001,110305,99742,85588,74912,64573,54568,44887,35553,,,,Not Reported,46181,161598,117592,73814,75706,105401,164858,136152,,,,,,,,,46181,161598,117592,73814,75706,105401,164858,136152,,,,
Finland,Operator Holding Account,Kauttua Paper Mill Oy,PL 55,Kauttua,1539,1538,1538,,,,,,,,,,,,,,1187,1400,1487,,Not Reported,Not Reported,,,,,,,,,,,1187,1400,1487,,,,,,,,,,,,,
Finland,Operator Holding Account,KEITELE ENERGY OY,Teollisuustie,Keitele,311,312,312,40,36,36,2428,3132,22982,22448,14952,13123,11349,9634,7974,6375,70,347,583,177,462,1179,705,526,75,102,76,37,,,,,70,347,583,177,462,1179,705,526,75,102,76,37,,,,
Finland,Operator Holding Account,KEITELE TIMBER OY,Teollisuustie,Keitele,,,,4917,4914,4914,4914,4914,5832,1433,3698,3235,2787,2354,1933,1530,3,1,2,4,0,6,29,44,55,197,323,282,,,,,,4,2,4,,6,29,44,55,197,323,282,,,,
Finland,Operator Holding Account,Kemijärven Kaukolämpö Oy,Vapaudenkatu 10-12 A 7,Kemijärvi,209,209,209,72,69,69,69,69,,,,,,,,,13,76,18,31,107,0,0,0,0,0,0,0,,,,,13,76,18,31,107,,,,,,,,,,,
Finland,Operator Holding Account,Kemijärven Kaukolämpö Oy,Vapaudenkatu 10-12 A 7,Kemijärvi,631,631,631,320,319,319,319,319,,,,,,,,,0,0,0,3,0,0,0,0,0,0,0,0,,,,,,,,3,,,,,,,,,,,,
Finland,Operator Holding Account,Kemijärven Kaukolämpö Oy,Vapaudenkatu 10-12 A 7,Kemijärvi,37,37,37,25,22,22,22,22,,,,,,,,,0,0,11,10,25,0,1,0,1,1,3,2,,,,,,,11,10,25,,1,,1,1,3,2,,,,
Finland,Operator Holding Account,Kemijärven Kaukolämpö Oy,Vapaudenkatu 10-12 A 7,Kemijärvi,0,0,0,0,0,0,0,0,,,,,,,,,0,0,0,0,0,0,0,0,0,0,0,0,,,,,,,,,,,,,,,,,,,,
Finland,Operator Holding Account,Kemijärven Kaukolämpö Oy,Vapaudenkatu 10-12 A 7,Kemijärvi,19170,19169,19169,16793,16790,31237,31137,31137,16026,14342,12706,11121,9586,8101,6663,5278,10957,12480,20102,24985,26701,26016,19986,25293,15135,16163,10815,12418,,,,,10957,12480,20102,24985,26701,26016,19986,25293,15135,16163,10815,12418,,,,
Finland,Operator Holding Account,KEMIJARVEN LAMPO JA VESI OY,PL 1100,Kemi,15,15,15,0,0,0,0,0,397,333,17,0,0,0,0,0,7,824,850,373,210,132,310,134,120,23,38,89,,,,,7,824,850,373,210,132,310,134,120,23,38,89,,,,
Finland,Operator Holding Account,KEMIJARVEN LAMPO JA VESI OY,PL 1100,Kemi,984,984,984,0,0,0,0,0,385,322,16,0,0,0,0,0,1003,992,164,165,79,24,69,4,17,5,5,0,,,,,1003,992,164,165,79,24,69,4,17,5,5,,,,,
Finland,Operator Holding Account,KEMIJARVEN LAMPO JA VESI OY,PL 1100,Kemi,1506,1505,1505,30209,30205,30205,30205,30205,22908,20501,18158,15888,13687,11557,9496,7513,2274,12238,52163,38013,31755,32614,31429,39449,32619,30824,30671,35520,,,,,2274,2274,62127,38013,31755,32614,31429,39449,32619,30824,30671,35520,,,,
Finland,Operator Holding Account,KEMIJARVEN LAMPO JA VESI OY,PL 1100,Kemi,965,964,964,0,0,0,0,0,,,,,,,,,98,0,0,0,0,,,,,,,,,,,,98,,,,,,,,,,,,,,,
Finland,Operator Holding Account,KEMIJARVEN LAMPO JA VESI OY,PL 1100,Kemi,0,0,0,0,0,0,0,0,,,,,,,,,0,0,0,0,,,,,,,,,,,,,,,,,,,,,,,,,,,,
Finland,Operator Holding Account,KEMIJARVEN LAMPO JA VESI OY,PL 1100,Kemi,0,0,0,0,0,0,0,0,,,,,,,,,0,0,0,0,0,0,0,,,,,,,,,,,,,,,,,,,,,,,,,
Finland,Operator Holding Account,KEMIJARVEN LAMPO JA VESI OY,PL 1100,Kemi,2431,2431,2431,0,0,0,0,0,1933,1608,81,0,0,0,0,0,2975,4456,2738,505,779,1798,1565,1241,33,6,271,35,,,,,2975,4456,2738,505,779,1798,1565,1241,33,6,271,35,,,,
Finland,Operator Holding Account,Kemira Chemicals Oy,PL 7,Sastamala,,,,,,,,,159377,156609,153808,150978,148118,145230,142306,139371,,,,,,,,,0,0,0,0,,,,,,,,,,,,,,,,,,,,
Finland,Operator Holding Account,KERAMIA OY,Mjösundintie 1101,Mjösund,5745,5744,5744,7063,9600,8331,8331,8331,4291,4217,4141,4065,3988,3910,3832,3753,5572,5400,5395,6153,5095,4914,5136,4968,4648,4620,4073,3853,,,,,5572,5400,5395,6153,5095,4914,5136,4968,4648,4620,4073,3850,,,,
Finland,Operator Holding Account,KERAVAN ENERGIA OY,Tervahaudankatu 6,Kerava,,,,759,759,759,759,759,3567,3295,0,0,0,0,0,0,5330,3253,5308,2224,3784,1478,659,256,156,220,4,204,,,,,5330,3253,5308,2224,3784,1478,659,256,156,220,4,204,,,,
Finland,Operator Holding Account,KERAVAN ENERGIA OY,Tervahaudankatu 6,Kerava,1957,1958,1958,6074,6072,6072,6072,6072,1749,1615,0,0,0,0,0,0,3881,1808,2130,1586,2498,1748,1325,796,362,216,20,179,,,,,3881,1808,2130,1586,2498,1748,1325,796,362,216,20,179,,,,
Finland,Operator Holding Account,KERAVAN ENERGIA OY,Tervahaudankatu 6,Kerava,7716,7717,7717,13179,13179,13179,13179,13179,6070,5608,2095,0,0,0,0,0,8423,12032,1570,9121,4122,2188,3414,1385,1450,1945,245,1147,,,,,8423,12032,1570,9121,4122,2188,3414,1385,1450,1945,245,1147,,,,
Finland,Operator Holding Account,KERAVAN ENERGIA OY,Tervahaudankatu 6,Kerava,82,82,82,27,24,24,24,24,,,,,,,,,16,24,0,4,20,0,0,,,,,,,,,,16,24,,4,20,,,,,,,,,,,
Finland,Operator Holding Account,KERAVAN ENERGIA OY,Tervahaudankatu 6,Kerava,6,5,5,8,7,7,7,7,,,,,,,,,3,0,1,0,0,22,22,0,,,,,,,,,3,,1,,,22,22,,,,,,,,,
Finland,Operator Holding Account,KERAVAN ENERGIA OY,Tervahaudankatu 6,Kerava,0,0,0,0,0,0,0,0,,,,,,,,,0,0,0,0,0,0,0,0,,,,,,,,,,,,,,,,,,,,,,,,
Finland,Operator Holding Account,KERAVAN ENERGIA OY,Tervahaudankatu 6,Kerava,12871,12871,12871,10124,10123,10123,10123,10123,,,,,,,,,9004,11780,9484,9880,10117,12413,9749,8784,,,,,,,,,9004,11780,9484,9880,10117,12413,9749,8784,,,,,,,,
Finland,Operator Holding Account,KERAVAN ENERGIA OY,Tervahaudankatu 6,Kerava,1145,1144,1144,300,300,300,300,300,620,572,0,0,0,0,0,0,184,774,574,129,514,1443,443,134,30,23,2,64,,,,,184,774,574,129,514,1443,443,134,30,23,2,64,,,,
Finland,Operator Holding Account,KERAVAN ENERGIA OY,Tervahaudankatu 6,Kerava,21597,21597,21597,35171,35171,35171,35171,35171,27721,25621,11786,5394,4910,4439,3980,3539,22407,31262,38056,16745,19325,11855,7189,5559,2797,2097,3219,2278,,,,,22407,31262,38056,16745,19325,11855,7189,5559,2797,2097,3219,2278,,,,
Finland,Operator Holding Account,KERAVAN ENERGIA OY,Tervahaudankatu 6,Kerava,15892,15893,15893,26757,26754,26754,26754,26754,15296,14138,6505,4745,4235,3741,3262,2800,20759,21368,18475,24932,16983,11040,6672,7418,5702,4833,3973,4221,,,,,20759,21368,18475,24932,16983,11040,6672,7418,5702,4833,3973,4221,,,,
Finland,Operator Holding Account,Keravan Lämpövoima Oy,PL 40,Helsinki,,,,0,4648,55766,55766,55766,55239,50970,46815,42781,38863,35063,31376,27810,,,,,21761,58714,45847,34846,27802,35959,36201,29521,,,,,,,,58714,21761,,45847,34846,27802,35959,36201,29521,,,,
Finland,Operator Holding Account,Keräyskuitu Oy,Stora Enso Oyj,Imatra,10985,10986,0,,,,,,,,,,,,,,5480,3776,,,Not Reported,Not Reported,,,,,,,,,,,5480,3776,,,,,,,,,,,,,,
Finland,Operator Holding Account,KESKUSOSUUSKUNTA OULUN SEUDUN SAHKO,Voimatie 2,Kempele,74,74,74,57,57,57,57,57,39,34,0,0,0,0,0,0,0,18,164,1,0,133,4,0,0,0,0,3,,,,,,18,164,1,,133,4,,,,,3,,,,
Finland,Operator Holding Account,KESKUSOSUUSKUNTA OULUN SEUDUN SAHKO,Voimatie 2,Kempele,70,69,69,117,115,115,115,115,,,,,,,,,0,21,151,3,0,36,0,0,0,0,0,0,,,,,,21,151,3,,36,,,,,,,,,,
Finland,Operator Holding Account,KESKUSOSUUSKUNTA OULUN SEUDUN SAHKO,Voimatie 2,Kempele,,,,632,759,759,759,759,80,67,19,44,33,25,19,15,,,0,148,47,106,19,6,0,0,48,247,,,,,,,,148,47,106,19,6,,,48,295,,,,
Finland,Operator Holding Account,KESKUSOSUUSKUNTA OULUN SEUDUN SAHKO,Voimatie 2,Kempele,,,,,,,,,,,,,,,,,,,,,,,,,,,,0,,,,,,,,,,,,,,,,,,,,
Finland,Operator Holding Account,KEURUUN LAMPOVOIMA OY,PL 50,Keuruu,,,,0,0,0,16099,13798,15491,14314,9315,0,0,0,0,0,,,,,,1262,4422,3148,1648,1539,1602,,,,,,,,,,,1262,4422,3148,1648,1539,1602,,,,,
Finland,Operator Holding Account,KOKKOLAN ENERGIA OY,PL 165,Kokkola,197095,197094,197094,152491,155493,154609,154609,154609,57596,54442,51361,48360,45435,42586,39811,37114,127255,220145,172307,165509,145944,212181,192687,153267,156318,188369,113827,202068,,,,,127255,220145,172307,165509,145944,212181,192687,153267,156318,188369,113827,202068,,,,
Finland,Operator Holding Account,KOKKOLAN ENERGIA OY,PL 165,Kokkola,6,5,5,7,6,6,6,6,6,5,1,1,1,1,1,1,15,7,6,1,14,2,5,59,0,2,2,73,,,,,15,7,6,3,14,,5,59,,2,2,73,,,,
Finland,Operator Holding Account,KOKKOLAN ENERGIA OY,PL 165,Kokkola,1114,1115,1115,839,835,835,835,835,451,404,358,313,270,228,187,148,630,546,203,340,1162,621,893,1749,334,665,838,1345,,,,,630,546,203,340,1162,621,893,1749,334,665,838,1345,,,,
Finland,Operator Holding Account,KOKKOLAN ENERGIA OY,PL 165,Kokkola,443,444,444,446,443,443,443,443,317,283,63,55,47,40,33,26,296,305,609,355,625,703,678,697,15,148,137,456,,,,,296,305,609,1058,625,,678,697,15,148,137,456,,,,
Finland,Operator Holding Account,KOKKOLAN ENERGIA OY,PL 165,Kokkola,74812,74811,74811,67096,89626,94130,94130,94130,48326,44303,40387,36588,32903,29329,25865,22518,57265,67744,96051,78873,65384,64075,41513,38750,31300,24925,46384,29560,,,,,57265,67744,96051,78873,65384,64075,41513,38750,31300,24925,46384,29560,,,,
Finland,Operator Holding Account,KOSKISEN OY,Tehdastie 2,Järvelä,17926,17926,17926,42999,42999,42999,42999,42999,34241,33645,21717,19008,16384,13846,11389,9021,19386,8573,5674,4237,2520,1979,3303,2272,1622,1625,1822,2314,,,,,19386,8573,5674,4237,2520,1979,3303,2272,1622,1625,1822,2314,,,,
Finland,Operator Holding Account,KOSKISEN OY,Tehdastie 2,Järvelä,381,380,380,419,415,415,415,415,13993,13750,8873,7764,6688,5647,4641,3671,1330,847,639,880,709,214,153,362,477,314,407,519,,,,,1330,847,639,880,1295,214,153,362,477,314,407,519,,,,
Finland,Operator Holding Account,KOTKAMILLS OY,PL 62-63,Kotka,278945,278945,278945,259376,259376,259376,259376,259376,139564,136383,131179,127697,124229,120780,117338,113932,227983,255149,270573,261627,218010,268955,252665,236043,255035,226115,245567,205715,,,,,227983,255149,270573,261627,218010,268955,252665,236043,255035,226115,245567,205715,,,,
Finland,Operator Holding Account,KOTKAN ENERGIA OY,PL 232,Kotka,,,,79,75,75,75,75,,,,,,,,,0,0,0,0,0,0,0,0,,,,,,,,,,,,,,,,,,,,,,,,
Finland,Operator Holding Account,KOTKAN ENERGIA OY,PL 232,Kotka,25185,25184,25184,22363,22362,22362,22362,22362,,,,,,,,,22439,23570,24341,20416,4062,3795,2362,1937,1889,789,1908,673,,,,,22439,23570,24341,24478,,3795,2362,1937,1889,789,1908,673,,,,
Finland,Operator Holding Account,KOTKAN ENERGIA OY,PL 232,Kotka,17,16,16,0,0,0,0,0,25,23,5,18,15,13,11,8,0,0,51,0,58,43,0,12,31,7,29,30,,,,,,,51,,58,43,,12,31,7,29,30,,,,
Finland,Operator Holding Account,KOTKAN ENERGIA OY,PL 232,Kotka,335,335,335,1886,1884,1884,1884,1884,413,370,0,0,0,0,0,0,729,155,142,87,991,428,2127,815,131,62,7,65,,,,,729,155,142,1078,,428,2127,815,131,62,7,65,,,,
Finland,Operator Holding Account,KOTKAN ENERGIA OY,PL 232,Kotka,441,442,442,175,174,174,174,174,565,506,0,0,0,0,0,0,34,422,673,946,1436,561,1244,349,70,50,6,44,,,,,34,422,673,946,1436,561,1244,349,70,50,6,44,,,,
Finland,Operator Holding Account,KOTKAN ENERGIA OY,PL 232,Kotka,1883,1884,1884,239,235,235,235,235,1259,1126,0,0,0,0,0,0,115,732,1417,1547,1527,1554,1785,2058,302,119,218,370,,,,,115,732,1417,3220,1527,1554,112,2058,302,119,218,370,,,,
Finland,Operator Holding Account,KOTKAN ENERGIA OY,PL 232,Kotka,193742,193742,193742,208313,208313,208313,208313,208313,84326,78104,72042,66158,60440,54891,49504,44293,110745,165979,136774,129344,98477,137574,102273,88077,66997,73972,56109,66836,,,,,110745,165979,136774,129344,98477,137574,102273,88077,66997,73972,56109,66836,,,,
Finland,Operator Holding Account,KOTKAN ENERGIA OY,PL 232,Kotka,,,,,,,,,10828,9991,8851,7747,6678,5643,4642,3677,,,,,,,,0,498,10,1,2,,,,,,,,,,,,,498,10,1,2,,,,
Finland,Operator Holding Account,KRAFTNAT AALAND AB,PB 71,Mariehamn,5915,7887,7887,7012,7010,7010,7010,7010,0,0,0,0,0,0,0,0,1087,267,384,517,718,298,251,92,161,4309,844,139,,,,,,1354,384,768,718,298,,92,161,4309,844,139,,,,
Finland,Operator Holding Account,KSS ENERGIA OY,Hovioikeudenkatu 3,Kouvola,,,,0,0,0,0,0,,,,,,,,,,,0,Not Reported,,Not Reported,,,,,,,,,,,,,,,,,,,,,,,,,,
Finland,Operator Holding Account,KSS ENERGIA OY,Hovioikeudenkatu 3,Kouvola,36385,36385,36385,18208,18205,18205,18205,18205,7934,7100,6290,5506,4746,4011,3299,2613,10180,12048,8585,5309,8264,12270,10081,12423,11008,6029,5916,10130,,,,,10180,12048,8585,12747,826,12270,10081,12423,11008,6029,5916,10130,,,,
Finland,Operator Holding Account,KSS LAMPO OY,Hovioikeudenkatu 3,Kouvola,91,92,92,589,589,589,589,589,305,273,0,0,0,0,0,0,492,247,922,278,290,232,346,11,9,13,18,5,,,,,492,247,922,278,290,232,346,11,9,13,18,5,,,,
Finland,Operator Holding Account,KSS LAMPO OY,Hovioikeudenkatu 3,Kouvola,3211,3210,3210,3916,3913,3913,3913,3913,5492,4915,0,0,0,0,0,0,5128,2411,3909,1759,8132,5459,2392,197,167,117,311,1443,,,,,5128,2411,3909,1759,8132,5459,2392,197,167,117,311,1443,,,,
Finland,Operator Holding Account,KSS LAMPO OY,Hovioikeudenkatu 3,Kouvola,0,0,0,0,0,0,0,0,,,,,,,,,0,0,0,0,0,0,,,,,,,,,,,,,,,,,,,,,,,,,,
Finland,Operator Holding Account,KUHMON LAMPO OY,Hyryntie 40,Kuhmo,675,675,675,824,912,912,912,6991,39256,37451,26924,23566,20313,17166,14121,11185,724,1159,869,174,112,290,279,216,202,418,273,335,,,,,724,1159,869,286,,290,279,216,202,418,273,335,,,,
Finland,Operator Holding Account,KUMPUNIEMEN VOIMA OY,PL 43,Suolahti,5718,5717,5717,922,920,920,920,920,51126,49749,35352,31573,27911,24364,20927,17610,613,533,631,949,1007,852,705,952,646,352,265,321,,,,,613,533,631,949,1007,852,705,952,646,352,265,321,,,,
Finland,Operator Holding Account,KUOPION ENERGIA OY,PL 105,Kuopio,,,,3039,3035,3035,3035,3035,4207,3766,0,0,0,0,0,0,1203,2676,1992,1303,6276,8862,4160,3744,462,538,1285,1357,,,,,1203,2676,1992,1303,6276,8862,4160,3744,462,538,1285,1357,,,,
Finland,Operator Holding Account,KUOPION ENERGIA OY,PL 105,Kuopio,,,,0,0,3769,2260,2260,322,289,0,0,0,0,0,0,,,,0,493,705,558,149,6,23,53,14,,,,,,,,,493,705,558,149,6,23,53,14,,,,
Finland,Operator Holding Account,KUOPION ENERGIA OY,PL 105,Kuopio,639431,639432,639432,507977,507977,507977,507977,609687,198549,165953,136627,119012,102586,86691,71311,56482,532547,618926,576927,555541,572129,593683,494003,437249,357329,270835,260490,249143,,,,,532547,618926,576927,555541,572129,593683,494003,437249,357329,270835,260490,249143,,,,
Finland,Operator Holding Account,KUOPION ENERGIA OY,PL 105,Kuopio,764,763,763,3039,3035,3035,3035,3035,1187,1063,471,0,0,0,0,0,0,436,1265,1066,904,3286,2454,3432,1940,596,130,162,,,,,,436,1265,1066,904,3286,2454,3432,1940,596,130,162,,,,
Finland,Operator Holding Account,KUOPION ENERGIA OY,PL 105,Kuopio,2559,2559,2559,3649,3646,3646,3646,3646,1667,1491,330,578,498,421,346,274,2307,3842,2027,1882,2253,3834,442,2428,845,524,976,761,,,,,2307,3842,2027,1882,2253,3834,442,2428,845,524,976,761,,,,
Finland,Operator Holding Account,KUOPION ENERGIA OY,PL 105,Kuopio,25,26,26,0,0,0,0,0,0,0,0,0,0,0,0,0,0,0,0,0,0,4,0,0,0,0,0,0,,,,,,,,,,4,,,,,,,,,,
Finland,Operator Holding Account,KUOPION ENERGIA OY,PL 105,Kuopio,3,3,3,0,0,0,0,0,0,0,0,0,0,0,0,0,0,0,0,0,0,1,0,0,0,0,0,0,,,,,,,,,,1,,,,,,,,,,
Finland,Operator Holding Account,KUOPION ENERGIA OY,PL 105,Kuopio,1028,1029,1029,68,66,66,66,66,300,268,237,208,179,151,124,98,43,588,13,98,432,597,182,2776,2172,1871,854,746,,,,,43,588,13,280,432,597,,2776,2172,1871,854,746,,,,
Finland,Operator Holding Account,KUOPION ENERGIA OY,PL 105,Kuopio,419,418,418,0,0,0,0,0,798,715,633,554,477,403,331,262,0,22,37,11,20,81,43,1114,130,14,12,93,,,,,,22,37,11,20,81,43,1114,130,14,12,93,,,,
Finland,Operator Holding Account,KUOPION ENERGIA OY,PL 105,Kuopio,1536,1535,1535,2411,2407,2407,2407,2407,1295,1160,514,225,194,164,134,106,1523,1081,1055,1225,2146,2398,590,1378,1083,759,269,153,,,,,1523,1081,1055,1225,2146,2398,590,1378,1083,759,269,153,,,,
Finland,Operator Holding Account,KUOPION ENERGIA OY,PL 105,Kuopio,190,189,189,0,0,0,0,0,,,,,,,,,0,0,0,0,0,0,,,,,,,,,,,,,,,,,,,,,,,,,,
Finland,Operator Holding Account,KUUSAMON ENERGIA- JA VESIOSUUSKUNTA,Erauspojantie 3,Kuusamo,,,,,,,,,,,,,,,,,,,,,,,0,0,0,0,0,0,,,,,,,,,,,,,,,,,,,,
Finland,Operator Holding Account,KUUSAMON ENERGIA- JA VESIOSUUSKUNTA,Erauspojantie 3,Kuusamo,0,0,0,0,0,0,0,0,,,,,,,,,5,3,38,0,0,0,10,0,0,0,0,1,,,,,5,,3,,,,10,,,,,1,,,,
Finland,Operator Holding Account,KUUSAMON ENERGIA- JA VESIOSUUSKUNTA,Erauspojantie 3,Kuusamo,0,0,0,5,4,4,4,4,,,,,,,,,0,69,1,0,0,0,0,1,0,0,0,0,,,,,,,69,,,,,1,,,,,,,,
Finland,Operator Holding Account,KUUSAMON ENERGIA- JA VESIOSUUSKUNTA,Erauspojantie 3,Kuusamo,4784,4783,4783,2793,2791,2791,2791,2791,3301,2954,2617,2290,1972,1666,1369,1082,1862,2385,2033,1025,2440,3413,1671,1680,1116,1018,974,1157,,,,,1862,,4461,1025,2440,3413,1671,1680,1116,1018,974,1157,,,,
Finland,Operator Holding Account,KUUSAMON ENERGIA- JA VESIOSUUSKUNTA,Erauspojantie 3,Kuusamo,0,0,0,0,0,0,0,0,,,,,,,,,3,17,4,1,1,1,8,0,0,2,2,0,,,,,3,,,1,1,1,8,0,,2,2,,,,,
Finland,Operator Holding Account,KUUSAMON ENERGIA- JA VESIOSUUSKUNTA,Erauspojantie 3,Kuusamo,0,0,0,0,0,0,0,0,,,,,,,,,0,0,0,0,0,0,1,0,1,0,0,0,,,,,,,17,,,,1,,1,,,,,,,
Finland,Operator Holding Account,KUUSAMON JUUSTO OY,Kitkantie 110,Kuusamo,,,,12437,12437,12437,12437,12437,3532,3162,2800,2450,2111,1783,1465,1158,293,284,322,226,642,602,363,202,390,96,121,220,,,,,,577,322,226,642,602,363,202,390,96,121,220,,,,
Finland,Operator Holding Account,Kymin Voima Oy,Selluntie 3,KUUSANKOSKI,280168,280168,280168,170574,170573,170573,170573,170573,53802,48148,42654,37334,32181,27195,22370,17719,77107,85604,104191,69604,51490,64497,55269,51875,41352,51075,54337,78679,,,,,77107,85604,104191,78604,51490,55497,55269,51875,41352,51075,54337,78679,,,,
Finland,Operator Holding Account,LAANILAN VOIMA OY,PL 171,Oulu,248850,248849,248849,242153,242152,242152,242152,242152,6761,6050,5360,4692,4044,3417,2811,2226,255211,257132,258755,283545,261305,287319,260402,232850,210401,208558,193474,191657,,,,,255211,257132,258755,570864,261305,,260402,232850,210401,208558,193474,191657,,,,
Finland,Operator Holding Account,LAHTI ENERGIA OY,PL 93,Lahti,13238,13238,13238,11809,11805,11805,11805,11805,12571,12353,12132,11909,11683,11455,11225,10993,13522,10391,12558,12547,10203,10289,11237,13215,12714,12554,13080,3779,,,,,13522,10391,12558,12547,10203,10289,11237,13215,12714,12554,13080,3779,,,,
Finland,Operator Holding Account,LAHTI ENERGIA OY,PL 93,Lahti,,,,255,252,252,0,0,,,,,,,,,,,0,0,0,0,,,,,,,,,,,,,,,,,,,,,,,,,,
Finland,Operator Holding Account,LAHTI ENERGIA OY,PL 93,Lahti,,,,1407,1406,1406,1406,1406,,,,,,,,,,,0,2,8,2,223,26,42,1,0,0,,,,,,,,2,8,2,223,26,42,1,,,,,,
Finland,Operator Holding Account,LAHTI ENERGIA OY,PL 93,Lahti,,,,351,347,347,347,347,,,,,,,,,,,0,0,0,0,0,0,0,Not Reported,,,,,,,,,,,,,,,,,,,,,,
Finland,Operator Holding Account,LAHTI ENERGIA OY,PL 93,Lahti,,,,,,,,,,,,,,,,,,,,,,,1,11,0,0,0,,,,,,,,,,,,1,11,,,,,,,,
Finland,Operator Holding Account,LAHTI ENERGIA OY,PL 93,Lahti,8863,8863,8863,5838,5836,5836,5836,5836,1145,1026,249,27,27,26,26,25,8813,1927,39,2106,137,1887,1207,1132,676,236,21,448,,,,,8813,1927,39,2106,137,1887,1207,1132,676,236,21,448,,,,
Finland,Operator Holding Account,LAHTI ENERGIA OY,PL 93,Lahti,2615,2614,2614,2551,2547,2547,2547,2547,4917,4412,1071,119,117,114,112,110,3096,1141,10273,9134,6234,5045,2529,1211,1047,1139,16,2,,,,,3096,1141,10273,9134,6234,5045,2529,1211,1047,1139,16,2,,,,
Finland,Operator Holding Account,LAHTI ENERGIA OY,PL 93,Lahti,70,70,70,4,2,2,2,2,,,,,,,,,3,0,5,2,0,0,0,0,0,,,,,,,,3,,5,2,,,,,,,,,,,,
Finland,Operator Holding Account,LAHTI ENERGIA OY,PL 93,Lahti,110,110,110,29,28,28,28,28,143,128,114,4,4,3,3,3,34,30,109,12,353,3,169,534,93,55,0,0,,,,,34,30,109,12,353,3,169,534,93,55,,,,,,
Finland,Operator Holding Account,LAHTI ENERGIA OY,PL 93,Lahti,2983,2982,2982,1039,1035,1035,1035,1035,2649,2377,2113,84,84,84,84,84,1259,1915,2380,1113,3070,3782,2455,2561,892,848,228,11,,,,,1259,1915,2380,1113,3070,3782,2455,2561,892,848,228,11,,,,
Finland,Operator Holding Account,LAHTI ENERGIA OY,PL 93,Lahti,7147,7148,7148,3878,3878,3878,3878,3878,3096,2776,1261,55,54,53,52,51,4750,4777,2949,9440,3183,7148,4791,2757,2915,1940,407,1881,,,,,4750,4777,2949,9440,3183,7148,4791,2757,2915,1940,407,1881,,,,
Finland,Operator Holding Account,LAHTI ENERGIA OY,PL 93,Lahti,0,0,0,0,0,0,0,0,,,,,,,,,0,0,0,0,0,1,0,6,0,Not Reported,,,,,,,,,,,,1,,6,,,,,,,,
Finland,Operator Holding Account,LAHTI ENERGIA OY,PL 93,Lahti,783163,783164,783164,567312,567309,567309,567309,567309,208397,187067,166338,146263,126814,107992,89775,72207,605440,902493,694257,522627,677596,756801,704549,502707,545629,444270,387785,412110,,,,,605440,902493,694257,522627,677596,756801,704549,502707,545629,444270,387785,412110,,,,
Finland,Operator Holding Account,LAHTI ENERGIA OY,PL 93,Lahti,673,672,672,8,6,6,6,6,,,,,,,,,8,36,169,12,95,386,310,80,,,,,,,,,8,36,169,12,95,386,310,80,,,,,,,,
Finland,Operator Holding Account,LAHTI ENERGIA OY,PL 93,Lahti,2250,2250,2250,2452,2450,2450,2450,2450,4654,4177,1924,132,130,127,125,122,2976,1719,3310,3953,5872,6823,3689,3216,1991,1919,54,1793,,,,,2976,1719,3310,3953,5872,6823,3689,3216,1991,1919,54,1793,,,,
Finland,Operator Holding Account,LAHTI ENERGIA OY,PL 93,Lahti,176,177,177,24,21,21,21,2235,5786,5196,2415,1168,1030,896,767,642,26,1,40,33,80,1666,6854,8257,2775,2569,974,1759,,,,,26,1,40,33,80,1666,6854,8257,2775,2569,974,1759,,,,
Finland,Operator Holding Account,LAHTI ENERGIA OY,PL 93,Lahti,739,740,740,0,0,0,0,0,142,127,113,4,4,3,3,3,0,0,0,1,480,28,49,0,26,0,0,0,,,,,,,,1,480,28,49,,26,,,,,,,
Finland,Operator Holding Account,LAHTI ENERGIA OY,PL 93,Lahti,6895,6896,6896,5908,5904,5904,5904,5904,4675,4194,1016,110,108,106,104,102,9291,9238,4408,7393,4263,10712,7524,4233,6647,1227,199,121,,,,,9291,9238,4408,7393,4263,10712,7524,4233,6647,1227,199,122,,,,
Finland,Operator Holding Account,LAHTI ENERGIA OY,PL 93,Lahti,10,10,10,21,20,20,20,20,9,8,8,0,0,0,0,0,25,0,17,1,7,31,38,40,23,15,5,28,,,,,25,,17,1,7,31,38,40,23,15,5,28,,,,
Finland,Operator Holding Account,LAHTI ENERGIA OY,PL 93,Lahti,2390,2391,2391,918,917,917,917,917,346,310,0,0,0,0,0,0,1096,399,400,403,355,386,417,521,517,276,,,,,,,1096,399,400,403,355,386,417,521,517,276,,,,,,
Finland,Operator Holding Account,LAHTI ENERGIA OY,PL 93,Lahti,200,199,199,,,,,,,,,,,,,,19,57,26,,Not Reported,Not Reported,,,,,,,,,,,19,57,26,,,,,,,,,,,,,
Finland,Operator Holding Account,LAHTI ENERGIA OY,PL 93,Lahti,6,7,7,0,0,0,0,0,,,,,,,,,0,0,3,13,5,9,4,0,7,Not Reported,,,,,,,,,3,13,5,9,4,,7,,,,,,,
Finland,Operator Holding Account,LAHTI ENERGIA OY,PL 93,Lahti,131,131,131,7,3,3,3,3,,,,,,,,,4,0,9,0,2,0,0,1,0,0,3,3,,,,,4,,9,,2,,,1,,,3,3,,,,
Finland,Operator Holding Account,LAHTI ENERGIA OY,PL 93,Lahti,176,177,177,3,2,2,2,2,,,,,,,,,3,0,5,1,7,0,0,0,0,Not Reported,,,,,,,3,,5,1,7,,,,,,,,,,,
Finland,Operator Holding Account,LAHTI ENERGIA OY,PL 93,Lahti,7546,7545,7545,6155,6152,6152,6152,6152,6496,5831,5183,184,180,177,173,170,6812,6786,9555,7288,10214,6823,6660,9818,5405,27,237,928,,,,,6812,6786,9555,7288,10214,6823,6660,9818,5405,27,237,928,,,,
Finland,Operator Holding Account,LAHTI ENERGIA OY,PL 93,Lahti,1591,1590,1590,0,0,0,0,0,213,189,6,6,6,6,6,6,0,0,578,42,648,91,112,8,55,0,0,112,,,,,,,578,42,648,91,112,8,55,,,112,,,,
Finland,Operator Holding Account,LAHTI ENERGIA OY,PL 93,Lahti,2150,2150,2150,4098,4094,4094,4094,4094,4900,4395,2013,946,828,716,607,501,4963,2774,6552,7027,6290,5081,4165,6635,2539,2843,877,1505,,,,,4963,2774,6552,7027,6290,5081,4165,6635,2539,2843,877,1505,,,,
Finland,Operator Holding Account,LAHTI ENERGIA OY,PL 93,Lahti,287,287,287,7,4,4,4,4,213,190,169,42,37,32,27,23,5,115,394,5,149,635,118,1785,558,432,84,862,,,,,5,115,394,5,149,635,118,1785,558,432,84,862,,,,
Finland,Operator Holding Account,LAHTI ENERGIA OY,PL 93,Lahti,17876,17876,17876,9164,9164,9164,9164,9164,4747,4261,138,136,133,131,128,126,2535,4074,3624,11560,5450,8720,5571,2269,1486,1221,472,479,,,,,2535,4074,3624,11560,5450,8720,5571,2269,1486,1221,472,479,,,,
Finland,Operator Holding Account,LAHTI ENERGIA OY,PL 93,Lahti,4688,4689,4689,4905,4902,4902,4902,4902,7773,6961,6172,0,0,0,0,0,6467,7002,6981,7859,6495,8753,9186,7722,6507,5983,6020,,,,,,6467,7002,6981,7859,6495,8753,9186,7722,6507,5983,6020,,,,,
Finland,Operator Holding Account,LAHTI ENERGIA OY,PL 93,Lahti,,,,,,,,,,,,,,,,,,,,,,,,,0,0,0,135,,,,,,,,,,,,,,,,135,,,,
Finland,Operator Holding Account,LAHTI ENERGIA OY,PL 93,Lahti,,,,,,,,,,,,,,,,,,,,,,,,,556,895,735,1354,,,,,,,,,,,,,556,895,735,1354,,,,
Finland,Operator Holding Account,LAITILAN LAMPO OY,Vihtorinkatu 2,Laitila,,,,1571,1571,1571,1571,1571,0,0,0,0,0,0,0,0,0,0,13,32,6,48,3,76,29,0,0,63,,,,,,,13,38,,48,3,76,29,,,63,,,,
Finland,Operator Holding Account,LAITILAN LAMPO OY,Vihtorinkatu 2,Laitila,,,,0,0,0,0,0,453,406,90,79,68,57,47,37,55,929,903,274,1046,1115,423,877,807,239,143,169,,,,,,,1887,1320,,1115,423,877,807,239,143,169,,,,
Finland,Operator Holding Account,LAKKAUTETTU Fortum Power and Heat Oy,PL 100,FORTUM,783,0,0,,,,,,,,,,,,,,83,,,,Not Reported,Not Reported,,,,,,,,,,,83,,,,,,,,,,,,,,,
Finland,Operator Holding Account,LAKKAUTETTU Oulun Energia,PL 116,Oulu,0,0,0,,,,,,,,,,,,,,0,0,0,,Not Reported,Not Reported,,,,,,,,,,,,,,,,,,,,,,,,,,
Finland,Operator Holding Account,LAPPEENRANNAN ENERGIA OY,Simolantie 18,Lappeenranta,80,81,81,46,46,46,46,46,598,0,0,414,357,302,247,196,34,232,452,579,991,1094,564,735,91,34,521,1572,,,,,34,232,452,579,991,1094,564,735,91,34,521,1572,,,,
Finland,Operator Holding Account,LAPPEENRANNAN ENERGIA OY,Simolantie 18,Lappeenranta,2576,2577,2577,1358,1357,1357,1357,1357,9,8,8,0,0,0,0,0,9,1,6,201,23,1,17,4,29,11,1,31,,,,,9,1,6,201,23,1,17,4,29,11,1,31,,,,
Finland,Operator Holding Account,LAPPEENRANNAN ENERGIA OY,Simolantie 18,Lappeenranta,14848,14849,14849,139,14409,14409,14409,14409,17936,4013,3554,0,0,0,0,0,20554,14779,23634,19118,29212,14460,6327,11409,2347,2569,1264,4912,,,,,20554,14779,23634,19118,29212,14460,6327,11409,2347,2569,1264,4912,,,,
Finland,Operator Holding Account,LAPPEENRANNAN ENERGIA OY,Simolantie 18,Lappeenranta,34,35,35,336,332,332,332,332,651,584,517,452,389,329,270,214,4,0,24,574,506,1413,785,1477,1060,569,563,564,,,,,4,,24,574,506,1413,785,1477,1060,569,563,564,,,,
Finland,Operator Holding Account,LAPPEENRANNAN ENERGIA OY,Simolantie 18,Lappeenranta,218,218,218,14410,135,135,135,135,988,442,0,0,0,0,0,0,159,529,1584,1187,1898,499,452,40,439,46,49,564,,,,,159,529,1584,1187,1898,499,452,40,439,46,49,564,,,,
Finland,Operator Holding Account,LAPPEENRANNAN ENERGIA OY,Simolantie 18,Lappeenranta,222807,222806,222806,170707,170704,170704,170704,170704,18019,16126,14286,6252,5389,4554,3746,2967,175339,206125,158432,173292,114350,20219,15690,12675,17477,14826,7422,9959,,,,,175339,206125,158432,173292,114350,20219,15690,12675,17477,14826,7422,9959,,,,
Finland,Operator Holding Account,LAPUAN ENERGIA OY,Makasiinintie 7,Lapua,,,,33687,34118,34118,34118,34118,13957,12724,11524,10361,9234,8140,7081,6058,,,6173,22817,24342,25486,22404,24544,16139,13038,14527,15502,,,,,,,6173,22817,24342,25486,22404,24544,16139,13038,14527,15502,,,,
Finland,Operator Holding Account,LAPUAN ENERGIA OY,Makasiinintie 7,Lapua,,,,17,16,16,16,16,,,,,,,,,,,0,1,0,0,2,4,0,0,0,0,,,,,,,,1,,,2,4,,,,,,,,
Finland,Operator Holding Account,LAPUAN ENERGIA OY,Makasiinintie 7,Lapua,,,,0,0,0,0,0,,,,,,,,,,,0,1,0,0,0,1,0,0,0,0,,,,,,,,1,,,,1,,,,,,,,
Finland,Operator Holding Account,LECA FINLAND OY,Helsingintie 235,Kuusankoski,34329,34330,34330,39942,39938,39938,39938,39938,30927,30117,29311,28510,27712,26920,26131,25350,30926,33968,38411,39701,25915,34948,37475,36847,30782,25817,25153,31275,,,,,30926,33968,38411,39701,25915,34948,37475,36847,30782,25817,25153,31275,,,,
Finland,Operator Holding Account,LEPPAKOSKEN SAHKO OY,Eino Salmelaisen katu 23,Ikaalinen,207736,207736,207736,179761,179757,179757,183054,183996,44039,41524,39070,36679,34352,32085,29879,27736,187311,218589,157444,184553,87299,126612,118884,94436,83196,73992,59928,56781,,,,,187311,218589,157444,184553,87299,126612,118884,94436,83196,73992,59928,56781,,,,
Finland,Operator Holding Account,LIEDON LAMPO OY,Hyvättyläntie 6,Lieto,,,,5149,5148,5148,5148,5148,5030,4502,3988,3489,3005,2538,2085,1650,486,703,684,515,1729,2452,1174,658,760,508,1546,1843,,,,,,1189,684,515,1729,2452,1174,658,760,508,1546,1843,,,,
Finland,Operator Holding Account,LIEDON LAMPO OY,Hyvättyläntie 6,Lieto,,,,0,0,0,0,0,,,,,,,,,0,0,0,0,0,0,0,0,0,0,0,0,,,,,,,,,,,,,,,,,,,,
Finland,Operator Holding Account,LINMER LOHJA OY,Kotkantie 5,Lohja,2048,2047,2047,2019,2017,2017,2017,2017,36821,36182,35535,34881,34220,33554,32878,32200,1703,1759,1879,1608,436,109,59,69,0,0,0,0,,,,,1703,1759,1879,1608,436,109,59,69,,,,,,,,
Finland,Operator Holding Account,LINMER LOHJA OY,Kotkantie 5,Lohja,71496,71495,71495,64190,64190,64190,64190,64190,29274,296,0,0,0,0,0,0,77154,75796,77896,59820,54043,50242,52465,58136,38537,32068,15657,490,,,,,77154,75796,77896,59820,54043,50242,52465,58136,38537,32068,15657,490,,,,
Finland,Operator Holding Account,LOHJAN BIOLAMPO OY,"Metsäliitto Osuuskunta, PL 24",Lohja,,,,,,,,3745,31698,28367,25130,21996,18960,16022,13180,10439,,,,,,,Not Reported,733,2392,1931,1086,1608,,,,,,,,,,,,733,2392,1931,1086,1608,,,,
Finland,Operator Holding Account,LOIMAAN KAUKOLAMPO OY,Linjakatu 1,Loimaa,,,,7327,7323,7323,7323,7323,12399,11096,9828,8599,7408,6255,5140,4066,92,531,2314,700,1895,2579,1055,715,89,254,165,272,,,,,,92,2845,2595,,2579,1055,715,89,254,165,272,,,,
Finland,Operator Holding Account,LOIMAAN KAUKOLAMPO OY,Linjakatu 1,Loimaa,,,,0,0,0,0,0,25,21,5,16,14,12,10,7,0,166,58,10,45,65,110,99,6,9,157,11,,,,,,,225,55,,65,110,99,6,9,157,11,,,,
Finland,Operator Holding Account,LOIMAAN KAUKOLAMPO OY,Linjakatu 1,Loimaa,,,,0,0,0,0,0,,,,,,,,,0,0,0,0,0,0,0,0,,,,,,,,,,,,,,,,,,,,,,,,
Finland,Operator Holding Account,LOIMAAN KAUKOLAMPO OY,Linjakatu 1,Loimaa,,,,0,0,0,0,0,1040,931,206,0,0,0,0,0,244,651,821,447,1660,2347,875,1153,58,224,35,65,,,,,,244,1473,2107,,2347,875,1153,58,224,35,65,,,,
Finland,Operator Holding Account,LOIMAAN KAUKOLAMPO OY,Linjakatu 1,Loimaa,,,,0,0,0,0,0,0,0,0,0,0,0,0,0,14,39,50,2,91,96,41,59,2,5,0,44,,,,,,14,90,93,,96,41,59,2,5,,44,,,,
Finland,Operator Holding Account,LOIMAAN KAUKOLAMPO OY,Linjakatu 1,Loimaa,,,,,,,,,0,0,0,0,0,0,0,0,,,,,,156,63,60,7,37,13,69,,,,,,,,,,156,63,60,7,37,13,69,,,,
Finland,Operator Holding Account,LOIMAAN KAUKOLAMPO OY,Linjakatu 1,Loimaa,,,,,,,,,,,,,,,,,,,,,,,,1,0,2,1,4,,,,,,,,,,,,1,,2,1,4,,,,
Finland,Operator Holding Account,LOIMAAN KAUKOLAMPO OY,Linjakatu 1,Loimaa,,,,,,,,,4884,4371,3872,3389,2921,2469,2031,1608,,,,,,,,36,108,56,50,34,,,,,,,,,,,,36,108,56,50,34,,,,
Finland,Operator Holding Account,LOISTE LAMPO OY,Kettukalliontie 3,Kajaani,0,0,0,0,0,0,0,0,,,,,,,,,0,0,0,4,0,0,3,0,0,3,4,50,,,,,,,,4,4,,3,,,3,4,50,,,,
Finland,Operator Holding Account,LOISTE LAMPO OY,Kettukalliontie 3,Kajaani,4,4,4,15,11,11,11,11,,,,,,,,,44,0,7,0,0,17,8,2,0,5,0,55,,,,,44,,7,,,17,8,2,,5,,55,,,,
Finland,Operator Holding Account,LOISTE LAMPO OY,Kettukalliontie 3,Kajaani,0,0,0,5,1,1,1,1,,,,,,,,,9,0,0,0,3,0,0,0,,,,,,,,,9,,,,3,,,,,,,,,,,
Finland,Operator Holding Account,LOISTE LAMPO OY,Kettukalliontie 3,Kajaani,4,5,5,10,8,8,8,8,,,,,,,,,26,21,6,0,1,8,4,5,0,33,192,2,,,,,26,21,6,,1,8,4,5,,33,192,2,,,,
Finland,Operator Holding Account,LOISTE LAMPO OY,Kettukalliontie 3,Kajaani,925,925,925,993,992,992,992,992,4417,3953,875,3063,2639,2228,1831,1448,3179,5187,4516,3766,7846,8523,1286,1470,1858,1366,4069,3056,,,,,3179,5187,4516,3766,11141,8523,1286,1470,1858,1366,4069,3056,,,,
Finland,Operator Holding Account,LOISTE LAMPO OY,Kettukalliontie 3,Kajaani,0,0,0,0,0,0,0,0,,,,,,,,,0,0,4,0,0,2,0,0,0,0,0,1,,,,,,,4,,,2,,,,,,1,,,,
Finland,Operator Holding Account,LOISTE LAMPO OY,Kettukalliontie 3,Kajaani,0,0,0,2,1,1,1,1,,,,,,,,,6,2,0,0,15,4,0,0,0,0,0,24,,,,,6,2,,,15,4,,,,,,24,,,,
Finland,Operator Holding Account,LOISTE LAMPO OY,Kettukalliontie 3,Kajaani,12,12,12,29,26,26,26,26,,,,,,,,,61,0,2,11,0,3,0,6,0,0,0,1,,,,,61,,2,11,,3,,6,,,,1,,,,
Finland,Operator Holding Account,LUVIAN SAHA OY,Sahantie 1,Luvia,,,,,,,,,11912,10749,9522,8335,7184,6071,4994,3956,,,,,,,,,125,118,334,2650,,,,,,,,,,,,,125,118,334,2650,,,,
Finland,Operator Holding Account,MANTAN ENERGIA OY,Tehtaankatu 20,Mänttä,146438,146438,146438,131200,131197,131197,131197,131197,16892,14553,12401,10544,9130,7762,6436,5160,134139,138143,170415,143182,149405,142121,119263,102751,101881,99012,86687,91519,,,,,134139,138143,170415,143182,149405,142121,119263,102751,101881,99012,86687,91519,,,,
Finland,Operator Holding Account,MANTAN KAUKOLAMPO JA VESIHUOLTO OY,Kaskenkaatajantie 7,Mänttä,10,11,0,,,,,,,,,,,,,,0,,,,Not Reported,Not Reported,,,,,,,,,,,,,,,,,,,,,,,,,,
Finland,Operator Holding Account,MANTAN KAUKOLAMPO JA VESIHUOLTO OY,Kaskenkaatajantie 7,Mänttä,20,20,0,,,,,,,,,,,,,,0,,,,Not Reported,Not Reported,,,,,,,,,,,,,,,,,,,,,,,,,,
Finland,Operator Holding Account,MANTAN KAUKOLAMPO JA VESIHUOLTO OY,Kaskenkaatajantie 7,Mänttä,7,6,0,,,,,,,,,,,,,,0,,,,Not Reported,Not Reported,,,,,,,,,,,,,,,,,,,,,,,,,,
Finland,Operator Holding Account,MARIEHAMNS BIOENERGI AB,PB 15,Mariehamn,,,,0,0,0,7022,8426,15544,13911,12323,10786,9297,7857,6463,5119,,,,,,0,1,1,1,28,28,30,,,,,,,,,,,1,1,1,28,28,30,,,,
Finland,Operator Holding Account,MARIEHAMNS ENERGI AB,PB 15,Mariehamn,341,341,342,311,309,309,309,309,,,,,,,,,561,70,357,347,369,324,135,392,290,3216,488,50,,,,,,631,357,347,369,324,135,392,290,3216,488,50,,,,
Finland,Operator Holding Account,MARIEHAMNS ENERGI AB,PB 15,Mariehamn,153,153,152,101,99,99,99,99,91,77,63,53,43,37,30,24,32,356,276,2,1,244,304,5,14,5,2,3,,,,,,388,276,2,1,244,304,5,14,5,2,3,,,,
Finland,Operator Holding Account,MARIEHAMNS ENERGI AB,PB 15,Mariehamn,26,26,27,17,14,14,14,14,,,,,,,,,0,6,15,0,1,3,12,202,103,131,9,1,,,,,,6,15,4,,,12,202,103,131,9,1,,,,
Finland,Operator Holding Account,MARIEHAMNS ENERGI AB,PB 15,Mariehamn,3,3,4,12,10,10,10,10,,,,,,,,,0,0,4,0,1,15,84,8,5,36,1,84,,,,,,,4,,1,15,84,8,5,36,1,84,,,,
Finland,Operator Holding Account,MARIEHAMNS ENERGI AB,PB 15,Mariehamn,42835,42835,42835,38916,38913,38913,38913,38913,11964,10698,9469,8281,7139,6033,4963,3930,21269,21493,21495,9841,9332,14226,9341,8552,6188,6147,2909,5409,,,,,,42762,21495,9841,9332,14226,9341,8552,6188,6147,2909,5409,,,,
Finland,Operator Holding Account,MARIEHAMNS ENERGI AB,PB 15,Mariehamn,,,,,62,45,45,45,349,312,277,242,209,176,145,115,,,,39,0,0,0,0,0,0,0,2,,,,,,,,39,,,,,,,,2,,,,
Finland,Operator Holding Account,MARIEHAMNS ENERGI AB,PB 15,Mariehamn,,,,0,0,0,358,537,402,359,318,279,240,203,167,132,,,,,,1,0,0,0,0,0,1,,,,,,,,,,1,,,,,,1,,,,
Finland,Aircraft Operator Account,Metropolitan Life,1095 Avenue Of The Americas,New York,,,,,,,,,11,5,5,5,5,5,5,5,,,,,,,,,Excluded,Excluded,Excluded,Excluded,,,,,,,,,,,,,,,,,,,,
Finland,Operator Holding Account,METSA BOARD KEMI OY,Pajusaaren konttori,Kemi,1070,1069,1069,1111,1111,1111,1111,1111,84406,82940,81456,79957,78442,76913,75365,73810,1390,1149,1301,1113,917,1375,2029,4010,5845,6411,6435,6429,,,,,1390,1149,1301,1113,917,1375,2029,4010,5845,6411,6435,6429,,,,
Finland,Operator Holding Account,METSA BOARD OYJ,PL 20,METSÄ,34909,34908,34908,30730,30726,30726,30726,30726,51757,50858,49948,49029,48100,47162,46212,45259,22549,26457,25303,24479,23694,20309,21623,19512,23265,22557,27428,27499,,,,,22549,26457,25303,24479,23694,20309,21623,19512,23265,22557,27428,27499,,,,
Finland,Operator Holding Account,METSA BOARD OYJ,PL 20,METSÄ,3502,3503,3503,,,,,,,,,,,,,,3970,4721,4445,,Not Reported,Not Reported,,,,,,,,,,,3970,4721,4445,,,,,,,,,,,,,
Finland,Operator Holding Account,METSA BOARD OYJ,PL 20,METSÄ,96712,96711,96711,97395,97395,97395,97395,97395,55060,54103,53136,52158,51170,50172,49162,48148,81934,88513,81537,76034,66236,73853,71050,74299,69225,72754,75453,75672,,,,,81934,88513,81537,76034,66236,73853,71050,74299,69225,72754,75453,75672,,,,
Finland,Operator Holding Account,METSA BOARD OYJ,PL 20,METSÄ,0,0,0,0,0,0,0,0,52846,51928,51000,50061,49113,48155,47185,46212,0,0,0,0,0,0,0,0,0,0,0,0,,,,,,,,,,,,,,,,,,,,
Finland,Operator Holding Account,METSA BOARD OYJ,PL 20,METSÄ,0,0,0,0,0,0,0,0,,,,,,,,,0,0,0,0,0,0,0,0,,,,,,,,,,,,,,,,,,,,,,,,
Finland,Operator Holding Account,METSA BOARD OYJ,PL 20,METSÄ,134034,134035,134035,145541,145537,145537,145537,145537,56733,55523,54309,53093,51875,50656,49432,48212,100017,118938,115694,104814,82284,81106,72999,69751,85424,88010,83485,85900,,,,,100017,118938,115694,104814,82284,81106,72999,69751,85424,88010,83485,85900,,,,
Finland,Operator Holding Account,METSA BOARD OYJ,PL 20,METSÄ,13942,13941,13941,20671,0,0,0,0,,,,,,,,,23493,26342,23648,8362,,,,,,,,,,,,,23493,26342,23648,8362,,,,,,,,,,,,
Finland,Operator Holding Account,METSA BOARD OYJ,PL 20,METSÄ,32512,32513,32513,36420,36419,36419,36419,36419,7506,6717,5950,5208,4489,3794,3120,2472,66214,69255,56871,61560,10138,2547,3873,2155,3715,5600,5753,4190,,,,,66214,69255,56871,61560,10138,2547,3873,2155,3715,5600,5753,4190,,,,
Finland,Operator Holding Account,METSA BOARD OYJ,PL 20,METSÄ,,,,20922,20922,20922,20922,20922,71437,70197,68941,67673,66391,65096,63785,62470,2626,11284,4254,3786,4837,3380,3968,3696,0,0,0,0,,,,,2626,11284,4254,3786,4837,3380,3968,3696,,,,,,,,
Finland,Operator Holding Account,METSA BOARD OYJ,PL 20,METSÄ,194839,194839,194839,181529,181525,181525,181525,181525,63934,62824,61699,60565,59417,58257,57085,55908,166818,193367,176580,182911,166021,190442,149592,12531,5882,6247,6568,5967,,,,,166818,193367,176580,182911,166021,190442,149592,12531,5882,6247,6568,5967,,,,
Finland,Operator Holding Account,METSA FIBRE OY,PL 30,Metsä,148142,148142,148142,140488,140486,140486,140486,140486,31673,31122,30566,30004,29436,28861,28279,27697,68793,83801,83989,71597,73194,79663,78456,75544,56723,43430,38165,43154,,,,,68793,83801,83989,105955,73194,45305,78456,75544,56723,43430,38165,43154,,,,
Finland,Operator Holding Account,METSA FIBRE OY,PL 30,Metsä,182617,182618,182618,170720,170719,170719,170719,170719,36309,34633,22723,21512,20327,19169,18035,16931,88925,74642,63437,64597,60173,74898,66489,68708,61517,61947,60253,61224,,,,,88925,74642,63437,64597,60173,74898,66489,68708,61517,61947,60253,61224,,,,
Finland,Operator Holding Account,METSA FIBRE OY,PL 30,Metsä,62207,62208,62208,65155,65155,65155,65155,65155,29473,28961,28443,27920,27391,26857,26316,25774,49973,63152,60935,36530,43347,65290,62360,48791,45408,25439,77905,75092,,,,,49973,63152,60935,36530,43347,65290,62360,48791,45408,25439,77905,75092,,,,
Finland,Operator Holding Account,METSA FIBRE OY,PL 30,Metsä,42442,42441,42441,41771,41770,41770,41770,41770,48543,47601,46652,45698,44738,43774,42802,41831,7290,12784,22008,18164,12936,21026,38657,41067,58667,59495,66784,64343,,,,,7290,12784,22008,18164,12936,21026,38657,41067,58667,59495,66784,64343,,,,
Finland,Operator Holding Account,METSA FIBRE OY,PL 30,Metsä,1250,1250,1250,1264,1260,1260,1260,1260,33928,33010,22112,19354,16683,14098,11596,9185,741,684,669,631,3558,1659,2956,3051,4282,2542,5431,6161,,,,,741,684,669,631,3558,1659,2956,3051,4282,2542,5431,6161,,,,
Finland,Operator Holding Account,Metsä Tissue Oyj,PL 300,Mänttä,13817,13817,13817,13397,13393,13393,13393,13393,53918,43170,42398,40548,39779,39004,38219,37429,14305,15699,16156,15920,14048,14138,14269,14258,13724,13769,12694,13667,,,,,14305,15699,16156,15920,14048,14138,14269,14258,13724,13769,12694,13667,,,,
Finland,Operator Holding Account,Metso Fabrics Oy,PL 427,Tampere,5650,5651,5651,14196,14194,14194,14194,14194,,,,,,,,,6613,6631,6867,6698,6179,6020,5663,6164,0,,,,,,,,6613,6631,6867,12718,6179,,5663,6164,,,,,,,,
Finland,Operator Holding Account,Mondo Minerals B.V. Suomen sivuliike,PL 603,Kajaani,37481,37480,37480,34864,34860,34860,34860,34860,21766,21388,21006,20619,20229,19835,19435,19034,39838,30905,26884,19465,0,0,0,0,6620,6372,6653,7201,,,,,39838,30905,26884,19465,,,,,6620,6372,6653,7201,,,,
Finland,Operator Holding Account,Mondo Minerals B.V. Suomen sivuliike,PL 603,Kajaani,46035,46035,46035,42820,42817,42817,42817,42817,9737,9568,9397,9224,9050,8873,8694,8515,25689,31659,5520,0,0,0,0,0,3386,3595,3461,3427,,,,,25689,31659,5520,,,,,,3386,3595,3461,3427,,,,
Finland,Operator Holding Account,MUSSALON VOIMA OY,PL 108,Kotka,412491,412491,412491,93087,93084,93084,93084,93084,,,,,,,,,216138,451123,307552,139540,70818,0,0,0,0,,,,,,,,216138,451123,307552,139540,70818,,,,,,,,,,,
Finland,Operator Holding Account,MUSSALON VOIMA OY,PL 108,Kotka,156037,156036,156036,51046,51040,51040,51040,51040,0,0,0,0,0,0,0,0,1542,198899,2701,2650,2408,3114,1388,291,148,,,,,,,,1542,198899,2701,2650,2408,3114,1388,291,148,,,,,,,
Finland,Operator Holding Account,MUURAMEN LAMPO OY,PL 274,Jyväskylä,,,,,,,,,,,,,,,,,,,,,,,,,222,6,6,0,,,,,,,,,,,,,222,6,6,,,,,
Finland,Operator Holding Account,MUURAMEN LAMPO OY,PL 274,Jyväskylä,,,,,,,,,,,,,,,,,,,,,,,,,47,0,0,,,,,,,,,,,,,,47,,,,,,,
Finland,Operator Holding Account,Myllykoski Oyj,Myllykoskentie 1,Myllykoski,269940,269941,269941,153922,153922,153922,153922,153922,3167,2863,318,312,0,0,0,0,87923,106745,117404,126296,105795,105034,101784,21384,5671,0,0,0,,,,,87923,106745,117404,205430,105795,25900,101784,21384,5671,,,,,,,
Finland,Operator Holding Account,NAPAPIIRIN ENERGIA JA VESI OY,PL 8013,Rovaniemi,1,2,2,3,0,0,0,0,,,,,,,,,0,0,0,0,0,0,0,2,0,0,0,0,,,,,,,,,,,,2,,,,,,,,
Finland,Operator Holding Account,NAPAPIIRIN ENERGIA JA VESI OY,PL 8013,Rovaniemi,97,98,98,38,35,35,35,35,880,0,0,0,0,0,0,0,0,0,3,126,1171,2631,1861,977,142,236,21,453,,,,,,,3,126,1171,2631,1861,977,142,236,21,453,,,,
Finland,Operator Holding Account,NAPAPIIRIN ENERGIA JA VESI OY,PL 8013,Rovaniemi,104,105,105,38,38,38,38,38,,,,,,,,,0,0,0,0,0,0,26,0,0,0,0,0,,,,,,,,,,,26,,,,,,,,,
Finland,Operator Holding Account,NAPAPIIRIN ENERGIA JA VESI OY,PL 8013,Rovaniemi,7,6,6,4,2,2,0,0,,,,,,,,,0,0,0,0,0,0,,,,,,,,,,,,,,,,,,,,,,,,,,
Finland,Operator Holding Account,NAPAPIIRIN ENERGIA JA VESI OY,PL 8013,Rovaniemi,0,0,0,,,,,,,,,,,,,,0,138,0,,Not Reported,Not Reported,,,,,,,,,,,,138,,,,,,,,,,,,,,
Finland,Operator Holding Account,NAPAPIIRIN ENERGIA JA VESI OY,PL 8013,Rovaniemi,47,46,46,93,92,92,92,92,586,524,233,203,175,148,122,96,0,0,25,0,0,0,0,0,0,0,0,0,,,,,,,139,,,,,,,,,,,,,
Finland,Operator Holding Account,NAPAPIIRIN ENERGIA JA VESI OY,PL 8013,Rovaniemi,419,420,420,196,196,196,196,196,1439,644,285,0,0,0,0,0,87,1157,3288,1763,2143,2679,2480,3005,788,424,0,0,,,,,87,1157,3288,1763,2143,2679,2480,3005,788,424,,,,,,
Finland,Operator Holding Account,NAPAPIIRIN ENERGIA JA VESI OY,PL 8013,Rovaniemi,6185,6185,6185,5041,5039,5039,5039,5039,4749,4250,941,0,0,0,0,0,6657,10702,9236,5302,8396,8752,4687,5287,3810,940,509,849,,,,,6657,10702,9236,5302,8396,8752,4687,5287,3810,940,509,849,,,,
Finland,Operator Holding Account,NAPAPIIRIN ENERGIA JA VESI OY,PL 8013,Rovaniemi,220870,220869,220869,176648,176646,176646,176646,176646,88372,75673,67038,58676,50578,42742,35159,27848,214941,226453,209565,260639,235249,200431,165389,179492,163237,141437,105325,103962,,,,,214941,226453,209565,258631,237257,200431,165389,179492,163237,141437,105325,103960,,,,
Finland,Operator Holding Account,NAPAPIIRIN ENERGIA JA VESI OY,PL 8013,Rovaniemi,56,57,57,22,22,22,22,22,0,0,0,0,0,0,0,0,0,348,63,0,0,3,4,1,0,0,,,,,,,,348,63,,,3,4,1,,,,,,,,
Finland,Operator Holding Account,NAPAPIIRIN ENERGIA JA VESI OY,PL 8013,Rovaniemi,1312,1312,1312,990,987,987,987,987,815,0,0,0,0,0,0,0,739,2745,2137,0,11,99,189,132,0,0,0,0,,,,,739,2745,2137,,11,99,189,132,,,,,,,,
Finland,Operator Holding Account,NAPAPIIRIN ENERGIA JA VESI OY,PL 8013,Rovaniemi,379,379,379,341,339,339,339,339,211,0,0,0,0,0,0,0,249,516,484,265,222,120,57,124,7,3,0,0,,,,,249,516,484,265,222,120,57,124,7,3,,,,,,
Finland,Operator Holding Account,NAPAPIIRIN ENERGIA JA VESI OY,PL 8013,Rovaniemi,,,,,,,,,2230,1996,1769,1548,1333,1125,925,731,,,,,2226,6317,5628,6706,6129,6508,6035,6490,,,,,,,,,2226,6317,5628,6706,6129,6508,6035,6490,,,,
Finland,Operator Holding Account,NESTE OYJ,PL 95,NESTE,387346,353938,370642,357299,357297,357297,357297,357297,301135,295905,290613,285266,279861,274404,268879,263334,398765,324616,412334,417042,395084,396790,405536,307018,340613,322309,291922,314304,,,,,398765,324616,412334,417042,395084,396790,405536,307018,340613,322309,291922,314304,,,,
Finland,Operator Holding Account,NESTE OYJ,PL 95,NESTE,2694278,2694277,2694277,2869017,2869015,2869015,2869015,2869015,2183776,2145845,2107469,2068692,2029498,1989922,1949853,1909645,2262129,2496218,2754817,2981447,3073882,2913607,2953533,2826825,2882486,2768455,2620670,2853023,,,,,2262129,2496218,2754817,2981447,3073882,2913607,2953533,2826825,2882486,2768455,2620670,2853023,,,,
Finland,Operator Holding Account,NIVALAN KAUKOLAMPO OY,Hyttitie 5,Nivala,0,0,0,0,0,0,0,0,,,,,,,,,0,0,0,0,0,0,0,0,,,,,,,,,,,,,,,,,,,,,,,,
Finland,Operator Holding Account,NIVALAN KAUKOLAMPO OY,Hyttitie 5,Nivala,17,16,16,8,8,8,8,8,,,,,,,,,6,9,23,10,6,16,3,9,0,1,0,0,,,,,6,34,23,16,,16,3,9,,1,,,,,,
Finland,Operator Holding Account,NIVALAN KAUKOLAMPO OY,Hyttitie 5,Nivala,8607,8608,8608,7229,7227,7227,24801,21286,14692,13500,12339,11213,10120,9059,8032,7039,9366,12136,16095,9104,13468,14038,13545,14964,8317,7980,9938,8875,,,,,9366,12136,16095,9104,13468,14038,13545,14964,8317,7980,9938,8875,,,,
Finland,Operator Holding Account,NIVALAN KAUKOLAMPO OY,Hyttitie 5,Nivala,4,4,4,5,1,1,1,1,,,,,,,,,1,0,0,0,0,0,0,0,0,0,0,0,,,,,1,11,,,,,,,,,,,,,,
Finland,Operator Holding Account,NIVALAN KAUKOLAMPO OY,Hyttitie 5,Nivala,,,,0,0,0,0,0,,,,,,,,,0,0,15,0,0,0,0,0,0,0,0,0,,,,,,0,15,,,,,,,,,,,,,
Finland,Operator Holding Account,NIVALAN KAUKOLAMPO OY,Hyttitie 5,Nivala,,,,,,,,,,,,,,,,,,,,,,Not Reported,,,,,,,,,,,,,,,,,,,,,,,,,,
Finland,Aircraft Operator Account,NORDIC GLOBAL AIRLINES OY,Lastenkodinkatu 7 A 17,180,,,,,,,,,,,,,,,,,,,,,,,,5245,7596,6933,,,,,,,,,,,,,,5245,,14529,,,,,,
Finland,Aircraft Operator Account,NORDIC REGIONAL AIRLINES OY,Öljykuja 2,Vantaa,,,,,,,,29075,27469,27469,27469,0,,,,,,,,,,,,132994,269750,260692,61695,,,,,,,,,,,,,132994,,530442,61695,,,,,
Finland,Operator Holding Account,NORDKALK OY AB,Skräbbölentie 18,Parainen,97116,97116,97116,94159,94158,94158,94158,94158,57439,56322,0,0,0,0,0,0,92071,91749,90026,89097,52690,81949,83803,73108,80979,19154,,,,,,,92071,91749,90026,89097,52690,81949,83803,73108,80979,19154,,,,,,
Finland,Operator Holding Account,NORDKALK OY AB,Skräbbölentie 18,Parainen,78041,78040,78040,76056,76053,76053,76053,76053,10433,20504,40274,39533,38784,38028,37262,36494,65516,65095,62908,55968,17663,223,0,10811,17962,59000,52773,65253,,,,,65516,65095,62908,55968,17663,223,,10811,17962,59000,52773,65253,,,,
Finland,Operator Holding Account,NORDKALK OY AB,Skräbbölentie 18,Parainen,86245,86244,86244,83263,83263,83263,83263,83263,63305,61935,60562,59187,57810,56432,55050,53675,90436,95722,96561,95111,61699,94981,95925,59286,70211,91146,84356,85008,,,,,90436,95722,96561,95111,61699,94981,95925,59286,70211,91146,84356,85008,,,,
Finland,Operator Holding Account,NORDKALK OY AB,Skräbbölentie 18,Parainen,180200,180199,180199,173328,173326,173326,173326,173326,223319,219441,215516,211551,207543,203496,199398,195286,181274,194096,191995,161231,146532,153802,168247,160229,173649,178968,155485,158190,,,,,181274,194096,191995,161231,146532,153802,168247,160229,173649,178968,154874,158801,,,,
Finland,Operator Holding Account,NORDKALK OY AB,Skräbbölentie 18,Parainen,249980,249979,249979,242356,242354,242354,242354,242354,135029,132350,66336,64793,63251,61708,60162,58624,175325,191910,189010,162942,153563,121704,150068,117894,109065,84005,79466,82862,,,,,175326,191909,189010,162942,153563,121704,150068,117894,109065,84005,79466,82862,,,,
Finland,Operator Holding Account,NURMEKSEN LAMPO OY,Kauppatori 3,Nurmes,8990,8991,8991,8698,8698,8698,8698,8698,17628,16561,12554,10984,9462,7990,6565,5194,3965,4019,5805,5151,3362,3247,1813,2589,2110,3050,2517,2435,,,,,3965,4019,5805,5151,3362,3247,1813,2589,2110,3050,2517,2435,,,,
Finland,Operator Holding Account,NURMEKSEN LAMPO OY,Kauppatori 3,Nurmes,496,497,497,0,4543,4193,4193,4193,3394,3037,2690,2354,2027,1712,1407,1113,98,425,773,318,100,544,224,294,60,127,75,389,,,,,98,425,773,318,100,544,224,294,60,127,75,389,,,,
Finland,Operator Holding Account,NURMIJARVEN SAHKO OY,Kauppanummentie 1,NURMIJÄRVI,12349,12349,12349,11769,11765,11765,11765,11765,7653,6848,6066,5307,4572,3861,3173,2509,1152,1081,466,337,681,961,790,1071,610,677,732,1221,,,,,1152,1081,466,337,681,961,790,1071,610,677,732,1221,,,,
Finland,Operator Holding Account,NURMIJARVEN SAHKO OY,Kauppanummentie 1,NURMIJÄRVI,0,0,0,0,0,0,0,0,,,,,,,,,0,4,13,4,0,3,7,2,6,5,0,11,,,,,,4,13,4,,3,7,2,6,5,,11,,,,
Finland,Operator Holding Account,NURMIJARVEN SAHKO OY,Kauppanummentie 1,NURMIJÄRVI,,,,10981,10981,10981,10981,10981,4062,3635,3220,2818,2427,2049,1683,1332,,0,1704,276,149,288,145,211,324,135,276,245,,,,,,,1704,276,149,288,145,211,324,135,276,245,,,,
Finland,Operator Holding Account,NURMIJARVEN SAHKO OY,Kauppanummentie 1,NURMIJÄRVI,,,,0,0,0,0,0,,,,,,,,,,0,1,0,0,0,0,2,0,0,,,,,,,,,1,,,,,2,,,,,,,,
Finland,Operator Holding Account,NURMIJARVEN SAHKO OY,Kauppanummentie 1,NURMIJÄRVI,,,,,,,,,,,,,,,,,,,,,,,,,,0,0,1,,,,,,,,,,,,,,,,1,,,,
Finland,Operator Holding Account,NURMIJARVEN SAHKO OY,Kauppanummentie 1,NURMIJÄRVI,,,,,,,,,,,,,,,,,,,,,,,,,,1,0,3,,,,,,,,,,,,,,1,,3,,,,
Finland,Operator Holding Account,NURMIJARVEN SAHKO OY,Kauppanummentie 1,NURMIJÄRVI,,,,,,,,,,,,,,,,,,,,,,,,,,72,149,158,,,,,,,,,,,,,,72,149,158,,,,
Finland,Operator Holding Account,O-I Manufacturing Finland Oy,Lasimestarintie 9,Kotka,41745,41746,41746,36934,36932,0,0,0,,,,,,,,,40276,40995,42045,29204,14436,,,,,,,,,,,,40276,40995,42045,29204,14436,,,,,,,,,,,
Finland,Operator Holding Account,OULUN ENERGIA OY,PL 116,Oulu,4537,4536,4536,1736,1734,1734,1734,1734,1827,1534,661,1065,918,775,637,504,1869,3439,3118,2377,1293,3627,1218,2493,383,975,2383,1264,,,,,1869,3439,3118,2377,1293,3627,1218,2493,383,975,2383,1264,,,,
Finland,Operator Holding Account,OULUN ENERGIA OY,PL 116,Oulu,333,334,334,12,11,0,0,0,,,,,,,,,0,0,0,0,0,,,,,,,,,,,,,,,,,,,,,,,,,,,
Finland,Operator Holding Account,OULUN ENERGIA OY,PL 116,Oulu,2992,2993,2993,1853,0,0,0,0,,,,,,,,,1851,2603,3236,0,Not Reported,Not Reported,,,,,,,,,,,1851,2603,3236,,,,,,,,,,,,,
Finland,Operator Holding Account,OULUN ENERGIA OY,PL 116,Oulu,1256073,1256073,1256073,859976,859974,859974,859974,859974,296527,250419,215028,188718,163231,138568,114699,91685,929868,1262302,1139228,840554,626050,861187,796953,667604,609910,519453,518232,523147,,,,,929868,1262302,1139228,840554,626050,861187,796953,667604,609910,519453,518232,523147,,,,
Finland,Operator Holding Account,OULUN ENERGIA OY,PL 116,Oulu,0,0,0,0,0,0,0,0,,,,,,,,,0,0,43,0,0,0,14,0,,,,,,,,,,,43,,,,14,,,,,,,,,
Finland,Operator Holding Account,OULUN ENERGIA OY,PL 116,Oulu,0,0,0,0,0,0,0,0,,,,,,,,,0,0,133,0,0,0,0,0,,,,,,,,,,,133,,,,,,,,,,,,,
Finland,Operator Holding Account,OULUN ENERGIA OY,PL 116,Oulu,,,,3039,3035,3035,3035,3035,4210,3775,1714,1508,1308,1115,928,747,769,5474,4148,3881,4783,10653,3247,5663,1014,2925,3419,2992,,,,,769,5474,4148,3881,4783,10653,3247,5663,1014,2925,3419,2992,,,,
Finland,Operator Holding Account,OULUN ENERGIA OY,PL 116,Oulu,,,,2786,3035,3035,3035,3035,4522,4054,1842,3158,2730,2317,1916,1531,,,591,1743,3914,13231,3298,7603,1546,3958,4598,3432,,,,,,,591,1743,3914,13231,3298,7603,1546,3958,4598,3432,,,,
Finland,Operator Holding Account,OULUN ENERGIA OY,PL 116,Oulu,,,,0,2096,2515,2515,2515,1914,1715,779,1337,1155,981,811,648,,,,130,2857,5650,820,1954,244,1089,2835,1405,,,,,,,,130,2857,5650,1071,1703,244,1089,2835,1405,,,,
Finland,Operator Holding Account,OULUN ENERGIA OY,PL 116,Oulu,,,,,,,,,,,,,,,,,,,,,,,,511,22,31,189,375,,,,,,,,,,,,511,22,31,189,375,,,,
Finland,Operator Holding Account,OUTOKUMMUN ENERGIA OY,PL 53,Outokumpu,0,0,0,0,0,0,0,0,,,,,,,,,0,0,0,0,0,0,0,0,,,,,,,,,,,,,,,,,,,,,,,,
Finland,Operator Holding Account,OUTOKUMMUN ENERGIA OY,PL 53,Outokumpu,21333,21333,21333,17057,17053,17053,17053,17053,11333,10143,8984,7861,6772,5718,4698,3716,5143,8842,8959,6448,5245,12523,620,466,39,616,123,160,,,,,5143,8842,8959,11693,,12523,620,466,39,616,123,160,,,,
Finland,Operator Holding Account,OUTOKUMMUN ENERGIA OY,PL 53,Outokumpu,0,0,0,0,0,0,0,0,,,,,,,,,0,0,0,0,0,0,0,64,0,0,9,0,,,,,,,,,,,,64,,,9,,,,,
Finland,Operator Holding Account,OUTOKUMMUN ENERGIA OY,PL 53,Outokumpu,0,0,0,0,0,0,0,0,,,,,,,,,0,0,0,0,0,0,0,0,0,0,,,,,,,,,,,,,,,,,,,,,,
Finland,Operator Holding Account,OUTOKUMMUN ENERGIA OY,PL 53,Outokumpu,0,0,0,1033,1032,1032,1032,1032,2,2,0,0,0,0,0,0,0,0,0,0,0,9,6,108,0,6,0,0,,,,,,,,,,9,6,108,,6,,,,,,
Finland,Operator Holding Account,OUTOKUMPU STAINLESS OY,Tornion tehtaat,Tornio,948692,948693,948693,1006039,1006038,1006038,1006038,1016360,659284,647834,636248,624541,612709,600760,588663,576526,681521,733510,635668,612271,375649,606253,592157,573613,640434,697749,708526,672901,,,,,681521,733510,635668,612271,375649,606253,592157,573613,640434,697749,708526,672901,,,,
Finland,Operator Holding Account,OVAKO IMATRA OY AB,Terästehtaantie 1,Imatra,61120,61120,61120,58809,58805,58805,58805,58805,54549,53601,52643,51674,50695,49707,48706,47701,55885,56375,60814,58891,31638,53593,58159,44530,46865,54133,50551,57998,,,,,55885,56375,60814,58891,31638,53593,58159,44530,46865,54133,50551,57998,,,,
Finland,Operator Holding Account,OY AGA AB,Itsehallintokuja 6,Espoo,,,,,,,,,,,,,,,,,,,,,,,,,,,,80279,,,,,,,,,,,,,,,,80279,,,,
Finland,Aircraft Operator Account,Oy Air Finland Ltd (bankruptcy estate),c/o Attorneys at law Borenius Ltd,Helsinki,,,,,,,,49116,,,,,,,,,,,,,,,,46504,,,,,,,,,,,,,,,,46504,,,,,,,,
Finland,Operator Holding Account,OY ALHOLMENS KRAFT AB,PL 250,Pietarsaari,1239861,1239862,1239862,538347,538346,538346,538346,538346,37023,34011,31079,28235,25474,22798,20202,17693,1069476,1189484,1457663,767793,666392,873947,828526,440729,560960,688131,363183,348194,,,,,1069476,1189484,1457663,767793,666392,873947,828526,440729,560960,688131,363183,348194,,,,
Finland,Operator Holding Account,OY HERRFORS AB,Köpmansgatan 10,Jakobstad,1,1,1,7,6,6,6,6,,,,,,,,,0,98,0,0,0,0,0,0,0,0,0,12,,,,,,98,,,,,,,,,,12,,,,
Finland,Operator Holding Account,OY HERRFORS AB,Köpmansgatan 10,Jakobstad,1,1,1,14,10,10,10,10,,,,,,,,,18,0,0,1,1,0,3,14,2,4,1,2,,,,,18,,,4,1,,,14,2,4,1,2,,,,
Finland,Operator Holding Account,OY HERRFORS AB,Köpmansgatan 10,Jakobstad,479,478,478,1172,1169,1169,1169,1169,234,209,186,163,139,118,97,77,482,390,213,144,297,578,149,4348,235,615,406,101,,,,,482,390,213,144,297,578,149,4348,235,615,406,101,,,,
Finland,Operator Holding Account,OY HERRFORS AB,Köpmansgatan 10,Jakobstad,31,31,31,54,50,50,50,50,,,,,,,,,343,26,2,10,132,1,3,161,5,52,20,3,,,,,343,26,2,13,132,1,,161,5,52,20,3,,,,
Finland,Operator Holding Account,OY PERHONJOKI AB,Kauppiaankatu 10,Pietarsaari,171,171,171,333,404,404,404,404,145,133,57,73,67,62,56,50,130,105,59,5,178,360,136,149,36,7,69,49,,,,,130,105,59,5,178,360,136,149,36,7,69,49,,,,
Finland,Operator Holding Account,OY PERHONJOKI AB,Kauppiaankatu 10,Pietarsaari,0,0,0,0,0,0,0,0,,,,,,,,,0,0,0,0,0,4,0,0,0,0,0,0,,,,,,,,,,4,,,,,,,,,,
Finland,Operator Holding Account,OY PERHONJOKI AB,Kauppiaankatu 10,Pietarsaari,40071,40071,40071,34045,34044,34044,34044,34044,26921,23813,20964,18367,16092,14449,12856,11315,37820,41393,43474,44775,42953,48776,46196,43895,31379,38422,42604,44275,,,,,37820,41393,43474,44775,42953,48776,46196,43895,31379,38422,42604,44275,,,,
Finland,Operator Holding Account,OY PERHONJOKI AB,Kauppiaankatu 10,Pietarsaari,0,0,0,0,0,0,0,0,,,,,,,,,0,0,0,0,0,0,0,0,0,0,0,0,,,,,,,,,,,,,,,,,,,,
Finland,Operator Holding Account,Oy SCA Hygiene Products Ab,PL 1,Nokia,9784,9785,9785,9320,9319,9319,9319,9319,25806,25358,24905,24446,23983,23515,23042,22567,9607,10401,11515,9386,8896,7689,8651,8521,7266,7106,5946,5708,,,,,,20008,11515,9386,8896,7689,8651,8521,7266,7106,5946,5708,,,,
Finland,Operator Holding Account,OY TURKU ENERGIA-AABO ENERGI AB,Linnankatu 65,Turku,194,193,193,217,217,217,217,217,324,271,0,206,178,150,124,98,229,561,497,407,253,732,1142,1518,57,0,642,944,,,,,229,561,497,407,253,732,1142,1518,57,,642,944,,,,
Finland,Operator Holding Account,OY TURKU ENERGIA-AABO ENERGI AB,Linnankatu 65,Turku,0,0,0,0,0,0,0,0,19,17,0,13,11,9,8,7,0,57,21,0,0,85,39,142,42,4,541,211,,,,,,57,21,,,85,39,142,42,4,541,211,,,,
Finland,Operator Holding Account,OY TURKU ENERGIA-AABO ENERGI AB,Linnankatu 65,Turku,0,0,0,0,0,0,0,0,2,1,0,0,0,0,0,0,0,0,0,0,3,5,5,0,0,3,0,16,,,,,,,,,3,5,5,,,3,,16,,,,
Finland,Operator Holding Account,OY TURKU ENERGIA-AABO ENERGI AB,Linnankatu 65,Turku,4351,4350,4350,21684,21681,21681,21681,21681,3509,2980,208,2247,1960,1682,1414,1154,6915,5879,3976,2428,3741,8496,5083,10692,782,267,3391,1991,,,,,6915,5879,3976,2428,3741,8496,5083,10692,782,267,3391,1991,,,,
Finland,Operator Holding Account,OY TURKU ENERGIA-AABO ENERGI AB,Linnankatu 65,Turku,3897,3897,3897,2229,2225,2225,2225,2225,1886,1700,1518,1341,1170,1005,843,689,751,5334,2802,1193,2378,4938,4083,9726,832,1843,5438,2320,,,,,751,5334,2802,1193,2378,4938,4083,9726,832,1843,5438,2320,,,,
Finland,Operator Holding Account,OY TURKU ENERGIA-AABO ENERGI AB,Linnankatu 65,Turku,0,0,0,0,0,0,0,0,18,16,1,1,1,1,1,1,0,0,0,0,3,76,6,106,27,0,68,108,,,,,,,,,3,76,6,106,27,,68,108,,,,
Finland,Operator Holding Account,OY TURKU ENERGIA-AABO ENERGI AB,Linnankatu 65,Turku,94338,94337,94337,8698,8695,8695,8695,8695,8085,7002,6253,5526,4820,4137,3477,2840,9954,13998,11440,3749,10177,20054,16791,19499,6806,9205,12112,13866,,,,,9954,13998,11440,3749,10177,20054,16791,19499,6806,9205,12112,13866,,,,
Finland,Operator Holding Account,OY TURKU ENERGIA-AABO ENERGI AB,Linnankatu 65,Turku,11843,11842,11842,40759,40756,40756,40756,40756,9414,8015,3840,6273,5472,4696,3946,3223,13010,13289,12415,5955,9443,25714,12019,18942,5368,5157,4444,7813,,,,,13010,13289,12415,5955,9443,25714,12019,18942,5368,5157,4444,7813,,,,
Finland,Operator Holding Account,OY TURKU ENERGIA-AABO ENERGI AB,Linnankatu 65,Turku,2895,2896,2896,16821,16817,16817,16817,16817,48081,43342,21087,34253,29912,25709,21639,17720,5421,8522,9382,5556,4997,7162,5182,2401,1986,1460,1083,89,,,,,5421,8522,9382,5556,4997,7162,5182,2401,1986,1460,1083,89,,,,
Finland,Operator Holding Account,OY TURKU ENERGIA-AABO ENERGI AB,Linnankatu 65,Turku,37,36,36,10,10,10,10,10,4,4,0,2,2,2,1,1,3,46,11,0,0,0,2,61,21,0,43,3,,,,,3,46,11,,,,2,61,21,,43,3,,,,
Finland,Operator Holding Account,OY TURKU ENERGIA-AABO ENERGI AB,Linnankatu 65,Turku,0,0,0,17,17,17,17,17,899,811,725,641,559,480,404,332,5,3,5,0,15,0,2,0,31,0,0,0,,,,,5,3,5,,15,,2,,31,,,,,,,
Finland,Operator Holding Account,OY TURKU ENERGIA-AABO ENERGI AB,Linnankatu 65,Turku,0,0,0,104,100,100,100,100,0,0,0,0,0,0,0,0,33,1,0,0,15,1,3,358,12,37,91,26,,,,,33,1,,,15,1,3,358,12,37,91,26,,,,
Finland,Operator Holding Account,OY TURKU ENERGIA-AABO ENERGI AB,Linnankatu 65,Turku,10456,10456,10456,29463,29463,29463,29463,29463,7316,6547,2900,5074,4371,3691,3033,2399,11540,12295,9509,4149,7328,20107,12001,17885,7698,7019,7389,10725,,,,,11540,12295,9509,4149,7328,20107,12001,17885,7698,7019,7389,10725,,,,
Finland,Operator Holding Account,OY TURKU ENERGIA-AABO ENERGI AB,Linnankatu 65,Turku,7716,7716,7716,7186,7185,7185,7185,7185,4994,4701,4415,2880,2632,2390,2154,1927,10451,11320,10445,10110,9929,10510,9991,10024,9808,9534,8807,9321,,,,,10451,11320,10445,10110,9929,10510,9991,10024,9808,9534,8807,9321,,,,
Finland,Operator Holding Account,OY TURKU ENERGIA-AABO ENERGI AB,Linnankatu 65,Turku,0,0,0,23,19,19,19,19,47,43,0,0,0,0,0,0,26,74,84,20,78,134,192,685,779,2,7,15,,,,,26,74,84,154,78,,192,685,779,2,7,15,,,,
Finland,Operator Holding Account,OY TURKU ENERGIA-AABO ENERGI AB,Linnankatu 65,Turku,1420,1420,1420,318,315,315,315,315,1499,1341,594,1039,895,756,621,491,382,995,1178,603,2802,4347,3810,4016,1600,1015,854,2329,,,,,382,995,1178,603,2802,4347,3810,4016,1600,1015,854,2329,,,,
Finland,Operator Holding Account,OY TURKU ENERGIA-AABO ENERGI AB,Linnankatu 65,Turku,0,0,0,0,0,0,0,0,0,0,0,0,0,0,0,0,0,0,0,24,0,0,4,45,0,0,0,0,,,,,,,,24,,,4,45,,,,,,,,
Finland,Operator Holding Account,OY TURKU ENERGIA-AABO ENERGI AB,Linnankatu 65,Turku,0,0,0,13,9,9,9,9,8,7,1,2,2,2,2,1,13,12,17,12,11,0,18,28,3,6,20,1,,,,,13,12,17,12,11,,18,28,3,6,20,1,,,,
Finland,Operator Holding Account,OY TURKU ENERGIA-AABO ENERGI AB,Linnankatu 65,Turku,378,378,378,404,402,402,402,402,303,252,41,166,129,105,87,68,486,496,767,151,550,68,0,553,21,17,104,33,,,,,972,496,767,219,550,,,553,21,17,104,33,,,,
Finland,Operator Holding Account,OY TURKU ENERGIA-AABO ENERGI AB,Linnankatu 65,Turku,0,0,0,0,0,0,0,0,25,21,0,0,0,0,0,0,0,0,0,8,40,67,1,0,16,0,0,20,,,,,,,,8,40,67,1,,16,,,20,,,,
Finland,Operator Holding Account,OY TURKU ENERGIA-AABO ENERGI AB,Linnankatu 65,Turku,,,,4112,4112,4112,4112,4112,222,200,15,14,14,14,13,13,0,238,158,75,200,780,1,0,1,0,12,3,,,,,,238,158,75,200,780,1,,1,,12,3,,,,
Finland,Operator Holding Account,OY TURKU ENERGIA-AABO ENERGI AB,Linnankatu 65,Turku,,,,1011,1010,1010,1010,1010,64,55,0,0,0,0,0,0,,0,0,0,0,7,0,0,0,0,,,,,,,,,,,,7,,,,,,,,,,
Finland,Operator Holding Account,OY TURKU ENERGIA-AABO ENERGI AB,Linnankatu 65,Turku,,,,,,,,,2,1,1,1,1,1,1,1,,,,,29,11,3,0,3,5,51,22,,,,,,,,29,,11,3,,3,5,51,22,,,,
Finland,Operator Holding Account,OY TURKU ENERGIA-AABO ENERGI AB,Linnankatu 65,Turku,0,0,0,0,0,0,0,0,327,293,0,0,0,0,0,0,0,136,448,0,337,760,0,7,0,3,0,41,,,,,,136,448,,337,760,,7,,3,,41,,,,
Finland,Operator Holding Account,OY TURKU ENERGIA-AABO ENERGI AB,Linnankatu 65,Turku,292,292,292,0,0,0,0,0,1,1,1,1,1,0,0,0,0,0,3,229,0,0,139,762,74,13,811,670,,,,,,,3,229,,,139,762,74,13,811,670,,,,
Finland,Operator Holding Account,OY TURKU ENERGIA-AABO ENERGI AB,Linnankatu 65,Turku,181,181,181,300,300,300,300,300,206,183,163,36,31,26,21,17,419,602,3,0,135,650,789,480,693,366,66,256,,,,,419,602,3,,135,650,789,480,693,366,66,256,,,,
Finland,Operator Holding Account,OY TURKU ENERGIA-AABO ENERGI AB,Linnankatu 65,Turku,199,200,200,3,3,3,3,3,67,56,46,40,34,29,24,19,4,119,77,730,18,54,0,37,39,136,223,86,,,,,4,119,77,730,18,54,,37,39,136,223,86,,,,
Finland,Operator Holding Account,OY TURKU ENERGIA-AABO ENERGI AB,Linnankatu 65,Turku,,,,,,,,424,,,,,,,,,,,,,,,,120,3,5,32,595,,,,,,,,,,,,120,3,5,32,595,,,,
Finland,Operator Holding Account,OY TURKU ENERGIA-AABO ENERGI AB,Linnankatu 65,Turku,,,,,,,,,,,,,,,,,,,,,,,,,16,6,25,89,,,,,,,,,,,,,16,6,25,89,,,,
Finland,Operator Holding Account,PAIMION LAMPOKESKUS OY,Tehdastie 8,Paimio,15702,15701,15701,10210,10210,10210,10210,10210,11222,10043,8896,7783,6705,5661,4651,3680,3178,2860,4951,2091,3833,5106,3221,3638,3120,1820,641,773,,,,,3178,2860,4951,2091,3833,5106,3221,3638,3120,1820,641,773,,,,
Finland,Operator Holding Account,PAIMION LAMPOKESKUS OY,Tehdastie 8,Paimio,,,,2935,2934,2934,2934,2934,58,0,0,0,0,0,0,0,681,236,0,0,0,0,0,0,0,Not Reported,,,,,,,681,236,,,0,,,,,,,,,,,
Finland,Operator Holding Account,PAIMION LAMPOKESKUS OY,Tehdastie 8,Paimio,,,,0,0,0,0,0,8,6,6,0,0,0,0,0,0,6,0,0,0,27,213,228,0,48,0,0,,,,,,6,,,,27,213,228,,48,,,,,,
Finland,Operator Holding Account,PANKAKOSKI MILL OY,Ruukintie,Pankakoski,6315,6314,6314,6232,6228,6228,6228,6228,22008,21627,21240,20849,20454,20055,19651,19246,2199,2069,5187,3955,14263,3765,5350,6102,6181,6865,7471,7154,,,,,2199,2069,5187,3955,14263,3765,5350,6102,6181,6865,7471,7154,,,,
Finland,Operator Holding Account,PANSION LAMPO AVOIN YHTIO,PL 844,Turku,,,,0,0,0,3093,4545,10917,9835,8783,7760,6770,5811,4882,3988,,,,,0,0,0,0,0,0,0,0,,,,,,,,,,,,,,,1,,,,,
Finland,Operator Holding Account,PAROC OY AB,Energiakuja 3,Helsinki,,,,28735,28734,28734,28734,28734,24620,24192,23760,23323,22881,22435,21983,21530,,,,28062,20239,22113,25083,23947,23607,23116,25784,22114,,,,,,,,28353,20239,22113,24792,23947,23607,23116,25784,22114,,,,
Finland,Operator Holding Account,PAROC OY AB,Energiakuja 3,Helsinki,,,,37664,37662,37662,37662,37662,28002,27515,8798,8637,0,0,0,0,,,,43634,27255,31281,32787,30294,28277,16881,12279,4434,,,,,,,,43634,27255,31281,32787,30294,28277,16881,12279,4434,,,,
Finland,Operator Holding Account,PAROC OY AB,Energiakuja 3,Helsinki,,,,,,,,,15721,15448,15171,14892,14610,14325,14037,13747,,,,,,,,,15277,13816,13135,11598,,,,,,,,,,,,,15277,13816,13135,11598,,,,
Finland,Operator Holding Account,PILKINGTON LAHDEN LASITEHDAS OY,PL 20,Lahti,41908,41908,41908,39716,39714,0,0,0,,,,,,,,,43417,42845,44042,46256,24586,,,,,,,,,,,,43417,42845,44042,46256,24586,,,,,,,,,,,
Finland,Operator Holding Account,POHJOIS-POHJANMAAN SAIRAANHOITOPIIRIN KUNTAYHTYMA,PL 80,OYS,,,,0,0,0,0,0,,,,,,,,,,,0,0,,,,,,,,,,,,,,,,,,,,,,,,,,,,
Finland,Operator Holding Account,POLKKY OY,Kemijärventie,Kuusamo,,,,13293,13292,13292,13292,13292,8828,8674,5598,4897,4219,3562,2928,2316,,0,0,0,0,0,56,49,52,53,51,1,,,,,,,,,,,56,49,52,53,51,1,,,,
Finland,Operator Holding Account,PORI ENERGIA OY,PL 9,Pori,8529,8528,8528,5544,5544,5544,5544,5544,4933,4205,433,425,417,409,401,392,4615,10401,9586,5725,1618,4422,1396,2083,2006,471,35,213,,,,,4615,10401,9586,5725,1618,4422,1396,2083,2006,471,35,213,,,,
Finland,Operator Holding Account,PORI ENERGIA OY,PL 9,Pori,6786,6786,6786,4245,4243,4243,4243,4243,3898,3330,437,338,332,326,319,312,8707,8829,2974,819,457,716,419,395,541,353,218,377,,,,,8707,8829,2974,819,457,716,419,395,541,353,218,377,,,,
Finland,Operator Holding Account,PORI ENERGIA OY,PL 9,Pori,17562,17561,17561,12137,12133,12133,12133,12133,8298,2039,0,0,0,0,0,0,11853,12847,15488,11506,12019,10750,11638,12529,1263,1272,1482,1498,,,,,11853,12847,15488,11506,12019,10750,11638,12529,1263,1272,1482,1498,,,,
Finland,Operator Holding Account,PORI ENERGIA OY,PL 9,Pori,803,802,802,613,613,613,613,613,369,330,291,0,0,0,0,0,356,487,457,382,795,894,833,535,747,445,6,309,,,,,356,487,457,382,795,894,833,535,747,445,6,309,,,,
Finland,Operator Holding Account,PORI ENERGIA OY,PL 9,Pori,281955,281956,281956,257756,257753,257753,257753,257753,106291,96933,83063,73878,64976,56355,48007,39951,247103,276647,312459,260438,156027,164285,161380,175065,158742,168418,159342,153870,,,,,247103,276647,312459,260438,156027,164285,161380,175065,158742,168418,159342,153870,,,,
Finland,Operator Holding Account,PORI ENERGIA OY,PL 9,Pori,19919,19918,19918,20445,20441,20441,20441,20441,,,,,,,,,19192,12964,7825,8259,0,0,0,0,0,,,,,,,,19192,12964,7825,8259,,,,,,,,,,,,
Finland,Operator Holding Account,PORI ENERGIA OY,PL 9,Pori,,,,,,,,,,,,,,,,,37,394,3237,5145,0,0,0,0,0,,,,,,,,37,394,3237,5145,,,,,,,,,,,,
Finland,Operator Holding Account,PORI ENERGIA OY,PL 9,Pori,7427,7426,7426,7093,7093,7093,7093,7093,3214,2736,1187,0,0,0,0,0,4872,6740,5069,3877,3924,6551,3534,2823,2616,1834,263,664,,,,,4872,6740,5069,3877,3924,6551,3534,2823,2616,1834,263,664,,,,
Finland,Operator Holding Account,PORI ENERGIA OY,PL 9,Pori,,,,,,,,,,,,,,,,,,,,,,,,,,,0,0,,,,,,,,,,,,,,,,,,,,
Finland,Operator Holding Account,Porin Prosessivoima Oy,c/o Pori Energia Oy PL 9,Pori,,,,,271348,271347,271347,271347,73673,67716,57344,50866,44587,38509,32624,26946,,,,107880,332934,305198,260975,211502,175719,184618,192537,175029,,,,,,,,415882,332934,,260975,208698,175719,184618,192537,175029,,,,
Finland,Operator Holding Account,Porin Prosessivoima Oy,c/o Pori Energia Oy PL 9,Pori,298133,298132,298132,274666,274662,274662,274662,274662,18053,16594,4674,4256,3850,3457,3077,2708,270092,253262,263542,239367,108904,129353,83302,57392,84398,27614,12581,41601,,,,,270092,253262,263542,239367,108904,129353,83302,57392,84398,27614,12581,41601,,,,
Finland,Operator Holding Account,PORVOON ENERGIA OY - BORGAA ENERGI AB,Mannerheiminkatu 24,Porvoo,0,0,0,0,0,0,0,0,356,319,0,0,0,0,0,0,0,0,0,0,0,0,0,0,0,0,0,0,,,,,,,,,,,,,,,,,,,,
Finland,Operator Holding Account,PORVOON ENERGIA OY - BORGAA ENERGI AB,Mannerheiminkatu 24,Porvoo,0,0,0,0,0,0,0,0,,,,,,,,,0,0,0,0,0,1,0,1,0,0,0,0,,,,,,,,,,1,,1,,,,,,,,
Finland,Operator Holding Account,PORVOON ENERGIA OY - BORGAA ENERGI AB,Mannerheiminkatu 24,Porvoo,3,3,3,7,6,6,6,6,,,,,,,,,3,0,0,1,0,0,0,4,5,0,0,0,,,,,3,,,1,,,,4,5,,,,,,,
Finland,Operator Holding Account,PORVOON ENERGIA OY - BORGAA ENERGI AB,Mannerheiminkatu 24,Porvoo,36629,36630,36630,53843,53842,53842,53842,53842,14897,13331,0,0,0,0,0,0,25927,26132,22693,22331,27965,25474,22586,17877,282,416,12,18,,,,,25927,26132,22693,22331,27965,25474,22586,17877,282,416,12,18,,,,
Finland,Operator Holding Account,PORVOON ENERGIA OY - BORGAA ENERGI AB,Mannerheiminkatu 24,Porvoo,1871,1872,1872,192,188,188,188,188,95,85,0,0,0,0,0,0,89,580,741,34,285,107,646,206,0,7,0,616,,,,,89,580,741,34,285,107,646,206,,7,,616,,,,
Finland,Operator Holding Account,PORVOON ENERGIA OY - BORGAA ENERGI AB,Mannerheiminkatu 24,Porvoo,2288,2289,2289,7131,7525,7920,7920,7920,3906,3495,3096,677,584,493,405,320,3493,3030,2130,620,3246,8171,4288,10649,6414,3844,1234,8147,,,,,3493,3030,2130,620,3246,8171,4288,10649,6414,3844,1234,8147,,,,
Finland,Operator Holding Account,PORVOON ENERGIA OY - BORGAA ENERGI AB,Mannerheiminkatu 24,Porvoo,0,0,0,,,,,,,,,,,,,,0,0,0,,Not Reported,Not Reported,,,,,,,,,,,,,,,,,,,,,,,,,,
Finland,Operator Holding Account,PORVOON ENERGIA OY - BORGAA ENERGI AB,Mannerheiminkatu 24,Porvoo,44145,44145,44145,12255,12251,12251,12251,12251,37031,33139,29358,25696,22149,18717,15397,12196,1305,2263,4032,1049,714,775,795,1087,181,247,801,330,,,,,1305,2263,4032,1049,714,775,795,1087,181,247,801,330,,,,
Finland,Operator Holding Account,PORVOON ENERGIA OY - BORGAA ENERGI AB,Mannerheiminkatu 24,Porvoo,,,,6409,6408,6408,6408,6408,7398,6621,0,0,0,0,0,0,19,1049,1663,1559,2729,1503,1184,2225,1431,1558,,,,,,,19,1049,1663,1559,2729,1503,1184,2225,1431,1558,,,,,,
Finland,Operator Holding Account,PORVOON ENERGIA OY - BORGAA ENERGI AB,Mannerheiminkatu 24,Porvoo,,,,0,0,0,0,0,,,,,,,,,0,0,0,0,8,0,,,,,,,,,,,,,,,8,,,,,,,,,,,
Finland,Operator Holding Account,PORVOON ENERGIA OY - BORGAA ENERGI AB,Mannerheiminkatu 24,Porvoo,,,,0,0,734,735,735,2769,2478,0,0,0,0,0,0,,,,,671,5927,2729,3184,3672,3145,,,,,,,,,,,671,5927,2729,3184,3672,3145,,,,,,
Finland,Operator Holding Account,POWERFLUTE OYJ,Sorsasalo,Kuopio,127981,127981,127981,127832,127829,127829,127829,127829,96905,95222,93519,91799,90059,88303,86525,84741,113242,133906,127533,121484,104504,119498,119185,116338,93519,94051,98341,95619,,,,,113424,133906,127533,121484,104504,119498,119185,116338,93519,94051,98341,95619,,,,
Finland,Operator Holding Account,PREMIUM BOARD FINLAND OY,Juankoskentie 7,Juankoski,25979,25978,25978,29133,29131,29131,29131,29131,19269,550,540,530,520,510,500,490,27969,5798,2160,2050,0,0,380,998,5,35,48,53,,,,,27969,5798,2160,2050,,,380,998,5,35,48,53,,,,
Finland,Operator Holding Account,PUNKAVOIMA OY,PL 11,Punkaharju,6099,6099,6099,964,960,960,960,960,28896,28394,18324,16033,13811,11662,9582,7581,1109,1397,1719,1943,1889,2814,1285,2252,610,1984,1233,2017,,,,,1109,1397,1719,1943,1889,2814,1285,2252,610,1984,1233,2017,,,,
Finland,Operator Holding Account,Puulaakson Energia Oy,PL390,Jyväskylä,,,,2388,2387,2387,2387,2387,,,,,,,,,,6,18,204,85,38,1,497,0,,,,,,,,,6,24,204,85,38,1,497,,,,,,,,
Finland,Operator Holding Account,PVO-HUIPPUVOIMA OY,Frilundintie 7,Vaasa,21533,21533,21533,7134,7134,7134,7134,7134,,,,,,,,,0,1549,698,863,573,425,357,310,206,386,0,,,,,,,1549,698,863,573,425,357,310,206,386,,,,,,
Finland,Operator Holding Account,PVO-Lämpövoima Oy,Frilundintie 7,Vaasa,1072270,1072271,1072271,350860,350860,350860,350860,350860,,,,,,,,,297725,1393806,1015660,541476,917385,1238974,535820,297225,814561,461310,115503,4502,,,,,297725,1393806,1015660,1763645,917385,83794,468831,297225,814561,461310,115503,4502,,,,
Finland,Operator Holding Account,PVO-Lämpövoima Oy,Frilundintie 7,Vaasa,929358,929357,929357,304007,304004,304004,304004,304004,,,,,,,,,162221,1193842,978269,472412,592267,1233427,388412,296002,673607,326552,115090,2914,,,,,162221,1193842,978269,545016,592267,1160823,388412,296002,673607,326557,115085,2914,,,,
Finland,Operator Holding Account,Raisionkaaren Teollisuuspuisto Oy Tehdaspalvelut,PL 101,Raisio,2056,2056,2056,1913,1912,1912,1912,1912,326,301,89,78,68,57,47,37,1058,1843,1329,1218,1100,1236,845,283,260,242,187,359,,,,,1058,1843,1329,1218,1100,1236,845,283,260,242,187,359,,,,
Finland,Operator Holding Account,Raisionkaaren Teollisuuspuisto Oy Tehdaspalvelut,PL 101,Raisio,8478,8478,8478,8068,8067,8067,8067,8067,6502,6300,6101,5903,5707,5513,5322,5133,7489,7120,6609,6795,6565,5338,4123,4718,4612,4648,4202,4057,,,,,7489,7120,6609,6795,6565,5338,4123,4718,4612,4648,4202,4057,,,,
Finland,Operator Holding Account,Rauman Biovoima Oy,PL 40,Rauma,,,,310474,310470,310470,310470,310470,59433,54330,49366,44551,39881,35354,30966,26729,,13126,49121,33378,64860,72881,56521,65079,40591,44434,47610,45223,,,,,,13126,49121,33378,64860,72881,56521,65079,40591,44434,47610,45223,,,,
Finland,Operator Holding Account,RAUMAN ENERGIA OY,Kairakatu 4,Rauma,135,134,134,0,0,0,0,0,,,,,,,,,0,0,0,0,0,0,0,0,0,0,0,0,,,,,,,,,,,,,,,,,,,,
Finland,Operator Holding Account,RAUMAN ENERGIA OY,Kairakatu 4,Rauma,3534,3534,3534,0,0,0,0,0,2562,2397,274,240,206,174,143,113,1464,1101,1616,188,270,3971,2269,987,374,440,186,539,,,,,1464,1101,1616,188,270,3971,2269,987,374,440,186,539,,,,
Finland,Operator Holding Account,RAUMAN ENERGIA OY,Kairakatu 4,Rauma,38,37,37,0,0,0,0,0,8,7,7,6,6,5,5,4,21,32,13,0,11,28,114,60,13,78,31,79,,,,,21,32,13,,11,28,114,60,13,78,32,78,,,,
Finland,Operator Holding Account,RAUMAN ENERGIA OY,Kairakatu 4,Rauma,61,60,60,0,0,0,0,0,,,,,,,,,0,13,3,0,0,0,8,0,0,0,0,0,,,,,,13,3,,,,8,,,,,,,,,
Finland,Operator Holding Account,RAUMAN ENERGIA OY,Kairakatu 4,Rauma,293,292,292,0,0,0,0,0,85,78,17,17,17,16,16,16,186,342,138,16,11,90,5,10,0,37,19,21,,,,,186,342,138,16,11,90,5,10,,37,19,21,,,,
Finland,Operator Holding Account,RAUMAN ENERGIA OY,Kairakatu 4,Rauma,268,269,269,0,0,0,0,0,133,122,69,46,42,40,37,35,156,37,5,29,104,381,60,86,91,60,40,72,,,,,156,37,5,29,104,381,60,86,91,60,40,72,,,,
Finland,Operator Holding Account,RAUMAN ENERGIA OY,Kairakatu 4,Rauma,0,0,0,,,,,,,,,,,,,,0,,,,Not Reported,Not Reported,,,,,,,,,,,,,,,,,,,,,,,,,,
Finland,Operator Holding Account,RAUMAN ENERGIA OY,Kairakatu 4,Rauma,878,879,879,0,0,0,0,0,,,,,,,,,13,13,13,0,0,0,0,60,0,0,0,0,,,,,13,13,13,,,,,60,,,,,,,,
Finland,Operator Holding Account,RAUMAN ENERGIA OY,Kairakatu 4,Rauma,,,,,,,,,,,,,,,,,,,0,0,0,0,0,0,0,0,0,0,,,,,,,,,,,,,,,,,,,,
Finland,Operator Holding Account,RIIHIMAEN KAUKOLAMPO OY,PL 79,Riihimäki,28,28,28,,,,,,,,,,,,,,0,0,0,,Not Reported,Not Reported,,,,,,,,,,,,,,,,,,,,,,,,,,
Finland,Operator Holding Account,RIIHIMAEN KAUKOLAMPO OY,PL 79,Riihimäki,154,154,154,,,,,,,,,,,,,,76,169,11,,Not Reported,Not Reported,,,,,,,,,,,76,169,11,,,,,,,,,,,,,
Finland,Operator Holding Account,RIIHIMAEN KAUKOLAMPO OY,PL 79,Riihimäki,2,3,3,,,,,,,,,,,,,,0,0,0,,Not Reported,Not Reported,,,,,,,,,,,,,,,,,,,,,,,,,,
Finland,Operator Holding Account,RIIHIMAEN KAUKOLAMPO OY,PL 79,Riihimäki,3,4,4,,,,,,,,,,,,,,1,0,0,,Not Reported,Not Reported,,,,,,,,,,,1,,,,,,,,,,,,,,,
Finland,Aircraft Operator Account,RIVER AVIATION OY,Ilmailutie 7,Pojanluoma,,,,,,,,37,34,34,34,34,34,34,34,34,,,,,,,,525,Excluded,Excluded,Excluded,Excluded,,,,,,,,,,,,525,,,,,,,,
Finland,Operator Holding Account,ROVANIEMEN KOULUTUSKUNTAYHTYMA,Korvanranta 50,Rovaniemi,,,,,,,,,,,,,,,,,,,,,,,0,1,0,0,0,0,,,,,,,,,,,,,1,,,,,,,
Finland,Operator Holding Account,SAINT-GOBAIN FINLAND OY,PL 70,Helsinki,5853,5854,5854,6612,6608,6608,6608,6608,5407,5313,5218,5122,5025,4927,4827,4728,7023,6915,5744,5764,4147,3537,2705,2052,1531,1619,1596,2764,,,,,,13938,5744,6352,4147,3537,2117,2052,1531,1619,1596,2764,,,,
Finland,Operator Holding Account,SAINT-GOBAIN FINLAND OY,PL 70,Helsinki,15627,15626,15626,16447,16445,16445,16445,16445,11528,11327,11125,10920,10713,10504,10293,10081,17244,17069,17885,13822,10591,10192,11052,10373,9670,10690,8391,8548,,,,,,34313,17885,13822,10591,10192,11052,10373,9670,10690,8391,8548,,,,
Finland,Operator Holding Account,SAINT-GOBAIN FINLAND OY,PL 70,Helsinki,,,,,,,,,18705,16740,14827,12973,11175,9436,7754,6134,,,,,,,,,16752,14286,13515,16579,,,,,,,,,,,,,16752,14286,13515,16579,,,,
Finland,Operator Holding Account,SALON ENERGIANTUOTANTO OY,c/o Vapo Oy PL 22,Jyväskylä,95626,95627,95627,84390,84388,84388,84388,84388,39182,34324,29878,25827,22943,20290,17718,15234,96322,90440,71374,67746,74811,88239,74404,75906,63999,64663,61759,63280,,,,,96322,90440,71374,67746,74811,88239,74404,75906,63999,64663,61759,63280,,,,
Finland,Operator Holding Account,SALON KAUKOLAMPO OY,Satamakatu 9,Salo,953,954,954,1659,1658,1658,1658,1658,692,923,8,0,0,0,0,0,3545,2946,4698,3187,3372,3273,2695,639,986,50,278,112,,,,,3545,,7644,3317,3372,3273,2565,639,986,50,278,112,,,,
Finland,Operator Holding Account,SALON KAUKOLAMPO OY,Satamakatu 9,Salo,2,2,2,0,0,0,0,0,,,,,,,,,0,0,0,0,0,0,0,0,0,0,0,0,,,,,,,,,,,,,,,,,,,,
Finland,Operator Holding Account,SALON KAUKOLAMPO OY,Satamakatu 9,Salo,26,26,26,0,0,0,0,0,,,,,,,,,0,0,0,0,0,0,0,0,0,0,0,0,,,,,,,,,,,,,,,,,,,,
Finland,Operator Holding Account,SALON KAUKOLAMPO OY,Satamakatu 9,Salo,5256,5257,5257,2045,2041,2041,2041,2041,119,107,48,0,0,0,0,0,290,348,72,1,298,270,1578,31,32,71,32,421,,,,,290,,420,1,298,270,1578,31,32,71,32,421,,,,
Finland,Operator Holding Account,SALON KAUKOLAMPO OY,Satamakatu 9,Salo,,,,,,,,,,,,,,,,,0,,,,Not Reported,Not Reported,,,,,,,,,,,,,,,,,,,,,,,,,,
Finland,Operator Holding Account,SALON KAUKOLAMPO OY,Satamakatu 9,Salo,,,,772,769,769,769,769,,,,,,,,,,,0,7,0,0,0,0,0,0,0,0,,,,,,,,7,,,,,,,,,,,,
Finland,Operator Holding Account,SAPPI FINLAND I OY,.,Lohja,12019,12020,12020,13349,13345,13345,0,0,,,,,,,,,12768,14476,14147,12956,8735,295,,,,,,,,,,,12768,14476,14147,12956,8735,295,,,,,,,,,,
Finland,Operator Holding Account,SAPPI FINLAND OPERATIONS OY,Kirkniemi,Lohja,17327,17327,17327,16774,16773,16773,16773,16773,202857,199311,195726,192103,188443,184749,181009,177257,23266,26274,27341,24925,19684,22581,18269,20380,0,0,0,0,,,,,23266,26274,27341,24925,19684,22581,18269,20380,,,,,,,,
Finland,Operator Holding Account,SAPPI FINLAND OPERATIONS OY,Kirkniemi,Lohja,319879,319878,319878,293264,293261,293261,293261,293261,,,,,,,,,300647,328507,306074,335533,186875,214973,269189,203758,248872,159517,224735,274341,,,,,300647,328507,306074,335533,186875,214973,269189,203758,248872,159570,224682,274341,,,,
Finland,Operator Holding Account,Sarlin Oy,Kaivokselantie 3-5,Vantaa,,,,0,14,70,70,70,,,,,,,,,,,,0,0,0,0,0,0,0,0,0,,,,,,,,,,,,,,,,,,,,
Finland,Operator Holding Account,SAVON VOIMA OYJ,PL 1024,Toivala,46024,46025,46025,33952,33951,33951,33951,33951,36736,33327,30011,26798,23681,20664,17742,14921,50504,65542,69277,59043,69391,67747,70064,79784,66370,56808,57508,60946,,,,,50504,65542,69277,59043,69391,67747,70064,79784,66370,56808,57508,60946,,,,
Finland,Operator Holding Account,SAVON VOIMA OYJ,PL 1024,Toivala,0,0,0,4859,4857,4857,4857,4857,660,562,263,211,185,160,136,113,0,1959,2375,99,43,58,113,537,774,421,359,1361,,,,,,1959,2375,99,43,58,113,537,774,421,359,1361,,,,
Finland,Operator Holding Account,SAVON VOIMA OYJ,PL 1024,Toivala,0,0,0,0,0,0,0,0,,,,,,,,,0,8,0,0,0,0,0,0,0,0,0,1,,,,,,8,,,,,,,,,,1,,,,
Finland,Operator Holding Account,SAVON VOIMA OYJ,PL 1024,Toivala,0,0,0,0,0,0,0,0,2,1,0,0,0,0,0,0,0,0,0,0,0,5,1,1,3,0,0,2,,,,,,,,,,5,1,1,3,,,2,,,,
Finland,Operator Holding Account,SAVON VOIMA OYJ,PL 1024,Toivala,0,0,0,0,0,0,0,0,,,,,,,,,0,0,0,0,18,0,,,,,,,,,,,,,,,18,,,,,,,,,,,
Finland,Operator Holding Account,SAVON VOIMA OYJ,PL 1024,Toivala,0,0,0,0,0,0,0,0,2,1,1,1,1,1,1,1,0,9,7,0,0,0,6,20,18,38,31,130,,,,,,9,7,,,,6,20,18,38,31,130,,,,
Finland,Operator Holding Account,SAVON VOIMA OYJ,PL 1024,Toivala,124,125,125,161,159,159,159,159,23,21,18,16,14,13,11,9,43,227,16,0,21,59,127,50,21,42,71,150,,,,,43,227,16,,21,59,127,50,21,42,71,150,,,,
Finland,Operator Holding Account,SAVON VOIMA OYJ,PL 1024,Toivala,60300,60301,60301,47839,47836,47836,47836,47836,25680,22306,20047,17837,15695,13622,11613,9675,63519,62456,62047,57697,61347,61898,50184,46065,51699,55004,52509,53901,,,,,63519,62456,62047,57697,61347,61898,50184,46065,51699,55004,52509,53901,,,,
Finland,Operator Holding Account,SAVON VOIMA OYJ,PL 1024,Toivala,0,0,0,74,222,982,982,982,143,129,19,19,18,18,18,17,8,14,49,8,511,7,8,73,0,13,37,13,,,,,8,14,49,8,511,7,8,73,,13,37,13,,,,
Finland,Operator Holding Account,SAVON VOIMA OYJ,PL 1024,Toivala,31,30,30,84,82,82,82,82,32,26,9,19,16,14,12,9,81,159,11,0,20,42,35,13,12,11,26,17,,,,,81,159,11,,20,42,35,13,12,11,26,17,,,,
Finland,Operator Holding Account,SAVON VOIMA OYJ,PL 1024,Toivala,,,,,,,,,,,,,,,,,,,,,,,,,95,35,2,158,,,,,,,,,,,,,95,35,2,158,,,,
Finland,Operator Holding Account,SAVON VOIMA OYJ,PL 1024,Toivala,,,,,,,,,,,,,,,,,,,,,,,,,,,67,265,,,,,,,,,,,,,,,67,265,,,,
Finland,Operator Holding Account,SEINAJOEN ENERGIA OY,Varastotie 5,Seinäjoki,10921,10921,10921,7664,7662,7662,7662,7662,8600,7696,6817,5965,5138,4338,3565,2820,12954,14295,10362,6416,9855,29320,31250,43037,29505,31472,25003,33676,,,,,12954,14295,10362,35736,9855,,31250,43037,29505,31472,25003,33676,,,,
Finland,Operator Holding Account,SEINAJOEN ENERGIA OY,Varastotie 5,Seinäjoki,5,5,5,3,1,1,1,1,32,27,11,7,5,3,2,0,0,0,145,152,0,83,55,0,0,0,0,0,,,,,,,145,152,,83,55,,,,,,,,,
Finland,Operator Holding Account,SEINAJOEN ENERGIA OY,Varastotie 5,Seinäjoki,2224,2225,2225,3471,3465,3465,3465,3465,2845,2546,2255,1973,1700,1435,1179,933,1870,1995,1136,4671,4071,8041,5093,9848,3673,5976,4552,5161,,,,,1870,1995,1136,9764,4071,8041,,9848,3673,5976,4552,5161,,,,
Finland,Operator Holding Account,SEINAJOEN ENERGIA OY,Varastotie 5,Seinäjoki,220,220,220,173,169,169,169,169,,,,,,,,,292,70,91,327,3,76,431,2428,,,,,,,,,292,70,91,327,3,76,431,2428,,,,,,,,
Finland,Operator Holding Account,SEINAJOEN ENERGIA OY,Varastotie 5,Seinäjoki,,,,0,0,0,0,2543,,,,,,,,,,,,,,,454,6429,2179,3916,1069,5471,,,,,,,,,,,454,6429,2179,3916,1069,5471,,,,
Finland,Operator Holding Account,SKANGAS OY,Miestentie 1,Espoo,,,,,,,,,,,,,,,,,,,,,,,,,,,,3866,,,,,,,,,,,,,,,,3866,,,,
Finland,Operator Holding Account,SMA MINERAL OY,Selleenkatu 281,Tornio,179620,179619,179619,118872,118872,118872,118872,118872,122424,120297,118146,115972,113775,111556,109310,107056,115414,136257,86348,105371,101846,140197,123815,136049,146517,150880,200231,236230,,,,,115414,191257,31348,105371,101846,140197,123815,136049,146517,150880,200231,236230,,,,
Finland,Operator Holding Account,SODANKYLAN LAMPO JA VESI OY,Kasarmintie 10,Sodankylä,22524,22525,22525,19456,19456,19456,19456,19456,14750,12080,9707,7759,6684,5644,4637,3669,21467,21590,22068,28760,22652,28514,23321,24340,24179,22464,23130,26537,,,,,21467,21590,22068,28760,22652,36514,23321,16340,24179,22464,23130,26537,,,,
Finland,Operator Holding Account,SONOCO-ALCORE OY,Karhulantie 160,Kotka,,,,,,,,,16053,15774,15492,15207,14919,14628,14333,14038,,,,,,,,,0,0,0,0,,,,,,,,,,,,,,,,,,,,
Finland,Operator Holding Account,SSAB EUROPE OY,Mikko Lepistö,Hämeenlinna,4992713,4992713,4992713,4687117,4687116,4687116,4687116,4687116,3731926,3663067,3593906,3524553,3455976,3386820,3316893,3246804,4746603,4810622,4525798,4473802,3414113,4043236,4042595,3755153,3670006,3774032,3936555,4134819,,,,,4746603,4810622,4525798,4473802,3414113,4043236,4042595,3755153,3670006,3774032,3936555,4134819,,,,
Finland,Operator Holding Account,SSAB EUROPE OY,Mikko Lepistö,Hämeenlinna,8232,8231,8231,7344,7340,7340,7340,7340,95553,93893,92214,90517,88803,87072,85318,83558,9867,6877,7182,7124,7149,6680,6271,6722,75493,77073,81153,86814,,,,,9867,6877,7182,7748,7149,6680,5647,6722,75493,77073,81153,86814,,,,
Finland,Operator Holding Account,STORA ENSO OULU OY,P.O.Box 309,Helsinki,350821,350821,350821,359466,359466,359466,359466,359466,330916,324696,318425,312109,305749,299348,292891,286429,258505,399683,407482,375369,259534,350379,278367,269586,258484,283763,263509,225305,,,,,258505,399683,407482,375369,259534,350379,278367,269586,258484,283763,263509,225305,,,,
Finland,Operator Holding Account,STORA ENSO OYJ,Energy Services,Helsinki,184839,184838,184838,169962,169959,169959,169959,169959,87149,83922,80739,77603,74513,71472,68477,65541,161616,179490,174907,163716,156800,207537,182318,179939,142732,144974,157370,149581,,,,,161616,179490,174907,163716,156800,207537,182318,179939,142732,144974,157370,149581,,,,
Finland,Operator Holding Account,STORA ENSO OYJ,Energy Services,Helsinki,285615,285615,285615,281613,281611,281611,281611,281611,263866,259281,254645,249959,245224,240442,235599,230741,166454,175474,180224,187029,169642,178336,164887,162477,179336,165259,159261,201075,,,,,166454,175474,180224,187029,169642,178336,164887,162477,179336,165259,159261,201075,,,,
Finland,Operator Holding Account,STORA ENSO OYJ,Energy Services,Helsinki,145960,145960,145960,133502,133498,133498,133498,133498,120400,115118,107771,29960,25943,22056,18293,14670,111100,152725,131768,117483,86083,91340,59695,65769,74947,76151,69971,101023,,,,,111100,152725,131768,117016,86550,91340,59695,65769,74947,76151,69971,101023,,,,
Finland,Operator Holding Account,STORA ENSO OYJ,Energy Services,Helsinki,52407,52408,52408,52074,52073,52073,52073,52073,18115,17801,17482,17161,16836,16507,16175,15841,42137,48091,47241,39579,15551,49847,48550,48192,49953,47062,38893,27376,,,,,42137,48091,47241,39579,15551,49847,48550,48192,49953,47062,38893,27376,,,,
Finland,Operator Holding Account,STORA ENSO OYJ,Energy Services,Helsinki,63654,63654,63654,61802,61799,61799,61799,61799,61350,60284,53950,51884,49846,47841,45863,43925,84904,103563,75548,40435,50994,62788,79893,57442,43813,73334,38385,58691,,,,,84904,103563,75548,40435,50994,62788,79893,57442,43813,73334,38385,58691,,,,
Finland,Operator Holding Account,STORA ENSO OYJ,Energy Services,Helsinki,1110,1109,1109,704,702,702,702,702,,,,,,,,,3650,1242,16972,5149,1881,1270,3084,1719,1517,3993,2351,2973,,,,,3650,1242,16972,5149,1881,1270,3084,1719,1517,3993,2351,2973,,,,
Finland,Operator Holding Account,STORA ENSO OYJ,"Stora Enso Oyj, Energiapalvelut",Imatra,40552,40551,40551,42095,0,0,0,0,,,,,,,,,35099,42763,41309,16068,,,,,,,,,,,,,35099,42763,41309,16068,,,,,,,,,,,,
Finland,Operator Holding Account,Stora Enso Publication Papers Oy Ltd,c/o Stora Enso Oyj Energy Services,Imatra,364726,364725,364725,336228,336226,336226,336226,336226,185850,182305,178732,175137,171518,167879,164210,160542,326843,375835,391953,400463,321650,333224,326612,172413,152002,160360,138047,124374,,,,,326843,375835,391953,400463,321650,333224,326612,172413,152002,160360,138047,124374,,,,
Finland,Operator Holding Account,Stora Enso Publication Papers Oy Ltd,c/o Stora Enso Oyj Energy Services,Imatra,34113,34113,34113,32230,32227,0,0,0,,,,,,,,,11383,11789,17306,12435,0,0,,,,,,,,,,,11383,11789,17306,12435,,,,,,,,,,,,
Finland,Operator Holding Account,STORA ENSO VEITSILUOTO OY,Veitsiluoto Mill,Helsinki,428754,428753,428753,399669,399668,399668,399668,399668,275992,270851,211778,207035,202285,197529,192753,187998,366210,433313,378128,357049,320547,365990,348592,350758,333043,328151,284431,257566,,,,,366210,433313,378128,357049,320547,365990,348592,350758,333043,328153,284429,257566,,,,
Finland,Operator Holding Account,Stora Enso Wood Products Oy Ltd,c/o Stora Enso Oyj Energy Services,Imatra,7933,7932,7932,7079,7075,7075,7075,7075,25496,25053,16168,14146,12186,10290,8455,6689,4867,3699,3522,2305,760,736,177,788,59,46,66,58,,,,,4867,3699,3522,2305,760,736,177,788,59,46,66,58,,,,
Finland,Operator Holding Account,SUCROS OY,Maakunnantie 4,Säkylä,47185,47184,47184,43143,43142,43142,43142,43142,24461,23797,23137,22481,21830,21183,20539,19904,56281,48984,59956,43265,50244,50288,56077,43561,46345,48099,31853,37037,,,,,56281,48984,59956,43265,50244,50288,56077,43561,46345,48099,31853,37037,,,,
Finland,Operator Holding Account,SUOMEN SOKERI OY,Sokeritehtaantie 20,Kantvik,56391,56390,56390,51888,51884,51884,51884,51884,25000,24304,23611,22924,22243,21566,20893,20229,59798,57799,61119,56250,53771,53194,58372,55679,64400,61177,54954,56947,,,,,59798,57799,61119,56250,53392,53573,58372,55679,64400,61177,54954,56947,,,,
Finland,Operator Holding Account,SUOMEN TEOLLISUUDEN ENERGIAPALVELUT - STEP OY,PL 9,Pori,40527,40528,40528,36997,36993,36993,36993,36993,77704,76352,75000,73648,72296,70944,69592,68240,37379,44860,51272,35655,47687,61429,53277,37652,38012,36296,29256,18691,,,,,37379,44860,51272,35655,47687,61429,53277,37652,38012,36296,29256,18691,,,,
Finland,Operator Holding Account,SUOMEN TEOLLISUUDEN ENERGIAPALVELUT - STEP OY,PL 9,Pori,40741,40741,40741,37013,37012,37012,37012,37012,29533,29020,28501,27976,27446,26911,26369,25825,49703,48486,48396,44623,38862,45956,44977,39107,37613,40745,30671,26204,,,,,49703,48486,48396,44623,38862,45956,44977,39107,37613,40745,30671,26204,,,,
Finland,Operator Holding Account,SUOMEN TEOLLISUUDEN ENERGIAPALVELUT - STEP OY,PL 9,Pori,,,,,,,,,,,,,,,,,,,,,,,,,,,,1442,,,,,,,,,,,,,,,,1442,,,,
Finland,Operator Holding Account,SUOMUSSALMEN ENERGIA OY,PL 40,Suomussalmi,769,768,768,523,520,520,520,520,364,326,144,63,54,46,38,30,99,173,448,12,487,880,354,500,182,254,124,196,,,,,99,99,522,12,487,880,354,500,182,254,124,196,,,,
Finland,Operator Holding Account,SUOMUSSALMEN ENERGIA OY,PL 40,Suomussalmi,49,50,50,0,0,0,0,0,,,,,,,,,0,0,1,1,2,34,26,48,0,0,5,2,,,,,,149,1,1,2,34,26,48,,,5,2,,,,
Finland,Operator Holding Account,SUOMUSSALMEN ENERGIA OY,PL 40,Suomussalmi,2299,2299,2299,2172,2168,2168,2168,2356,10032,9097,8187,7304,6447,5617,4813,4037,419,40,497,61,142,1071,359,390,285,177,82,631,,,,,419,40,497,61,142,1071,359,390,285,177,82,631,,,,
Finland,Operator Holding Account,SUUR-SAVON SAHKO OY,PL 3,Mikkeli,1016,1017,1017,37,33,33,33,33,57,51,0,0,0,0,0,0,0,10,176,0,137,72,0,0,0,0,0,0,,,,,,10,176,,137,72,,,,,,,,,,
Finland,Operator Holding Account,SUUR-SAVON SAHKO OY,PL 3,Mikkeli,3196,3196,3196,553,549,549,549,549,870,724,180,0,0,0,0,0,1195,1501,1407,724,473,1236,365,1101,377,145,96,232,,,,,1195,1501,1407,724,473,1236,365,1101,377,145,96,232,,,,
Finland,Operator Holding Account,SUUR-SAVON SAHKO OY,PL 3,Mikkeli,4247,4246,4246,57,55,55,55,55,14,12,1,0,0,0,0,0,176,0,10,32,3,0,0,52,194,0,0,0,,,,,176,,10,32,3,,,52,194,,,,,,,
Finland,Operator Holding Account,SUUR-SAVON SAHKO OY,PL 3,Mikkeli,7503,7504,7504,388,385,385,385,385,728,606,150,0,0,0,0,0,986,1194,1561,0,494,766,2029,2142,625,129,0,732,,,,,986,1194,1561,,494,766,2029,2142,625,129,,732,,,,
Finland,Operator Holding Account,SUUR-SAVON SAHKO OY,PL 3,Mikkeli,1921,1921,1921,1563,1561,1561,1561,1561,2004,1793,794,348,299,253,208,164,2293,1891,1335,1188,2480,5034,2420,4374,3120,927,583,695,,,,,2293,1891,1335,1188,2480,5034,2420,4374,3120,927,583,695,,,,
Finland,Operator Holding Account,SUUR-SAVON SAHKO OY,PL 3,Mikkeli,0,0,0,3,0,0,0,0,4,3,0,0,0,0,0,0,3,0,8,71,0,7,0,0,0,0,0,0,,,,,3,,8,71,,7,,,,,,,,,,
Finland,Operator Holding Account,SUUR-SAVON SAHKO OY,PL 3,Mikkeli,4596,4595,4595,111,107,107,107,107,200,167,42,0,0,0,0,0,260,0,806,338,0,364,230,318,120,53,0,0,,,,,260,,806,338,,364,230,318,120,53,,,,,,
Finland,Operator Holding Account,SUUR-SAVON SAHKO OY,PL 3,Mikkeli,1307,1308,1308,33,30,30,30,30,14,12,1,0,0,0,0,0,87,0,36,139,5,3,10,52,0,0,0,0,,,,,87,,36,139,5,3,10,52,,,,,,,,
Finland,Operator Holding Account,SUUR-SAVON SAHKO OY,PL 3,Mikkeli,87,88,88,37,33,33,33,33,0,0,0,0,0,0,0,0,0,0,0,0,0,0,0,18,0,0,0,0,,,,,,,,,,,,18,,,,,,,,
Finland,Operator Holding Account,SUUR-SAVON SAHKO OY,PL 3,Mikkeli,2147,0,0,914,910,910,910,910,2,1,0,0,0,0,0,0,253,0,0,5,3,51,119,352,0,0,0,0,,,,,253,,,5,3,51,119,352,,,,,,,,
Finland,Operator Holding Account,SUUR-SAVON SAHKO OY,PL 3,Mikkeli,,,,281,303,303,303,303,454,407,90,79,68,57,47,37,,,0,100,550,1152,747,1124,819,190,94,371,,,,,,,,100,550,1152,747,1124,819,190,94,371,,,,
Finland,Operator Holding Account,SUUR-SAVON SAHKO OY,PL 3,Mikkeli,,,,,,,,,,,,,,,,,,,,,,,,,246,0,26,30,,,,,,,,,,,,,246,,26,30,,,,
Finland,Operator Holding Account,SUUR-SAVON SAHKO OY,PL 3,Mikkeli,,,,,,,,,,,,,,,,,,,,,,,,,92,118,166,5,,,,,,,,,,,,,92,118,166,5,,,,
Finland,Operator Holding Account,TAIVALKOSKEN VOIMA OY,PL,Taivalkoski,,,,4166,4164,4164,12918,12918,14573,13903,10571,9331,8127,6964,5836,4751,201,395,1194,1097,842,865,155,149,244,187,97,80,,,,,,596,1194,1097,842,865,155,149,244,187,97,80,,,,
Finland,Operator Holding Account,TAMPEREEN SAHKOLAITOS OY,Voimakatu 17,Tampere,0,0,0,11,7,7,7,7,27,24,22,5,4,4,3,2,8,41,42,11,0,93,21,10,27,5,17,4,,,,,8,41,42,32,,93,,10,27,5,17,4,,,,
Finland,Operator Holding Account,TAMPEREEN SAHKOLAITOS OY,Voimakatu 17,Tampere,3918,3917,3917,4265,4262,4262,4262,4262,7696,6887,3051,1335,1150,971,798,631,1085,3274,5348,2514,15004,10937,4500,5202,3230,4092,1293,11823,,,,,1085,3274,5348,2514,15004,10937,4500,5202,3230,4092,1293,11823,,,,
Finland,Operator Holding Account,TAMPEREEN SAHKOLAITOS OY,Voimakatu 17,Tampere,7364,7365,7365,4401,4399,4399,4399,4399,8158,7301,6468,2829,2438,2058,1691,1338,4378,7408,7191,2396,13321,16725,7374,11104,7751,9971,3607,6241,,,,,4378,7408,7191,2396,13321,16725,7374,11104,7751,9971,3607,6241,,,,
Finland,Operator Holding Account,TAMPEREEN SAHKOLAITOS OY,Voimakatu 17,Tampere,0,0,0,,,,,,,,,,,,,,0,,,,Not Reported,Not Reported,,,,,,,,,,,,,,,,,,,,,,,,,,
Finland,Operator Holding Account,TAMPEREEN SAHKOLAITOS OY,Voimakatu 17,Tampere,361190,361191,361191,318527,318527,318527,318527,318527,137006,122607,108617,47535,40974,34626,28483,22560,310383,341717,297770,396872,334351,303331,234473,218326,192331,181370,149737,148933,,,,,310383,341717,297770,396872,334351,303331,234473,218326,192331,181370,149737,148933,,,,
Finland,Operator Holding Account,TAMPEREEN SAHKOLAITOS OY,Voimakatu 17,Tampere,35,34,34,28,28,28,28,28,16,14,13,6,5,4,4,3,28,23,85,25,36,18,16,41,31,14,8,32,,,,,28,23,85,25,36,18,16,41,31,14,8,32,,,,
Finland,Operator Holding Account,TAMPEREEN SAHKOLAITOS OY,Voimakatu 17,Tampere,26,27,27,7,4,4,4,4,31,28,6,5,5,4,3,3,5,87,0,38,0,105,25,97,47,14,17,61,,,,,5,87,,38,,105,26,96,47,14,17,61,,,,
Finland,Operator Holding Account,TAMPEREEN SAHKOLAITOS OY,Voimakatu 17,Tampere,366,365,365,0,0,0,0,0,204,182,40,0,0,0,0,0,0,0,221,0,570,140,71,192,147,60,27,2767,,,,,,,221,,570,140,71,192,147,60,27,2767,,,,
Finland,Operator Holding Account,TAMPEREEN SAHKOLAITOS OY,Voimakatu 17,Tampere,741926,741927,741927,573213,573213,573213,573213,573213,236850,211958,187772,164352,141667,119718,98477,78001,570027,610070,648930,496221,540399,602166,524022,419263,404865,340438,365739,245096,,,,,570027,610070,648930,496221,540399,602166,524022,419263,404865,340438,365739,245096,,,,
Finland,Operator Holding Account,TAMPEREEN SAHKOLAITOS OY,Voimakatu 17,Tampere,8288,8288,8288,16317,16316,16316,16316,16316,11364,10169,9008,7881,6789,5732,4710,3726,16513,11022,10035,9878,13230,17471,15746,45429,28475,42954,9572,19982,,,,,16513,11022,10035,9878,13230,17471,15746,45429,28475,42954,9572,19982,,,,
Finland,Operator Holding Account,TAMPEREEN SAHKOLAITOS OY,Voimakatu 17,Tampere,4040,4039,4039,0,0,0,0,0,1213,1086,962,421,363,306,252,199,0,0,0,481,898,2161,1467,3698,1575,1558,745,1550,,,,,,,,481,898,2161,1467,3698,1575,1558,745,1550,,,,
Finland,Operator Holding Account,TAMPEREEN SAHKOLAITOS OY,Voimakatu 17,Tampere,576,577,577,0,0,0,0,0,,,,,,,,,37,0,50,Not Reported,,Not Reported,,,,,,,,,,,37,,50,,,,,,,,,,,,,
Finland,Operator Holding Account,TAMPEREEN SAHKOLAITOS OY,Voimakatu 17,Tampere,2242,2241,2241,584,581,581,581,581,2641,2363,2093,1832,1578,1332,1094,866,589,1148,432,700,1981,5698,5262,12933,9587,15324,4722,4019,,,,,589,1148,432,700,1981,5698,5262,12933,9587,15324,4722,4019,,,,
Finland,Operator Holding Account,TAMPEREEN SAHKOLAITOS OY,Voimakatu 17,Tampere,4880,4881,4881,8145,8145,8145,8145,8145,6411,5738,5082,4446,3830,3234,2657,2102,8248,6468,4633,5278,7385,12172,9019,16466,5002,4379,4191,3267,,,,,8248,6468,4633,5278,7385,12172,9019,16466,5002,4379,4191,3267,,,,
Finland,Operator Holding Account,TAMPEREEN SAHKOLAITOS OY,Voimakatu 17,Tampere,1,2,2,0,0,0,0,0,,,,,,,,,0,0,5,0,0,0,,,,,,,,,,,,,5,,,,,,,,,,,,,
Finland,Operator Holding Account,TAMPEREEN SAHKOLAITOS OY,Voimakatu 17,Tampere,,,,91,88,88,88,88,469,420,372,325,280,236,194,154,90,312,987,253,310,887,629,2950,2931,2345,1408,1715,,,,,90,312,987,253,310,887,629,2950,2931,2345,1408,1715,,,,
Finland,Operator Holding Account,TAMPEREEN SAHKOLAITOS OY,Voimakatu 17,Tampere,,,,13,9,9,9,9,415,371,328,0,0,0,0,0,10,2,0,7,170,866,645,567,85,457,8,126,,,,,10,2,,7,170,866,645,567,85,457,8,126,,,,
Finland,Operator Holding Account,TAMPEREEN SAHKOLAITOS OY,Voimakatu 17,Tampere,,,,,,,,,,,,,,,,,31,5,,,Not Reported,Not Reported,,,,,,,,,,,31,5,,,,,,,,,,,,,,
Finland,Operator Holding Account,TAMPEREEN SAHKOLAITOS OY,Voimakatu 17,Tampere,,,,3039,3035,3035,3035,3035,9670,8655,7666,6707,5778,4878,4008,3171,687,5909,7605,4821,16649,10380,7645,14830,12936,20735,10075,7747,,,,,687,5909,7605,4821,16649,10380,7645,14830,12936,20735,10075,7747,,,,
Finland,Operator Holding Account,TAMPEREEN SAHKOLAITOS OY,Voimakatu 17,Tampere,,,,,,,,,,,,,,,,,,,,,,,,,,18,11,2,,,,,,,,,,,,,,18,11,2,,,,
Finland,Operator Holding Account,TAMPEREEN SAHKOLAITOS OY,Voimakatu 17,Tampere,,,,,,,,,,,37505,39806,34312,28996,23852,18892,,,,,,,,,,,2211,1747,,,,,,,,,,,,,,,2211,1747,,,,
Finland,Operator Holding Account,TEOLLISUUDEN VOIMA OYJ,Olkiluoto,Eurajoki,376,375,375,347,346,346,346,346,,,,,,,,,393,433,471,438,485,456,456,384,483,448,832,737,,,,,393,433,471,894,485,456,,384,483,448,832,737,,,,
Finland,Operator Holding Account,TERVAKOSKI OY,Vähikkäläntie 1,Tervakoski,85191,85192,85192,79457,79456,79456,79456,79456,72381,70766,69150,67533,65915,64299,62679,61068,80943,83107,82993,79730,74239,67698,56781,57581,62424,57467,58739,60801,,,,,80943,83107,82993,79730,74239,67698,56781,57581,62424,57467,58739,60801,,,,
Finland,Operator Holding Account,TORNION ENERGIA OY,Asemakatu 5,Tornio,14476,14475,14475,1033,1033,1033,1033,1033,2248,503,0,0,0,0,0,0,835,195,2263,7256,3413,5418,2089,2284,769,273,166,817,,,,,835,195,2263,7256,3413,5418,2089,2284,769,273,166,817,,,,
Finland,Operator Holding Account,TORNION ENERGIA OY,Asemakatu 5,Tornio,15664,15664,15664,727,723,723,723,723,1664,1394,70,0,0,0,0,0,859,2422,3114,2690,1348,2289,1318,1235,397,9,1,5,,,,,859,2422,3114,2690,1374,2289,1318,1235,397,9,1,5,,,,
Finland,Operator Holding Account,TORNION ENERGIA OY,Asemakatu 5,Tornio,,,,277,277,277,277,277,0,0,0,0,0,0,0,0,0,0,0,0,2,5,2,1,0,0,0,,,,,,,,,,2,5,2,1,,,,,,,,
Finland,Operator Holding Account,TORNION ENERGIA OY,Asemakatu 5,Tornio,,,,1868,1867,1867,1867,1867,74,61,9,4,1,428,352,279,,0,0,1,2,5,4,684,952,130,40,82,,,,,,,,1,2,5,4,684,1219,,,1,,,,
Finland,Operator Holding Account,TORNION VOIMA OY,Frilundintie 7,Vaasa,,,,230626,230623,230623,230623,230623,47541,44988,42497,40067,37699,35391,33144,30958,,,76588,189978,192186,219606,165082,180315,318086,289443,247600,246815,,,,,,,76588,189978,192186,219606,165082,180315,318086,289443,247600,246815,,,,
Finland,Operator Holding Account,TORNION VOIMA OY,Frilundintie 7,Vaasa,58099,58099,58099,35001,34997,34997,34997,34997,25937,21809,772,345,338,332,325,318,38031,37512,39873,33696,11759,16461,13263,17220,15743,4031,3783,6030,,,,,38031,37512,39873,33696,11759,16461,13263,17220,15743,4031,3783,6030,,,,
Finland,Operator Holding Account,TUIKE FINLAND OY,Ensontie 1,Hamina,,,,,,,,,,,,,,,,,,,,,,,,,183,616,1574,883,,,,,,,,,,,,,183,616,1567,890,,,,
Finland,Operator Holding Account,TURUN SEUDUN ENERGIANTUOTANTO OY,Satamatie 16,Naantali,1445573,1445572,1445572,1183498,1183497,1183497,1183497,1183497,424793,366474,313778,266574,237248,209676,182955,157148,1380582,1526042,1449621,1321290,1319210,1641188,1391707,1281442,1343107,1316455,1106338,1370835,,,,,1380582,1526042,1449621,1321290,1319210,1641188,1391707,1281442,1343107,1316455,1106338,1370835,,,,
Finland,Operator Holding Account,UPM-KYMMENE OYJ,Alvar Aallon katu 1,Helsinki,0,0,0,0,0,0,0,0,,,,,,,,,0,0,0,0,0,0,0,,,,,,,,,,,,,,,,,,,,,,,,,
Finland,Operator Holding Account,UPM-KYMMENE OYJ,Alvar Aallon katu 1,Helsinki,153409,153409,153409,146449,146448,146448,146448,146448,212519,208827,205094,201320,197504,193654,189754,185841,184490,178190,150802,134021,154188,127323,109038,117878,109617,108841,80687,71145,,,,,184490,178190,150802,134021,154188,127323,109038,117878,109617,108841,80687,71145,,,,
Finland,Operator Holding Account,UPM-KYMMENE OYJ,Alvar Aallon katu 1,Helsinki,106234,106234,106234,94723,115110,109030,109030,109030,252902,248459,243969,239431,234848,230223,225542,220847,55380,49796,48127,58411,36899,37883,47074,31212,108303,92919,101777,111512,,,,,55380,49796,48127,58411,36899,37883,47074,31212,108303,92919,101777,111512,,,,
Finland,Operator Holding Account,UPM-KYMMENE OYJ,Alvar Aallon katu 1,Helsinki,178616,178616,178616,27174,27172,27172,27172,27172,356397,278799,273800,268736,263604,258411,253135,247838,65915,60380,35597,31686,20693,27103,23513,20908,20847,19547,19495,17922,,,,,65915,60380,35597,31686,20693,27103,23513,20908,20847,19547,19495,17922,,,,
Finland,Operator Holding Account,UPM-KYMMENE OYJ,Alvar Aallon katu 1,Helsinki,284873,284874,284874,271643,271643,271643,271643,271643,157280,152980,148701,144455,140233,136045,131877,127763,237410,283798,305318,244253,208344,268326,235613,197054,171651,186207,163033,142328,,,,,237410,283798,305318,244253,208344,268326,235613,197054,171651,186207,163033,142328,,,,
Finland,Operator Holding Account,UPM-KYMMENE OYJ,Alvar Aallon katu 1,Helsinki,1804,1805,1805,,,,,,,,,,,,,,1513,2040,3704,0,Not Reported,Not Reported,,,,,,,,,,,1513,2040,3704,,,,,,,,,,,,,
Finland,Operator Holding Account,UPM-KYMMENE OYJ,Alvar Aallon katu 1,Helsinki,105412,105412,105412,95551,95550,95550,95550,95550,199788,196218,192610,145543,142691,139816,136909,133997,94702,121608,139060,94539,72578,77263,61179,53511,49194,68351,69241,64786,,,,,94702,121608,139060,94539,72578,77263,61179,53511,49194,68351,69241,64786,,,,
Finland,Operator Holding Account,UPM-KYMMENE OYJ,Alvar Aallon katu 1,Helsinki,86499,86499,86499,,,,,,,,,,,,,,68819,44408,9415,,Not Reported,Not Reported,,,,,,,,,,,68819,44408,9415,,,,,,,,,,,,,
Finland,Operator Holding Account,UPM-KYMMENE OYJ,Alvar Aallon katu 1,Helsinki,90941,90940,90940,55311,55310,55310,55310,55310,223084,218914,210117,205115,200115,195120,190119,185147,42181,35932,73914,30638,16690,11378,13925,24549,6483,5875,3305,6757,,,,,42181,35932,73914,30638,16690,11378,13925,24549,6483,5875,3305,6757,,,,
Finland,Operator Holding Account,UPM-KYMMENE OYJ,Alvar Aallon katu 1,Helsinki,164718,164719,164719,147077,147074,147074,147074,147074,248853,243373,237881,150853,146900,142960,139030,135132,108644,113244,158545,135787,107920,120393,94390,74724,71178,113980,90312,94006,,,,,108644,113244,158545,135787,107920,120393,94390,74724,71178,113980,90312,94006,,,,
Finland,Operator Holding Account,UPM PLYWOOD OY,PL 203,Lahti,1808,1807,1807,2492,2485,2485,2485,2485,19422,18506,13563,11867,10223,8632,7092,5611,647,532,536,1082,914,657,473,725,312,440,570,318,,,,,647,532,536,1082,914,657,473,725,312,440,570,318,,,,
Finland,Operator Holding Account,UPM PLYWOOD OY,PL 203,Lahti,520,0,0,,,,,,,,,,,,,,214,,,,Not Reported,Not Reported,,,,,,,,,,,214,,,,,,,,,,,,,,,
Finland,Operator Holding Account,VAASAN SAHKO OY,Kirkkopuistikko 4,Vaasa,55,55,55,15,11,11,11,11,140,127,68,62,55,49,44,38,28,21,39,27,278,263,62,206,90,72,119,117,,,,,28,21,39,27,278,263,62,206,90,72,119,117,,,,
Finland,Operator Holding Account,VAASAN SAHKO OY,Kirkkopuistikko 4,Vaasa,6363,6363,6363,3009,3008,3008,3008,3008,2934,2511,378,1128,1015,905,799,697,3495,4760,5111,3252,1705,7911,2802,7963,1650,382,1184,2667,,,,,3495,4760,5111,3252,1705,7911,2802,7963,1650,382,1184,2667,,,,
Finland,Operator Holding Account,VAASAN SAHKO OY,Kirkkopuistikko 4,Vaasa,4,3,3,0,0,0,0,0,,,,,,,,,2,0,0,4,0,0,10,Not Reported,,,,,,,,,2,,,4,,,10,,,,,,,,,
Finland,Operator Holding Account,VAASAN SAHKO OY,Kirkkopuistikko 4,Vaasa,208,209,209,53,49,49,49,49,126,114,39,92,82,70,61,51,0,144,45,30,121,450,1,128,2,26,162,620,,,,,,144,45,30,121,450,1,128,2,26,162,620,,,,
Finland,Operator Holding Account,VAASAN SAHKO OY,Kirkkopuistikko 4,Vaasa,14117,14118,14118,11997,11996,11996,11996,11996,9450,8062,2805,1136,1116,1095,1074,1053,17923,13934,14087,10014,9949,7759,13971,5601,2249,2009,296,837,,,,,17923,13934,14087,10014,9949,7759,13971,5601,2249,2009,296,837,,,,
Finland,Operator Holding Account,VAASAN SAHKO OY,Kirkkopuistikko 4,Vaasa,,,,1518,1518,1518,1518,1518,834,756,119,117,115,113,110,108,,,308,996,1441,1870,1253,1131,101,68,186,449,,,,,,,308,996,1441,1870,1253,1131,101,68,186,449,,,,
Finland,Operator Holding Account,VAASAN SAHKO OY,Kirkkopuistikko 4,Vaasa,,,,,,,,,0,0,0,0,0,0,0,0,,,,,,,,0,0,1,0,0,,,,,,,,,,,,,,1,,,,,,
Finland,Operator Holding Account,VALKEAKOSKEN ENERGIA OY,Roineenkatu 24,Valkeakoski,0,0,0,0,0,0,0,0,,,,,,,,,4,11,5,0,0,0,0,0,1,2,0,0,,,,,4,11,5,,,,,,1,2,,,,,,
Finland,Operator Holding Account,VALKEAKOSKEN ENERGIA OY,Roineenkatu 24,Valkeakoski,0,0,0,0,0,0,0,0,,,,,,,,,6,23,70,0,2,0,0,0,0,4,1,0,,,,,6,23,70,,2,,,,,4,1,,,,,
Finland,Operator Holding Account,VALKEAKOSKEN ENERGIA OY,Roineenkatu 24,Valkeakoski,28512,28511,28511,23241,23240,23240,23240,23240,0,0,0,0,0,0,0,0,31429,27397,20376,20643,16781,167,87,993,294,508,0,564,,,,,31429,27397,20376,20643,16781,167,87,993,294,508,,564,,,,
Finland,Operator Holding Account,VALKEAKOSKEN ENERGIA OY,Roineenkatu 24,Valkeakoski,0,0,0,0,0,0,0,0,,,,,,,,,1,0,106,2,0,0,0,0,0,0,0,0,,,,,1,,106,2,,,,,,,,,,,,
Finland,Operator Holding Account,VALKEAKOSKEN ENERGIA OY,Roineenkatu 24,Valkeakoski,,,,,,,,,,,,,,,,,,,0,1,0,0,0,0,0,0,5,0,,,,,,,,1,,,,,,,5,,,,,
Finland,Operator Holding Account,VALKEAKOSKEN ENERGIA OY,Roineenkatu 24,Valkeakoski,,,,,,,,,,,,,,,,,,,,,,,,,,,,1,,,,,,,,,,,,,,,,1,,,,
Finland,Operator Holding Account,VANTAAN ENERGIA OY,Peltolantie,Vantaa,13328,13328,13328,13076,13076,13076,13076,13076,13800,12350,5470,0,0,0,0,0,14629,14371,15030,12845,19143,19835,13132,22074,16549,7631,77,29,,,,,14629,14371,15030,12845,19143,19835,13557,21649,16549,7631,77,29,,,,
Finland,Operator Holding Account,VANTAAN ENERGIA OY,Peltolantie,Vantaa,4387,4387,4387,3158,3155,3155,3155,3155,3427,3067,2717,2376,2047,1729,1421,1124,3340,3739,6807,627,1081,7942,6123,11451,10711,13101,2880,5941,,,,,3340,3739,6807,627,1081,7942,6123,11451,10711,13101,2880,5941,,,,
Finland,Operator Holding Account,VANTAAN ENERGIA OY,Peltolantie,Vantaa,20241,20240,20240,17637,17637,17637,17637,17637,31686,28356,25116,0,0,0,0,0,13576,11440,14328,11652,37764,46970,33843,49687,36764,24767,3245,5772,,,,,13576,11440,14328,11652,37764,46970,33843,49687,36764,24767,3245,5772,,,,
Finland,Operator Holding Account,VANTAAN ENERGIA OY,Peltolantie,Vantaa,844618,844617,844617,717838,717834,717834,717834,717834,287079,256908,227594,199207,171711,145107,119363,94543,718024,757248,738773,747211,762657,799082,721117,673600,708378,494160,425895,446028,,,,,718024,757248,738773,747211,762657,799082,721117,673600,708378,494160,425895,446028,,,,
Finland,Operator Holding Account,VANTAAN ENERGIA OY,Peltolantie,Vantaa,0,0,0,4,4,4,4,4,,,,,,,,,0,2,0,0,0,13,0,9,,,,,,,,,,2,,,,13,,9,,,,,,,,
Finland,Operator Holding Account,VANTAAN ENERGIA OY,Peltolantie,Vantaa,0,0,0,0,0,0,0,0,,,,,,,,,0,0,0,0,0,0,0,0,,,,,,,,,,,,,,,,,,,,,,,,
Finland,Operator Holding Account,VANTAAN ENERGIA OY,Peltolantie,Vantaa,,,,0,4335,5199,5199,5199,2889,2585,1145,2004,1726,1458,1198,947,,,,0,6577,4827,1798,1385,2249,2323,6037,82,,,,,,,,,6577,4827,1798,1385,2249,2323,6037,82,,,,
Finland,Operator Holding Account,VANTAAN ENERGIA OY,Peltolantie,Vantaa,,,,,,,,,,,,,,,,,,,,,,,,,,16414,16817,45916,,,,,,,,,,,,,,16414,16817,45916,,,,
Finland,Operator Holding Account,VANTAAN ENERGIA OY,Peltolantie,Vantaa,,,,,,,,,,,,,,,,,,,,,,,,,,8,0,0,,,,,,,,,,,,,,8,,,,,,
Finland,Operator Holding Account,VAPO OY,Yrjönkatu 42,Jyväskylä,41327,41328,41328,38202,41652,42800,42800,42800,22462,20718,16265,14236,12271,10370,8530,6756,31987,45876,56575,45916,33127,48704,33792,30864,29096,38434,41884,43049,,,,,31987,45876,56575,45916,33127,48704,33792,30864,29096,38434,41884,43049,,,,
Finland,Operator Holding Account,VAPO OY,Yrjönkatu 42,Jyväskylä,0,0,0,0,0,0,0,0,3,3,1,0,0,0,0,0,0,0,17,4,9,5,11,0,0,1,0,,,,,,,,17,4,9,5,11,,,1,,,,,,
Finland,Operator Holding Account,VAPO OY,Yrjönkatu 42,Jyväskylä,0,0,0,0,0,0,0,0,22,19,0,0,0,0,0,0,0,0,0,22,86,11,0,0,0,0,0,,,,,,,,,22,86,11,,,,,,,,,,
Finland,Operator Holding Account,VAPO OY,Yrjönkatu 42,Jyväskylä,445,444,444,780,777,777,777,777,1379,1208,552,434,334,247,187,148,1631,2766,1698,1714,539,704,879,383,580,383,350,573,,,,,1631,2766,1698,1714,539,704,879,383,580,383,350,573,,,,
Finland,Operator Holding Account,VAPO OY,Yrjönkatu 42,Jyväskylä,8,9,9,9,8,8,8,8,5,5,1,0,0,0,0,0,8,8,8,0,0,0,1,0,0,0,0,0,,,,,8,8,8,,,,1,,,,,,,,,
Finland,Operator Holding Account,VAPO OY,Yrjönkatu 42,Jyväskylä,37921,37921,37921,36602,36602,36602,36602,36602,14045,11835,9835,0,0,0,0,0,26554,30090,30700,36041,30608,28282,20736,22591,23034,20572,11113,,,,,,26554,30090,30700,36041,30608,28282,20736,22591,23034,20572,11113,,,,,
Finland,Operator Holding Account,VAPO OY,Yrjönkatu 42,Jyväskylä,0,0,0,0,0,0,0,0,,,,,,,,,0,0,0,0,0,0,0,0,0,0,0,,,,,,,,,,,,,,,,,,,,,
Finland,Operator Holding Account,VAPO OY,Yrjönkatu 42,Jyväskylä,858,857,857,670,669,669,669,669,794,710,157,138,119,100,82,65,814,2053,1273,802,894,2119,1010,671,704,447,242,829,,,,,814,2053,1273,802,894,2119,1010,671,704,447,242,829,,,,
Finland,Operator Holding Account,VAPO OY,Yrjönkatu 42,Jyväskylä,935,935,935,549,546,546,546,546,,,,,,,,,599,442,216,451,792,0,0,0,,,,,,,,,599,442,216,451,792,,,,,,,,,,,
Finland,Operator Holding Account,VAPO OY,Yrjönkatu 42,Jyväskylä,6,7,7,5,3,3,3,3,,,,,,,,,0,0,10,9,0,0,10,0,8,81,13,8,,,,,,,10,9,,,10,,8,81,13,8,,,,
Finland,Operator Holding Account,VAPO OY,Yrjönkatu 42,Jyväskylä,,,,29142,29138,29138,29138,29138,22967,21132,17588,15603,13852,12209,10615,9078,80,36288,52676,52221,36864,41475,45929,39539,32972,30754,34184,31747,,,,,80,36288,52676,52221,36864,41475,45929,39539,32972,30754,34184,31747,,,,
Finland,Operator Holding Account,VAPO OY,Yrjönkatu 42,Jyväskylä,,,,,858,2205,2205,2205,2345,2098,1859,0,0,0,0,0,,,,3,3087,8744,9562,8404,6589,8512,5028,,,,,,,,,3,3087,8744,9562,8404,6589,8512,5028,,,,,
Finland,Operator Holding Account,VAPO OY,Yrjönkatu 42,Jyväskylä,14941,14942,14942,18921,23045,28819,28819,28819,12105,10834,9595,8395,7232,6107,5018,3969,20742,20630,20708,19749,25775,31235,30485,31701,32434,28436,27795,28788,,,,,20742,20630,20708,19749,25775,31235,30485,31701,32434,28436,27795,28788,,,,
Finland,Operator Holding Account,VAPO OY,Yrjönkatu 42,Jyväskylä,517,516,516,156,155,155,155,155,3,3,0,0,0,0,0,0,72,8,2,0,0,0,2,5,0,0,0,0,,,,,72,8,2,,,,2,5,,,,,,,,
Finland,Operator Holding Account,VAPO OY,Yrjönkatu 42,Jyväskylä,23907,23908,23908,13405,13402,13402,13402,13402,37016,33125,29346,25685,22141,18710,15391,12190,21572,31107,81397,58749,59220,74463,41800,39595,43322,44820,41456,40877,,,,,21572,31107,81397,58749,59220,74463,41800,39595,43322,44820,41456,40877,,,,
Finland,Operator Holding Account,VAPO OY,Yrjönkatu 42,Jyväskylä,3282,3283,3283,1829,1829,1829,1829,1829,1727,1472,1238,1027,845,713,586,464,4662,3433,3309,2325,1328,4506,3851,8535,2827,4601,3696,1165,,,,,4662,3433,3309,2325,1328,4556,3801,8535,2827,4601,3696,1165,,,,
Finland,Operator Holding Account,VAPO OY,Yrjönkatu 42,Jyväskylä,279,278,278,6281,6279,6279,6279,6279,3041,2722,2411,1055,909,767,631,499,5641,2453,928,566,452,264,525,1699,157,185,264,1822,,,,,5641,2453,928,566,452,264,525,1699,157,185,264,1822,,,,
Finland,Operator Holding Account,VAPO OY,Yrjönkatu 42,Jyväskylä,0,0,0,0,0,0,0,0,,,,,,,,,0,0,0,0,0,0,0,0,0,0,0,0,,,,,,,,,,,,,,,,,,,,
Finland,Operator Holding Account,VAPO OY,Yrjönkatu 42,Jyväskylä,0,0,0,0,0,0,0,0,,,,,,,,,0,0,0,0,0,0,0,0,0,0,0,0,,,,,,,,,,,,,,,,,,,,
Finland,Operator Holding Account,VAPO OY,Yrjönkatu 42,Jyväskylä,0,0,0,0,0,0,0,0,,,,,,,,,0,0,0,0,0,0,0,0,,,,,,,,,,,,,,,,,,,,,,,,
Finland,Operator Holding Account,VAPO OY,Yrjönkatu 42,Jyväskylä,0,0,0,18,14,14,14,14,4,4,0,0,0,0,0,0,148,0,0,0,16,0,1,0,0,0,0,0,,,,,148,,,,16,,1,,,,,,,,,
Finland,Operator Holding Account,VAPO OY,Yrjönkatu 42,Jyväskylä,0,0,0,3,2,2,2,2,,,,,,,,,23,0,19,0,1,0,0,0,0,0,0,0,,,,,23,,19,,1,,,,,,,,,,,
Finland,Operator Holding Account,VAPO OY,Yrjönkatu 42,Jyväskylä,,,,,,,,,,,,,,,,,,,,,,,,0,45,75,93,,,,,,,,,,,,,,45,75,93,,,,,
Finland,Operator Holding Account,VARISSUON LAMPO OY,Karvataskunkatu 1,Turku,11062,11061,11061,9214,9211,9211,9211,9211,7027,5989,5304,4641,3998,3376,2774,2195,9381,9516,9258,8194,13809,10478,5228,996,856,504,273,1008,,,,,9381,9516,9258,8194,13809,10478,5228,996,856,504,273,1008,,,,
Finland,Operator Holding Account,VARKAUDEN ALUELAMPO OY,PL 206,VARKAUS,0,0,0,,,,,,,,,,,,,,5,0,,,Not Reported,Not Reported,,,,,,,,,,,5,,,,,,,,,,,,,,,
Finland,Operator Holding Account,VARKAUDEN ALUELAMPO OY,PL 206,VARKAUS,287,286,286,608,607,607,607,607,447,400,355,310,267,226,185,147,2001,179,143,165,148,1466,3992,3973,3351,5184,1079,2822,,,,,2001,179,143,165,148,1466,3992,3973,3351,5184,1079,2822,,,,
Finland,Operator Holding Account,VARKAUDEN ALUELAMPO OY,PL 206,VARKAUS,1379,1380,1380,1417,1414,1414,1414,1414,149,133,117,103,88,75,61,49,1713,125,246,285,300,0,628,355,2283,2079,1875,1113,,,,,1713,125,246,285,300,,628,355,2283,2079,1875,1113,,,,
Finland,Operator Holding Account,VARKAUDEN ALUELAMPO OY,PL 206,VARKAUS,0,0,0,0,0,0,0,0,,,,,,,,,0,0,0,,,,,,,,,,,,,,,,,,,,,,,,,,,,,
Finland,Operator Holding Account,VARKAUDEN ALUELAMPO OY,PL 206,VARKAUS,1602,1601,1601,1234,1233,1233,1233,1233,221,197,176,154,132,112,92,73,260,394,987,213,282,505,547,57,193,853,1270,1505,,,,,260,788,987,495,,505,547,57,193,853,1270,1505,,,,
Finland,Operator Holding Account,VARKAUDEN ALUELAMPO OY,PL 206,VARKAUS,0,0,0,189,187,187,187,187,0,0,0,0,0,0,0,0,891,1,0,0,0,0,0,0,216,757,259,79,,,,,891,1,,,,,,,216,757,259,79,,,,
Finland,Operator Holding Account,VARKAUDEN ALUELAMPO OY,PL 206,VARKAUS,0,0,0,,,,,,,,,,,,,,0,,,,Not Reported,Not Reported,,,,,,,,,,,,,,,,,,,,,,,,,,
Finland,Operator Holding Account,VARKAUDEN ALUELAMPO OY,PL 206,VARKAUS,,,,1053,1052,1052,1052,1052,2,2,0,0,0,0,0,0,0,0,12,0,0,8,0,0,109,0,0,192,,,,,,,12,5,,5,,,109,,,192,,,,
Finland,Operator Holding Account,VARKAUDEN ALUELAMPO OY,PL 206,VARKAUS,,,,0,0,0,249,248,146,131,0,0,0,0,0,0,,,,,,523,0,0,0,7,0,17,,,,,,,,,,523,,,,7,,17,,,,
Finland,Operator Holding Account,VASKILUODON VOIMA OY,Kirkkopuistikko 0,Vaasa,797584,797585,797585,407114,407111,407111,407111,407111,85659,72709,60988,50468,43141,36996,31047,25310,457148,787407,924188,665146,733466,782755,591893,342970,375954,338553,352564,401488,,,,,457148,787407,924188,1398612,,782755,591893,342970,375954,338553,352564,401488,,,,
Finland,Operator Holding Account,VASKILUODON VOIMA OY,Kirkkopuistikko 0,Vaasa,1272728,1272727,1272727,605477,605477,605477,605477,605477,160102,136261,114818,95719,83085,72606,62454,52654,874507,1327656,1256356,1045679,1174718,1336821,974306,886959,1087164,922723,724592,839060,,,,,874507,1327656,1256356,4331270,,100127,100127,886959,1087164,922723,724592,839060,,,,
Finland,Operator Holding Account,VATAJANKOSKEN SAHKO OY,PL,Kankaanpää,126,125,125,168,167,167,167,167,396,355,314,0,0,0,0,0,251,275,332,42,423,1465,558,589,260,391,67,262,,,,,251,275,332,465,,1465,558,589,260,391,67,262,,,,
Finland,Operator Holding Account,VATAJANKOSKEN SAHKO OY,PL,Kankaanpää,43639,43640,43640,33470,33469,33469,33469,33469,16695,14421,12631,11055,9529,8053,6624,5247,38401,43335,44031,42350,35802,36745,28173,38743,31457,31241,30157,32904,,,,,38401,43335,44031,78152,,36745,28173,38743,31457,31241,30157,32904,,,,
Finland,Operator Holding Account,VATAJANKOSKEN SAHKO OY,PL,Kankaanpää,10,9,9,12,8,8,8,8,6,5,5,4,4,3,3,2,9,9,11,8,9,13,11,11,16,6,18,34,,,,,9,9,11,17,,13,11,11,16,6,18,34,,,,
Finland,Operator Holding Account,VATAJANKOSKEN SAHKO OY,PL,Kankaanpää,47,48,48,16,14,14,14,14,2,2,2,2,2,1,1,1,2,0,2,0,1,16,15,6,3,5,6,6,,,,,2,,2,1,,16,15,6,3,5,6,6,,,,
Finland,Operator Holding Account,VATAJANKOSKEN SAHKO OY,PL,Kankaanpää,281,280,280,206,203,203,203,203,98,88,39,34,30,25,20,16,62,106,84,6,104,364,166,231,111,93,88,263,,,,,62,106,84,110,,364,166,231,111,93,88,263,,,,
Finland,Operator Holding Account,VATAJANKOSKEN SAHKO OY,PL,Kankaanpää,3,4,4,3,0,0,0,0,1,1,0,1,1,0,0,0,0,1,1,0,0,0,0,0,0,0,3,16,,,,,,1,1,1,,,,,,,3,16,,,,
Finland,Operator Holding Account,VELJET KUUSISTO OY,Pappilantie 24,Laitila,,,,9931,9928,9928,9928,9928,8149,7408,6472,5732,5013,4319,3644,2996,0,0,0,0,0,0,18,26,17,18,17,20,,,,,,,,,,,18,52,17,18,17,20,,,,
Finland,Operator Holding Account,VERSOWOOD OY,Teollisuustie 60,Vierumäki,2062,2063,2063,6182,7030,7030,7030,7030,,,,,,,,,2109,1794,1687,1113,1408,1959,770,761,0,,,,,,,,2109,1794,1687,2226,295,1959,770,761,,,,,,,,
Finland,Operator Holding Account,VSV-ENERGIA OY,Vihtorinkatu 2,Laitila,20610,20609,20609,18771,18767,18767,18767,18767,8981,8038,8803,8225,7661,7112,6577,6057,13730,14769,14917,12799,12327,19597,15327,17309,16682,21420,13707,550,,,,,13730,14769,14917,12799,12327,19597,15327,17309,16682,21420,13707,550,,,,
Finland,Operator Holding Account,VSV-ENERGIA OY,Vihtorinkatu 2,Laitila,,,,,,,,,,,,,,,,,,,,,,,,,3365,6428,1040,4081,,,,,,,,,,,,,3365,6428,1040,4081,,,,
Finland,Operator Holding Account,WESTAS RAUNIO OY,Myllykyläntie 42,Koski Tl,,,,737,735,735,735,735,7825,7002,6203,5430,4680,3955,3253,2577,,0,71,25,8,83,10,78,88,116,206,65,,,,,,,71,25,8,83,10,78,88,116,206,65,,,,
Finland,Operator Holding Account,WIENERBERGER OY AB,Kumpulantie 15,Helsinki,6431,6430,6430,6235,8389,7310,7310,7310,4879,4794,4708,4621,4534,4446,4356,4266,5872,5992,7232,6952,3126,5448,6052,4766,4420,4173,4195,4774,,,,,5872,5992,7232,6952,3126,5448,6052,4766,4420,4173,4195,4774,,,,
Finland,Operator Holding Account,WIENERBERGER OY AB,Kumpulantie 15,Helsinki,10777,10777,10777,10596,12390,11489,11489,11489,6847,6728,0,0,0,0,0,0,10637,10040,10629,9777,6860,6952,6778,6466,4302,3915,,,,,,,10637,10040,10629,9777,6860,6952,6778,6466,4302,3915,,,,,,
Finland,Operator Holding Account,WIITASEUDUN ENERGIA OY,Keskitie 10,Viitasaari,,,,6443,10838,10210,10210,10210,16182,15309,11479,5313,4640,3988,3357,2749,835,1633,1332,1022,1333,457,186,123,134,200,54,154,,,,,835,1633,1332,1665,1333,,,123,134,200,54,154,,,,
Finland,Operator Holding Account,WIITASEUDUN ENERGIA OY,Keskitie 10,Viitasaari,,,,108,105,105,105,105,6,5,0,0,0,0,0,0,8,7,64,13,6,10,0,0,0,0,1,28,,,,,8,7,64,29,,,,,,,1,28,,,,
Finland,Operator Holding Account,WIITASEUDUN ENERGIA OY,Keskitie 10,Viitasaari,,,,141,139,139,139,139,22,19,0,0,0,0,0,0,29,50,82,23,11,0,29,1,0,0,2,0,,,,,29,50,82,63,,,,1,,,2,2,,,,
Finland,Operator Holding Account,WIITASEUDUN ENERGIA OY,Keskitie 10,Viitasaari,,,,227,226,226,226,226,70,63,0,0,0,0,0,0,152,231,106,93,12,122,24,58,18,8,5,9,,,,,152,231,106,239,12,,,58,18,8,5,9,,,,
Finland,Operator Holding Account,YANDEX OY,Moreenikatu 6,Mäntsälä,,,,,,,,,,,,,,,,,,,,,,,,,,17,64,51,,,,,,,,,,,,,,17,64,51,,,,
Finland,Operator Holding Account,Yara Suomi Oy,PL 5,Uusikaupunki,2235,2235,2235,1843,1842,1842,1842,1842,142365,139892,137390,134863,132307,129727,127115,124494,1871,2102,1691,1016,2053,1732,2187,993,143000,148940,160104,157141,,,,,,3973,1691,3069,,1842,2187,883,143000,148940,160104,157141,,,,
Finland,Operator Holding Account,Yara Suomi Oy,PL 5,Uusikaupunki,,,,,,,,,130625,128355,126061,123742,121396,119029,116633,114226,,,,,,,,,38808,39336,35422,36558,,,,,,,,,,,,,38808,39336,35422,36558,,,,
Finland,Operator Holding Account,YLIVIESKAN TIILI OY,Lentokentäntie 833,Ylivieska,7606,7606,7606,10172,11018,10592,10592,10592,4809,2363,2321,2278,2235,2191,2147,2103,7743,7947,5617,5723,4028,5905,3965,4521,2592,3725,3359,3381,,,,,7743,7947,5617,5723,4028,5905,3965,4521,2592,3725,3359,3381,,,,