Country,Account Type,Account Holder Name,Company Registration No,Permit/Plan Date,Account status,Main Address Line,Postal Code,City,Allowance In Allocation In 2005,Allowance In Allocation In 2006,Allowance In Allocation In 2007,Allowance In Allocation In 2008,Allowance In Allocation In 2009,Allowance In Allocation In 2010,Allowance In Allocation In 2011,Allowance In Allocation In 2012,Allowance In Allocation In 2013,Allowance In Allocation In 2014,Allowance In Allocation In 2015,Allowance In Allocation In 2016,Allowance In Allocation In 2017,Allowance In Allocation In 2018,Allowance In Allocation In 2019,Allowance In Allocation In 2020,Verified Emissions In 2005,Verified Emissions In 2006,Verified Emissions In 2007,Verified Emissions In 2008,Verified Emissions In 2009,Verified Emissions In 2010,Verified Emissions In 2011,Verified Emissions In 2012,Verified Emissions In 2013,Verified Emissions In 2014,Verified Emissions In 2015,Verified Emissions In 2016,Verified Emissions In 2017,Verified Emissions In 2018,Verified Emissions In 2019,Verified Emissions In 2020,Units Surrendered In 2005,Units Surrendered In 2006,Units Surrendered In 2007,Units Surrendered In 2008,Units Surrendered In 2009,Units Surrendered In 2010,Units Surrendered In 2011,Units Surrendered In 2012,Units Surrendered In 2013,Units Surrendered In 2014,Units Surrendered In 2015,Units Surrendered In 2016,Units Surrendered In 2017,Units Surrendered In 2018,Units Surrendered In 2019,Units Surrendered In 2020
Austria,Aircraft Operator Account,Jetalliance Flugbetriebs GmbH,FN 203001g,2010-01-01,closed,Flugplatz 1,2542,Kottingbrunn,,,,,,,,671,,,,,,,,,,,,,,,,,Excluded,,,,,,,,,,,,,,,,,,,,,,,
Austria,Aircraft Operator Account,Glock GmbH,FN64142b,2010-01-01,closed,Loibstrasse 16,9170,Ferlach,,,,,,,,11,8,8,8,0,,,,,,,,,,,,1678,1692,1720,,,,,,,,,,,,,,1678,,3412,,,,,,
Austria,Aircraft Operator Account,Glock Services GmbH,FN329154a,2010-01-01,closed,Schneeweisshofweg 32,9521,Treffen am Ossiachersee,,,,,,,,94,,,,,,,,,,,,,,0,0,0,,,,,,,,,,,,,,,,,,,,,,,,
Austria,Aircraft Operator Account,Austrian Airlines AG,111 000k,2010-01-01,open,Office Park 2,1300,Wien-Flughafen,,,,,,,,1541468,412575,412575,412575,412575,412575,412575,412575,412575,,,,,,,,828384,733862,716282,720505,763086,,,,,,,,,,,,828384,,1450145,720504,763086,,,,
Austria,Aircraft Operator Account,Tupack Verpackungen Gesellschaft m.b.H.,60238 k,2010-01-01,open,Warneckestrasse 5,1113,Wien,,,,,,,,25,16,16,16,16,16,16,16,16,,,,,,,,791,Excluded,Excluded,Excluded,Excluded,,,,,,,,,,,,791,,,,,,,,
Austria,Aircraft Operator Account,Air Charter Limited,FL-0001.021.205-3,2010-01-01,open,AEulestrasse 5,9490,Vaduz,,,,,,,,3,,,,,,,,,,,,,,,,297,Excluded,Excluded,Excluded,Excluded,,,,,,,,,,,,297,,,,,,,,
Austria,Aircraft Operator Account,International Jet Management GmbH,242653v,2009-01-01,open,Concorde Business Park 2/F14,2320,Wien-Schwechat,,,,,,,,493,146,146,146,146,146,146,146,146,,,,,,,,6358,2697,4647,5542,4647,,,,,,,,,,,,6358,,7344,5542,4647,,,,
Austria,Aircraft Operator Account,NIKI Luftfahrt GmbH,FN230533w,2010-01-01,open,"Office Park I, Top B03",1300,Vienna-Airport,,,,,,,,283624,141040,141040,141040,141040,141040,141040,141040,141040,,,,,,,,330525,226751,253650,255813,253289,,,,,,,,,,,,330525,,480401,255813,253289,,,,
Austria,Aircraft Operator Account,Ingrid Flick,,2010-01-01,closed,Auen Süduferstraße 11a,9220,Schiefling am Wörther See,,,,,,,,16,,,,,,,,,,,,,,,,555,Excluded,Excluded,Excluded,,,,,,,,,,,,,555,,,,,,,,
Austria,Aircraft Operator Account,InterSky Luftfahrt GmbH,FN 215648 f,2010-01-01,closed,Bahnhofstrasse 10,6900,Bregenz,,,,,,,,8369,7802,7802,7802,0,,,,,,,,,,,,16376,16656,13471,15330,,,,,,,,,,,,,16376,,30127,,13410,,,,
Austria,Operator Holding Account,AGRANA Stärke GmbH,FN 252477 s,2005-01-26,open,Friedrich-Wilhelm-Raiffeisen-Platz 1,1020,Wien,32566,32566,32566,33837,33837,33837,33837,33837,28705,27565,27245,26279,25326,24384,23456,22541,36722,35053,33885,34781,33803,33695,34599,36080,34683,34693,35812,37500,,,,,36722,35053,33885,34781,33803,33695,34599,36080,34683,34693,35812,37500,,,,
Austria,Operator Holding Account,AGRANA Stärke GmbH,FN 252477 s,2005-10-18,open,Friedrich-Wilhelm-Raiffeisen-Platz 1,1020,Wien,80719,80719,80719,74854,74854,74854,74854,74854,57669,56666,55662,54659,53656,52651,51648,50645,70865,77832,78721,76343,77710,81800,81065,81114,82073,81011,79640,81599,,,,,70865,77832,78721,76343,77710,81800,81065,81114,82073,81011,79640,81599,,,,
Austria,Operator Holding Account,AGRANA Zucker GmbH,FN 51929 t,2005-07-01,open,Friedrich-Wilhelm-Raiffeisen-Platz 1,1020,Wien,77919,77919,77919,87081,87081,87081,87081,87081,101514,99751,97967,96165,94343,92503,90640,88771,68460,77649,75699,85061,89437,99409,97349,89345,77313,88501,100752,84713,,,,,68460,77649,75699,85061,89437,99409,97349,89345,77313,88501,100752,84713,,,,
Austria,Operator Holding Account,AGRANA Zucker GmbH,FN 51929 t,2005-12-13,open,Friedrich-Wilhelm-Raiffeisen-Platz 1,1020,Wien,63684,63684,63684,77133,77133,77133,77133,77133,66220,65070,63907,62731,61542,60343,59128,57908,59968,65662,69137,76793,78869,81895,80142,72464,74739,81039,91828,70927,,,,,59968,65662,69137,76793,78869,81895,80142,72464,74739,81039,91828,70927,,,,
Austria,Operator Holding Account,AGRANA Zucker GmbH,FN 51929 t,2004-01-02,closed,Friedrich-Wilhelm-Raiffeisen-Platz 1,1020,Wien,58866,58866,58866,0,0,0,0,0,,,,,,,,,58609,1812,773,Not Reported,Not Reported,Not Reported,,,,,,,,,,,58609,1812,773,,,,,,,,,,,,,
Austria,Operator Holding Account,Borealis Agrolinz Melamine GmbH,FN 78587 w,2005-07-21,open,St. Peter-Strasse 25,4021,Linz,87252,87252,87252,85080,85080,85080,85080,85080,242887,237354,231818,226286,220755,215233,209703,204209,86583,86608,78551,83444,77625,73867,63007,62144,48421,53648,52815,55243,,,,,86583,86608,78551,83444,77625,73867,63007,62144,48421,53648,52815,55243,,,,
Austria,Operator Holding Account,AMAG Service GmbH,FN 114723 k,2005-05-30,open,Lamprechtshausnerstraße 61,5282,Braunau am Inn - Rannshofen,9628,9628,9628,9149,9149,9149,9149,9149,389,348,308,270,232,197,162,128,9595,9341,7689,6984,6849,7221,6445,6435,7706,7093,5872,6618,,,,,9595,9341,7689,6984,6849,7221,6445,6435,7706,7093,5872,6618,,,,
Austria,Operator Holding Account,"""BAUMIT"" Baustoffe Gesellschaft m.b.H.",FN 87132 k,2005-06-01,open,Linzer Straße 8,4820,Bad Ischl,44894,44894,44894,43171,43171,43171,43171,43171,42159,41426,40685,39937,39180,38416,37643,36866,41399,42708,51041,57009,44299,45808,47922,49810,50105,50308,41989,45142,,,,,41399,42708,51041,57009,44299,45808,47922,49810,50105,50308,41989,45142,,,,
Austria,Operator Holding Account,Borealis Polyolefine GmbH,FN 125430g,2005-01-12,open,Danubiastrasse 21-25,2320,Schwechat-Mannswörth,19096,19096,19096,14798,14798,14798,14798,14798,76040,74720,73384,72034,70669,69291,67896,66496,13944,19398,19276,30701,30803,44749,43298,40451,20717,14510,12968,13753,,,,,13944,19398,19276,30701,30803,44749,43298,40451,20717,14510,12968,13753,,,,
Austria,Operator Holding Account,Breitenfeld Edelstahl AG,FN 74471 t,2005-11-23,open,Breitenfeldstrasse 22,8662,Mitterdorf,8492,8492,8492,14063,17155,26429,26429,26429,15118,14856,14590,14322,14051,13776,13499,13221,12104,12256,14976,17523,16815,15963,19328,16434,19734,18498,17366,17233,,,,,12104,12256,14976,17523,16815,15963,19328,16434,29290,18498,17366,17233,,,,
Austria,Operator Holding Account,GA Immobilien GmbH,FN 114787 f,2005-01-25,closed,Herzogenburgstrasse 69,3100,St. Pölten,60878,60878,60878,60346,60346,60346,60346,60346,,,,,,,,,59801,51694,46013,25481,3054,3090,3049,1672,,,,,,,,,59801,51694,46013,25481,3054,3090,3049,1672,,,,,,,,
Austria,Operator Holding Account,Cogeneration-Kraftwerke Management Oberösterreich GmbH,FN 90934 b,2005-04-14,open,Böhmerwaldstrasse 3,4021,Linz,253605,253605,253605,243831,243831,243831,243831,243831,5743,5140,4553,3985,3435,2903,2388,1892,243736,223958,234895,240789,234321,236053,238288,227591,159977,129499,116886,137345,,,,,243736,223958,234895,240789,234321,236053,238288,227591,159977,129499,116886,137345,,,,
Austria,Operator Holding Account,Zementwerk Hatschek GmbH,FN 160460 x,2004-01-01,open,Hatschekstrasse 25,4810,Gmunden,343437,343437,343437,333309,333309,392937,354992,354992,355431,349257,343011,336700,330320,323879,317358,310813,369924,397422,397936,385307,356692,310139,327781,344237,281768,331127,328182,331383,,,,,369924,397422,397937,385307,356692,310139,327781,344237,281768,331127,328182,331383,,,,
Austria,Operator Holding Account,F.M. Hämmerle Textil Produktion und Vertrieb GmbH,FN 334036 f,2004-01-02,closed,Eisengasse 44,6850,Dornbirn,12899,12899,12899,9981,9981,9981,9981,0,,,,,,,,,9561,9125,9501,7407,3495,3896,919,Not Reported,,,,,,,,,9561,9125,9501,2370,3495,3896,919,,2,,,,,,,
Austria,Operator Holding Account,Energie Steiermark Wärme GmbH,FN 57546 b,2004-01-01,open,Leonhardgürtel 10,8010,Graz,96790,96790,96790,89789,89789,89789,89789,89789,17417,3897,0,0,0,0,0,0,91548,66583,83979,56233,57343,67935,61734,47954,28440,15358,14399,14075,,,,,91548,66583,83979,56233,57343,67935,61734,47954,28440,15358,14399,14075,,,,
Austria,Operator Holding Account,FunderMax GmbH,FN 90081 y,2004-01-02,open,Klagenfurter Str. 87-89,9300,St. Veit/Glan,24003,24003,24003,27343,27343,27343,27343,27343,26223,25697,25167,24636,24102,23566,23026,22488,29943,34345,33272,23865,24304,25117,25940,25475,30819,29079,28969,30222,,,,,29943,34345,33272,23865,24304,25117,25940,25475,30819,29079,28969,30222,,,,
Austria,Operator Holding Account,Ziegelwerk Danreiter GmbH & Co KG,FN 18162 i,2004-01-01,open,Ottenbach 14,4911,Tumeltsham,7397,7397,7397,5927,5927,5927,5927,5927,3494,3434,3373,3311,3248,3185,3120,3056,5855,3500,4346,3670,2904,2861,4162,4082,4017,3064,3075,3436,,,,,5855,3500,4346,3670,2904,2861,4162,4082,4017,3064,3075,3436,,,,
Austria,Operator Holding Account,Patheon Austria GmbH & CoKG,FN 200540 m,2006-03-29,open,St. Peter Strasse 25,4020,Linz,32491,32491,32491,31421,31421,32432,32479,31830,90297,88729,87142,85539,13237,12980,12718,12455,30883,23660,25366,31412,30236,21485,18911,22732,94294,94318,93010,8373,,,,,30883,23660,25366,31412,30236,21485,18911,22732,94294,94318,93010,8373,,,,
Austria,Operator Holding Account,Metadynea Austria GmbH,FN 189206 w,2005-08-08,open,Hafenstrasse 77,3500,Krems,1526,1526,1526,1408,1408,1408,1408,1408,19446,19109,18767,18422,18073,17720,17363,17005,1371,1231,644,1203,855,404,264,320,16663,17923,18161,18188,,,,,1371,1231,644,1203,855,404,264,320,16664,17922,18161,18188,,,,
Austria,Operator Holding Account,M. Kaindl KG,FN 27690 x,2004-01-01,open,Kaindlstraße 2,5071,Wals,61559,61559,61559,90752,90752,90752,90752,90752,145063,142542,91990,80485,69335,58545,48105,38056,78296,72808,73987,70919,56220,59204,49880,45801,40234,25262,20813,17666,,,,,78296,72808,73987,70919,56220,59204,49880,43123,42912,25262,20813,17666,,,,
Austria,Operator Holding Account,Wienerberger Ziegelindustrie GmbH,FN 94684 t,2004-01-02,closed,Hauptstrasse 2,2332,Hennersdorf,8335,8335,8335,,,,,,,,,,,,,,10903,6859,0,Not Reported,Not Reported,Not Reported,,,,,,,,,,,10903,6859,,,,,,,,,,,,,,
Austria,Operator Holding Account,Energie AG Oberösterreich Kraftwerke GmbH,FN 291377 x,2004-01-02,open,Böhmerwaldstraße 3,4021,Linz,4030,4030,4030,6268,6268,6268,6268,6268,,,,,,,,,35077,23606,5653,16845,306,0,0,0,0,0,0,0,,,,,35077,23606,5653,16845,306,,,,,,,,,,,
Austria,Operator Holding Account,Energie AG Oberösterreich Wärme GmbH,FN 123364 v,2004-01-02,open,Böhmerwaldstrasse 3,4021,Linz,14582,14582,14582,13655,13655,13655,13655,13655,10150,9083,8047,7043,6071,5130,4220,3342,14468,15097,13589,13855,13785,15856,13961,15473,18654,17509,14754,13070,,,,,14468,15097,13589,13855,13785,15856,13961,15473,18654,17509,14754,13070,,,,
Austria,Operator Holding Account,Energie AG Oberösterreich Kraftwerke GmbH,FN 291377 x,2004-01-01,open,Böhmerwaldstraße 3,4021,Linz,535029,535029,535029,437140,437140,437140,437140,437140,8994,7468,6100,4888,3825,3195,2628,2081,707404,730870,585664,730397,342118,310019,253226,208067,206401,236873,270681,203045,,,,,707404,730870,585664,730397,342118,310019,253226,208067,206401,236873,270681,203045,,,,
Austria,Operator Holding Account,Kirchdorfer Zementwerk Hofmann GmbH,FN 121253 p,2004-01-01,open,Hofmannstrasse 4,4560,Kirchdorf an der Krems,239842,239842,239842,231583,231583,310605,284701,284701,294089,288838,283533,278178,272773,267321,261809,256284,219745,222135,268680,240098,235552,196287,192381,222153,191794,203595,206097,219510,,,,,219745,222135,271338,240098,235552,196287,192381,222153,191794,203595,206097,219510,,,,
Austria,Operator Holding Account,Energie AG Oberösterreich Kraftwerke GmbH,FN 291377 x,2004-01-01,open,Böhmerwaldstraße 3,4021,Linz,269523,269523,269523,171714,37606,37606,37606,37606,31409,28108,24900,21795,18787,15876,13060,10343,365235,269774,354276,155557,16798,9696,3781,11240,24792,20667,11131,13685,,,,,365235,269774,354276,155557,16798,9696,3781,11240,24792,20667,11131,13685,,,,
Austria,Operator Holding Account,Energie-Contracting Steyr GmbH,FN 209561 d,2005-04-07,open,Schönauerstraße 5,4400,Steyr,24541,24541,24541,24051,24051,24051,24051,24051,13808,12357,10946,9577,8250,6966,5724,4528,22141,20507,16684,18377,15389,19223,14666,12388,9483,6969,7941,7434,,,,,22141,20507,16684,18377,15389,19223,14666,12388,9483,6969,7941,7434,,,,
Austria,Operator Holding Account,Profibaustoffe Austria GmbH,FN 69279 g,2005-04-01,open,Mistelbacher Strasse 70-80,2115,Ernstbrunn,37687,37687,37687,33635,33635,33635,33635,33635,38590,37920,37242,36557,35864,35165,34457,33746,24591,37364,49559,43916,35937,30419,32757,28348,28113,26343,29823,28079,,,,,24591,37364,49559,43916,35937,30419,32757,28348,28113,26343,29823,28079,,,,
Austria,Operator Holding Account,Lafarge Zementwerke GmbH,FN 346878s,2004-01-01,open,Trabrennstr. 2A,1020,Wien,316474,316474,316474,293107,293107,293107,293107,293107,293901,288796,283632,278413,273138,267812,262420,257008,327304,314811,319996,337266,261992,241277,276666,290770,278083,269972,308842,316567,,,,,327304,314811,319996,337266,261992,241277,276666,290770,278083,269972,308842,316567,,,,
Austria,Operator Holding Account,WIEN ENERGIE GmbH,FN 215854h,2004-12-22,open,Thomas-Klestil-Platz 14,1030,Wien,4485,4485,4485,6952,6952,6952,6952,6952,2702,2419,2142,1874,1615,1363,1120,886,6909,3098,2669,4819,3190,2232,2017,21164,64742,45943,31223,22436,,,,,6909,3098,2669,4819,3190,2232,2017,21164,64742,45943,31223,22436,,,,
Austria,Operator Holding Account,Lafarge Zementwerke GmbH,FN 346878s,2004-01-01,open,Trabrennstr. 2A,1020,Wien,609479,609479,609479,536364,536364,536364,536364,594252,581745,571641,561417,551088,540647,530104,519430,508719,584257,623883,708917,720857,613361,601677,535516,566554,598660,594014,617406,610830,,,,,584257,623883,708917,720857,613361,601677,535516,566554,598660,594014,617406,610830,,,,
Austria,Operator Holding Account,WIEN ENERGIE GmbH,FN 215854h,2004-12-23,open,Thomas-Klestil-Platz 14,1030,Wien,7146,7146,7146,4907,4907,4907,4907,4907,1851,3312,0,0,0,0,0,0,5320,7097,6558,3180,6581,3796,1010,1426,2619,25,6,1,,,,,5320,7097,6558,3180,6581,3796,1010,1426,2619,25,6,1,,,,
Austria,Operator Holding Account,Lias Österreich GesmbH,FN 200408 v,2004-01-02,open,Fabrikstrasse 11,8350,Fehring,10293,10293,10293,9860,9860,9860,9860,9860,10002,9827,9652,9474,9295,9113,8930,8745,8856,4675,4686,5643,3353,3453,3772,2361,2148,4231,3116,3255,,,,,8856,4675,4686,5643,3353,3453,3772,2361,2038,4231,3226,3255,,,,
Austria,Operator Holding Account,WIEN ENERGIE GmbH,FN 215854h,2004-12-29,open,Thomas-Klestil-Platz 14,1030,Wien,8110,8110,8110,3435,3435,3435,3435,3435,2299,2058,1822,1595,1374,1160,953,754,1223,1122,2306,10359,2593,3766,385,5474,46068,39383,30146,24269,,,,,1223,1122,2306,10359,2593,3766,385,5474,46068,39383,30146,24269,,,,
Austria,Operator Holding Account,LINZ STROM GmbH,FN 199533 g,2004-01-01,open,Wiener Straße 151,4021,Linz,259262,259262,259262,272540,272540,272540,272540,272540,121686,108897,96472,84439,72784,61507,50595,40074,267308,225750,200554,237908,198981,190586,153809,101870,146969,77873,111369,183596,,,,,267308,225750,200554,237908,198981,190586,153809,101870,146969,77873,111369,183596,,,,
Austria,Operator Holding Account,WIEN ENERGIE GmbH,FN 215854h,2004-12-30,closed,Thomas-Klestil-Platz 14,1030,Wien,9117,9117,9117,4997,4997,4997,4997,4997,3658,6546,0,0,0,0,0,0,5586,11520,8969,11275,27700,2684,396,4522,16666,20746,,,,,,,5586,11520,8969,11275,27700,2684,396,4522,16666,20746,,,,,,
Austria,Operator Holding Account,LINZ STROM GmbH,FN 199533 g,2004-01-01,open,Wiener Straße 151,4021,Linz,263211,263211,263211,306698,306698,306698,306698,306698,71294,63801,56521,49471,42643,36036,29643,23479,316110,304625,246040,320284,214884,187471,153335,141207,128258,111486,120859,141085,,,,,316110,304625,246040,320284,214884,187471,153335,141207,128258,111486,120859,141085,,,,
Austria,Operator Holding Account,LINZ STROM GmbH,FN 199533 g,2004-01-02,open,Wiener Straße 151,4021,Linz,423,423,423,142,142,142,142,142,0,0,0,0,0,0,0,0,138,0,31,12,52,23,16,9,8,221,7,5,,,,,138,,31,12,52,23,16,9,8,221,7,5,,,,
Austria,Operator Holding Account,WIEN ENERGIE GmbH,FN 215854h,2004-12-27,open,Thomas-Klestil-Platz 14,1030,Wien,34349,34349,34349,14597,14597,14597,14597,14597,20746,18566,16445,14388,3099,2617,2150,1701,12639,32338,36286,19327,26593,32651,24711,67700,80408,39484,21745,3438,,,,,12639,32338,36286,19327,26593,32651,24711,67700,80408,39484,21745,3438,,,,
Austria,Operator Holding Account,OMV Refining & Marketing GmbH,FN 185462 p,2004-01-02,open,Trabrennstraße 6-8,1020,Wien,2720740,2720740,2720740,2491436,2491436,2491436,2491436,2491436,1803162,1759171,1715882,1675141,1635202,1595273,1555261,1515471,2826917,2829983,2867629,2565047,2567934,2490464,2530318,2592526,2826640,2713186,2804050,2784461,,,,,2826917,2829983,2867629,2565047,2567934,2490464,2533972,2588872,2826640,2713186,2804050,2784461,,,,
Austria,Operator Holding Account,OMV Austria Exploration & Production GmbH,FN 241929 d,2004-01-02,open,Protteserstraße 40,2230,Gänserndorf,14881,14881,14881,14214,14214,14214,14214,14214,14551,14298,14045,13792,13539,13285,13032,12779,14437,16376,18458,16785,19353,16192,13843,12675,15883,15249,21180,21511,,,,,14437,16376,18458,16785,19353,16192,13843,12675,15883,15249,21180,21511,,,,
Austria,Operator Holding Account,OMV Austria Exploration & Production GmbH,FN 241929 d,2004-01-02,open,Protteserstraße 40,2230,Gänserndorf,31704,31704,31704,28547,28547,28547,28547,28547,35925,35300,34675,34050,33425,32800,32174,31549,28562,33443,33471,30659,35050,30638,27756,30043,35433,34107,34577,36104,,,,,28562,33443,33471,30659,35050,30638,27756,30043,35433,34107,34577,36104,,,,
Austria,Operator Holding Account,AustroCel Hallein GmbH,FN 184407 m,2004-01-01,open,Salzachtalstrasse 88,5400,Hallein,118275,118275,118275,107796,107796,107796,107796,107796,14793,13425,12094,10800,9546,8330,7152,6017,116736,86557,75948,69760,31405,7692,5238,6041,1637,1227,1274,1057,,,,,116736,86557,75948,69760,31405,7692,5238,6041,1637,1227,1274,1057,,,,
Austria,Operator Holding Account,Nettingsdorfer Papierfabrik AG & Co KG,FN 200265 h,2004-01-01,open,Nettingsdorfer Straße 40,4053,Haid bei Ansfelden,111062,111062,111062,92042,92042,92042,92042,92042,114925,112930,110911,108870,106808,104724,102616,100499,89797,83728,87308,74893,69853,75790,69018,63190,67686,67692,66093,63130,,,,,89797,83728,87308,74893,69853,75790,69018,63190,67686,67692,66093,63130,,,,
Austria,Operator Holding Account,Herbert Pexider Gesellschaft m.b.H.,FN 81176 b,2004-01-01,closed,Bundesstraße 6,8833,Teufenbach,12121,12121,12121,11693,11693,11693,11693,11693,9195,0,0,0,0,0,0,0,10835,11527,13507,12299,8583,9493,8552,7441,6821,0,,,,,,,10835,11527,13507,12299,8583,9493,8552,7441,,6821,,,,,,
Austria,Operator Holding Account,Constantia Teich GmbH,FN 92993 f,2004-01-01,open,Mühlhofen 4,3205,Weinburg,8495,8495,8495,10868,10868,10868,10868,10868,14522,13027,11571,10160,8792,7466,6185,4951,9754,9656,11649,10342,10356,10760,11386,12272,25276,24257,25271,26600,,,,,,19410,11649,10342,10356,10760,11386,12272,25276,24257,25271,26600,,,,
Austria,Operator Holding Account,"Salzburg AG für Energie, Verkehr und Telekommunikation",FN 51350 s,2004-01-01,open,Bayerhamerstraße 16,5020,Salzburg,218621,218621,218621,181423,181423,181423,181423,181423,66770,59752,52934,46332,39937,33749,27762,21989,198113,201676,161374,183430,172716,188359,173642,138093,137326,110340,126649,170029,,,,,198113,201676,161374,183430,172716,188359,173642,138093,137326,110340,126649,170029,,,,
Austria,Operator Holding Account,"Salzburg AG für Energie, Verkehr und Telekommunikation",FN 51350 s,2004-01-01,open,Bayerhamerstraße 16,5020,Salzburg,67510,67510,67510,61991,61991,61991,61991,61991,32492,28393,25154,22016,18977,16037,13192,10449,69577,59344,52437,56928,56009,53194,41109,43014,38286,39473,39411,39367,,,,,69577,59344,52437,56928,56009,53194,41109,43014,38286,39473,39411,39367,,,,
Austria,Operator Holding Account,"Salzburg AG für Energie, Verkehr und Telekommunikation",FN 51350 s,2004-01-02,closed,Bayerhamerstraße 16,5020,Salzburg,5098,5098,5098,,,,,,,,,,,,,,0,0,0,Not Reported,Not Reported,Not Reported,,,,,,,,,,,,,,,,,,,,,,,,,,
Austria,Operator Holding Account,"Salzburg AG für Energie, Verkehr und Telekommunikation",FN 51350 s,2004-01-02,closed,Bayerhamerstraße 16,5020,Salzburg,1750,1750,1750,411,411,411,411,411,,,,,,,,,502,261,9,0,0,0,0,0,,,,,,,,,502,261,9,,,,,,,,,,,,,
Austria,Operator Holding Account,Tondach Gleinstätten AG,FN 46684 d,2004-01-01,open,Graschach 38,8443,Gleinstätten,19613,19613,19613,25492,25492,25492,25492,25492,22068,21685,21297,20905,20509,20110,19705,19297,20683,21254,20894,24339,20052,22887,22895,22603,23601,24124,22927,23863,,,,,20683,21254,20894,24339,20052,22887,22895,22604,23601,24124,22927,23863,,,,
Austria,Operator Holding Account,"Salzburg AG für Energie, Verkehr und Telekommunikation",FN 51350 s,2004-01-02,closed,Bayerhamerstraße 16,5020,Salzburg,6753,6753,6753,7684,7684,7684,7684,7684,,,,,,,,,8761,9149,11529,7295,7904,8564,6404,946,,,,,,,,,8761,9149,11529,7295,7904,8564,6404,946,,,,,,,,
Austria,Operator Holding Account,SANDOZ GmbH,FN 50587 v,2004-01-01,open,Biochemiestrasse 10,6250,Kundl,77562,77562,77562,74886,74886,74886,74886,74886,71150,69914,68664,67400,66123,64834,63529,62219,76251,76087,73284,69874,68225,68507,64062,64034,66565,61584,62361,62533,,,,,76251,76087,73284,69874,68225,68507,64062,64034,66565,61584,62361,62533,,,,
Austria,Operator Holding Account,Tondach Gleinstätten AG,FN 46684 d,2004-01-01,open,Graschach 38,8443,Gleinstätten,13540,13540,13540,16283,16283,16283,16283,16283,12801,12578,12354,12126,11897,11664,11430,11194,16619,13581,17481,16563,12665,12141,12678,11165,7286,8783,7509,8259,,,,,16619,13581,17481,16563,12665,12141,12678,11165,7286,8783,7509,8259,,,,
Austria,Operator Holding Account,Tondach Gleinstätten AG,FN 46684 d,2004-01-01,closed,Graschach 38,8443,Gleinstätten,7723,7723,7723,8351,8351,8351,8351,8351,0,0,0,0,0,0,0,0,8615,8536,8999,8772,6051,6699,5787,3436,0,0,0,,,,,,8615,8536,8999,8772,6051,6699,5787,3436,,,,,,,,
Austria,Operator Holding Account,Semperit Reifen Gesellschaft m.b.H.,FN 83449 w,2004-01-02,closed,Wienersdorfer Str. 20-24,2514,Traiskirchen,47558,47558,47558,,,,,,,,,,,,,,2379,2088,1740,Not Reported,Not Reported,Not Reported,,,,,,,,,,,2379,2088,1740,,,,,,,,,,,,,
Austria,Operator Holding Account,Papierfabrik Wattens GmbH & Co KG,FN 239808 i,2004-01-01,open,Ludwig-Lassl- Straße 15,6112,Wattens,25715,25715,25715,22301,22301,22615,24462,23303,27236,26763,26284,25801,25312,24818,24319,23817,25847,26483,26944,27234,25044,26712,27347,24288,24393,23794,24445,25338,,,,,25847,26483,26944,27234,25044,26712,27347,24288,24393,23794,24445,25338,,,,
Austria,Operator Holding Account,Imerys Carbonates Austria GmbH,FN 107287 a,2004-01-01,open,Bahnhofstraße 40,4802,Ebensee,85540,85540,85540,64521,64521,64521,64521,64521,25325,24864,24400,23932,23460,22983,22503,22021,79656,33160,29600,24202,15195,18895,16777,14920,16056,17280,17085,18016,,,,,79656,33160,29600,24202,15195,18895,16777,14920,16059,17280,17085,18016,,,,
Austria,Operator Holding Account,Stadtwärme Lienz Produktions- und Vertriebs-GmbH,FN 195282 f,2004-01-01,open,Aguntstraße 54,9900,Lienz,1490,1490,1490,2017,2017,2017,2017,2017,13370,11965,10600,9278,7997,6758,5559,4403,1960,600,144,512,735,1490,653,394,483,135,251,165,,,,,1960,600,144,512,735,1490,653,394,483,135,251,165,,,,
Austria,Operator Holding Account,Stadtwerke Klagenfurt AG,FN 199234 t,2004-01-02,open,St. Veiter Straße 31,9020,Klagenfurt,172725,172725,172725,151139,151139,151139,151139,151139,79747,66637,55309,48411,41728,35264,29007,22975,178335,178882,146507,140749,129275,138716,114492,92952,87581,71758,74576,64485,,,,,178335,178882,146507,140749,129275,138716,114492,92952,87581,71758,74576,64485,,,,
Austria,Operator Holding Account,Veitsch-Radex GmbH & Co OG,FN 221994 m,2004-01-01,open,Wienerbergstraße 9,1100,Wien,152048,152048,152048,151173,151173,151173,151173,151173,134458,132123,129760,127373,124959,122523,120055,117581,164383,162921,168956,172135,127459,160030,169359,139562,149398,158757,148364,158349,,,,,164383,162921,168956,172135,127459,160030,169359,139562,149398,158757,148364,158349,,,,
Austria,Operator Holding Account,Energie Klagenfurt GmbH,FN 269898 i,2004-01-02,open,St. Veiter Straße 31,9020,Klagenfurt,1141,1141,1141,719,719,719,719,719,242,109,192,168,0,0,0,0,332,1063,125,193,521,431,2885,1696,102,664,502,2,,,,,332,1063,125,193,521,431,2885,1696,102,664,502,2,,,,
Austria,Operator Holding Account,Bioenergie Kufstein GmbH,FN 226474 a,2004-01-02,open,Fischergries 2,6332,Kufstein,13860,13860,13860,6252,6252,6252,6252,6252,13775,12328,10921,9559,8240,6963,5727,4537,2253,2120,1837,3848,4934,2179,1261,2008,1637,4020,733,739,,,,,2253,2120,1837,3848,4934,2179,1261,2008,1637,4020,733,739,,,,
Austria,Operator Holding Account,Veitsch-Radex GmbH & Co OG,FN 221994 m,2004-01-01,open,Wienerbergstraße 9,1100,Wien,90138,90138,90138,83801,83801,83801,83801,83801,71769,70521,69261,67986,66698,65398,64081,62760,76707,76603,77181,75296,66065,73221,71225,71994,74623,73104,72522,72084,,,,,76707,76603,77181,75296,66065,73221,71225,71994,74623,73104,72522,72084,,,,
Austria,Operator Holding Account,Fernwärme St. Pölten GmbH,FN 302796 p,2004-01-02,open,Julius Raab-Promenade 49,3100,St. Pölten,16238,16238,16238,14294,14294,14294,14294,14294,2566,2296,2034,1780,1535,1297,1067,845,17453,19176,11481,13945,15507,8462,1203,1704,2169,1467,1471,2634,,,,,17453,19176,11481,13945,15507,8462,1203,1704,2169,1467,1471,2634,,,,
Austria,Operator Holding Account,Fernwärme St. Pölten GmbH,FN 302796 p,2004-01-02,open,Julius Raab-Promenade 49,3100,St. Pölten,60790,60790,60790,52900,52900,52900,52900,52900,35182,31484,27891,24412,21043,17783,14628,11586,52855,51085,51654,52183,46566,31006,30788,30801,32431,30003,32831,34719,,,,,52855,51085,51654,52183,46566,31006,30788,30801,32431,30003,32831,34719,,,,
Austria,Operator Holding Account,Veitsch-Radex GmbH & Co OG,FN 221994 m,2004-01-01,open,Wienerbergstraße 9,1100,Wien,22655,22655,22655,23651,23651,23651,23651,23651,21221,20854,20480,20103,19722,19338,18948,18558,20018,21418,23113,22490,16864,21887,23157,22828,21605,15997,20411,15245,,,,,20018,21418,23113,22490,16864,21887,23157,22828,21605,15997,20411,15245,,,,
Austria,Operator Holding Account,Energie Steiermark Wärme GmbH,FN 57546 b,2004-01-02,open,Leonhardgürtel 10,8010,Graz,10240,10240,10240,20716,20716,20716,20716,20716,6439,5762,5104,4465,3847,3248,2669,2111,6152,9447,10414,6916,8034,9032,7786,7698,11838,13314,13251,11680,,,,,6152,9447,15121,6916,8034,9032,7786,7698,11838,13314,13251,11680,,,,
Austria,Operator Holding Account,Energie Steiermark Wärme GmbH,FN 57546 b,2004-01-01,open,Leonhardgürtel 10,8010,Graz,20046,20046,20046,23903,23903,23903,23903,23903,25851,23136,20492,17930,15445,13042,10716,8477,15969,24497,13730,13657,20417,44443,20838,31596,34448,30960,35998,56390,,,,,15969,24497,13730,13657,20417,44443,20838,31596,34448,30960,35998,56390,,,,
Austria,Operator Holding Account,Veitsch-Radex GmbH & Co OG,FN 221994 m,2004-01-01,open,Wienerbergstraße 9,1100,Wien,17590,17590,17590,15986,15986,15986,15986,15986,15496,15227,14955,14680,14402,14121,13837,13552,15939,16319,17611,15718,10357,14089,13199,10085,10762,12793,10484,10152,,,,,15939,16319,17611,15718,10357,14089,13199,10085,10762,12793,10484,10152,,,,
Austria,Operator Holding Account,Kelag Wärme GmbH,FN 68303 x,2004-01-02,open,St. Magdalenerstraße 81,9506,Villach,1247,1247,1247,2312,2312,2312,2312,2312,1787,397,703,615,529,447,367,291,2277,1949,4039,4155,6142,954,1709,1534,555,985,889,788,,,,,2277,1949,4039,4155,6142,954,1709,1534,555,985,889,788,,,,
Austria,Operator Holding Account,Veitsch-Radex GmbH & Co OG,FN 221994 m,2004-01-01,open,Wienerbergstraße 9,1100,Wien,287795,287795,287795,225858,225858,225858,225858,225858,234296,230227,226109,221949,217744,213498,209199,204885,236600,243749,262250,264056,186944,251049,284762,258691,247483,246694,211388,225418,,,,,236600,243749,262250,264056,186944,251049,284762,258691,247483,246694,211388,225418,,,,
Austria,Operator Holding Account,Wienerberger Ziegelindustrie GmbH,FN 94684 t,2004-01-01,open,Hauptstrasse 2,2332,Hennersdorf,8517,8517,8517,8894,8894,8894,8894,8894,9852,9681,9507,9332,9155,8977,8797,8615,9693,10151,11047,8914,7891,9861,11528,8887,9467,10887,10384,11261,,,,,9693,10151,11047,8914,7891,9861,11528,8887,9467,10887,10384,11261,,,,
Austria,Operator Holding Account,Wienerberger Ziegelindustrie GmbH,FN 94684 t,2004-01-01,open,Hauptstrasse 2,2332,Hennersdorf,8230,8230,8230,6906,6906,6906,6906,6906,5899,5797,5693,5588,5484,5376,5268,5159,7846,4517,7968,5648,5809,5812,5248,5659,5721,6157,6550,5746,,,,,7846,4517,7968,5648,5809,5812,5248,5659,5721,6157,6550,5746,,,,
Austria,Operator Holding Account,Wienerberger Ziegelindustrie GmbH,FN 94684 t,2004-01-01,open,Hauptstrasse 2,2332,Hennersdorf,16283,16283,16283,17701,17701,17701,17701,17701,16650,16361,16068,15773,15473,15173,14867,14560,17838,18298,18102,14668,8922,12199,18126,17817,15099,18004,18363,19737,,,,,17838,18298,18102,14668,8922,12199,18126,17817,15099,18004,18363,19737,,,,
Austria,Operator Holding Account,Wienerberger Ziegelindustrie GmbH,FN 94684 t,2004-01-01,open,Hauptstrasse 2,2332,Hennersdorf,24623,24623,24623,23831,23831,23831,23831,23831,17614,17308,16998,16686,16370,16051,15727,15403,19051,18515,20156,18224,15084,15272,23148,21309,22625,21642,22716,22934,,,,,19051,18515,20156,18224,15084,15272,23148,21309,22625,21642,22716,22934,,,,
Austria,Operator Holding Account,Wienerberger Ziegelindustrie GmbH,FN 94684 t,2006-02-25,closed,Hauptstrasse 2,2332,Hennersdorf,13157,13157,13157,17313,17313,17313,0,0,,,,,,,,,14018,12365,14546,11501,0,0,0,,,,,,,,,,14018,12365,14546,11501,,,,,,,,,,,,
Austria,Operator Holding Account,Wienerberger Ziegelindustrie GmbH,FN 94684 t,2004-01-01,open,Hauptstrasse 2,2332,Hennersdorf,28486,28486,28486,26140,26140,26140,26140,26140,21782,21404,21021,20634,20243,19849,19449,19048,24657,23341,23386,19555,20457,18313,28933,27493,24879,28004,25928,26548,,,,,24657,23341,23386,19555,20457,18313,28933,27493,24879,28004,25928,26548,,,,
Austria,Operator Holding Account,Wienerberger Ziegelindustrie GmbH,FN 94684 t,2004-01-01,open,Hauptstrasse 2,2332,Hennersdorf,4147,4147,4147,3660,3660,3660,3660,3660,3406,3347,3287,1614,2405,2358,2311,2263,3572,3570,3450,2881,2586,2617,2541,2416,2342,1768,1480,1660,,,,,3572,3570,3450,2881,2586,2617,2541,2416,2342,1768,1480,1660,,,,
Austria,Operator Holding Account,Wienerberger Ziegelindustrie GmbH,FN 94684 t,2004-01-01,open,Hauptstrasse 2,2332,Hennersdorf,6848,6848,6848,10189,10189,10189,10189,10189,9360,6347,4517,8867,8699,8529,8358,8185,10196,9894,11267,7428,6014,7300,8221,6708,4783,3935,5278,5673,,,,,10196,9894,11267,7428,6014,7300,8221,6708,4783,3935,5278,5673,,,,
Austria,Operator Holding Account,VERBUND Thermal Power GmbH & Co KG,FN 220426 g,2004-01-02,closed,Ankerstraße 6,8054,Graz,380,380,380,,,,,,,,,,,,,,,,,,Not Reported,Not Reported,,,,,,,,,,,,,,,,,,,,,,,,,,
Austria,Operator Holding Account,VERBUND Thermal Power GmbH & CO KG in Liqu.,FN 220426 g,2004-01-01,open,Weisseneggweg 1,8410,Neudorf ob Wildon,844193,844193,844193,1139438,1139438,1139438,1139438,1139438,,,,,,,,,1425567,1623816,1916802,1435406,899251,1592747,1611109,1195366,1209415,799590,565110,8,,,,,1425567,1623816,1916802,1435406,899251,1592747,1611109,1195366,1209415,799590,565110,8,,,,
Austria,Operator Holding Account,VERBUND Thermal Power GmbH & CO KG in Liqu.,FN 220426 g,2004-01-01,closed,Weisseneggweg 1,8410,Neudorf ob Wildon,1785,1785,1785,0,0,0,0,0,,,,,,,,,0,0,0,0,0,0,0,0,,,,,,,,,,,,,,,,,,,,,,,,
Austria,Operator Holding Account,VERBUND Thermal Power GmbH & CO KG in Liqu.,FN 220426 g,2004-01-01,open,Weisseneggweg 1,8410,Neudorf ob Wildon,817073,817073,817073,734102,734102,734102,734102,734102,134654,115795,100969,88375,76177,64375,52953,41942,1021252,1122765,1188241,1221750,1038959,1115073,1143992,1099747,903244,852887,869484,772576,,,,,1021252,1122765,1188241,1221750,1038959,1115073,1143992,1099747,903244,852887,869484,772576,,,,
Austria,Operator Holding Account,VERBUND Thermal Power GmbH & CO KG in Liqu.,FN 220426 g,2004-01-01,closed,Weisseneggweg 1,8410,Neudorf ob Wildon,1,1,1,0,0,0,0,0,,,,,,,,,0,0,0,0,0,0,0,0,,,,,,,,,,,,,,,,,,,,,,,,
Austria,Operator Holding Account,VERBUND Thermal Power GmbH & CO KG in Liqu.,FN 220426 g,2004-01-01,open,Weisseneggweg 1,8410,Neudorf ob Wildon,265157,265157,265157,250267,250267,250267,250267,250267,1551,457,0,0,0,0,0,0,319545,317556,301669,233110,155233,152139,96724,6794,36792,16630,2605,433,,,,,319545,317556,301669,233110,155233,152139,96724,6794,36792,16630,2605,433,,,,
Austria,Operator Holding Account,VERBUND Thermal Power GmbH & CO KG in Liqu.,FN 220426 g,2004-01-01,closed,Weisseneggweg 1,8410,Neudorf ob Wildon,155355,155355,155355,0,0,0,0,0,,,,,,,,,1544,853,4,14,0,0,0,0,,,,,,,,,1544,853,4,14,,,,,,,,,,,,
Austria,Operator Holding Account,VERBUND Thermal Power GmbH & Co KG,FN 220426 g,2004-01-02,closed,Ankerstraße 6,8054,Graz,1199047,1199047,1199047,0,0,0,0,0,,,,,,,,,1042346,636604,293,Not Reported,Not Reported,Not Reported,,,,,,,,,,,1042346,636604,293,,,,,,,,,,,,,
Austria,Operator Holding Account,VERBUND Thermal Power GmbH & CO KG in Liqu.,FN 220426 g,2004-01-01,closed,Weisseneggweg 1,8410,Neudorf ob Wildon,59627,59627,59627,0,0,0,0,0,,,,,,,,,328,340,112,73,118,83,37,26,,,,,,,,,328,340,112,73,118,83,37,26,,,,,,,,
Austria,Operator Holding Account,Sappi Austria Produktions-GmbH & Co. KG,FN 223882 p,2004-01-02,open,Brucker Straße 21,8101,Gratkorn,402766,583822,583822,383459,383459,383459,383459,383459,285329,280106,274832,269519,264160,258761,253307,247846,401123,407679,400376,320065,314213,317873,295387,296691,345961,322366,402966,358315,,,,,401123,407679,400376,320065,314213,317873,295387,296691,345961,322366,402966,358315,,,,
Austria,Operator Holding Account,Vetropack Austria GmbH,FN 101692 y,2004-01-01,open,Manker Straße 49,3380,Pöchlarn,51651,51651,51651,49161,49161,49161,49161,49161,50855,49868,48876,47877,46872,45862,44845,43829,47455,55087,53831,56782,54512,57062,57397,52792,56565,56240,57278,52607,,,,,47455,55087,53831,56782,54512,57062,57397,52792,56565,56240,57278,52607,,,,
Austria,Operator Holding Account,Vetropack Austria GmbH,FN 101692 y,2004-01-01,open,Manker Straße 49,3380,Pöchlarn,59562,59562,59562,63496,63496,63496,63496,63496,66255,65023,63780,62528,61268,59998,58716,57433,64882,64099,69094,73379,72657,67740,59776,65830,67305,64209,64647,66471,,,,,64882,64099,69094,73379,72657,67740,59776,65830,67305,64209,64647,66471,,,,
Austria,Operator Holding Account,WIEN ENERGIE GmbH,FN 215854h,2004-01-01,open,Thomas-Klestil-Platz 14,1030,Wien,1356634,1356634,1356634,693569,693569,693569,693569,693569,119124,213208,188880,165322,142503,120425,99059,78461,1591742,1127323,895200,915476,572021,423930,466479,283798,370906,280010,440205,604330,,,,,1591742,1127323,895200,915476,572021,423930,466479,283798,370906,280010,440205,604330,,,,
Austria,Operator Holding Account,WIEN ENERGIE GmbH,FN 215854h,2004-01-01,open,Thomas-Klestil-Platz 14,1030,Wien,951362,951362,951362,933401,933401,933401,933401,933401,171412,153397,135894,118944,102526,86642,71270,56451,958427,816240,810103,795491,655173,717475,570442,515962,362332,379018,439413,534586,,,,,958427,816240,810103,795491,655173,717475,570442,515962,362332,379018,439413,534586,,,,
Austria,Operator Holding Account,WIEN ENERGIE GmbH,FN 215854h,2004-01-01,open,Thomas-Klestil-Platz 14,1030,Wien,271920,271920,271920,304721,304721,304721,304721,304721,57903,51818,0,0,0,0,0,0,300182,279888,201292,256284,118982,206265,109080,95890,77428,3881,4097,3136,,,,,300182,279888,201292,256284,118982,206265,109080,95890,77428,3881,4097,3136,,,,
Austria,Operator Holding Account,voestalpine Stahl Donawitz GmbH,FN 86361 b,2004-01-01,closed,Kerpelystraße 199,8700,Leoben-Donawitz,984831,984831,984831,626610,626610,626610,626610,626610,,,,,,,,,914519,797926,860293,712134,808481,1056837,1164438,1036702,,,,,,,,,914519,797926,860293,712134,808481,1056837,1164438,1036702,,,,,,,,
Austria,Operator Holding Account,w&p Zement GmbH,FN 100805 v,2004-01-02,open,Ferdinand-Jergitschstrasse 15,9020,Klagenfurt,353341,408997,408997,350337,350337,350337,350337,350337,520634,511591,502441,493197,483853,474418,464865,455279,242000,433025,485029,497811,342329,309210,356207,308463,405319,397425,374950,379984,,,,,242000,433025,485029,497811,342329,309210,356207,308463,405319,397425,374950,379984,,,,
Austria,Operator Holding Account,voestalpine Stahl Donawitz GmbH,FN 86361 b,2004-01-01,open,Kerpelystraße 199,8700,Leoben-Donawitz,1757051,1757051,1757051,1807393,1807393,1807393,1807393,1807393,1918954,1885592,1851839,1817734,1783268,1748463,1713228,1677873,1790128,1917452,1925594,2279216,1433638,1469754,1681929,1517232,2918014,2808536,2981508,2772530,,,,,1790128,1917452,1925594,2279216,1433638,1469754,1681929,1517232,2918014,2808536,2981508,2772530,,,,
Austria,Operator Holding Account,w&p Zement GmbH,FN 100805 v,2004-01-02,open,Ferdinand-Jergitschstrasse 15,9020,Klagenfurt,191539,191539,191539,179028,179028,179028,179028,179028,662,650,639,627,615,603,591,579,208070,188733,222813,198935,50950,18269,18337,0,0,0,0,0,,,,,208070,188733,222813,198935,50950,18269,18337,,,,,,,,,
Austria,Operator Holding Account,w&p Kalk GmbH,FN 360583w,2004-01-02,open,Ferdinand-Jergitsch-Straße 15,9020,Klagenfurt am Wörthersee,64591,64591,64591,66253,66253,66253,66253,66253,120762,118665,116542,114397,112230,110042,107826,105603,51796,63419,60741,63380,10519,17428,46586,32008,93173,89812,97255,89354,,,,,51796,63419,60741,63380,10519,17428,46586,32008,93173,89812,97255,89354,,,,
Austria,Operator Holding Account,"Ziegelwerk Brenner, F. Wirth Gesellschaft m.b.H.",FN 119441 z,2004-01-01,open,Schönweg 39,9433,St. Andrä im Lavanttal,9921,9921,9921,9673,9673,9673,9673,9673,8379,8233,8086,7937,7787,7635,7481,7327,6608,8123,7718,6523,1015,2789,4476,6674,7939,6403,9392,12420,,,,,6608,8123,7718,6523,1015,2789,4476,6674,7939,6403,9392,12420,,,,
Austria,Operator Holding Account,voestalpine Stahl GmbH,FN 78052 h,2004-01-01,closed,voestalpine-Straße 3,4020,Linz,1330079,1330079,1330079,985761,985761,985761,985761,985761,,,,,,,,,1354079,1199630,1096690,914453,626564,916742,905960,961580,,,,,,,,,1354079,1199630,1096690,914453,626564,916742,905960,961580,,,,,,,,
Austria,Operator Holding Account,Wopfinger Baustoffindustrie GmbH,FN 94709 d,2004-01-02,open,Wopfing 156,2754,Waldegg,176207,176207,176207,137792,137792,137792,137792,137792,124431,122270,120084,117874,115641,113386,111103,108811,134306,109795,120094,127437,81786,92829,112283,122691,88827,104663,96957,88464,,,,,134306,109795,120094,127437,81786,92829,112283,122691,88827,104663,96957,88464,,,,
Austria,Operator Holding Account,Wopfinger Baustoffindustrie GmbH,FN 94709 d,2004-01-02,open,Wopfing 156,2754,Waldegg,218927,218927,218927,233270,233270,233270,233270,233270,244038,239669,235255,230800,226303,221770,217185,212591,256750,250538,264133,264657,206648,204382,201195,191315,262867,260135,268048,276497,,,,,256750,250538,264133,264657,206648,204382,201195,191315,262867,260135,268048,276497,,,,
Austria,Operator Holding Account,Ziegelwerk Eberschwang Gesellschaft m.b.H.,FN 113726 w,2004-01-02,open,Straß 11,4906,Eberschwang,4064,4064,4064,3876,3876,3876,3876,3876,3484,3424,3363,3301,3238,3175,3111,3047,3223,4000,3610,3797,2473,3493,2687,2742,2712,2398,0,0,,,,,3223,4000,4128,3797,2473,3493,2687,2742,2712,2398,,,,,,
Austria,Operator Holding Account,voestalpine Stahl GmbH,FN 78052 h,2004-01-01,closed,voestalpine-Straße 3,4020,Linz,2129215,2129215,2129215,1771401,1771401,1771401,1771401,1771401,,,,,,,,,2685336,2722016,2863003,2859839,2304427,3213138,3226147,3182281,,,,,,,,,2685336,2722016,2863003,2859839,2304427,3213138,3226147,3182281,,,,,,,,
Austria,Operator Holding Account,Ziegelwerk Eder GmbH & Co.KG.,FN 64889 a,2004-01-02,open,Bruck 39,4722,Bruck-Waasen,29680,29680,29680,29822,29822,29822,29822,29822,18006,17693,25336,24870,24399,23923,23442,22958,29504,31459,27517,18364,23712,20662,19990,17495,14793,17012,17204,17082,,,,,29504,31459,27517,18364,23712,20662,19990,17495,14793,17012,17204,17082,,,,
Austria,Operator Holding Account,Ziegelwerk Eder GmbH & Co.KG.,FN 64889 a,2004-01-02,open,Bruck 39,4722,Bruck-Waasen,19787,19787,19787,21858,21858,21858,21858,21858,22029,12019,21260,20869,20473,20074,19670,19264,19594,16565,22846,23469,25982,21385,18518,16048,9480,14027,13786,14277,,,,,19594,16565,22846,23469,25982,21385,18518,16048,9480,14027,13786,14277,,,,
Austria,Operator Holding Account,Ziegelwerk Lizzi GmbH,FN 171326 a,2004-01-01,open,Bromberger Strasse 3,2822,Bad Erlach,1933,1933,1933,1605,1605,1605,1605,1605,796,783,769,755,741,725,711,697,1476,779,1292,932,1027,768,502,566,604,450,485,740,,,,,1476,779,1292,932,1027,768,502,566,604,450,485,740,,,,
Austria,Operator Holding Account,Ziegelwerk Pichler Wels Gesellschaft m.b.H.,FN 283213 s,2004-01-02,open,Eferdingerstrasse 175,4600,Wels,20930,20930,20930,23086,23086,23086,23086,23086,20495,20139,19779,19415,19046,18676,18300,17922,21214,22773,22915,18851,16063,16645,17813,17098,15096,17029,16496,17159,,,,,21214,22773,22915,18851,16063,16645,17813,17098,15096,17029,16496,17159,,,,
Austria,Operator Holding Account,voestalpine Stahl GmbH,FN 78052 h,2004-01-01,open,voestalpine-Straße 3,4020,Linz,5043811,5043811,5043811,4380526,4380526,4380526,4380526,4380526,6861779,6737251,6611507,6484708,6356793,6227879,6097614,5967119,4084355,4206897,4464902,3743481,2953589,3465646,3192620,3178129,8648719,8698426,8712811,8669345,,,,,4084355,4206897,4464902,3743481,2953589,3465646,3192620,3178129,8648719,8698426,8712811,8669345,,,,
Austria,Operator Holding Account,Vittorio Nicoloso,110/2/Schu.- Gewerbeschein Mag. St. Pölten,2004-01-02,closed,Bahnstrasse 50,3140,Pottenbrunn,2377,2377,2377,985,985,985,985,985,,,,,,,,,0,316,0,230,0,0,74,68,,,,,,,,,,316,4438,230,,,74,68,,,,,,,,
Austria,Operator Holding Account,voestalpine Stahl GmbH,FN 78052 h,2004-01-01,open,voestalpine-Straße 3,4020,Linz,340195,340195,340195,325873,325873,325873,325873,325873,304075,298793,293450,288050,282593,277082,271503,265904,336749,322737,329038,332779,259441,339768,335950,303335,370764,369605,366489,361988,,,,,336749,322737,329038,332779,259441,339768,335950,303335,370764,369605,366489,361988,,,,
Austria,Operator Holding Account,SENFTENBACHER Ziegelwerk Flotzinger GmbH & Co KG,FN 18093 h,2004-01-01,open,Bruck 31,4973,Senftenbach,14787,14787,14787,13556,13556,16641,14790,14790,12727,12505,12282,12056,11828,11597,11363,11130,15008,14530,13428,12322,12592,13265,15885,15808,16206,15334,13102,10970,,,,,15008,14530,14823,12322,12592,13265,15885,15808,16206,15334,13102,10970,,,,
Austria,Operator Holding Account,Getzner Textil AG,FN 61295 s,2004-01-02,closed,Bleichestrasse 1,6700,Bludenz,12216,12216,12216,,,,,,,,,,,,,,10996,10946,10855,Not Reported,Not Reported,Not Reported,,,,,,,,,,,10996,10946,10855,,,,,,,,,,,,,
Austria,Operator Holding Account,"Ziegelei Hilti, Mettauer GmbH",FN 207171 p,2004-01-01,closed,Udelbergstraße 30,6840,Götzis,3268,3268,3268,4621,4621,4621,0,0,,,,,,,,,4138,3608,4874,3464,3094,2053,Not Reported,Not Reported,,,,,,,,,4649,3097,4874,3464,3094,,,,,,,,,,,
Austria,Operator Holding Account,Weindl Gesellschaft m.b.H.,FN 119405 x,2004-01-02,closed,Weinzierlstrasse 2 und 4,4400,Steyr,3397,3397,3397,2878,2878,2878,2878,0,,,,,,,,,2560,2577,2711,2403,2011,1625,,,,,,,,,,,2560,2577,2711,2403,2011,1625,,,,,,,,,,
Austria,Operator Holding Account,Mayr-Melnhof Karton Gesellschaft m.b.H.,FN 62874 m,2004-01-01,open,Wannersdorf 80,8130,Frohnleiten,28068,28068,28068,28302,28302,28302,28302,28302,23822,23377,22926,22475,22018,21560,21096,20633,29812,29172,29865,25447,25075,28147,26789,27080,26047,25601,26656,27336,,,,,29812,29172,29865,25447,25075,28147,26789,27080,26047,25601,26656,27336,,,,
Austria,Operator Holding Account,Mayr-Melnhof Karton Gesellschaft m.b.H.,FN 62874 m,2004-01-01,open,Wannersdorf 80,8130,Frohnleiten,148251,148251,148251,129481,129481,129481,129481,129481,139516,136844,134151,131441,128714,125973,123209,120446,136677,142730,138121,119250,110232,119180,114237,117030,128111,123161,129085,130054,,,,,136677,142730,138121,119250,110232,119180,114237,117030,128111,123161,129085,130054,,,,
Austria,Operator Holding Account,Norske Skog Bruck GmbH,FN 140650 p,2004-01-01,open,Fabriksgasse 10,8600,Bruck an der Mur,225683,225683,225683,209979,209979,209979,209979,209979,121079,118976,116849,114699,112525,110331,108109,105880,227496,216089,210166,220644,198720,205075,215193,197065,171672,181184,179917,171130,,,,,227496,216089,210166,220644,198720,205075,215193,197065,171672,181184,179917,171130,,,,
Austria,Operator Holding Account,Kelag Wärme GmbH,FN 68303 x,2004-01-02,open,St. Magdalenerstraße 81,9506,Villach,25939,25939,25939,23643,23643,23643,23643,23643,15495,13494,11954,10463,9019,7622,6269,4965,26871,26495,23010,20593,17293,19159,18529,9919,14716,10637,10433,11915,,,,,26871,26495,23010,20593,17293,19159,18529,9919,14716,10637,10433,11915,,,,
Austria,Operator Holding Account,Kelag Wärme GmbH,FN 68303 x,2004-01-02,closed,St. Magdalenerstraße 81,9506,Villach,13446,13446,13446,8794,8794,8794,8794,8794,,,,,,,,,10367,9948,9265,9215,8994,9714,8833,8855,,,,,,,,,10367,9948,9265,9215,8994,9714,8833,8855,,,,,,,,
Austria,Operator Holding Account,Walther GmbH,FN 350971i,2004-01-02,closed,Industriezeile 24,5280,Braunau am Inn,3714,3714,3714,3171,3171,3171,3171,0,,,,,,,,,3237,2673,3169,2734,2191,2861,954,Not Reported,,,,,,,,,3237,2673,3169,2734,2191,2861,,,,,,,,,,
Austria,Operator Holding Account,EVN Wärme GmbH,FN 307421 s,2005-08-01,open,EVN Platz,2344,Maria Enzersdorf,5547,5547,5547,5940,5940,5940,5940,5940,6279,5619,2488,2177,3752,3167,2603,2059,7172,8042,7499,8000,8748,8127,6741,5787,6576,3928,4977,5201,,,,,7172,8042,7499,8000,8748,8127,6741,5787,6576,3928,4977,5201,,,,
Austria,Operator Holding Account,EVN Wärme GmbH,FN 307421 s,2005-12-15,open,EVN Platz,2344,Maria Enzersdorf,17648,17648,17648,16567,16567,16567,16567,16567,3396,3039,1346,1178,1014,857,704,557,18277,13277,5507,3841,2610,3014,2451,3965,2441,1663,1924,3987,,,,,18277,13277,5507,3841,2610,3014,2451,3965,2441,1663,1924,3987,,,,
Austria,Operator Holding Account,EVN Wärme GmbH,FN 307421 s,2005-03-16,open,EVN Platz,2344,Maria Enzersdorf,6831,6831,6831,7119,7119,7119,7119,7119,6813,6097,5400,4725,4070,3437,2824,2234,9656,8093,6684,5276,7139,9670,9642,9827,10924,9238,11430,12097,,,,,9656,8093,6684,5276,7139,9670,9642,9827,10924,9238,11430,12097,,,,
Austria,Operator Holding Account,Baxter AG,FN 201876 b,2004-01-02,open,Industriestraße 67,1221,Wien,3125,3125,3125,0,0,0,0,0,,,,,,,,,1639,1536,1680,0,0,0,0,0,Not Reported,Not Reported,Not Reported,Not Reported,,,,,1639,1536,1680,,,,,,,,,,,,,
Austria,Operator Holding Account,EVN Wärme GmbH,FN 307421 s,2005-06-28,open,EVN Platz,2344,Maria Enzersdorf,24849,24849,24849,27610,27610,27610,27610,27610,0,0,0,0,0,0,0,0,29699,28987,27303,30204,29454,30087,29685,31102,29759,31851,25436,32845,,,,,29699,28987,27303,30204,29454,30087,29685,31102,29759,31851,25436,32845,,,,
Austria,Operator Holding Account,EVN Wärme GmbH,FN 307421 s,2005-03-31,open,EVN Platz,2344,Maria Enzersdorf,22385,22385,22385,20316,20316,20316,20316,20316,20002,17899,15857,13880,11964,10110,8317,6587,15967,13896,6787,5844,5882,5867,5787,6724,6690,5530,5679,6311,,,,,15967,13896,6787,5844,5882,5867,5787,6724,6690,5530,5679,6311,,,,
Austria,Operator Holding Account,EVN Wärme GmbH,FN 307421 s,2004-11-19,open,EVN Platz,2344,Maria Enzersdorf,43700,43700,43700,42675,42675,42675,42675,42675,32122,30942,29780,28644,27528,26436,25363,24315,46543,45120,47404,47839,37356,35725,30369,29718,28808,29480,35744,34125,,,,,46543,45120,47404,47839,37356,35725,30369,29718,28808,29480,35744,34125,,,,
Austria,Operator Holding Account,EVN AG,FN 72000 h,2005-06-07,open,EVN-Platz,2344,Maria Enzersdorf,470193,470193,470193,449521,449521,449521,449521,449521,21344,19101,16921,14810,12767,10789,8875,7029,629411,515368,348523,351018,393438,346205,62103,59924,32664,41415,179697,320400,,,,,629411,515368,348523,351018,393438,346205,62103,59924,32664,41415,179697,320400,,,,
Austria,Operator Holding Account,EVN AG,FN 72000 h,2005-04-04,open,EVN-Platz,2344,Maria Enzersdorf,722878,722878,722878,901136,901136,901136,901136,901136,67063,64296,61581,58927,56330,53790,51303,48876,1357122,1338364,1047731,968317,751680,888005,1277502,984354,1014168,437437,654490,643395,,,,,1357122,1338364,1047731,968317,751680,888005,1277502,984354,1014168,437437,654490,643395,,,,
Austria,Operator Holding Account,EVN AG,FN 72000 h,2005-03-25,open,EVN-Platz,2344,Maria Enzersdorf,123680,123680,123680,102267,102267,102267,102267,102267,1719,1539,1363,597,0,0,0,0,188127,99318,102726,142305,87091,93345,14559,9991,4503,5870,39436,71622,,,,,188127,99318,102726,142305,87091,93345,14559,9991,4503,5870,39436,71622,,,,
Austria,Operator Holding Account,EVN Wärme GmbH,FN 307421 s,2004-12-27,open,EVN Platz,2344,Maria Enzersdorf,3316,3316,3316,3206,3206,3206,3206,3206,238,425,188,165,142,120,99,78,2663,493,427,424,599,639,321,247,457,245,254,183,,,,,2663,493,427,424,599,639,321,247,457,245,254,183,,,,
Austria,Operator Holding Account,W. Hamburger GmbH,FN 174465t,2004-01-01,open,Aspangerstraße 252,2823,Pitten,194923,194923,194923,143200,143200,143200,143200,143200,110455,108536,106596,104634,102652,100650,98623,96590,172698,177130,173453,172316,177170,179906,184579,167476,172523,169934,173434,168027,,,,,172698,177130,173453,172316,177170,179906,184579,167476,172523,169934,173434,168027,,,,
Austria,Operator Holding Account,voestalpine BÖHLER Edelstahl GmbH & Co KG,FN 294435 v,2004-01-02,closed,Mariazellerstraße 25,8605,Kapfenberg,11591,11591,11591,13131,13131,13131,13131,13131,,,,,,,,,11648,11627,10220,9946,9079,10062,9970,9448,,,,,,,,,11648,11627,10220,9946,9079,10062,9970,9448,,,,,,,,
Austria,Operator Holding Account,voestalpine BÖHLER Edelstahl GmbH & Co KG,FN 294435 v,2004-01-01,open,Mariazellerstraße 25,8605,Kapfenberg,27537,27537,27537,33337,33337,33337,33337,33337,122384,119840,117288,114729,112162,109589,107003,104426,30379,32062,33772,33049,21612,30709,32771,32720,129491,129553,120119,119613,,,,,30379,32062,33772,33049,21612,30709,32771,32720,129491,129553,120119,119613,,,,
Austria,Operator Holding Account,Ziegelwerk Neuhofen K.F. u. DI H. Obermair GmbH & Co KG,FN 15189m,2004-01-02,open,Dambach 35,4501,Neuhofen/Krems,2332,2332,2332,1643,1643,1643,1643,1643,1600,1572,1544,1515,1487,1458,1428,1399,1627,1874,1527,1762,1396,1430,1503,1370,1633,1366,1358,1366,,,,,1627,1874,1527,1762,1396,1430,1503,1370,1633,1366,1358,1366,,,,
Austria,Operator Holding Account,Jungbunzlauer Austria AG,FN 111075 x,2004-01-01,open,Opernring 1,1010,Wien,201121,201121,201121,188188,188188,188188,188188,191440,164269,161416,158529,155612,152664,149687,146673,143649,165578,155759,158867,170861,154730,172289,173376,187109,200104,211425,227260,220580,,,,,165578,155759,158867,170861,154730,172289,173376,187109,200104,211425,227260,220580,,,,
Austria,Operator Holding Account,Chamottewaren- und Thonöfenfabrik Aug. Rath  jun. GmbH,FN 82124x,2004-01-01,open,Hafnerstrasse 3,3375,Krummnussbaum,11121,11121,11121,9107,9107,9107,9107,9107,9194,9035,8873,8710,8545,8378,8209,8040,9373,9953,9421,8073,7507,8484,9554,9193,8227,8282,6922,8258,,,,,9373,9953,9421,8073,7507,8484,9554,9193,8227,8282,6900,8280,,,,
Austria,Operator Holding Account,W. Hamburger GmbH,FN 174465t,2004-01-01,closed,Aspangerstraße 252,2823,Pitten,44589,44589,44589,43569,43569,43569,43569,43569,43413,0,0,0,0,0,0,0,49520,49761,48721,45753,46480,46585,45223,34043,7995,,,,,,,,49520,49761,48721,45753,46480,46585,45223,34043,7995,,,,,,,
Austria,Operator Holding Account,GasserKunert GmbH,FN 357610y,2004-01-02,closed,Schweizerstraße 96,6830,Rankweil,12172,12172,12172,10671,10671,10671,10671,10671,,,,,,,,,12225,11308,11163,9125,7787,7947,7985,5117,,,,,,,,,12225,11308,11163,9125,7787,7947,7985,5117,,,,,,,,
Austria,Operator Holding Account,Leitl Spannton Gesellschaft m.b.H.,FN 79245 M,2004-01-02,open,Leitl-Strasse 1,4070,Hinzenbach,16849,16849,16849,21299,21299,21299,21299,21299,17862,17552,17238,16921,16600,16276,15948,15620,12523,18827,20139,19772,15558,15592,15706,15687,15502,14507,14574,15029,,,,,12523,18827,20139,19772,15558,15592,15706,15687,15502,14507,14574,15029,,,,
Austria,Operator Holding Account,Lenzing AG,FN 96 499 K,2004-01-01,open,Werkstrasse 2,4860,Lenzing,246867,246867,246867,179066,179066,179066,179066,179066,375450,368177,360854,353492,346085,338640,331138,323642,142719,184952,153865,137466,149948,154426,128527,124684,151139,209191,197638,204162,,,,,142719,184952,153865,137466,149948,154426,128527,124684,151139,209191,197638,204162,,,,
Austria,Operator Holding Account,Ganahl Aktiengesellschaft,FN 64499 b,2004-01-01,open,Rotfarbweg 5,6820,Frastanz,27782,27782,27782,23470,23470,23470,23470,23470,27101,26630,26154,25672,25186,24695,24198,23699,25795,26545,25864,26408,25538,25347,24097,22248,22841,23139,24177,23522,,,,,25795,26545,25864,26408,25538,25347,24097,22248,22841,23139,24177,23522,,,,
Austria,Operator Holding Account,Brau Union Österreich Aktiengesellschaft,FN 77559 h,2005-02-17,closed,Poschacherstrasse 35,4020,Linz,6844,6844,6844,4728,4728,4728,4728,4728,,,,,,,,,4715,4685,4745,4744,4552,5044,4878,4827,,,,,,,,,4715,4685,4745,4744,4552,5044,4878,4827,,,,,,,,
Austria,Operator Holding Account,Brau Union Österreich Aktiengesellschaft,FN 77559 h,2005-07-05,closed,Poschacherstrasse 35,4020,Linz,5788,5788,5788,2529,2529,2529,2529,2529,,,,,,,,,2814,2574,2367,2115,2039,2170,1634,1572,,,,,,,,,2814,2574,4734,2115,2039,2170,1634,1572,,,,,,,,
Austria,Operator Holding Account,Laakirchen Papier AG,FN 171841 h,2004-01-01,open,Schillerstraße 5,4663,Laakirchen,3065,3065,3065,2586,2586,4827,4827,4827,156885,154160,151403,148617,145801,142959,140080,137191,2732,2819,2688,2428,1924,1905,2067,2217,2171,2181,2248,2351,,,,,2732,2819,2688,2428,1924,1905,2067,2217,2171,2181,2248,2351,,,,
Austria,Operator Holding Account,Dr. Franz Feurstein Gesellschaft m.b.H.,FN 79815 a,2004-01-02,open,Fabrikstrasse 20,4050,Traun,19721,19721,19721,34823,34823,34823,34823,34823,26694,26230,25761,25288,24808,24325,23835,23342,31798,37118,38763,35780,31837,36376,33556,33252,32695,31830,32853,33946,,,,,31798,37118,38763,35780,31837,36376,33556,33252,32695,31830,32853,33946,,,,
Austria,Operator Holding Account,Lenzing Fibers GmbH,FN 129218 b,2005-05-25,open,Industriegelände 1,7561,Heiligenkreuz im Lafnitztal,76615,76615,76615,62900,62900,62900,62900,76524,55633,54665,53697,52729,51761,50793,49825,48857,65495,61735,64493,62030,66936,64579,79294,80680,74843,77996,76218,80752,,,,,65495,61735,64493,62030,66936,64579,79294,80680,74843,77996,76218,80752,,,,
Austria,Operator Holding Account,BMW Motoren GmbH,FN 153093 m,2005-04-07,open,Hinterbergerstraße 2,4400,Steyr,22039,22039,22039,17632,21442,21442,21442,21442,9259,8286,11169,10964,10756,10547,10334,10121,17420,17538,13031,15146,17089,18276,17338,15968,12484,12641,10841,13119,,,,,17420,17538,13031,15146,17089,18276,17338,15968,12484,12641,10841,13119,,,,
Austria,Operator Holding Account,Kelag Wärme GmbH,FN 68303 x,2004-01-02,closed,St. Magdalenerstraße 81,9506,Villach,8766,8766,8766,7270,7270,7270,7270,7270,,,,,,,,,8954,9103,8475,8630,8638,9723,8414,6908,,,,,,,,,8954,9103,8475,8630,8638,9723,8414,6908,,,,,,,,
Austria,Operator Holding Account,Kelag Wärme GmbH,FN 68303 x,2004-01-02,open,St. Magdalenerstraße 81,9506,Villach,10195,10195,10195,126,126,126,126,126,118,53,186,0,70,60,49,39,116,291,148,94,232,383,133,118,75,159,25,150,,,,,116,291,148,94,232,383,133,118,75,159,25,150,,,,
Austria,Operator Holding Account,Kelag Wärme GmbH,FN 68303 x,2004-01-02,closed,St. Magdalenerstraße 81,9506,Villach,12784,12784,12784,11573,11573,11573,11573,11573,,,,,,,,,13204,12848,12462,11329,12006,9912,8193,6986,,,,,,,,,13204,12848,12462,11329,12006,9912,8193,6986,,,,,,,,
Austria,Operator Holding Account,Semperit Technische Produkte Gesellschaft m.b.H.,FN 36912 h,2004-01-02,open,Modecenterstraße 22,1030,Wien,18066,18066,18066,17889,17889,17889,17889,17889,11412,10213,13766,13513,13256,12998,12736,12473,17383,17079,17049,17035,16370,15043,14406,14437,15391,14586,14466,15756,,,,,17383,17079,17049,17035,16370,15043,14406,14437,15391,14586,14466,15756,,,,
Austria,Operator Holding Account,Profümed GmbH,FN 421016 t,2006-06-22,open,Wechsel Bundesstraße 81,2840,Grimmenstein,4883,4883,4883,4401,4401,4401,4401,4401,3452,3393,3331,3270,3209,3146,3083,3019,4678,4689,4470,4728,4453,4980,4993,4819,5407,4868,4639,4354,,,,,4678,4689,4470,4728,4453,4981,4993,4819,5407,4868,4639,4354,,,,
Austria,Operator Holding Account,Pappenfabrik Timmersdorf GmbH,FN 176954 b,2004-01-02,closed,Aspernbrückengasse 4,1020,Wien,6949,6949,6949,,,,,,,,,,,,,,4031,1714,0,,Not Reported,Not Reported,,,,,,,,,,,4031,1714,,,,,,,,,,,,,,
Austria,Operator Holding Account,Brigl & Bergmeister GmbH,FN 331483a,2005-07-05,open,Proleber Straße 10,8712,Niklasdorf,4836,4836,4836,2967,2967,2967,2967,2967,0,0,0,0,0,0,0,0,3361,3488,3508,3246,3262,3570,3475,3658,3560,3874,3548,3639,,,,,3361,3488,3508,3246,3262,3570,3475,3658,3560,3874,3548,3639,,,,
Austria,Operator Holding Account,Schretter & Cie GmbH & Co KG,FN 18233 p,2004-01-01,open,Bahnhofstraße 27,6682,Vils,208101,208101,208101,215631,215631,215631,215631,215631,190039,186739,183399,180025,176614,173170,169683,166184,175105,201232,200351,181920,168590,152852,164198,168349,171502,160376,183794,176285,,,,,175105,201232,200351,181920,168590,152852,164198,168349,171502,160376,183794,176285,,,,
Austria,Operator Holding Account,Schretter & Cie GmbH & Co KG,FN 18233 p,2004-01-01,open,Bahnhofstraße 27,6682,Vils,39895,39895,39895,39642,39642,39642,39642,39642,38094,37433,36763,36087,35403,34713,34014,33312,40685,39744,36827,41124,36047,30110,34768,35771,36645,36166,30786,38203,,,,,40685,39744,36827,41124,36047,30111,34768,35770,36645,36166,30786,38203,,,,
Austria,Operator Holding Account,Essity Austria GmbH,FN 49537 z,2004-01-02,open,Storchengasse 1,1150,Wien,73719,73719,73719,70370,70370,74456,72413,72413,45298,44511,43715,42910,42098,41277,40446,39612,75793,73792,74079,76174,74859,75762,74029,72638,72736,71829,70734,72513,,,,,75793,73792,74079,76174,74859,75762,74029,72638,72736,71829,70734,72513,,,,
Austria,Operator Holding Account,Wiesner-Hager Zentrale Dienste G.m.b.H.,FN 116025 a,2004-01-02,closed,Linzerstraße 22,4950,Altheim,1644,1644,1644,696,696,696,696,696,,,,,,,,,767,584,77,200,62,33,30,31,,,,,,,,,767,584,77,200,62,33,30,31,,,,,,,,
Austria,Operator Holding Account,Stölzle-Oberglas GmbH,FN 63600 f,2004-01-02,closed,Fabrikstraße 11,8580,Köflach,19158,19158,19158,,,,,,,,,,,,,,15660,3574,2744,Not Reported,Not Reported,Not Reported,,,,,,,,,,,15660,3574,2744,,,,,,,,,,,,,
Austria,Operator Holding Account,Stölzle-Oberglas GmbH,FN 63600 f,2004-01-02,open,Fabrikstraße 11,8580,Köflach,34073,34073,34073,40242,40242,40242,40242,40242,43005,42258,41502,40739,39967,39188,38398,37606,34313,34590,42064,49066,42925,48043,47471,47486,46053,46454,47901,49973,,,,,34313,34590,42064,49066,42925,48043,47472,47485,46053,46454,47901,49973,,,,
Austria,Operator Holding Account,Spezialpappenfabrik Rosegg Betriebs GmbH,FN 38675 a,2004-01-02,closed,Rosegg 1,8191,Koglhof,2320,2320,2320,,,,,,,,,,,,,,,,,,Not Reported,Not Reported,,,,,,,,,,,,,,,,,,,,,,,,,,
Austria,Operator Holding Account,Mondi Neusiedler GmbH,FN 224630 p,2004-01-01,open,Theresienthalstraße 50,3363,Ulmerfeld-Hausmening,113205,113205,113205,103707,103707,103707,103707,103707,86569,84909,83236,81553,79860,78157,76439,74724,110659,111329,95965,107189,106188,103573,100542,103244,96399,94585,97324,102534,,,,,110659,111329,95965,107189,106188,103573,100542,103244,96399,94585,97324,102534,,,,
Austria,Operator Holding Account,Ybbstaler Zellstoff GmbH,FN 159918 z,2004-01-01,open,Theresienthalstraße 50,3363,Ulmerfeld-Hausmening,11801,11801,11801,10296,10296,10296,10296,10296,10,10,10,10,10,9,9,9,11277,11064,10800,9378,8933,8857,8235,8341,7349,8148,7456,9599,,,,,11277,11064,10800,9378,8933,8857,8235,8341,7349,8148,7456,9599,,,,
Austria,Operator Holding Account,Mondi Neusiedler GmbH,FN 224630 p,2004-01-01,open,Theresienthalstraße 50,3363,Ulmerfeld-Hausmening,44802,44802,44802,38946,38946,38946,38946,38946,31077,30537,29991,29439,28881,28318,27748,27176,37378,39557,35640,34366,32053,33266,31086,30936,27697,29228,28033,28591,,,,,37378,39557,35640,34366,32053,33266,31086,30936,27697,29228,28033,28591,,,,
Austria,Operator Holding Account,Zementwerk Leube Gesellschaft m.b.H.,FN 34661 y,2004-01-01,open,Gartenauer Platz 9,5083,St. Leonhard,118110,118110,118110,135474,135474,135474,135474,135474,117055,115022,112965,110886,108785,106664,104516,102361,117078,117471,118726,135519,131537,127624,125030,127155,51611,60564,64894,70298,,,,,117078,117471,118726,135519,131537,127624,125030,127155,104856,60564,64894,121522,,,,
Austria,Operator Holding Account,Zementwerk Leube Gesellschaft m.b.H.,FN 34661 y,2004-01-01,open,Gartenauer Platz 9,5083,St. Leonhard,274039,274039,274039,272614,272614,272614,272614,272614,319771,314217,308597,302919,297180,291386,285518,279630,298566,334398,372862,393964,355311,270308,257660,267319,265510,245218,245699,276541,,,,,298566,334398,372862,393964,355311,270308,257660,267319,265510,245218,245699,276541,,,,
Austria,Operator Holding Account,FunderMax GmbH,FN 90081 y,2004-01-02,closed,Klagenfurter Str. 87-89,9300,St. Veit/Glan,13600,13600,13600,,,,,,,,,,,,,,374,54,0,,Not Reported,Not Reported,,,,,,,,,,,374,54,,,,,,,,,,,,,,
Austria,Operator Holding Account,FunderMax GmbH,FN 90081 y,2005-09-05,open,Klagenfurter Str. 87-89,9300,St. Veit/Glan,41594,41594,41594,43015,43015,43015,43015,43015,39316,37883,26289,23010,19834,16761,13788,10920,38627,34155,30070,31743,32407,31762,26241,34028,22441,18168,24713,25699,,,,,38627,34155,30070,31743,32407,31762,26241,34028,22441,18168,24713,25699,,,,
Austria,Operator Holding Account,FunderMax GmbH,FN 90081 y,2005-07-01,open,Klagenfurter Str. 87-89,9300,St. Veit/Glan,27059,27059,27059,20791,20791,20791,20791,20791,21405,21277,13730,12013,10349,8739,7180,5680,21971,13757,8319,6335,3160,4439,3864,2270,4398,5144,7516,7623,,,,,21971,13757,8319,6335,3160,4439,3864,2270,4398,5144,7516,7623,,,,
Austria,Operator Holding Account,Zellstoff Pöls Aktiengesellschaft,FN 200511 w,2004-01-01,open,Dr. Luigi Angeli-Straße 9,8761,Pöls,54190,54190,54190,47524,47524,47524,47524,47524,29698,28976,25995,25319,24645,23973,23305,22642,52097,55800,49634,14668,9615,7450,11718,14269,45847,37071,48407,51577,,,,,52097,55800,49634,14668,9615,7450,11718,14269,45847,37071,48407,51577,,,,
Austria,Operator Holding Account,MAGNA STEYR Fahrzeugtechnik AG & Co KG,FN 187417 p,2004-01-01,open,Liebenauer Hauptstraße 317,8041,Graz,17054,17054,17054,12096,12096,12096,12096,12096,4368,3909,2781,2731,2678,2627,2573,2520,12457,12447,11235,7441,284,410,345,217,295,268,250,282,,,,,12457,12447,11235,7441,284,410,345,217,295,268,250,282,,,,
Austria,Operator Holding Account,MAGNA STEYR Fahrzeugtechnik AG & Co KG,FN 187417 p,2004-01-01,open,Liebenauer Hauptstraße 317,8041,Graz,13446,13446,13446,13826,13826,13826,13826,13826,22721,20336,27409,26905,26396,25881,25360,24837,14074,13584,10844,9574,8984,14256,15203,14040,15111,13360,11456,12208,,,,,14074,13584,10844,9574,8984,14256,15203,14040,15111,13360,11456,12208,,,,
Austria,Operator Holding Account,Mondi Frantschach GmbH,FN 112934 f,2005-06-09,open,Frantschach 5,9413,St. Gertraud,60166,60166,60166,50196,50196,50196,50196,50196,129248,126445,123638,120825,118011,115193,112368,109556,40936,42436,35990,32331,33767,35701,36133,36874,45995,34271,44700,40088,,,,,40936,42436,35990,32331,33767,35701,36133,36874,45995,34271,44700,40088,,,,
Austria,Operator Holding Account,Comelli-Ziegel Gesellschaft m.b.H.,FN 31740 b,2005-06-06,open,Maxendorf 43,8082,Kirchbach,14949,14949,14949,13486,13486,13486,13486,13486,6498,6384,4763,6155,6038,5921,5802,5681,10045,9154,8521,8345,8144,8319,8257,4344,4548,3759,6146,6077,,,,,10045,9154,8562,8345,8144,8319,8257,4344,4548,3759,6146,6077,,,,
Austria,Operator Holding Account,Wels Strom GmbH,FN 221676 w,2004-01-01,open,Stelzhamerstraße 27,4600,Wels,73529,73529,73529,74703,74703,74703,74703,74703,15189,13593,12042,10540,9086,7678,6316,5002,79226,75285,71317,80067,66998,63594,38919,33922,36724,23565,20970,16825,,,,,79226,75285,71317,80067,66998,63594,38919,33922,36724,23565,20970,16825,,,,
Austria,Operator Holding Account,Saint-Gobain Isover Austria GmbH,FN 58044 i,2004-01-01,closed,Prager Straße 77,2000,Stockerau,9891,9891,9891,9894,9894,9894,9894,9894,6706,6589,6471,0,0,0,0,0,9970,10865,9851,8866,8042,6869,6823,6633,5830,6576,5950,,,,,,9970,10865,9851,8866,8042,6869,6823,6633,5836,6576,5950,,,,,
Austria,Operator Holding Account,TKV Oberösterreich GmbH,FN 363547d,2004-01-01,closed,Nr. 63,4844,Regau,13942,13942,13942,801,801,801,801,801,,,,,,,,,721,681,665,3182,7445,13370,13474,13497,,,,,,,,,721,681,665,3182,7445,13370,13474,13497,,,,,,,,
Austria,Operator Holding Account,UPM-Kymmene Austria GmbH,FN 102055 g,2004-01-01,open,Fabriksplatz 1,4662,Steyrermühl,268939,268939,268939,235856,235856,235856,235856,235856,149382,146426,142410,139270,136121,132967,129799,126644,248827,195532,253830,234457,197632,232532,248048,248914,157247,79249,72952,68613,,,,,248827,195532,253830,234457,197632,232532,248048,248914,157247,79249,72952,68613,,,,
Austria,Operator Holding Account,Umdasch AG,FN 101743 y,2004-01-02,closed,Josef Umdasch Platz 1,3300,Amstetten,6294,6294,6294,0,0,0,0,0,,,,,,,,,3085,3159,1306,Not Reported,Not Reported,Not Reported,,,,,,,,,,,3085,3159,1306,,,,,,,,,,,,,
Austria,Operator Holding Account,D. Swarovski KG,FN 22150 z,2004-01-02,open,Wattens,6112,Wattens,28730,28730,28730,33092,33092,33092,33092,33092,24333,23910,16311,16011,15707,15401,15090,14779,33058,33032,31535,19611,13798,17475,17123,15405,21318,13951,10937,8500,,,,,33058,33032,31535,19611,13798,17475,17123,15405,21318,13951,10937,8500,,,,
Austria,Operator Holding Account,Stahl- und Walzwerk Marienhütte Gesellschaft m.b.H.,FN 53523 k,2004-01-01,open,Südbahnstraße 11,8020,Graz,20779,20779,20779,30398,30398,30398,30398,30398,47534,45996,44474,42969,41481,40012,38559,37130,25007,26462,30667,29149,28656,25707,24423,25611,38756,37540,38492,36995,,,,,25007,26462,30667,29149,28656,25707,24423,25611,38756,37540,38492,36995,,,,
Austria,Operator Holding Account,Technoglas Produktions-Gesellschaft m.b.H.,FN 62234 x,2004-01-02,open,Arnsteinstrasse 22,8570,Voitsberg,8697,8697,8697,6489,6489,6489,6489,6489,7329,7202,7073,6943,6811,6678,6543,6409,6584,6540,6335,6188,5316,7090,7975,7284,7180,6975,6511,6128,,,,,6584,6540,6335,6188,5316,7090,7975,7284,7180,6975,6511,6128,,,,
Austria,Operator Holding Account,RAUCH Fruchtsäfte GmbH & Co OG,FN 200147 i,2004-01-01,open,Langgasse 1,6830,Rankweil,8148,8148,8148,12024,12024,12024,12024,12024,7480,6694,5929,5188,4469,3774,3101,2453,13404,12325,12556,11846,9698,9902,11235,11214,11299,12388,13932,15160,,,,,13404,12325,12556,11846,9698,9902,11235,11214,11299,12388,13932,15160,,,,
Austria,Operator Holding Account,Merckens Karton- und Pappenfabrik GmbH,FN 195108 z,2004-01-02,open,Josefstal 10,4311,Schwertberg,4996,4996,4996,4258,4258,4258,4258,4258,4774,4691,4607,4522,4436,4350,4263,4174,4180,4507,4741,4398,3703,3974,3806,3794,3825,3527,3782,3782,,,,,4180,4507,4741,4398,3703,3974,3806,3794,3825,3527,3782,3782,,,,
Austria,Operator Holding Account,Fritz Egger GmbH. & Co. OG,FN 141709x,2005-07-06,open,Weiberndorf 20,6380,St. Johann i.T.,19796,19796,19796,20024,20024,20024,20024,20024,18761,18435,11898,10409,8968,7572,6222,4923,18956,18080,17230,16414,14215,16112,16077,16488,15597,15380,13829,14110,,,,,18956,18080,17230,16414,14215,16112,16077,16488,15597,15380,13829,14110,,,,
Austria,Operator Holding Account,Fritz Egger GmbH. & Co. OG,FN 141709x,2004-11-19,open,Weiberndorf 20,6380,St. Johann i.T.,31352,31352,31352,13785,13785,13785,13785,13785,75637,74006,50027,44249,38650,33231,27985,22925,14349,18461,12086,12834,11453,12419,12975,11983,12088,11867,11520,12495,,,,,14349,18461,12086,12834,11453,12419,12975,11983,12088,11867,11520,12495,,,,
Austria,Operator Holding Account,Österreichische Novopan Holzindustrie OG,FN 6612 z,2004-01-01,closed,Turmgasse 43,8700,Leoben,11209,11209,11209,13237,13237,13237,13237,13237,,,,,,,,,12457,12084,10979,10428,1214,0,0,,,,,,,,,,12457,12084,10979,10428,1214,,,,,,,,,,,
Austria,Operator Holding Account,Fritz Egger GmbH. & Co. OG,FN 141709x,2005-06-22,open,Weiberndorf 20,6380,St. Johann i.T.,22880,22880,22880,25512,28238,24745,24745,24745,58667,57002,38371,33572,28920,24421,20066,15874,23256,22000,22415,24160,20791,10658,6571,8615,7551,8226,7309,7147,,,,,23256,22000,22415,24160,20791,10658,6571,8615,7551,8226,7309,7147,,,,
Austria,Operator Holding Account,Martin Pichler Ziegelwerk GmbH.,FN 167091 y,2004-01-02,open,Ziegeleistraße 14,4082,Aschach an der Donau,6556,6556,6556,13646,13646,13646,13646,13646,8476,8328,8180,8029,7877,7724,7569,7412,8361,8851,9425,9004,6370,7182,8621,8473,6246,6068,7568,8170,,,,,8361,8851,9425,9004,6370,7182,8621,8473,6246,6068,7568,8170,,,,
Austria,Operator Holding Account,Mitteldichte Faserplatten Hallein GmbH & Co KG,FN 195362 y,2004-01-02,closed,Solvay-Halvic-Str. 46,5400,Hallein,6641,6641,6641,4520,4520,4520,4520,4520,63066,61862,0,0,0,0,0,0,3954,3069,2665,2745,2610,2462,2883,2192,490,103,0,,,,,,3954,3069,2665,2745,2610,2462,2883,2192,490,103,,,,,,
Austria,Operator Holding Account,Salzburger Ziegelwerk Gesellschaft m.b.H. & Co,FN 28452 t,2005-02-25,closed,Weithwörth,5110,Oberndorf,13139,13139,13139,9929,9929,9929,9929,9929,,,,,,,,,9881,13566,11258,6460,0,0,0,0,,,,,,,,,9881,13566,11258,6460,,,,,,,,,,,,
Austria,Operator Holding Account,Ziegelei Rhomberg Gesellschaft m.b.H.,FN 74724 p,2004-01-01,open,Steinackerstraße 19,6850,Dornbirn,4011,4011,4011,5292,5292,5292,5292,5292,3002,2949,2897,2844,2789,2735,2680,2625,5227,3625,2226,1948,3161,3278,4103,4690,3760,3961,4024,4581,,,,,5227,3625,2226,1948,3161,3278,4103,4690,3760,3961,4024,4581,,,,
Austria,Operator Holding Account,Tirol Kliniken GmbH,55332x,2004-01-01,open,Anichstraße 35,6020,Innsbruck,15298,15298,15298,15337,15337,15337,15337,15337,12552,11234,9950,8705,7500,6333,5204,4116,16758,16365,15067,15746,16172,16943,15362,15738,15396,12997,14257,13652,,,,,16758,16365,15067,15746,16172,16943,15362,15738,15396,12997,14257,13652,,,,
Austria,Operator Holding Account,ÖBB-Infrastruktur Aktiengesellschaft,FN 71396 w,2004-12-28,closed,Praterstern 3,1020,Wien,6930,6930,6930,6370,6370,6370,6370,6370,,,,,,,,,6601,6626,5548,5641,5114,5651,4923,4993,,,,,,,,,6601,6626,5548,5641,5114,5651,4923,4993,,,,,,,,
Austria,Operator Holding Account,ÖBB-Infrastruktur Aktiengesellschaft,FN 71396 w,2004-01-02,closed,Praterstern 3,1020,Wien,6450,6450,6450,6679,6679,6679,6679,6679,,,,,,,,,6267,6663,5752,6264,4772,2093,1803,1759,,,,,,,,,6267,6663,5752,6264,4772,2093,1803,1759,,,,,,,,
Austria,Operator Holding Account,AGRANA Stärke GmbH,FN 252477 s,2007-10-01,open,Friedrich-Wilhelm-Raiffeisen-Platz 1,1020,Wien,,,,65252,65252,65252,65252,65252,60591,59538,58474,57398,56310,55212,54100,52985,,,4755,24795,68205,57017,54458,50105,59224,56288,51668,55017,,,,,,,4755,24795,68205,57017,54458,50105,59224,56288,51668,55017,,,,
Austria,Operator Holding Account,Energie Steiermark Wärme GmbH,FN 57546 b,2005-02-15,closed,Leonhardgürtel 10,8010,Graz,,,,0,0,0,0,0,,,,,,,,,,,0,0,0,Not Reported,0,,,,,,,,,,,,,,,,,,,,,,,,,
Austria,Operator Holding Account,voestalpine Stahl GmbH,FN 78052 h,2004-01-01,closed,voestalpine-Straße 3,4020,Linz,,,,556899,556899,556899,556899,556899,,,,,,,,,0,0,0,556899,556899,556899,556899,556899,,,,,,,,,,,,556899,556899,556899,556899,556899,,,,,,,,
Austria,Operator Holding Account,voestalpine Stahl Donawitz GmbH,FN 86361 b,2004-01-01,closed,Kerpelystraße 199,8700,Leoben-Donawitz,,,,22706,22706,22706,22706,22706,,,,,,,,,0,0,0,22669,18699,22863,23207,22402,,,,,,,,,,,,22669,18699,22863,23207,22402,,,,,,,,
Austria,Operator Holding Account,voestalpine Stahl Donawitz GmbH,FN 86361 b,2004-01-01,closed,Kerpelystraße 199,8700,Leoben-Donawitz,,,,77813,77813,77813,77813,77813,,,,,,,,,0,0,0,14793,7911,9653,9796,7389,,,,,,,,,,,,14793,7911,9653,9796,7389,,,,,,,,
Austria,Operator Holding Account,voestalpine Stahl GmbH,FN 78052 h,2004-01-01,closed,voestalpine-Straße 3,4020,Linz,,,,291348,291348,291348,291348,291348,,,,,,,,,0,0,0,622373,438564,482908,590179,569073,,,,,,,,,,,,622373,438564,482908,590179,569073,,,,,,,,
Austria,Operator Holding Account,OMV Refining & Marketing GmbH,FN 185462 p,2004-01-01,closed,Trabrennstraße 6-8,1020,Wien,,,,12744,12744,12744,12744,12744,,,,,,,,,0,0,0,13121,13135,12739,12943,13261,,,,,,,,,,,,13121,13135,12739,12943,13261,,,,,,,,
Austria,Operator Holding Account,OMV Refining & Marketing GmbH,FN 185462 p,2004-01-01,closed,Trabrennstraße 6-8,1020,Wien,,,,5949,5949,5949,5949,5949,,,,,,,,,0,0,0,6125,6132,5947,6042,6190,,,,,,,,,,,,6125,6132,5947,6042,6190,,,,,,,,
Austria,Operator Holding Account,OMV Refining & Marketing GmbH,FN 185462 p,2004-01-01,closed,Trabrennstraße 6-8,1020,Wien,,,,215413,215413,215413,215413,215413,,,,,,,,,0,0,0,221778,222027,215329,218775,224153,,,,,,,,,,,,221778,222027,215329,218775,224153,,,,,,,,
Austria,Operator Holding Account,Jungbunzlauer Austria AG,FN 111075 x,2004-01-01,closed,Opernring 1,1010,Wien,,,,1911,25844,27450,27450,27450,,,,,,,,,0,0,0,1906,18985,25978,27048,25267,,,,,,,,,,,,1906,18985,25978,27048,25267,,,,,,,,
Austria,Operator Holding Account,Sappi Austria Produktions-GmbH & Co. KG,FN 223882 p,2004-01-02,closed,Brucker Straße 21,8101,Gratkorn,,,,105397,105397,105397,105397,105397,,,,,,,,,0,0,0,100000,100000,100000,100000,100000,,,,,,,,,,,,100000,100000,100000,100000,100000,,,,,,,,
Austria,Operator Holding Account,Zellstoff Pöls Aktiengesellschaft,FN 200511 w,2004-01-01,closed,Dr. Luigi Angeli-Straße 9,8761,Pöls,,,,7481,7481,11236,11236,11236,,,,,,,,,0,0,0,37743,38296,38570,39021,40534,,,,,,,,,,,,37743,38296,38570,39021,40534,,,,,,,,
Austria,Operator Holding Account,D. Swarovski KG,FN 22150 z,2004-01-02,closed,Wattens,6112,Wattens,,,,6961,6961,6961,6961,6961,,,,,,,,,0,0,0,0,2986,3783,3708,3336,,,,,,,,,,,,,2986,3783,3708,3336,,,,,,,,
Austria,Operator Holding Account,Wopfinger Baustoffindustrie GmbH,FN 94709 d,2004-01-01,closed,Wopfing 156,2754,Waldegg,,,,54543,54543,54543,54543,54543,,,,,,,,,0,0,0,0,48318,47788,47043,44733,,,,,,,,,,,,,48318,47788,47043,44733,,,,,,,,
Austria,Operator Holding Account,WIEN ENERGIE GmbH,FN 215854h,2004-01-01,closed,Thomas-Klestil-Platz 14,1030,Wien,,,,475229,475229,0,0,0,,,,,,,,,0,0,0,124077,0,0,0,0,,,,,,,,,,,,124077,,,,,,,,,,,,
Austria,Operator Holding Account,WIEN ENERGIE GmbH,FN 215854h,2004-01-01,open,Thomas-Klestil-Platz 14,1030,Wien,,,,125371,1399048,1443766,1443473,1490092,270630,242188,214553,187792,161873,136793,112523,89125,0,0,0,144891,1232697,1532328,1289003,921582,682695,675066,840781,774776,,,,,,,,144891,1232697,1532328,1289003,921582,682695,675066,840781,774776,,,,
Austria,Operator Holding Account,w&p Zement GmbH,FN 100805 v,2004-01-02,closed,Ferdinand-Jergitschstrasse 15,9020,Klagenfurt,,,,67488,89984,112480,112480,112480,,,,,,,,,0,0,0,0,90000,90000,90000,90000,,,,,,,,,,,,,90000,90000,90000,90000,,,,,,,,
Austria,Operator Holding Account,Energie AG Oberösterreich Kraftwerke GmbH,FN 291377 x,2004-01-01,open,Böhmerwaldstraße 3,4021,Linz,0,0,54243,218704,681283,681283,681283,681283,12292,2750,0,8529,7352,6213,5111,4049,0,0,0,103553,340026,580029,560205,188992,28882,2847,174692,213716,,,,,,,,103553,340026,580029,560205,188992,28882,2848,174692,213716,,,,
Austria,Operator Holding Account,w&p Kalk GmbH,FN 360583w,2004-01-02,closed,Ferdinand-Jergitsch-Straße 15,9020,Klagenfurt am Wörthersee,,,,0,49480,49480,49480,49480,,,,,,,,,0,0,0,0,50000,50000,50000,50000,,,,,,,,,,,,,50000,50000,50000,50000,,,,,,,,
Austria,Operator Holding Account,Mayr-Melnhof Karton Gesellschaft m.b.H.,FN 62874 m,2004-01-01,closed,Wannersdorf 80,8130,Frohnleiten,,,,1918,1918,1918,1918,1918,,,,,,,,,,0,0,1918,1918,1918,1918,1918,,,,,,,,,,,,1918,1918,1918,1918,1918,,,,,,,,
Austria,Operator Holding Account,Mayr-Melnhof Karton Gesellschaft m.b.H.,FN 62874 m,2004-01-01,closed,Wannersdorf 80,8130,Frohnleiten,,,,0,11357,11357,11357,11357,,,,,,,,,,0,0,0,11357,11357,11357,11357,,,,,,,,,,,,,11357,11357,11357,11357,,,,,,,,
Austria,Operator Holding Account,LINZ STROM GmbH,FN 199533 g,2004-09-21,closed,Wiener Straße 151,4021,Linz,0,0,25680,0,0,238941,238941,238941,,,,,,,,,,,,,0,167048,134786,89283,,,,,,,,,,,,,,167048,134786,89283,,,,,,,,
Austria,Operator Holding Account,A-Tec Beteiligungs GmbH,FN 294601 m,2005-06-09,closed,c/o Preslmayr Rechtsanwälte OG,1010,Wien,,,,,,,,,,,,,,,,,,,,,527,428,176,219,,,,,,,,,,,,,527,428,176,219,,,,,,,,
Austria,Operator Holding Account,Bunge Austria GmbH,FN 65184 i,2009-11-16,open,Industriegelände West 3,2460,Bruck a.d. Leitha,,,,0,15557,23659,23659,23659,24428,24003,23574,23140,22702,22260,21811,21361,0,0,0,0,14732,24476,24944,22463,22458,22156,22254,17892,,,,,,,,,14732,24476,24944,22463,22458,22156,22254,17892,,,,
Austria,Operator Holding Account,VERBUND Thermal Power GmbH & CO KG in Liqu.,FN 220426 g,2011-03-21,open,Weisseneggweg 1,8410,Neudorf ob Wildon,,,,0,0,0,589987,1336758,0,0,0,0,0,0,0,0,0,0,0,0,0,0,196806,389842,149202,40293,277344,236608,,,,,,,,,,,196806,389842,149202,40293,277344,236608,,,,
Austria,Operator Holding Account,Borealis Agrolinz Melamine GmbH,FN 78587 w,2010-10-18,open,St. Peter-Strasse 25,4021,Linz,,,,0,0,251142,251142,217656,159328,156561,153761,150932,148072,145185,142262,139328,0,0,0,0,0,63988,48326,53173,48508,48024,46856,36374,,,,,,,,,,63988,48326,53173,48508,48024,46856,36374,,,,
Austria,Operator Holding Account,Bernegger GmbH,FN 118645 d,2006-06-06,open,Gradau 15,4591,Molln,,,,0,0,0,0,0,,,,,,,,,,0,0,0,0,0,0,0,0,0,0,0,,,,,,,,,,,,,,,,,,,,
Austria,Operator Holding Account,Bernegger GmbH,FN 118645 d,2006-06-06,open,Gradau 15,4591,Molln,,,,0,0,0,0,0,,,,,,,,,,0,0,0,0,0,0,0,0,0,0,0,,,,,,,,,,,,,,,,,,,,
Austria,Operator Holding Account,Bernegger GmbH,FN 118645 d,2006-06-06,open,Gradau 15,4591,Molln,,,,0,0,0,0,0,,,,,,,,,,0,0,0,0,0,0,0,0,0,0,0,,,,,,,,,,,,,,,,,,,,
Austria,Aircraft Operator Account,VistaJet Luftfahrtunternehmen GmbH,FN 273081 S,2010-01-01,closed,Sterneckstrasse 35,5020,Salzburg,,,,,,,,395,299,299,299,0,,,,,,,,,,,,15567,11976,13971,3758,Excluded,,,,,,,,,,,,15567,,25947,3834,,,,,
Austria,Aircraft Operator Account,The Flying Bulls,FN151033h,2010-01-01,open,Wilhelm Spazier Strasse,5020,Salzburg,,,,,,,,32,15,15,15,15,15,15,15,15,,,,,,,,1000,779,649,Excluded,Excluded,,,,,,,,,,,,1000,,1428,,,,,,
Austria,Operator Holding Account,Stadtwerke Hall in Tirol GmbH,FN 289967y,2012-06-08,open,Augasse 6,6060,Hall in Tirol,,,,,,,,,9990,8940,7919,6932,5975,5049,4154,3290,314,1553,83,500,511,899,1075,1327,604,350,805,1955,,,,,,,,,,,,1327,5539,350,805,1955,,,,
Austria,Aircraft Operator Account,Michael Strasser GmbH & Co. KG,FN28657v,2010-01-01,closed,Laim 101,5340,St. Gilgen,,,,,,,,,,,,,,,,,,,,,,,,21,Excluded,,,,,,,,,,,,,,,21,,,,,,,,
Austria,Aircraft Operator Account,Austin Jet Holding GmbH,FN 95323g,2010-01-01,open,Parkring 12,1010,Wien,,,,,,,,16,14,14,14,14,14,14,14,14,,,,,,,,236,Excluded,Excluded,Excluded,Excluded,,,,,,,,,,,,236,,,,,,,,
Austria,Aircraft Operator Account,Porsche Konstruktionen GmbH & Co KG,FN 25834t,2010-01-01,closed,Louise-Piëch-Straße 2,5020,Salzburg,,,,,,,,48,43,43,43,43,,,,,,,,,,,,1298,1339,1125,1497,Excluded,,,,,,,,,,,,1298,,2464,1497,,,,,
Austria,Aircraft Operator Account,UIA-VB,14348681,2010-01-01,open,"Ukraine, Kiev, Lysenka st., 4",03154,Kiev,,,,,,,,96990,3286,3286,3286,3286,3286,3286,3286,3286,,,,,,,,6165,5614,508,1747,1289,,,,,,,,,,,,6165,,6122,1747,1289,,,,
Austria,Aircraft Operator Account,AVCON JET AG,289952a,2010-01-01,open,Argentinierstraße 29,1040,WIEN,,,,,,,,99,78,78,78,78,78,78,78,78,,,,,,,,5556,6352,8254,9393,9211,,,,,,,,,,,,5556,,14606,9393,9211,,,,
Austria,Operator Holding Account,EVN Wärme GmbH,FN 307421 s,2012-05-02,open,EVN Platz,2344,Maria Enzersdorf,,,,,,,,489,6678,5977,5295,4634,3995,3376,2777,2199,,,,,,,,403,651,411,367,752,,,,,,,,,,,,403,651,411,367,752,,,,
Austria,Operator Holding Account,voestalpine Schienen GmbH,140118g,2012-06-29,open,Kerpelystraße 199,8700,Leoben,,,,,,,,,43969,43206,42433,41652,40863,40066,39259,38450,,,,,,,,,49942,51351,53796,46625,,,,,,,,,,,,,49942,51351,53796,46625,,,,
Austria,Operator Holding Account,voestalpine Wire Rod Austria GmbH,56082z,2012-06-29,open,Drahtstraße 1,A-8792,St. Peter Freienstein,,,,,,,,,47065,46248,45421,44585,43741,42887,42024,41158,,,,,,,,,48771,48347,49176,58446,,,,,,,,,,,,,48771,48347,49176,58446,,,,
Austria,Aircraft Operator Account,Georgetown Management LLC,200911210160,2012-01-01,open,495 S. Fairview Avenue,93117,Goleta,,,,,,,,,,,,,,,,,,,,,,,,31,Excluded,Excluded,Excluded,Excluded,,,,,,,,,,,,31,,,,,,,,
Austria,Operator Holding Account,AMAG casting GmbH,FN 114717b,2012-12-21,open,Lamprechtshausenerstraße 61,5282,Ranshofen,,,,,,,,,38715,38042,37363,36674,35980,35278,34568,33855,,,,,,,,,49557,51868,59938,63266,,,,,,,,,,,,,49557,51868,59938,63266,,,,
Austria,Operator Holding Account,AMAG rolling GmbH,FN 115998k,2012-12-21,open,Lamprechtshausenerstraße 61,5282,Ranshofen,,,,,,,,,14285,14037,13786,13532,13276,13017,12755,12492,,,,,,,,,12580,14041,16113,17237,,,,,,,,,,,,,12580,14041,16113,17237,,,,
Austria,Aircraft Operator Account,LYCOAIR GmbH,FN 343804w,2011-01-01,open,Grazbachgasse 87,8010,Graz,,,,,,,,,,,,,,,,,,,,,,,,407,Excluded,Excluded,Excluded,Excluded,,,,,,,,,,,,407,,,,,,,,
Austria,Operator Holding Account,Saint-Gobain Rigips Austria GesmbH,FN74116w,2012-06-25,open,Unterkainisch 24,8990,Bad Aussee,,,,,,,,,23010,28263,27758,27247,26730,26209,25681,25152,,,,,,,,,21469,21243,20566,21807,,,,,,,,,,,,,21469,21243,20566,21807,,,,
Austria,Aircraft Operator Account,Kronoair GmbH,FN173587a,2010-01-01,closed,Kaindlstraße 2,5071,Wals,,,,,,,,31,0,0,0,0,,,,,,,,,,,,747,Excluded,Excluded,Excluded,Excluded,,,,,,,,,,,,,747,,,,,,,
Austria,Aircraft Operator Account,Pegasus Jet Ltd.,CH-270.3.003.000-0,2012-01-01,open,c/o Jet Aviation Business Jets AG,8058,Zurich-Airport,,,,,,,,6,6,6,6,6,6,6,6,6,,,,,,,,596,780,876,Excluded,Excluded,,,,,,,,,,,,596,,1656,,,,,,
Austria,Operator Holding Account,Montanwerke Brixlegg AG,FN40450k,2013-02-14,open,Werkstraße 1 - 3,6230,Brixlegg,,,,,,,,,33301,32722,32137,31545,30949,30344,29733,29121,,,,,,,,,40778,39689,39684,39556,,,,,,,,,,,,,40778,39689,39684,39556,,,,
Austria,Operator Holding Account,voestalpine Tubulars GmbH & Co KG,165400k,1979-05-29,open,Alpinestraße 17,8652,Kindberg-Aumühl,,,,,,,,,67181,66014,64832,63640,62434,61217,59984,58747,,,,,,,,,71958,73748,56703,50832,,,,,,,,,,,,,71958,73748,56703,50832,,,,
Austria,Operator Holding Account,Styromagnesit Steirische Magnesitindustrie GmbH,FN141746a,1984-02-17,open,Oberdorf 41,8611,St. Katharein,,,,,,,,,24065,23648,23225,22797,22366,21930,21488,21044,,,,,,,,,36761,34416,33222,37673,,,,,,,,,,,,,36761,34416,33222,37673,,,,
Austria,Aircraft Operator Account,LAUDAMOTION GMBH,FN248554X,2012-01-01,open,CONCORDE BUSINESS PARK 2/F/10,2320,SCHWECHAT,,,,,,,,,,,,,366,366,366,366,,,,,,,,6528,5152,5935,5432,7929,,,,,,,,,,,,6530,,11141,5378,7929,,,,
Austria,Aircraft Operator Account,Artjet Ltd,40571,2012-01-01,open,"""Trinity Hall"" 43 Cedar Avenue",HM 12,Hamilton,,,,,,,,,,,,,,,,,,,,,,,,539,399,647,552,765,,,,,,,,,,,,,539,1046,552,765,,,,
Austria,Aircraft Operator Account,Fewotel Betriebsgesellschaft m.b.H. & Co. KG,FN 21182a,2012-01-01,closed,Nikolaigasse 22,9500,Villach,,,,,,,,,,,,,,,,,,,,,,,,164,Excluded,Excluded,Excluded,Excluded,,,,,,,,,,,,164,,,,,,,,
Austria,Aircraft Operator Account,Global Jet Austria GmbH,RCS FN 266163T,2009-01-01,open,Wasagasse 6/8,1090,Wien,,,,,,,,,,,,,,,,,,,,,,,,2945,2944,3035,Excluded,Excluded,,,,,,,,,,,,3000,,5979,,,,,,
Austria,Aircraft Operator Account,Magna International Inc.,1841032,2009-01-01,open,"337, Magna Drive",L4G 7K1,Aurora,,,,,,,,20,2,2,2,2,2,2,2,2,,,,,,,,609,Excluded,Excluded,Excluded,Excluded,,,,,,,,,,,,609,,,,,,,,
Austria,Operator Holding Account,Borealis Agrolinz Melamine GmbH,FN 78587 w,2013-01-01,open,St. Peter-Strasse 25,4021,Linz,,,,,,,,,696137,684045,671812,659451,646956,634342,621568,608751,,,,,,,,,790678,924599,896718,945034,,,,,,,,,,,,,790678,924599,896718,945034,,,,
Austria,Operator Holding Account,Atmosa Petrochemie GmbH,FN 287176 v,2013-02-18,open,Danubiastraße 21,2320,Schwechat-Mannswörth,,,,,,,,,24261,23840,23413,22982,22547,22107,21662,21215,,,,,,,,,28982,27207,29794,30421,,,,,,,,,,,,,28982,27207,29794,30421,,,,
Austria,Operator Holding Account,GAS CONNECT AUSTRIA GmbH,FN 208827z,2013-04-23,open,Floridsdorfer Hauptstraße 1,1210,Wien,,,,,,,,,40403,18097,0,0,0,0,0,0,,,,,,,,,21636,450,174,482,,,,,,,,,,,,,21636,450,174,482,,,,
Austria,Operator Holding Account,GAS CONNECT AUSTRIA GmbH,FN 208827z,2013-08-28,open,Floridsdorfer Hauptstraße 1,1210,Wien,,,,,,,,,1842,1649,1460,1278,1100,929,763,604,,,,,,,,,5464,34889,13205,8106,,,,,,,,,,,,,5464,34889,13205,8106,,,,
Austria,Operator Holding Account,GAS CONNECT AUSTRIA GmbH,FN 208827z,2013-03-15,open,Floridsdorfer Hauptstraße 1,1210,Wien,,,,,,,,,12544,11226,9944,8700,7494,6329,5199,4114,,,,,,,,,11815,47922,46596,43030,,,,,,,,,,,,,11815,47922,46596,43030,,,,
Austria,Operator Holding Account,Trans Austria Gasleitung GmbH,FN 122567 x,2013-04-23,open,Wiedner Hauptstraße 120,1050,Wien,,,,,,,,,134014,119933,106230,92945,80068,67608,55551,43947,,,,,,,,,190415,152420,194214,185301,,,,,,,,,,,,,190415,152420,194214,185301,,,,
Austria,Operator Holding Account,Trans Austria Gasleitung GmbH,FN 122567 x,2013-04-30,open,Wiedner Hauptstraße 120,1050,Wien,,,,,,,,,19693,17623,15610,13657,11765,9935,8163,6457,,,,,,,,,36270,15491,14832,38142,,,,,,,,,,,,,36270,15491,14832,38142,,,,
Austria,Operator Holding Account,Trans Austria Gasleitung GmbH,FN 122567 x,2013-08-26,open,Wiedner Hauptstraße 120,1050,Wien,,,,,,,,,107555,96255,85256,74594,64260,54259,44584,35270,,,,,,,,,141999,104583,133932,119398,,,,,,,,,,,,,141999,104583,133932,119398,,,,
Austria,Operator Holding Account,Trans Austria Gasleitung GmbH,FN 122567 x,2013-10-28,open,Wiedner Hauptstraße 120,1050,Wien,,,,,,,,,43585,39006,34548,30228,26040,21988,18067,14292,,,,,,,,,45545,36496,39336,52427,,,,,,,,,,,,,45545,36496,39336,52427,,,,
Austria,Operator Holding Account,Trans Austria Gasleitung GmbH,FN 122567 x,2013-01-01,open,Wiedner Hauptstraße 120,1050,Wien,,,,,,,,,105846,94725,83901,73409,63238,53397,43876,34710,,,,,,,,,151805,109266,140628,113641,,,,,,,,,,,,,151805,109266,140628,113641,,,,
Austria,Operator Holding Account,Böhler Bleche GmbH & Co KG,FN294442d,2013-06-14,open,Böhler-Gasse 1,8680,Mürzzuschlag,,,,,,,,,10640,10456,10269,10080,9889,9696,9501,9305,,,,,,,,,12673,12768,12307,12912,,,,,,,,,,,,,12673,12768,12307,12912,,,,
Austria,Operator Holding Account,Böhler Schmiedetechnik GmbH & Co KG,FN 129839s,2013-10-15,open,Mariazeller Straße 25,8605,Kapfenberg,,,,,,,,,8243,7377,6534,5717,4925,4159,3417,2703,,,,,,,,,14647,15074,15523,14662,,,,,,,,,,,,,14647,15075,15523,14662,,,,
Austria,Operator Holding Account,Knauf Gesellschaft m.b.H.,84306f,2012-03-13,open,Knaufstraße 1,8940,Weißenbach bei Liezen,,,,,,,,,26664,32753,32166,31574,30977,30372,29761,29147,,,,,,,,,28305,28244,28186,28754,,,,,,,,,,,,,28305,28244,28186,28754,,,,
Austria,Operator Holding Account,RAG Rohöl-Aufsuchungs AG,FN 78563i,2014-02-12,open,Schwarzenbergplatz 16,1015,Wien,,,,,,,,,1358,1334,1310,1286,1261,1237,1212,1187,,,,,,,,,1912,1115,1525,1835,,,,,,,,,,,,,1912,1115,1525,1835,,,,
Austria,Operator Holding Account,RAG Rohöl-Aufsuchungs AG,FN 78563i,2014-01-22,open,Schwarzenbergplatz 16,1015,Wien,,,,,,,,,1107,1088,1068,1049,1029,1009,989,967,,,,,,,,,1638,833,979,1295,,,,,,,,,,,,,1638,833,979,1295,,,,
Austria,Operator Holding Account,OMV Austria Exploration & Production GmbH,FN 241929 d,2013-11-29,open,Protteserstraße 40,2230,Gänserndorf,,,,,,,,,27605,27125,26641,26150,25654,25154,24648,24139,,,,,,,,,28422,30192,36792,31883,,,,,,,,,,,,,28422,30192,36792,31883,,,,
Austria,Operator Holding Account,OMV Austria Exploration & Production GmbH,FN 241929 d,2013-12-06,open,Protteserstraße 40,2230,Gänserndorf,,,,,,,,,70441,69218,67980,66729,65465,64188,62896,61599,,,,,,,,,83130,76802,72769,74481,,,,,,,,,,,,,83130,76802,72769,74481,,,,
Austria,Operator Holding Account,OMV Austria Exploration & Production GmbH,FN 241929 d,2014-02-10,open,Protteserstraße 40,2230,Gänserndorf,,,,,,,,,2584,2539,2494,2448,2401,2355,2307,2259,,,,,,,,,3104,1902,4015,4778,,,,,,,,,,,,,3104,1902,4015,4778,,,,
Austria,Operator Holding Account,RAG Rohöl-Aufsuchungs AG,FN 78563i,2014-01-30,open,Schwarzenbergplatz 16,1015,Wien,,,,,,,,,26339,25881,25418,24950,24478,24001,23517,23032,,,,,,,,,36353,26244,23731,20806,,,,,,,,,,,,,36353,26244,23731,20806,,,,
Austria,Operator Holding Account,Lenzing Papier GmbH,306805i,2005-11-30,open,Werkstraße 2,4860,Lenzing,,,,,,,,,28727,28228,27723,27213,26698,26177,25650,25122,,,,,,,,,1566,1934,1821,1240,,,,,,,,,,,,,1566,1934,1821,1240,,,,
Austria,Operator Holding Account,crystal energy gmbh,FN279527w,2014-04-03,open,Swarovskistrasse 30,6112,Wattens,,,,,,,,,,,,,,,,,,,,,,,,,,32286,40942,40173,,,,,,,,,,,,,,32286,40942,40173,,,,
Austria,Operator Holding Account,WIEN ENERGIE GmbH,FN 215854h,2014-11-01,open,Thomas-Klestil-Platz 14,1030,Wien,,,,,,,,,,,,,,,,,,,,,,,,,,6870,3588,2567,,,,,,,,,,,,,,6870,3588,2567,,,,
Austria,Aircraft Operator Account,Proxima Ltd.,CH270.3.003.000-0,2013-01-01,open,"c/o Jet Aviation Business Jets AG, P.O. Box 232",8058,Zurich-Airport,,,,,,,,,,,,,,,,,,,,,,,,,416,457,270,243,,,,,,,,,,,,,,874,270,242,,,,
Austria,Aircraft Operator Account,MJet GmbH,FN296410y,2015-01-01,open,Dorotheergasse 6-8/R/011,1010,Wien,,,,,,,,,,,,,,,,,,,,,,,,,Excluded,Excluded,Excluded,1335,,,,,,,,,,,,,,,,1350,,,,
Austria,Operator Holding Account,ESIM Chemicals GmbH,FN 438897m,2016-02-10,open,St. Peter-Straße 25,4020,Linz,,,,,,,,,,,,0,70682,69302,67907,66507,,,,,,,,,,,,92873,,,,,,,,,,,,,,,,92873,,,,
Austria,Operator Holding Account,Stadtwärme Lienz Produktions- und Vertriebs-GmbH,FN 195282 f,2016-01-20,open,Aguntstraße 54,9900,Lienz,,,,,,,,,,,,,,,,,,,,,,,,,,,,203,,,,,,,,,,,,,,,,203,,,,
Austria,Aircraft Operator Account,Tyrolean Jet Service Nfg GmbH & Co KG,FN137112k,2015-01-01,open,Fürstenweg 180,6020,Innsbruck,,,,,,,,,,,,,,,,,,,,,,,,,,2984,2599,2512,,,,,,,,,,,,,,,,8098,,,,
Austria,Aircraft Operator Account,Altenrhein Luftfahrt GmbH,FN 302126d,2016-01-01,open,Office Park 3,1300,Wien-Flughafen,,,,,,,,,,,,,,,,,,,,,,,,,,,,985,,,,,,,,,,,,,,,,985,,,,
