Country,Account Type,Account Holder Name,Company Registration No,Permit/Plan Date,Account status,Main Address Line,Postal Code,City,Allowance In Allocation In 2005,Allowance In Allocation In 2006,Allowance In Allocation In 2007,Allowance In Allocation In 2008,Allowance In Allocation In 2009,Allowance In Allocation In 2010,Allowance In Allocation In 2011,Allowance In Allocation In 2012,Allowance In Allocation In 2013,Allowance In Allocation In 2014,Allowance In Allocation In 2015,Allowance In Allocation In 2016,Allowance In Allocation In 2017,Allowance In Allocation In 2018,Allowance In Allocation In 2019,Allowance In Allocation In 2020,Verified Emissions In 2005,Verified Emissions In 2006,Verified Emissions In 2007,Verified Emissions In 2008,Verified Emissions In 2009,Verified Emissions In 2010,Verified Emissions In 2011,Verified Emissions In 2012,Verified Emissions In 2013,Verified Emissions In 2014,Verified Emissions In 2015,Verified Emissions In 2016,Verified Emissions In 2017,Verified Emissions In 2018,Verified Emissions In 2019,Verified Emissions In 2020,Units Surrendered In 2005,Units Surrendered In 2006,Units Surrendered In 2007,Units Surrendered In 2008,Units Surrendered In 2009,Units Surrendered In 2010,Units Surrendered In 2011,Units Surrendered In 2012,Units Surrendered In 2013,Units Surrendered In 2014,Units Surrendered In 2015,Units Surrendered In 2016,Units Surrendered In 2017,Units Surrendered In 2018,Units Surrendered In 2019,Units Surrendered In 2020
Croatia,Aircraft Operator Account,Croatia Airlines hrvatska zrakoplovna tvrtka d.d.,080037012,2010-01-01,open,"Bani 75 b, Buzin",10010,Zagreb,,,,,,,,66442,62717,85828,85828,85828,85828,85828,85828,85828,,,,,,,,130931,124782,150608,154276,162454,,,,,,,,,,,,130931,,275390,154276,162454,,,,
Croatia,Operator Holding Account,Wienerberger-Ilovac d.o.o.,020002278,2011-06-27,open,Donje Pokupje 2,47000,Karlovac,,,,,,,,,7837,12352,12132,11909,20484,20083,19679,19273,,,,,,,,,8499,9390,9472,11456,,,,,,,,,,,,,8199,9390,9772,11456,,,,
Croatia,Operator Holding Account,Sojara d.o.o.,080013325,2011-05-06,open,Gaženice b.b.,23000,Zadar,,,,,,,,,,,,,,,,,,,,,,,,,Excluded,Excluded,Excluded,Excluded,,,,,,,,,,,,,,,,,,,,
Croatia,Operator Holding Account,Podravka d.d.,010006549,2011-04-08,open,Ante Starčevića 32,48000,Koprivnica,,,,,,,,,4867,4356,3858,3376,2908,2455,2018,1596,,,,,,,,,6027,5182,4859,4784,,,,,,,,,,,,,6027,5182,4859,4784,,,,
Croatia,Operator Holding Account,DS Smith Belišće Croatia d.o.o.,030008963,2011-08-26,open,Vijenac Salamona Heinricha Gutmanna 30,31551,Belišće,,,,,,,,,77196,61802,60698,52808,71743,70342,68926,67505,,,,,,,,,60634,58794,43214,78139,,,,,,,,,,,,,60634,58794,43214,78139,,,,
Croatia,Operator Holding Account,Eko Međimurje d.d.,070013156,2011-12-22,open,"Braće Radić 37, Šenkovec",40000,Čakovec,,,,,,,,,7506,7377,7245,3036,2978,2920,2862,2802,,,,,,,,,6549,8834,1466,1579,,,,,,,,,,,,,6549,8834,1466,1579,,,,
Croatia,Operator Holding Account,Ferro-Preis d.o.o.,070039047,2011-08-26,open,Dr. Tome Bratkovića 2,40000,Čakovec,,,,,,,,,4069,3998,3926,3855,3782,3708,3633,3558,,,,,,,,,6108,7859,1413,691,,,,,,,,,,,,,6108,7859,1427,733,,,,
Croatia,Operator Holding Account,HEP-Toplinarstvo d.o.o.,080396278,2011-03-04,open,Miševečka 15a,10000,Zagreb,,,,,,,,,45,402,338,296,255,216,177,140,,,,,,,,,577,1052,913,605,,,,,,,,,,,,,577,1052,913,605,,,,
Croatia,Operator Holding Account,HEP-Proizvodnja d.o.o.,080434256,2011-06-27,open,Ulica grada Vukovara 37,10000,Zagreb,,,,,,,,,200475,176365,157135,138507,120459,102991,86082,69773,,,,,,,,,746207,368784,411123,439513,,,,,,,,,,,,,715751,399240,411123,439513,,,,
Croatia,Operator Holding Account,HEP-Proizvodnja d.o.o.,080434256,2011-06-27,open,Ulica grada Vukovara 37,10000,Zagreb,,,,,,,,,167026,143701,128557,113884,99665,85899,72571,59713,,,,,,,,,317752,263612,261850,242724,,,,,,,,,,,,,317752,263612,261850,242724,,,,
Croatia,Operator Holding Account,Metalska industrija Varaždin d.d.,070032908,2013-10-31,open,Fabijanska 33,42000,Varaždin,,,,,,,,,1535,1508,1481,1454,1426,1399,1370,1342,,,,,,,,,709,754,864,825,,,,,,,,,,,,,709,754,864,828,,,,
Croatia,Operator Holding Account,Podravka d.d.,010006549,2011-03-09,open,Ante Starčevića 32,48000,Koprivnica,,,,,,,,,7656,6851,6068,5309,4574,3862,3173,2510,,,,,,,,,6734,6561,6401,6467,,,,,,,,,,,,,6734,6561,6401,6467,,,,
Croatia,Operator Holding Account,Sladorana d.o.o.,030010011,2011-08-08,open,Šećerana 63,32270,Županja,,,,,,,,,50759,49217,47687,46175,44675,43193,41721,40274,,,,,,,,,38037,47003,25011,36247,,,,,,,,,,,,,38037,47003,25011,36247,,,,
Croatia,Operator Holding Account,GIRK Kalun d.d.,060106871,2011-10-17,open,Stjepana Radića 5,22320,Drniš,,,,,,,,,70158,68940,67707,66461,65202,63930,62643,61351,,,,,,,,,46488,37676,37127,32441,,,,,,,,,,,,,46488,37676,37127,32441,,,,
Croatia,Operator Holding Account,HEP-Proizvodnja d.o.o.,080434256,2011-03-09,open,Ulica grada Vukovara 37,10000,Zagreb,,,,,,,,,,,,,,,,,,,,,,,,,39074,4955,35464,278,,,,,,,,,,,,,39074,4955,35464,278,,,,
Croatia,Operator Holding Account,HEP-Proizvodnja d.o.o.,080434256,2011-03-25,open,Ulica grada Vukovara 37,10000,Zagreb,,,,,,,,,,,,,,,,,,,,,,,,,788766,734550,797450,845420,,,,,,,,,,,,,788766,734550,797450,845420,,,,
Croatia,Operator Holding Account,HEP-Proizvodnja d.o.o.,080434256,2011-03-25,open,Ulica grada Vukovara 37,10000,Zagreb,,,,,,,,,,,,,,,,,,,,,,,,,1396827,1417565,1233310,1409891,,,,,,,,,,,,,1396827,1417565,1233310,1409891,,,,
Croatia,Operator Holding Account,Viro tvornica šećera d.d.,010049135,2011-06-07,open,Ulica grada Vukovara 269 g,10000,Zagreb,,,,,,,,,47456,46632,45798,44956,44104,43244,42373,41500,,,,,,,,,35462,50757,26587,39351,,,,,,,,,,,,,35462,50757,26587,39351,,,,
Croatia,Operator Holding Account,HEP-Proizvodnja d.o.o.,080434256,2011-03-10,open,Ulica grada Vukovara 37,10000,Zagreb,,,,,,,,,12021,9028,12353,11313,10303,9324,8373,7453,,,,,,,,,55193,33121,122757,152293,,,,,,,,,,,,,55193,33121,122757,152293,,,,
Croatia,Operator Holding Account,Tvornica šećera Osijek d.o.o.,030080613,2011-09-02,open,Frankopanska 99,31000,Osijek,,,,,,,,,62592,60267,57971,55710,53482,51289,49129,47014,,,,,,,,,76791,74611,69659,89021,,,,,,,,,,,,,76791,74611,69659,89021,,,,
Croatia,Operator Holding Account,Petrokemija d.d. tvornica gnojiva,080004355,2011-09-05,open,Aleja Vukovar 4,44320,Kutina,,,,,,,,,995538,978246,960751,943074,925206,907165,888899,870568,,,,,,,,,1393813,1482923,1518620,1247205,,,,,,,,,,,,,1393813,1482923,1518620,1247205,,,,
Croatia,Operator Holding Account,Acciaierie Bertoli Safau Sisak d.o.o.,120002079,2011-09-05,open,Braće Kavurića 12,44000,Sisak,,,,,,,,,0,8949,28151,27634,0,0,0,0,,,,,,,,,14421,18097,18167,181,,,,,,,,,,,,,14421,18097,18167,181,,,,
Croatia,Operator Holding Account,Badel d.o.o.,080252038,2011-09-01,open,Zagrebačka 23,10260,Sesevete,,,,,,,,,3901,0,0,0,0,0,0,0,,,,,,,,,0,Not Reported,Not Reported,Not Reported,,,,,,,,,,,,,,,,,,,,
Croatia,Operator Holding Account,Rockwool Adriatic d.o.o.,040208458,2011-10-19,open,Poduzetnička zona Pićan Jug 130 (Zajci),52333,Potpićan (općina Kršan),,,,,,,,,36250,35621,34984,34340,33689,33033,32367,31700,,,,,,,,,47365,52986,61023,64503,,,,,,,,,,,,,47365,52986,61023,64503,,,,
Croatia,Operator Holding Account,Keramika Modus d.o.o.,020028577,2011-08-04,open,Vladimira Nazora 67,33515,Orahovica,,,,,,,,,21675,21299,20917,20533,20144,19751,19353,18955,,,,,,,,,9529,9699,11566,9919,,,,,,,,,,,,,9529,9699,11566,9919,,,,
Croatia,Operator Holding Account,Calucem d.o.o.,040001772,2011-09-02,open,Revelanteova 4,52100,Pula,,,,,,,,,88753,87211,85651,84075,82482,80874,79246,77611,,,,,,,,,98663,102461,108110,104769,,,,,,,,,,,,,98845,102797,107592,104769,,,,
Croatia,Operator Holding Account,Plamen d.o.o.,050000177,2011-11-16,open,Njemačka 36,34000,Požega,,,,,,,,,2176,2139,2100,2062,2023,1983,1944,1904,,,,,,,,,3033,2477,2168,2667,,,,,,,,,,,,,3033,2477,2168,2667,,,,
Croatia,Operator Holding Account,HEP-Proizvodnja d.o.o.,080434256,2011-08-08,open,Ulica grada Vukovara 37,10000,Zagreb,,,,,,,,,59356,50913,43150,36761,31687,26777,22026,17446,,,,,,,,,121482,119076,90777,99203,,,,,,,,,,,,,121482,119076,90777,99203,,,,
Croatia,Operator Holding Account,HEP-Proizvodnja d.o.o.,080434256,2011-08-08,open,Ulica grada Vukovara 37,10000,Zagreb,,,,,,,,,,,,,,,,,,,,,,,,,3041,1269,4035,768,,,,,,,,,,,,,3041,1269,4035,768,,,,
Croatia,Operator Holding Account,INA MAZIVA d.o.o.,080422876,2013-04-23,open,Radnička cesta 175,10000,Zagreb,,,,,,,,,4344,4269,4192,4115,4037,3958,3879,3799,,,,,,,,,4253,2870,2990,3211,,,,,,,,,,,,,4253,2870,2990,3211,,,,
Croatia,Operator Holding Account,Dilj d.o.o.,030003092,2011-08-08,open,Ciglarska 33,32100,Vinkovci,,,,,,,,,106,104,102,5613,5506,5399,5290,5181,,,,,,,,,2322,4518,5265,6016,,,,,,,,,,,,,2322,4518,5265,6016,,,,
Croatia,Operator Holding Account,Našicecement d.d.,050006535,2011-09-02,open,Tajnovac 1,31500,Našice,,,,,,,,,547598,538086,528464,518740,508911,498988,488940,478858,,,,,,,,,435852,488526,520087,515541,,,,,,,,,,,,,435852,488526,520087,515541,,,,
Croatia,Operator Holding Account,Opeka d.d.,030005203,2011-09-15,open,Vukovarska 2015,31000,Osijek,,,,,,,,,1299,1276,0,0,0,0,0,0,,,,,,,,,1351,0,0,0,,,,,,,,,,,,,1400,,,,,,,
Croatia,Operator Holding Account,RAZVITAK d.d.,030037436,2011-09-15,open,Štefanikova 28,32236,Ilok,,,,,,,,,10140,4983,0,0,0,0,0,0,,,,,,,,,5118,0,0,0,,,,,,,,,,,,,5200,,,,,,,
Croatia,Operator Holding Account,Opeka d.d.,030005203,2011-10-19,open,Vukovarska 2015,31000,Osijek,,,,,,,,,1241,1220,1198,2351,1154,1131,1108,1086,,,,,,,,,951,1468,1892,1668,,,,,,,,,,,,,1000,1419,1892,1668,,,,
Croatia,Operator Holding Account,Opeka d.d.,030005203,2011-09-15,open,Vukovarska 2015,31000,Osijek,,,,,,,,,9972,12280,12060,11838,11614,11387,11159,10928,,,,,,,,,12932,12207,13911,10630,,,,,,,,,,,,,13000,12139,13911,10630,,,,
Croatia,Operator Holding Account,INA d.d.,080000604,2011-10-11,open,Avenija V. Holjevca 10,10000,Zagreb,,,,,,,,,582050,571941,561712,551377,540930,530382,519703,508986,,,,,,,,,966413,952377,991903,983431,,,,,,,,,,,,,734426,1184364,991903,983431,,,,
Croatia,Operator Holding Account,INA d.d.,080000604,2011-10-11,open,Avenija V. Holjevca 10,10000,Zagreb,,,,,,,,,248576,244258,119945,117738,115508,113255,110975,108686,,,,,,,,,362326,257724,328064,318271,,,,,,,,,,,,,362326,257724,328064,318271,,,,
Croatia,Operator Holding Account,INA d.d.,080000604,2011-10-11,open,Avenija V. Holjevca 10,10000,Zagreb,,,,,,,,,48876,19629,19278,18923,18565,18202,17836,17468,,,,,,,,,27538,28156,31626,36383,,,,,,,,,,,,,27538,28156,31626,36383,,,,
Croatia,Operator Holding Account,INA d.d.,080000604,2011-10-12,open,Avenija V. Holjevca 10,10000,Zagreb,,,,,,,,,64016,53810,52847,51875,50892,49899,48895,47887,,,,,,,,,68812,69242,74772,76583,,,,,,,,,,,,,68812,69242,74772,76583,,,,
Croatia,Operator Holding Account,CEMEX Hrvatska d.d.,060004593,2011-12-22,open,Franje Tuđmana 45,21212,Kaštel Sućurac,,,,,,,,,1234337,1212898,1191207,1169289,1147135,1124766,1102118,1079391,,,,,,,,,1052600,1139232,1006250,831494,,,,,,,,,,,,,1052600,1139232,1006250,831482,,,,
Croatia,Operator Holding Account,Vetropack Straža tvornica stakla d.d.,080088797,2011-03-24,open,Hum na Sutli 203,49231,Hum na Sutli,,,,,,,,,78089,76733,75360,73974,72572,71158,69724,68287,,,,,,,,,105584,106030,104150,108328,,,,,,,,,,,,,105584,106030,104150,108328,,,,
Croatia,Operator Holding Account,Holcim (Hrvatska) d.o.o.,60131430579,2011-08-08,open,Koromačno 7b,52222,Koromačno,,,,,,,,,355337,349165,342921,336611,330234,323795,317274,310732,,,,,,,,,253272,248433,261475,313289,,,,,,,,,,,,,253272,248433,261475,313289,,,,
Croatia,Operator Holding Account,LEIER-LEITL d.o.o.,070074744,2011-09-15,open,Zagrebačka 89,42204,Turčin,,,,,,,,,3840,3774,7117,6985,6853,6719,6585,6448,,,,,,,,,2367,6080,6892,6632,,,,,,,,,,,,,2367,6080,6892,6632,,,,
Croatia,Operator Holding Account,Ciglana Cerje Tužno d.o.o.,070094555,2012-04-06,open,Cerje Nebojse 2,42243,Maruševec,,,,,,,,,14084,13839,8402,13342,13089,12833,12575,12316,,,,,,,,,8389,6811,10362,11674,,,,,,,,,,,,,8389,6811,10362,11674,,,,
Croatia,Operator Holding Account,INTERCAL d.o.o.,020036264,2011-06-13,closed,Ruđera Boškovića 52,43541,Sirač,,,,,,,,,0,0,0,0,0,0,0,0,,,,,,,,,Excluded,Excluded,Excluded,Excluded,,,,,,,,,,,,,,,,,,,,
Croatia,Operator Holding Account,INTERCAL d.o.o.,020036264,2011-06-07,open,Ruđera Boškovića 52,43541,Sirač,,,,,,,,,0,0,0,0,0,0,0,0,,,,,,,,,16,0,0,0,,,,,,,,,,,,,16,,,,,,,
Croatia,Operator Holding Account,INTERCAL d.o.o.,020036264,2011-06-07,open,Ruđera Boškovića 52,43541,Sirač,,,,,,,,,54471,53524,52567,51599,50623,49635,48636,47633,,,,,,,,,54959,56113,48672,44256,,,,,,,,,,,,,54959,56113,48672,44256,,,,
Croatia,Operator Holding Account,Đuro Đaković Energetika i infrastruktura d.o.o.,050008858,2011-09-05,open,Dr. Mile Budaka 1,35000,Slavonski Brod,,,,,,,,,3154,2824,1251,1094,1885,1592,1308,1035,,,,,,,,,2474,1926,1902,2293,,,,,,,,,,,,,2474,1926,1902,2293,,,,
Croatia,Operator Holding Account,Dilj d.o.o.,030003092,2011-08-08,open,Ciglarska 33,32100,Vinkovci,,,,,,,,,5502,5406,9131,8963,16152,15837,15518,15198,,,,,,,,,4557,8074,7590,11675,,,,,,,,,,,,,4557,8074,7590,11675,,,,
Croatia,Operator Holding Account,Dilj d.o.o.,030003092,2011-09-01,open,Ciglarska 33,32100,Vinkovci,,,,,,,,,7409,3976,7151,7020,6886,6753,6616,6480,,,,,,,,,3248,5387,7413,6992,,,,,,,,,,,,,3248,5387,7413,6992,,,,
Croatia,Operator Holding Account,Gavrilović d.o.o.,080068222,2012-02-03,open,Gavrilovićev trg 1,44250,Petrinja,,,,,,,,,7429,6648,5889,5153,4440,3748,3079,2437,,,,,,,,,7852,4833,4732,4839,,,,,,,,,,,,,7857,4828,4732,4839,,,,
Croatia,Operator Holding Account,Adria Čelik d.o.o.,080777902,2011-08-10,open,Cesta dr. Franje Tuđmana b.b.,21212,Kaštel Sućurac,,,,,,,,,0,13581,8871,0,0,0,0,0,,,,,,,,,11355,5796,Not Reported,Not Reported,,,,,,,,,,,,,18306,,,,,,,
Croatia,Operator Holding Account,HEINEKEN HRVATSKA d.o.o.,020006757,2011-05-10,open,Dubovac 22,47000,Karlovac,,,,,,,,,4987,4463,3953,3459,2980,2516,2067,1636,,,,,,,,,6386,5673,4759,3758,,,,,,,,,,,,,6386,5673,4759,3758,,,,
Croatia,Operator Holding Account,I.T.V. d.o.o.,040060158,2012-02-03,open,Most Raša 7 b,5223,Raša,,,,,,,,,0,0,0,0,0,0,0,0,,,,,,,,,590,608,604,695,,,,,,,,,,,,,590,608,604,695,,,,
Croatia,Operator Holding Account,Gradska toplana d.o.o.,080799600,2011-08-08,open,Tina Ujevića 7,47000,Karlovac,,,,,,,,,18296,15090,12287,10750,9261,7819,6425,5083,,,,,,,,,16008,12456,15512,16480,,,,,,,,,,,,,16008,12456,15512,16480,,,,
Croatia,Operator Holding Account,Knauf d.o.o.,060049492,2011-11-07,open,Uzdolje polje 91,22300,Knin,,,,,,,,,6216,7635,0,0,0,0,0,0,,,,,,,,,8613,9534,Excluded,Excluded,,,,,,,,,,,,,8613,9607,,,,,,
Croatia,Operator Holding Account,Knauf Insulation d.o.o.,070017815,2011-05-23,open,Varaždinska 140,42220,Novi Marof,,,,,,,,,21347,20976,20601,20222,19839,19452,19060,18667,,,,,,,,,31985,32999,31891,32032,,,,,,,,,,,,,31985,32999,31970,32032,,,,
Croatia,Operator Holding Account,Finag d.d.,010007767,2011-08-08,open,Petra Svačića bb,43280,Garešnica,,,,,,,,,6690,0,0,0,0,0,0,0,,,,,,,,,0,Not Reported,Not Reported,Not Reported,,,,,,,,,,,,,,,,,,,,
