Country,Account Type,Account Holder Name,Company Registration No,Permit/Plan Date,Account status,Main Address Line,Postal Code,City,Allowance In Allocation In 2005,Allowance In Allocation In 2006,Allowance In Allocation In 2007,Allowance In Allocation In 2008,Allowance In Allocation In 2009,Allowance In Allocation In 2010,Allowance In Allocation In 2011,Allowance In Allocation In 2012,Allowance In Allocation In 2013,Allowance In Allocation In 2014,Allowance In Allocation In 2015,Allowance In Allocation In 2016,Allowance In Allocation In 2017,Allowance In Allocation In 2018,Allowance In Allocation In 2019,Allowance In Allocation In 2020,Verified Emissions In 2005,Verified Emissions In 2006,Verified Emissions In 2007,Verified Emissions In 2008,Verified Emissions In 2009,Verified Emissions In 2010,Verified Emissions In 2011,Verified Emissions In 2012,Verified Emissions In 2013,Verified Emissions In 2014,Verified Emissions In 2015,Verified Emissions In 2016,Verified Emissions In 2017,Verified Emissions In 2018,Verified Emissions In 2019,Verified Emissions In 2020,Units Surrendered In 2005,Units Surrendered In 2006,Units Surrendered In 2007,Units Surrendered In 2008,Units Surrendered In 2009,Units Surrendered In 2010,Units Surrendered In 2011,Units Surrendered In 2012,Units Surrendered In 2013,Units Surrendered In 2014,Units Surrendered In 2015,Units Surrendered In 2016,Units Surrendered In 2017,Units Surrendered In 2018,Units Surrendered In 2019,Units Surrendered In 2020
Greece,Aircraft Operator Account,KENRICK LTD,513659359,2010-01-01,open,15 NEVATIM ST.,42935,HADAR-AM,,,,,,,,23,1,1,1,1,1,1,1,1,,,,,,,0,17,Excluded,Excluded,Excluded,Excluded,,,,,,,,,,,,21,,,,,,,,
Greece,Aircraft Operator Account,OLYMPIC AIR,60016/04/b/06/92,2009-01-01,open,"Athens Iinternational Airport,",19019,SPATA,,,,,,,,234372,208642,208642,208642,208642,208642,208642,208642,208642,,,,,,,0,174877,89476,21729,28264,133684,,,,,,,,,,,,174877,,111205,28264,133684,,,,
Greece,Aircraft Operator Account,Universal Air Link Inc,4338700,2010-01-01,open,10 -12 Kifissias Avenue,15125,ATHENS,,,,,,,,21,13,13,13,13,13,13,13,13,,,,,,,0,544,Excluded,Excluded,Excluded,Excluded,,,,,,,,,,,,544,,,,,,,,
Greece,Aircraft Operator Account,AEGEAN AIRLINES S.A.,32603/06/13/95/3,2010-01-01,open,"Biltanioti 31, kifisia",14564,ATHENS,,,,,,,,444591,396419,396419,396419,396419,396419,396419,396419,396419,,,,,,,0,607178,608431,756429,876953,831065,,,,,,,,,,,,607178,,1364860,876953,831065,,,,
Greece,Aircraft Operator Account,FIRST AIRWAYS,66993/01NT/B/08/296,2010-01-01,open,"127, VOULIAGMENIS AVENUE",16674,ATHENS,,,,,,,,22,9,9,9,9,9,9,9,9,,,,,,,0,210,Excluded,Excluded,Excluded,Excluded,,,,,,,,,,,,210,,,,,,,,
Greece,Aircraft Operator Account,ASTRA AIRLINES S.A.,AOC:GR-028,2010-01-01,open,MAKEDONIA AIRPORT,57001,THERMI THESSALONIKI,,,,,,,,3876,2226,2226,2226,2226,2226,2226,2226,2226,,,,,,,0,6597,4598,7742,13051,37576,,,,,,,,,,,,6597,,12340,13051,12462,,,,
Greece,Aircraft Operator Account,SKY EXPRESS S.A.,58112/70/B/05/08,2010-01-01,open,Heraklion International Airport,71601,HERAKLION,,,,,,,,4646,2956,2956,2956,2956,2956,2956,2956,2956,,,,,,,0,0,Excluded,Excluded,Excluded,Excluded,,,,,,,,,,,,,,,,,,,,
Greece,Aircraft Operator Account,"CJSC ""AEROSVIT AIRLINES""",20048090,2010-01-01,open,"Borispil SIA, Borispil-7",08324,Village Gora,,,,,,,,29930,131,131,131,131,131,131,131,131,,,,,,,0,Not Reported,Excluded,Excluded,Excluded,Excluded,,,,,,,,,,,,,,,,,,,,
Greece,Aircraft Operator Account,OXY USA,135519445,2010-01-01,open,10676 SHERMAN WAY,91505,BURBANK,,,,,,,,46,1,1,1,1,1,1,1,1,,,,,,,0,46,0,Excluded,Excluded,Excluded,,,,,,,,,,,,,,46,,,,,,
Greece,Operator Holding Account,ΠΑΝΑΓΙΩΤΟΠΟΥΛΟΣ ΑΒΕΕ,047599925000,2005-01-01,open,12ο χλμ  ΠΥΡΓΟΥ ΑΜΑΛΙΑΔΑΣ ΠΑΤΡΩΝ,27200,ΑΜΑΛΙΑΔΑ,16932,16932,16932,18630,18630,18630,18630,18630,8192,9241,9076,8909,8741,8570,8397,8225,16390,14165,18402,16226,13311,10345,8515,5031,5403,4364,5180,6968,,,,,16390,14165,18402,16226,13311,10345,8515,5031,5403,4364,5180,6968,,,,
Greece,Operator Holding Account,ΔΕΗ  ΑΕ,000786301000,2005-01-01,open,ΧΑΛΚΟΚΟΝΔΥΛΗ 29,10432,ΑΘΗΝΑ,2643743,2643743,2643743,1667927,1667927,1667927,1667927,1667927,,,,,,,,,1955721,1723533,2031377,1846726,1875199,2196000,1900480,1877823,1452834,2098480,1605506,1557925,,,,,1955721,1723533,2031377,1846726,1875199,2196000,1900480,1877823,1452834,2098480,1605506,1557925,,,,
Greece,Operator Holding Account,ΔΕΗ  ΑΕ,000786301000,2005-01-01,open,ΧΑΛΚΟΚΟΝΔΥΛΗ 29,10432,ΑΘΗΝΑ,667589,667589,667589,639361,639361,639361,639361,639361,,,,,,,,,930813,852916,1018981,976083,683421,626593,126792,24390,835,462,10,71,,,,,930813,852916,1018981,976083,683421,626593,126792,24390,835,462,10,71,,,,
Greece,Operator Holding Account,ΔΕΗ  ΑΕ,000786301000,2005-01-01,open,ΧΑΛΚΟΚΟΝΔΥΛΗ 29,10432,ΑΘΗΝΑ,3135765,3135765,3135765,2992891,2992891,2992891,2992891,2992891,,,,,,,,,3055402,3509203,4191488,4092188,2700711,1617813,1566646,1249799,910971,876120,570065,593781,,,,,3055402,3509203,4191488,4092188,2700711,1617813,1566646,1249799,910971,876120,570065,593781,,,,
Greece,Operator Holding Account,ΔΕΗ  ΑΕ,000786301000,2005-01-01,open,ΧΑΛΚΟΚΟΝΔΥΛΗ 29,10432,ΑΘΗΝΑ,949161,949161,949161,740962,740962,740962,740962,740962,,,,,,,,,972522,880058,1128440,1222408,799406,526950,508677,375656,288768,148404,182526,668334,,,,,972522,880058,1128440,1222408,799406,526950,508677,375656,288768,148404,182526,668334,,,,
Greece,Operator Holding Account,ΔΕΗ  ΑΕ,000786301000,2005-01-01,open,ΧΑΛΚΟΚΟΝΔΥΛΗ 29,10432,ΑΘΗΝΑ,1103991,1103991,1103991,893558,893558,893558,893558,893558,,,,,,,,,1115197,1101392,1035194,1104833,582721,44421,3250,26469,400024,557941,666918,535119,,,,,1115197,1101392,1035194,1104833,582721,44421,3250,26469,400024,557941,666918,535119,,,,
Greece,Operator Holding Account,ΔΕΗ  ΑΕ,000786301000,2005-01-01,open,ΧΑΛΚΟΚΟΝΔΥΛΗ 29,10432,ΑΘΗΝΑ,992150,992150,992150,781366,781366,781366,781366,781366,,,,,,,,,870433,870305,816713,809374,801628,804496,769020,743481,687424,714511,724933,664755,,,,,870433,870305,816713,809374,801628,804496,769020,743481,687424,714511,724933,664755,,,,
Greece,Operator Holding Account,ΚΕΡΑΜΟΠΟΙΙΑ ΑΦΟΙ ΣΟΛΩΜΟΥ ΟΕ,026493340000,2005-01-01,open,2ο χλμ ΕΛΑΣΣΟΝΑΣ ΛΑΡΙΣΑΣ,40200,ΛΑΡΙΣΑ,15035,15035,15035,23044,23044,23044,23044,23044,616,605,594,583,572,561,550,538,17296,23077,17060,15656,5481,1607,709,492,0,0,0,0,,,,,17296,23077,17060,15656,5481,1607,709,492,,,,,,,,
Greece,Operator Holding Account,ΔΕΗ  ΑΕ,000786301000,2005-01-01,open,ΧΑΛΚΟΚΟΝΔΥΛΗ 29,10432,ΑΘΗΝΑ,765538,765538,765538,637028,637028,637028,637028,637028,,,,,,,,,646873,702265,799671,632886,478217,438035,399012,382380,350335,383326,377968,411221,,,,,646873,702265,799671,632886,478217,438035,399012,382380,350335,383326,377968,411221,,,,
Greece,Operator Holding Account,ΔΕΗ  ΑΕ,000786301000,2005-01-01,open,ΧΑΛΚΟΚΟΝΔΥΛΗ 29,10432,ΑΘΗΝΑ,492422,492422,492422,422712,422712,422712,387955,387954,,,,,,,,,568983,529675,545137,566845,564063,546944,562286,551666,524376,495218,533097,544335,,,,,568983,529675,545137,566845,564063,546944,562286,551666,524376,495218,533097,544335,,,,
Greece,Operator Holding Account,ΔΕΗ  ΑΕ,000786301000,2005-01-01,open,ΧΑΛΚΟΚΟΝΔΥΛΗ 29,10432,ΑΘΗΝΑ,157600,157600,157600,133036,133036,179678,255220,196833,,,,,,,,,180596,179214,174095,150077,161010,184174,179599,171861,162549,161968,171029,172225,,,,,180596,179214,174095,150077,161010,184174,179599,171861,162549,161968,171029,172225,,,,
Greece,Operator Holding Account,ΔΕΗ  ΑΕ,000786301000,2005-01-01,open,ΧΑΛΚΟΚΟΝΔΥΛΗ 29,10432,ΑΘΗΝΑ,69214,69214,69214,77684,58682,93487,149286,112796,,,,,,,,,68628,72639,65509,66836,73520,72058,69465,68412,60205,61038,63778,61291,,,,,68628,72639,65509,66836,73520,72058,69465,68412,60205,61038,63778,61291,,,,
Greece,Operator Holding Account,ΔΕΗ  ΑΕ,000786301000,2005-01-01,open,ΧΑΛΚΟΚΟΝΔΥΛΗ 29,10432,ΑΘΗΝΑ,125460,125460,125460,194413,194413,194413,194413,194413,,,,,,,,,152363,158112,166877,164187,164683,171859,154979,156190,147116,153968,176303,166279,,,,,152363,158112,166877,164187,164683,171859,154979,156190,147116,153968,176303,166279,,,,
Greece,Operator Holding Account,ΔΕΗ  ΑΕ,000786301000,2005-01-01,open,ΧΑΛΚΟΚΟΝΔΥΛΗ 29,10432,ΑΘΗΝΑ,96773,96773,96773,119899,84977,154948,198035,154948,,,,,,,,,116142,122638,127636,79825,122842,123783,123706,124992,113567,112650,117703,119573,,,,,116142,122638,127636,79825,122842,123783,123706,124992,113567,112650,117703,119573,,,,
Greece,Operator Holding Account,ΤΕΧΝΟΚΕΡΑΜΙΚΗ ΑΒΕΕ,000381801000,2005-01-01,closed,70ο χλμ ΕΟ ΑΘΗΝΩΝ ΛΑΜΙΑΣ,32009,ΡΙΤΣΩΝΑ,9844,9844,9844,10977,10977,10977,10977,10977,0,0,0,0,0,0,0,0,9802,9728,8848,9194,6326,5620,1297,0,0,Not Reported,Not Reported,Not Reported,,,,,9802,9728,8848,9194,6326,5620,1297,,,,,,,,,
Greece,Operator Holding Account,ΔΕΗ  ΑΕ,000786301000,2005-01-01,open,ΧΑΛΚΟΚΟΝΔΥΛΗ 29,10432,ΑΘΗΝΑ,75986,75986,75986,111524,22364,66944,118941,91324,,,,,,,,,85940,93065,88575,88732,91079,90502,86149,80300,70433,73925,77498,77151,,,,,85940,93065,88575,88732,91079,90502,86149,80300,70443,73915,77498,77151,,,,
Greece,Operator Holding Account,ΑΝ. ΒΛ. ΚΟΛΙΟΠΟΥΛΟΣ ΠΑΚΟ ΑΕ,000291001000,2005-01-01,open,ΒΕΛΟ ΚΟΡΙΝΘΙΑΣ,20002,ΒΕΛΟ ΚΟΡΙΝΘΙΑΣ,3494,3494,3494,3559,3559,3559,3559,3559,1367,1517,1833,1463,1766,1731,1696,1662,2932,3626,4021,3964,3176,2023,2069,3618,3546,3844,3685,3474,,,,,2932,3626,4021,3964,3176,2023,2069,3618,3546,3844,3685,3474,,,,
Greece,Operator Holding Account,ΔΕΗ  ΑΕ,000786301000,2005-01-01,open,ΧΑΛΚΟΚΟΝΔΥΛΗ 29,10432,ΑΘΗΝΑ,100535,100535,100535,106844,106844,106844,106844,106844,,,,,,,,,113555,119039,123866,124637,123016,115404,108626,105652,99498,110066,114359,118559,,,,,113555,119039,123866,124637,123016,115404,108626,105652,99498,110066,114359,118559,,,,
Greece,Operator Holding Account,ΔΕΗ  ΑΕ,000786301000,2005-01-01,open,ΧΑΛΚΟΚΟΝΔΥΛΗ 29,10432,ΑΘΗΝΑ,50384,50384,50384,61781,61781,106385,84083,84083,,,,,,,,,74795,63552,70436,57656,76405,76399,74312,73584,74299,82743,86497,94565,,,,,74795,63552,70436,57656,76405,76399,74312,73584,74299,82743,86497,94565,,,,
Greece,Operator Holding Account,ΔΕΗ  ΑΕ,000786301000,2005-01-01,open,ΧΑΛΚΟΚΟΝΔΥΛΗ 29,10432,ΑΘΗΝΑ,56926,56926,56926,90312,90312,90312,90312,90312,,,,,,,,,68346,70247,76503,78162,80395,80464,83878,85133,86140,98223,118392,121327,,,,,68346,70247,76503,78162,80395,80464,83878,85133,86140,98223,118392,121327,,,,
Greece,Operator Holding Account,ΔΕΗ  ΑΕ,000786301000,2005-01-01,open,ΧΑΛΚΟΚΟΝΔΥΛΗ 29,10432,ΑΘΗΝΑ,18474,18474,18474,30859,30859,30859,30859,30859,,,,,,,,,20977,20611,22448,22013,23130,23821,25140,25027,23112,23839,24910,24843,,,,,20977,20611,22448,22013,23130,23821,25140,25027,23112,23839,24910,24843,,,,
Greece,Operator Holding Account,ΔΕΗ  ΑΕ,000786301000,2005-05-01,open,ΧΑΛΚΟΚΟΝΔΥΛΗ 29,10432,ΑΘΗΝΑ,32378,32378,32378,27888,27888,27888,27888,40217,,,,,,,,,34669,35556,36283,39657,43581,43433,55804,52397,50969,49386,40482,47544,,,,,34669,35556,36283,39657,43581,43433,55804,52397,50969,49386,40482,47544,,,,
Greece,Operator Holding Account,ΚΕΡΑΜΟΥΡΓΙΚΗ ΡΑΦΗΝΑΣ ΑΕ,083239502000,2005-01-01,open,23ο ΧΛ Λ ΜΑΡΑΘΩΝΟΣ,19009,ΡΑΦΗΝΑ,29024,29024,29024,29120,29120,29120,29120,29120,8376,4404,4325,4246,4165,4084,4002,3919,28879,27781,20656,11907,10487,5733,3159,4359,189,0,0,32,,,,,28879,27781,20720,11907,10487,5733,3159,4359,189,,,32,,,,
Greece,Operator Holding Account,ΦΙΛΚΕΡΑΜ JOHNSON AE,057195901001,2005-01-01,closed,ΛΑΕΡΤΟΥ 21-23 & 25,55102,ΘΕΣΣΑΛΟΝΙΚΗ,36730,36730,36730,37570,37570,37570,37570,0,,,,,,,,,29474,31769,29058,28098,17810,9235,61,,,,,,,,,,29474,31769,29058,28098,17810,9235,61,,,,,,,,,
Greece,Operator Holding Account,ΔΕΗ  ΑΕ,000786301000,2005-01-01,open,ΧΑΛΚΟΚΟΝΔΥΛΗ 29,10432,ΑΘΗΝΑ,34514,34514,34514,29358,29358,29358,29358,29358,,,,,,,,,39706,42360,43369,44179,44395,44805,43868,41721,38789,38869,40856,39907,,,,,39706,42360,43369,44179,44395,44805,43868,41721,38789,38869,40856,39907,,,,
Greece,Operator Holding Account,ΜΗΤΣΙΑΔΗΣ Α.Β.Ε.Ε.(e.x. Δ. & Σ. ΜΗΤΣΙΑΔΗΣ&ΥΙΟΙ ΟΕ),010406753000,2005-01-01,open,4 χλμ ΤΡΙΚΑΛΩΝ ΛΑΡΙΣΗΣ,42100,ΤΡΙΚΑΛΑ,4251,4251,4251,5124,5124,5124,5124,5124,2099,1394,1041,1022,1002,983,963,943,5388,5280,7002,7163,3238,3509,2577,1588,1226,770,736,919,,,,,5388,5280,7002,7163,3238,3509,2577,1588,1226,770,736,919,,,,
Greece,Operator Holding Account,ΔΕΗ  ΑΕ,000786301000,2005-01-01,open,ΧΑΛΚΟΚΟΝΔΥΛΗ 29,10432,ΑΘΗΝΑ,26886,26886,26886,48799,7057,58776,59969,51064,,,,,,,,,27939,26166,27829,22907,23833,26882,27215,27853,24602,27082,28554,27719,,,,,27939,26166,27829,22907,23833,26882,27215,27853,24602,27082,28554,27719,,,,
Greece,Operator Holding Account,ΚΕΡΑΜΟΠΟΙΙΑ ΧΡΙΣΤΟΔΟΥΛΙΔΗ ΑΕ,057583504000,2005-01-01,open,8ο ΧΛ ΟΔΟΥ ΘΕΣ/ΚΗΣ ΠΕΡΑΙΑΣ,57001,ΘΕΣΣΑΛΟΝΙΚΗ,17230,17230,17230,12986,12986,12986,12986,12986,0,0,0,0,0,0,0,0,9670,11344,13566,8243,5753,6322,2628,0,0,Not Reported,Not Reported,Not Reported,,,,,9670,11344,13566,8243,5753,6322,2628,,,,,,,,,
Greece,Operator Holding Account,KEBE  AE,026531340000,2005-01-01,open,NEA  SANTA,54500,KILKIS,70034,70034,70034,73978,73978,73978,73978,73978,15130,14867,14601,14332,14061,13787,13509,13231,74459,54378,69471,40512,28512,5016,3333,4321,0,0,0,0,,,,,74459,54378,69471,40512,28512,5016,3333,4321,,,,,,,,
Greece,Operator Holding Account,TERRA AE,026558840000,2005-01-01,open,6ο ΧΛ ΛΑΡΙΣΑΣ-ΣΥΚΟΥΡΙΟΥ,41110,ΛΑΡΙΣΑ,59110,59110,59110,66177,66177,66177,66177,0,,,,,,,,,96725,68719,19678,45828,17641,14136,Not Reported,Not Reported,Not Reported,Not Reported,,,,,,,96725,68719,19712,45828,17641,,,,,,,,,,,
Greece,Operator Holding Account,ΑΦΟΙ Δ. ΠΡΙΝΤΖΗ ΓΡΑΝΙΤΗΣ ΑΠΕΤΕ,038271105000,2005-01-01,open,ΟΛΥΜΠΟΥ ΚΑΛΟΧΩΡΙ,57009,ΘΕΣΣΑΛΟΝΙΚΗ,5020,5020,5020,8975,8975,17695,13335,13335,862,0,0,0,0,0,0,0,7368,8042,14998,9425,4082,2284,981,618,546,0,0,0,,,,,7368,8042,14998,9425,4082,2284,981,618,546,,,,,,,
Greece,Operator Holding Account,GEORGIA PACIFIC ΕΛΛΑΣ ΑΕΒΕ,104494,2005-01-01,closed,ΒΙΠΕ ΠΑΤΡΩΝ,25018,ΠΑΤΡΑ,10706,10706,10706,11163,11163,11163,11163,11163,5102,0,0,0,0,0,0,0,11476,10718,11138,9450,9177,7419,6293,7091,1693,,,,,,,,11476,10718,11138,9450,9177,7419,6293,7091,1693,,,,,,,
Greece,Operator Holding Account,TITAN  AE,000224301000,2005-01-01,open,ΧΑΛΚΙΔΟΣ 22Α,11143,ΑΘΗΝΑ,1077585,1077585,1077585,1064424,1064424,1064424,1064424,1064424,927786,911671,895367,878893,862241,845427,828404,811321,1046057,1095738,1104559,1106692,942398,977840,379210,679642,758094,881800,814529,737510,,,,,1046057,1095738,1104559,1106692,942398,977840,379210,679642,758094,881800,814529,737510,,,,
Greece,Operator Holding Account,ΑΘΗΝΑΙΚΗ ΧΑΡΤΟΠΟΙΙΑ ΑΕ,114223916001,2005-01-01,open,ΧΑΡΤΕΡΓΑΤΩΝ 1 ΑΘΗΝΑ,11855,ΑΘΗΝΑ,24966,24966,24966,19167,19167,19167,19167,19167,13822,13582,13339,6547,0,0,0,0,16548,18914,19541,19636,19024,15359,15879,14656,16337,14717,8183,0,,,,,16548,18914,19541,19636,19024,15359,15879,14656,16337,14717,8183,,,,,
Greece,Operator Holding Account,ΑΦΟΙ ΑΡΙΣΤΕΙΔΟΠΟΥΛΟΙ ΚΕΡΑΜΟΥΡΓΙΚΗ ΑΒΕΕ,047003225000,2005-01-01,open,ΧΑΝΑΚΙΑ ΠΥΡΓΟΣ,27100,ΠΥΡΓΟΣ,10600,10600,10600,13894,13894,13894,13894,13894,2236,2198,2158,2118,2078,2038,1996,1956,9243,8889,9108,7022,5599,2922,1338,863,694,735,645,510,,,,,9243,8889,9108,7022,5599,2922,1338,863,694,735,645,510,,,,
Greece,Operator Holding Account,TITAN  AE,000224301000,2005-01-01,closed,ΧΑΛΚΙΔΟΣ 22Α,11143,ΑΘΗΝΑ,139628,139628,139628,146739,146739,146739,146739,146739,0,0,0,0,0,0,0,0,157896,158900,156235,140790,116863,104190,50261,70,67,61,96,,,,,,157896,158900,156235,140790,116863,104190,50261,70,67,61,96,,,,,
Greece,Operator Holding Account,ΒΕΚΑ ΑΕ,N/A,2005-01-01,closed,ΑΓ. ΑΘΑΝΑΣΙΟΥ 55,14569,ΑΝΟΙΞΗ ΑΤΤΙΚΗΣ,3469,3469,3469,3773,3773,3773,3773,0,,,,,,,,,3717,3975,3565,2947,845,0,0,,,,,,,,,,3717,3975,3565,2947,845,,,,,,,,,,,
Greece,Operator Holding Account,TITAN  AE,000224301000,2005-01-01,open,ΧΑΛΚΙΔΟΣ 22Α,11143,ΑΘΗΝΑ,1976344,1976344,1976344,1961320,1961320,1961320,1961320,1961320,1643043,1614505,1585631,1556456,1526967,1497191,1467044,1436792,2078967,1977402,1991246,1963438,1671073,1547035,672594,1210201,1570569,1725551,1609703,1717171,,,,,2078967,1977402,1991246,1963438,1671073,1547035,672594,1210201,1570569,1725551,1609703,1717171,,,,
Greece,Operator Holding Account,TITAN  AE,000224301000,2005-01-01,open,ΧΑΛΚΙΔΟΣ 22Α,11143,ΑΘΗΝΑ,1250110,1250110,1250110,1093875,1093875,1093875,1093875,1093875,946226,929791,913162,896360,879378,862230,844868,827446,1073214,1132650,1137060,1007733,924101,793903,445029,579624,1016933,941803,697406,850825,,,,,1073214,1132650,1137060,1007733,924101,793903,445029,579624,1016933,941803,697406,850825,,,,
Greece,Operator Holding Account,ΧΑΡΤΟΠΟΙΙΑ ΒΙΟΧΑΡΤΙΚΗ ΑΒΕΕ,044358407000,2005-01-01,open,ΘΕΜΙΔΟΣ 19,18233,ΑΓΙΟΣ ΙΩΑΝΝΗΣ ΡΕΝΤΗΣ,14680,14680,14680,15249,15249,15249,15249,15249,2558,2513,4996,3664,0,0,0,0,13267,14418,14426,15032,14704,13287,10890,190,0,4495,2442,0,,,,,13267,14418,14426,15032,14704,13287,10890,190,,4495,2442,,,,,
Greece,Operator Holding Account,ΑΓΕΤ ΗΡΑΚΛΗΣ,13576/06/B/86/96,2005-01-01,open,"19.3km, LEOFOROS MARKOPOULOU",19002,PAIANIA,2845445,2845445,2845445,2829318,2829318,2829318,2829318,2829318,2199446,2161243,2122592,2083537,2044062,2004203,1963846,1923350,2864434,2786691,2845863,2616942,1794862,1437677,955410,1371289,1325416,1292330,1318150,1446949,,,,,2864434,2786691,2845863,2616942,1794862,1437677,955410,1371289,1325416,1292330,1318150,1446949,,,,
Greece,Operator Holding Account,ΒΙΣ ΑΕ,120584107000,2005-01-01,open,Α ΒΙΠΕ ΒΟΛΟΥ,38500,ΒΟΛΟΣ,12509,12509,12509,13607,13607,13607,13607,13607,4796,4712,4628,4543,4457,4370,4282,4194,15344,13393,9711,9571,8914,8162,7707,7441,5368,4304,0,0,,,,,15344,13393,9711,9571,8914,8162,7707,7441,5368,4304,,,,,,
Greece,Operator Holding Account,ΑΓΕΤ ΗΡΑΚΛΗΣ,13576/06/B/86/96,2005-01-01,open,"19.3km, LEOFOROS MARKOPOULOU",19002,PAIANIA,1406855,1406855,1406855,1378021,1378021,1378021,1378021,1378021,1149082,1129124,1108931,1088527,1067903,1047079,1025995,1004838,1364350,1387629,1254544,1277826,1038200,1200684,1018309,866028,1014802,1075999,934136,1040179,,,,,1364350,1387629,1254544,1277826,1038200,1200684,1018309,866028,1014802,1075999,934136,1040179,,,,
Greece,Operator Holding Account,ΜΕΛ- ΜΑΚΕΔΟΝΙΚΗ ΕΤΑΙΡΙΑ ΧΑΡΤΟΥ ΑΕ,057183804000,2005-01-01,open,Κ. ΓΕΦΥΡΑ,57011,ΘΕΣΣΑΛΟΝΙΚΗ,34660,34660,34660,39087,39087,39087,39087,39087,25042,24607,24167,23723,23273,22819,22360,21899,42568,42238,43219,43809,43475,49571,47084,45368,46537,41300,40159,13547,,,,,42568,42238,43219,43809,43475,49571,47084,45368,46537,41300,40159,13547,,,,
Greece,Operator Holding Account,ΑΓΕΤ ΗΡΑΚΛΗΣ,13576/06/B/86/96,2005-01-01,closed,"19.3km, LEOFOROS MARKOPOULOU",19002,PAIANIA,1831400,1831400,1831400,1765088,1765088,1765088,1765088,1765088,0,0,0,0,0,0,0,0,1844382,1661605,1429994,1236258,549080,358573,164005,357,19,,,,,,,,1844382,1661605,1429994,1236258,549080,358573,164005,357,19,,,,,,,
Greece,Operator Holding Account,ΑΝ. ΒΛ. ΚΟΛΙΟΠΟΥΛΟΣ ΠΑΚΟ ΑΕ,000291001000,2005-01-01,open,ΠΕΛΑΣΓΙΑ ΦΘΙΩΤΙΔΑΣ,35013,ΠΕΛΑΣΓΙΑ ΦΘΙΩΤΙΔΑΣ,19985,19985,19985,20468,20468,20468,20468,20468,8484,8336,8187,8036,7884,7730,7575,7419,17965,20220,23272,19972,18826,16784,14865,9900,4656,4541,7852,9318,,,,,17965,20220,23272,19972,18826,16784,14865,9900,4656,4541,7852,9318,,,,
Greece,Operator Holding Account,HALYPS BUILDING MATERIALS S.A (HALYPS CEMENT),120582807000,2005-01-01,open,17ο ΧΛΜ ΑΘΗΝΩΝ - ΚΟΡΙΝΘΟΥ,19300,ΑΣΠΡΟΠΥΡΓΟΣ,544259,544259,544259,533983,533983,533983,533983,533983,438324,215356,211504,207613,407358,399414,391372,383301,544211,544147,539236,528037,414113,414597,210816,262689,129945,174123,148800,254264,,,,,544211,544147,539236,528037,414113,414597,210816,262689,129945,174123,148800,254264,,,,
Greece,Operator Holding Account,ΑΠ.ΔΟΥΚΕΡΗΣ & ΥΙΟΣ Ε.Π.Ε.,083491302000,2005-01-01,open,ΘΕΣΗ ΤΖΑΒΕΡΔΕΛΛΑ,13341,ΑΝΩ ΛΙΟΣΙΑ,29769,29769,29769,31240,31240,31240,31240,31240,0,0,0,0,0,0,0,0,29567,30367,27708,13899,6425,0,0,0,0,0,Not Reported,Not Reported,,,,,29567,30367,27746,13899,6425,,,,,,,,,,,
Greece,Operator Holding Account,ΠΑΤΡΑΙΚΗ ΧΑΡΤΟΠΟΙΙΑ ΑΕ,036419416000,2005-01-01,open,ΚΡΥΑ ΙΤΕΩΝ,26333,ΠΑΤΡΑ,5145,5145,5145,5181,5181,5181,5181,5181,2485,2442,2398,2354,2309,2264,2219,2173,4421,4537,4728,4808,4499,4231,4175,3660,3144,3232,3283,3214,,,,,4421,4537,4728,4808,4499,4231,4175,3660,3144,3232,3283,3214,,,,
Greece,Operator Holding Account,ΑΦΟΙ ΠΑΡΑΣΧΟΥ ΑΒΕΕ,020510630000,2005-01-01,open,ΠΑΛΑΙΟΧΩΡΙ ΕΛΕΥΘΕΡΟΥΠΟΛΗ,64100,ΕΛΕΥΘΕΡΟΥΠΟΛΗ ΚΑΒΑΛΑ,19994,19994,19994,19087,19087,19087,19087,19087,0,0,0,0,0,0,0,0,17217,21052,26055,23963,13812,1973,0,0,0,0,0,0,,,,,17217,21052,26055,23963,13812,1973,,,,,,,,,,
Greece,Operator Holding Account,Σ & Α ΔΟΥΚΕΡΗ & ΣΙΑ ΟΕ,087458402000,2005-01-01,open,ΠΥΡΓΟΣ ΖΩΦΡΙΑΣ,13341,ΔΗΜΟΣ ΑΝΩ ΛΙΟΣΙΩΝ,51075,51075,51075,69231,69231,69231,69231,69231,45501,22356,43911,43104,42287,41462,40627,39790,65485,43123,72326,52230,32942,18859,9625,14905,10775,15786,14041,14194,,,,,65485,43123,72439,52230,32942,18859,9625,14905,10775,15786,14041,14194,,,,
Greece,Operator Holding Account,ΤΕΧΝΟΧΑΡΤ ΑΒΕΕ,029114514000,2005-01-01,open,ΒΙΠΕ ΤΡΙΠΟΛΗΣ,22100,ΤΡΙΠΟΛΗ,5796,5796,5796,6566,6566,6566,6566,6566,5147,5058,96,95,93,91,89,87,7151,7265,7236,8265,7246,8524,8117,6493,5404,709,0,Not Reported,,,,,7151,7265,7236,8265,7246,8524,8117,6493,5404,709,,,,,,
Greece,Operator Holding Account,ΑΣΒΕΣΤΟΠΟΙΙΑ ΚΡΗΤΗΣ,073957058000,2005-01-01,open,ΦΟΝΕΣ ΑΠΟΚ/ΝΟΥ,73007,ΔΗΜΟΣ ΚΡΥΟΝΕΡΙΔΑΣ - ΧΑΝΙΑ,22668,22668,22668,35176,35176,35176,35176,35176,12122,11911,5849,11483,5633,5523,5412,5300,20729,23145,20070,14752,7426,6768,5244,5450,5247,2225,5220,2346,,,,,20729,23145,20070,14752,7426,6768,5244,5450,5247,2225,5220,2346,,,,
Greece,Operator Holding Account,CaO HELLAS ΜΑΚΕΔΟΝΙΚΗ ΑΒΕΕ,038400905000,2005-01-01,open,6ο ΧΛΜ ΟΔΟΥ ΘΕΣΣΑΛΟΝΙΚΗΣ - ΛΑΓΚΑΔΑ,57013,ΕΥΚΑΡΠΙΑ,51004,51004,51004,56398,56398,56398,56398,56398,42936,42190,41436,40674,39903,39125,38337,37546,53663,51417,46320,44858,40688,31637,21207,25368,29673,27315,29908,27204,,,,,53663,51417,46384,44858,40688,31637,21207,25368,29673,27315,29908,27204,,,,
Greece,Operator Holding Account,ΧΑΡΤΟΠΟΙΙΑ ΘΡΑΚΗΣ ΑΕ,012511601001,2005-01-01,closed,18ο ΧΛ Ε.Ο. ΑΘΗΝΩΝ-ΛΑΜΙΑΣ,14671,ΝΕΑ ΕΡΥΘΡΑΙΑ,23143,23143,23143,22339,22339,22339,22339,22339,,,,,,,,,22478,20244,17075,15380,13176,9648,4303,,,,,,,,,,22478,20244,17075,15380,13176,9648,4303,,,,,,,,,
Greece,Operator Holding Account,Κ. ΡΑΪΚΟΣ Α.Ε.,000270501000,2005-01-01,open,ΘΕΣΗ ΤΖΑΒΕΡΔΕΛΛΑ,19100,ΑΣΠΡΟΠΥΡΓΟΣ,124118,124118,124118,99682,99682,99682,99682,99682,16972,16677,16379,32155,63091,61861,60615,59365,92579,87681,115082,90850,59360,37895,31730,11671,6885,13656,19695,44428,,,,,92579,87681,115082,90850,59360,37895,31730,11671,6885,13656,19695,44428,,,,
Greece,Operator Holding Account,ΑΛ. & ΑΝ. ΤΣΙΡΙΓΩΤΗΣ Α.Ε.,112842708000,2005-01-01,closed,ΘΕΣΗ ΤΖΑΒΕΡΔΕΛΛΑ,00055,ΔΗΜΟΣ ΑΝΩ ΛΙΟΣΙΩΝ,92047,92047,92047,69575,69575,69575,69575,69575,28743,14122,13869,0,0,0,0,0,62819,74422,75693,68857,41955,29868,26813,18538,11990,6752,0,,,,,,62819,74422,75693,68857,41955,29868,26813,18538,11990,5752,1000,,,,,
Greece,Operator Holding Account,ΑΙΜΟΣ Α.Β.Ε.,122310999000,2005-01-01,open,1η ΙΟΥΛΙΟΥ 104,66100,ΔΡΑΜΑ,11546,11546,11546,10760,10760,10760,10760,10760,0,0,0,0,0,0,0,0,3094,0,0,0,0,0,0,0,0,Not Reported,Not Reported,Not Reported,,,,,3094,11546,,,,,,,,,,,,,,
Greece,Operator Holding Account,CaO HELLAS ΜΑΚΕΔΟΝΙΚΗ ΑΒΕΕ,038400905000,2005-01-01,open,6ο ΧΛΜ ΟΔΟΥ ΘΕΣΣΑΛΟΝΙΚΗΣ - ΛΑΓΚΑΔΑ,57013,ΕΥΚΑΡΠΙΑ,61975,61975,61975,66165,66165,188477,126251,126251,75438,74128,72802,71463,70109,68742,67358,65969,73248,58520,47936,39300,55472,43882,39124,54226,72189,69314,63035,74643,,,,,123950,7818,48009,39300,55472,43882,39124,54226,72189,69314,63035,74643,,,,
Greece,Operator Holding Account,ΑΣΒΕΣΤΟΠΟΙΑ ΒΕΛΕΣΤΙΝΟΥ,050692744000,2005-01-01,open,ΘΕΣΗ ΚΑΤΣΑΪΡΗ,37500,ΔΗΜΟΣ ΦΕΡΩΝ,46930,46930,46930,58641,58641,58641,58641,58641,11478,11279,11077,10873,10667,10459,10249,10037,54283,50793,67756,49709,15605,12418,10673,6518,6385,5933,7132,6944,,,,,54283,50793,67860,49709,15605,12418,10673,6518,6385,5933,7132,6944,,,,
Greece,Operator Holding Account,ΑΣΒΕΣΤΟΠΟΙΙΑ ΔΕΒΕΤΖΟΓΛΟΥ ΑΒΕΕ,088414802000,2005-01-01,open,ΘΕΣΗ ΤΖΑΒΕΡΔΕΛΑ,13341,ΑΘΗΝΑ,50956,50956,50956,49722,49722,49722,49722,49722,16294,8006,7862,7718,15143,14848,14549,14249,39724,43892,48467,33739,18031,15926,11000,8944,5453,5588,6314,8594,,,,,39724,43892,48564,33739,18031,15926,11000,8944,5453,5588,6314,8594,,,,
Greece,Operator Holding Account,ΥΙΟΙ ΤΣΑΡΟΥΧΑ ΚΑΙ ΣΙΑ ΟΕ,010777253000,2005-01-01,open,ΠΕΤΡΩΤΟ ΤΡΙΚΑΛΩΝ,42300,ΔΗΜΟΣ ΟΙΧΑΛΙΑΣ,23161,23161,23161,24191,24191,24191,24191,24191,24268,11923,11710,5747,11277,11057,10834,10611,15099,25648,43721,23913,4836,5320,4676,11482,6479,5700,2876,6092,,,,,15099,25648,43721,23913,4836,5320,4676,11482,6479,5700,2876,6092,,,,
Greece,Operator Holding Account,ΙΩΑΝΝΗΣ  ΜΟΥΓΙΟΣ ΕΕΕ-Ο ΤΙΤΑΝ,035720516000,2005-01-01,closed,Κ. ΑΛΙΣΣΟΣ,25002,ΔΗΜΟΣ ΔΥΜΗΣ,7847,7847,7847,12003,12003,12003,12003,12003,2504,0,0,0,0,0,0,0,11239,12477,14548,10947,7945,8440,4786,2223,0,0,,,,,,,11239,12477,14548,10947,7945,8440,4786,2223,,,,,,,,
Greece,Operator Holding Account,ΑΦΟΙ ΧΡ. ΖΑΡΚΑΔΟΥΛΑ ΟΕ,022545654000,2005-01-01,closed,2ο χλμ ΝΕΟ ΛΑΜΙΑΣ ΑΘΗΝΩΝ,35100,ΛΑΜΙΑ,7106,7106,7106,8514,8514,8514,8514,8514,1492,1466,0,0,0,0,0,0,7195,7829,8783,5099,582,0,0,0,0,0,,,,,,,7195,7829,8783,5099,582,,,,,,,,,,,
Greece,Operator Holding Account,ΟΛΥΜΠΟΣ ΘΕΣΣΑΛΙΚΗ ΑΣΒΕΣΤΟΠΟΙΙΑ,119186840000,2005-01-01,open,5ο χλμ ΝΕΟ ΛΑΡΙΣΑΣ ΘΕΣΣΑΛΟΝΙΚΗΣ,41110,ΛΑΡΙΣΑ,16231,16231,16231,15904,15904,15904,15904,15904,5250,5158,2533,2486,2439,2392,2344,2295,14037,9170,10500,9176,7990,6983,4495,3580,2542,1449,916,999,,,,,14037,18340,1330,9176,7990,6983,4495,3580,2542,1449,916,999,,,,
Greece,Operator Holding Account,ΚΥΚΝΟΣ  ΑΕ,115151837000,2005-01-01,open,ΘΕΣΗ ΓΚΑ ΑΘΙΚΙΩΝ,20005,ΔΗΜΟΣ ΣΑΡΩΝΙΚΟΥ,39995,39995,39995,49270,49270,49270,49270,49270,47216,46396,22783,22364,21941,21513,21080,20645,44981,42364,41052,26294,24354,20388,12090,8797,8750,7431,10171,9057,,,,,44981,42364,41052,26294,24354,20388,12090,8797,8750,7431,10171,9057,,,,
Greece,Operator Holding Account,ΛΑΚΩΝΙΚΗ ΑΣΒΕΣΤΟΠΟΙΙΑ,018353539000,2005-01-01,open,ΑΝΩΝΥΜΗ,23100,ΣΠΑΡΤΗ (ΚΛΑΔΑΣ),18161,18161,18161,9785,9785,9785,9785,27541,13642,3351,6583,6462,6339,6216,6091,5965,6264,11423,13201,11937,9574,7911,7163,8798,1368,4775,3841,2867,,,,,6264,11423,13201,11937,9574,7911,7163,8798,1368,4775,3841,2867,,,,
Greece,Operator Holding Account,ΧΑΡΤΟΠΟΙΙΑ ΦΘΙΩΤΙΔΟΣ ΑΕ,000285801000,2005-01-01,open,ΔΑΜΑΣΤΑ ΦΘΙΩΤΙΔΑΣ,35100,ΓΟΡΓΟΠΟΤΑΜΟΣ,20164,20164,20164,17428,17428,17428,17428,17428,7126,7002,6877,6750,6623,6493,6363,6232,18217,15470,15811,12473,18071,12562,11312,14367,15875,16137,15471,17652,,,,,18217,15470,15897,12473,18071,12562,11312,14367,15875,16137,15471,17652,,,,
Greece,Operator Holding Account,ΚΕΡΑΜΟΥΡΓΙΑ ΣΠΑΡΤΗΣ,018591939000,2005-01-01,open,14ο ΧΛ ΣΠΑΡΤΗΣ-ΓΥΘΕΙΟΥ,23054,ΣΠΑΡΤΗ,6964,6964,6964,10102,10102,10102,10102,10102,1895,0,3656,1795,1761,1726,1692,1657,8501,8325,8986,8389,5734,1627,606,2096,0,2780,2755,1180,,,,,8501,8325,8986,8389,5734,1627,606,2096,,1895,3640,,,,,
Greece,Operator Holding Account,Κ ΠΕΡΤΣΙΝΙΔΗΣ ΑΕ,N/A,2005-01-01,closed,18ο χλμ ΘΕΣ/ΚΗΣ  ΣΕΡΡΩΝ,57200,ΘΕΣΣΑΛΟΝΙΚΗ,20846,20846,20846,,,,,,,,,,,,,,17818,14916,14951,,,,,,,,,,,,,,17818,14916,14951,,,,,,,,,,,,,
Greece,Operator Holding Account,ΚΕΡΑΜΙΔΙΑ ΑΡΓΟΥΣ ΑΒΕΕ,030007613000,2005-01-01,open,3ο ΧΛ ΕΠΑΡ. ΟΔΟΥ,21200,ΑΡΓΟΣ,4628,4628,4628,7940,7940,7940,10750,11248,1850,1818,1786,1753,1720,1686,1652,1618,2758,4923,7683,6303,3490,1970,593,133,26,Not Reported,Not Reported,Not Reported,,,,,2758,4923,7683,6303,3490,1970,593,133,26,,,,,,,
Greece,Operator Holding Account,Γ. Α. ΣΑΚΕΛΑΡΑΚΟΣ,029113814000,2005-01-01,open,6ο ΧΛ ΤΡΙΠΟΛΕΩΣ-ΣΠΑΡΤΗΣ,22012,Δ. Δ. ΚΕΡΑΣΙΤΣΑΣ ΔΗΜΟΥ ΤΕΓΕΑΣ,12743,12743,12743,16820,16820,16820,16820,16820,4429,4351,2576,2529,2481,2433,2384,2335,12969,12932,14381,14217,7482,7096,7010,1864,3778,0,27,0,,,,,12969,12932,14381,14217,7482,7096,7010,1864,3778,,27,,,,,
Greece,Operator Holding Account,ΑΦΟΙ  Ν. ΒΑΛΑΒΑΝΗ,N/A,2005-01-01,closed,ΦΑΡΣΑΛΩΝ 109,41335,ΛΑΡΙΣΑ,18090,18090,18090,,,,,,,,,,,,,,,,0,,Not Reported,Not Reported,,,,,,,,,,,,,,,,,,,,,,,,,,
Greece,Operator Holding Account,ΠΑΝΕΠΙΣΤΗΜΙΟ ΠΑΤΡΩΝ,N/A,2005-01-01,closed,ΠΑΝΕΠΙΣΤΗΜΙΟΥΠΟΛΗ ΠΑΤΡΩΝ,26504,ΡΙΟ,2530,2530,2530,,,,,,,,,,,,,,1959,1557,1005,,,,,,,,,,,,,,1959,1557,1005,,,,,,,,,,,,,
Greece,Operator Holding Account,ΡΕΘΥΜΝΙΩΤΙΚΗ ΤΟΥΒΛΟΠΟΙΙΑ,022264450000,2005-01-01,open,ΣΩΜΑΤΑΣ ΡΕΘΥΜΝΟΥ,74100,ΣΩΜΑΤΑΣ,16963,16963,16963,16936,16936,16936,16936,16936,3614,3552,3489,3425,3360,3294,3228,3161,12717,12267,12813,13251,9156,6738,2096,2920,1207,1864,604,700,,,,,12717,12267,12813,13251,9156,6738,2096,2920,1207,1864,604,700,,,,
Greece,Operator Holding Account,TRIKERAM  ABEE (ΑΦΟΙ Γ. ΜΗΤΣΙΑΔΗ - Α. ΠΑΠΑΣΤΕΡΓΙΟΥ ΑΒΕΕ),010341653000,2005-01-01,closed,3ο ΧΛΜ ΤΡΙΚΑΛΩΝ - ΛΑΡΙΣΑΣ,42100,ΤΡΙΚΑΛΑ,3415,3415,3415,6048,6048,6048,6048,6048,1031,0,0,0,0,0,0,0,4070,4620,6545,5743,3582,2155,1427,947,0,0,,,,,,,4070,4620,6545,5743,3582,2155,1427,947,,,,,,,,
Greece,Operator Holding Account,ΚΕΡΑΜΟΤΕΧΝΙΚΗ ΑΡΓΟΥΣ,na,2005-01-01,closed,2ο ΧΛΜ ΕΠ.ΟΔ. ΑΡΓΟΥΣ - Ν. ΚΙΟΥ,21200,ΑΡΓΟΣ,3524,3524,3524,7185,7185,7185,7185,0,,,,,,,,,4972,3989,6701,2391,0,Not Reported,Not Reported,Not Reported,,,,,,,,,4972,3989,6701,2391,,,,,,,,,,,,
Greece,Operator Holding Account,ΥΙΟΙ ΝΙΚΟΥ Α.Ε.Β.Ε.,019735128000,2005-01-01,open,16ο ΧΛΜ ΗΓΟΥΜΕΝΙΤΣΑΣ - ΙΩΑΝΝΙΝΩΝ,46100,ΗΓΟΥΜΕΝΙΤΣΑ,19391,19391,19391,11010,11010,11010,11010,11010,4091,4020,3949,2785,2732,2679,2625,2571,6790,8093,8095,6478,6047,6253,2641,2406,2044,1722,1253,1556,,,,,6790,8093,8095,6478,6047,6253,2641,2406,2044,1722,1253,1556,,,,
Greece,Operator Holding Account,ΤΣΑΣΕΡΛΗΣ Α.Β.Ε.Ε.,036599516000,2005-01-01,open,ΠΑΡ. ΚΟΖΑΝΗΣ ΑΝΘΟΥΠΟΛΗ,26441,ΠΑΤΡΑ,1837,1837,1837,1483,1483,1483,1483,1483,1165,1586,1212,764,750,735,721,706,2357,1760,1814,1614,1158,786,650,431,559,388,169,248,,,,,2357,1760,1814,1614,1158,786,650,431,559,388,169,248,,,,
Greece,Operator Holding Account,ΑΦΟΙ ΚΑΛΟΓΙΑΝΝΗ ΟΕ,038202105000,2005-01-01,closed,ΕΚΤΟΣ ΣΧΕΔΙΟΥ,57300,ΧΑΛΑΣΤΡΑ,3063,3063,3063,5078,5078,5078,5078,5078,332,0,0,0,0,0,0,0,4058,4161,3677,3968,1891,1067,481,469,0,0,Not Reported,,,,,,4058,4161,3677,3968,1891,1067,481,469,,,,,,,,
Greece,Operator Holding Account,ΠΛΙΝΘΟΚΕΡΑΜ ΕΠΕ,N/A,2005-01-01,closed,17ο χλμ ΕΟ  ΧΑΛΚΙΔΑΣ ΛΕΠΟΥΡΩΝ,34008,ΜΑΛΑΚΩΝΤΑ ΕΡΕΤΡΙΑΣ,9618,9618,9618,10964,10964,0,0,0,,,,,,,,,6630,7750,7693,5466,2009,,,,,,,,,,,,6630,7750,7693,5466,2009,,,,,,,,,,,
Greece,Operator Holding Account,ΚΑΤΣΑΝΗΣ Α.Ε. ΠΛΙΝΘΟΚΕΡΑΜΟΠΟΙΙΑ,038285205000,2005-01-01,open,ΓΕΦΥΡΑ ΛΑΓΚΑΔΑ,57200,ΛΑΓΚΑΔΑΣ,8409,8409,8409,7206,7206,7206,7206,7206,0,0,0,0,0,0,0,0,5499,5643,1160,1791,0,0,0,0,0,0,0,0,,,,,5499,5643,1160,1791,,,,,,,,,,,,
Greece,Operator Holding Account,ΚΕΡΑΜΟΠΟΙΙΑ  Γ ΚΑΤΣΙΚΗΣ ΑΕ,027691012000,2005-01-01,open,7ο χλμ ΕΟ ΑΓΡΙΝΙΟΥ ΑΝΤΙΡΡΙΟΥ,30100,ΑΓΡΙΝΙΟ,14743,14743,14743,19900,19900,19900,19900,19900,0,0,0,0,0,0,0,0,13677,14738,15617,18598,11542,2619,466,396,Not Reported,Not Reported,Not Reported,Not Reported,,,,,13677,14738,15617,18598,11542,2619,466,396,,,,,,,,
Greece,Operator Holding Account,ΚΕΡΑΜΟΥΡΓΙΚΗ ΒΑΣΙΛΙΚΟΥ Α.Β.Ε.Ε.,046134922000,2005-01-01,closed,ΑΓΡΙΛΙΑ ΒΑΣΙΛΙΚΟΥ,34002,ΒΑΣΙΛΙΚΟ,12541,12541,12541,14128,14128,14128,14128,14128,3619,0,0,0,0,0,0,0,4684,4779,5058,476,0,0,0,Not Reported,Not Reported,,,,,,,,4684,4779,5058,476,,,,,,,,,,,,
Greece,Operator Holding Account,ΠΛΙΝΘΟΚΕΡΑΜΟΠΟΙΙΑ ΑΦΟΙ ΡΟΙΔΗ Ο.Ε.,na,2005-01-01,closed,ΔΔ ΝΕΟΧΩΡΟΥΔΑΣ ΔΗΜΟΥ ΚΑΛΙΘΕΑΣ,00000,ΔΔ ΝΕΟΧΩΡΟΥΔΑΣ ΔΗΜΟΥ ΚΑΛΙΘΕΑΣ,6931,6931,6931,5991,5991,0,0,0,,,,,,,,,1389,2759,2947,1880,339,,,,,,,,,,,,1389,2759,2947,1880,339,,,,,,,,,,,
Greece,Operator Holding Account,"Δ ΓΑΛΑΝΗΣ & ΣΙΑ ΟΕ ""ΤΙΤΑΝ""",046118622000,2005-01-01,closed,ΓΛΥΦΑ ΧΑΛΚΙΔΑΣ,34001,ΔΗΜΟΣ ΑΝΘΗΔΩΝΟΣ,6350,6350,6350,5357,5357,5357,5357,5357,0,0,0,0,0,0,0,0,5291,6036,4890,0,0,0,0,0,0,0,0,Not Reported,,,,,5291,6036,4890,,,,,,,,,,,,,
Greece,Operator Holding Account,ΗΛΙΟΦΙΝ  ΑΒΕΕ,N/A,2005-01-01,closed,ΛΟΡΔΟΥ ΒΥΡΩΝΑ 4,57009,ΘΕΣΣΑΛΟΝΙΚΗ,8940,8940,8940,,,,,,,,,,,,,,,,,,Not Reported,Not Reported,,,,,,,,,,,,,,,,,,,,,,,,,,
Greece,Operator Holding Account,ΠΑΣΤΡΟΥΜΑΤΖΗΣ &ΣΙΑ ΕΕ,N/A,2005-01-01,closed,ΑΣΠΡΑ ΧΩΜΑΤΑ,57010,ΘΕΣΣΑΛΟΝΙΚΗ,,,,,,,,,,,,,,,,,,,,,Not Reported,Not Reported,,,,,,,,,,,,,,,,,,,,,,,,,,
Greece,Operator Holding Account,SONOCO ΕΛΛΗΝΙΚΗ ΧΑΡΤΟΠΟΙΙΑ,014495035000,2005-01-01,open,"10,5 ΧΛ Ε.Ο. ΚΙΛΚΙΣ ΔΟΙΡΑΝΗΣ",61100,ΚΙΛΚΙΣ,4807,4807,4807,6386,6386,6386,6386,6386,5977,5874,5768,5662,5555,5446,5337,5227,6108,6577,6154,4942,5323,5343,5315,5775,6084,6683,6528,6663,,,,,6108,6577,6154,5491,4774,5343,5315,5775,6084,6683,6528,6663,,,,
Greece,Operator Holding Account,ΚΕΡΑΜΟΥΡΓΙΚΗ ΑΓΡΙΝΙΟΥ,027698612000,2005-01-01,open,6ο χλμ ΕΟ ΑΓΡΙΝΙΟΥ ΑΝΤΙΡΡΙΟΥ,30100,ΑΓΡΙΝΙΟ,14459,14459,14459,16592,16592,16592,16592,16592,3639,0,0,0,0,0,0,0,14358,14368,13334,12064,7922,8931,6094,3718,656,Not Reported,Not Reported,Not Reported,,,,,14358,14368,13334,12064,7922,8931,6094,3718,656,,,,,,,
Greece,Operator Holding Account,KRONOS,NA,2005-01-01,closed,25ο ΧΛ ΝΕΟ ΑΘΗΝΩΝ ΚΟΡΙΝΘΟΥ,19200,ΕΛΕΥΣΙΝΑ,21820,21820,21820,,,,,,,,,,,,,,21447,2231,,,Not Reported,Not Reported,,,,,,,,,,,21447,2231,,,,,,,,,,,,,,
Greece,Operator Holding Account,ΒΙΤΡΟΥΒΙΤ ΑΕ,N/A,2005-01-01,closed,14ο χλμ ΠΕΟ ΘΕΣ/ΚΗ ΒΕΡΟΙΑ,57011,ΘΕΣΣΑΛΟΝΙΚΗ,16247,16247,16247,,,,,,,,,,,,,,10222,9812,10416,,,,,,,,,,,,,,10222,9812,10416,,,,,,,,,,,,,
Greece,Operator Holding Account,ΧΑΛΚΙΣ ΑΒΕΕ ΒΑΒΟΥΛΙΩΤΗΣ ΓΟΥΝΑΡΗΣ ΜΗΤΑΚΗΣ,N046137022000,2005-01-01,open,ΒΑΣΙΛΙΚΟ ΧΑΛΚΙΔΑΣ,34002,ΧΑΛΚΙΔΑ,35063,35063,35063,40708,40708,40708,40708,40708,13404,6586,3234,6349,3114,3054,2992,2930,34514,22864,30760,20358,18768,16908,11894,10630,6472,2528,5933,4246,,,,,34514,22864,30760,20358,18768,16908,11894,10630,6472,2528,5933,4246,,,,
Greece,Operator Holding Account,ΧΑΛΚΙΣ ΑΒΕΕ ΒΑΒΟΥΛΙΩΤΗΣ ΓΟΥΝΑΡΗΣ ΜΗΤΑΚΗΣ,N046137022000,2005-01-01,open,ΒΑΣΙΛΙΚΟ ΧΑΛΚΙΔΑΣ,34002,ΧΑΛΚΙΔΑ,55760,55760,55760,59880,59880,59880,59880,59880,20264,9957,19556,9598,15400,15100,14796,14490,56632,48336,46565,39146,27838,22926,20745,16521,5994,13166,6740,10907,,,,,56632,48336,46663,39146,27838,22926,20745,16521,5994,13166,6740,10907,,,,
Greece,Operator Holding Account,ΠΑΡΑΣΚΕΥΑΣ ΓΡΑΒΟΥΝΙΩΤΗΣ,,2005-01-01,closed,ΒΙΠΕ ΕΤΒΑ ΚΟΜΟΤΗΝΗΣ,69100,ΚΟΜΟΤΗΝΗ,17082,17082,17082,,,,,,,,,,,,,,,,,,Not Reported,Not Reported,,,,,,,,,,,,,,,,,,,,,,,,,,
Greece,Operator Holding Account,ΧΑΡΤΟΠΟΙΙΑ ΠΑΤΡΩΝ,036419416000,2005-01-01,open,ΒΙΠΕ ΠΑΤΡΩΝ,25018,ΠΑΤΡΑ,2822,2822,2822,3407,3407,3407,3407,3407,0,0,0,0,0,0,0,0,3912,3535,2792,1393,522,507,158,0,0,0,,,,,,,3912,3535,2792,1393,522,507,158,,,,,,,,,
Greece,Operator Holding Account,ELPEDISON (ΠΡ ΕΝΕΡΓΕΙΑΚΗ ΘΕΣΣΑΛΟΝΙΚΗΣ Α.Ε.),009246101000,2005-01-01,open,7ο χλμ παλαιάς Ε.Ο. Θεσσαλονίκης-Βέροιας,54110,ΘΕΣΣΑΛΟΝΙΚΗ,,,,596317,596317,596317,596317,596317,,,,,,,,,8606,596722,694597,675798,196298,674607,798340,647705,514123,164915,246978,432088,,,,,8606,596722,694597,675798,196298,674607,798340,647705,514123,164915,246978,432088,,,,
Greece,Operator Holding Account,ΘΕΡΜΗ ΣΕΡΡΩΝ Α.Ε.,n/a,2005-01-01,closed,Αγρ. 3796 - Σέρρες,62125,ΣΕΡΡΕΣ,,,,,,,,,,,,,,,,,,,,,Not Reported,Not Reported,,,,,,,,,,,,,,,,,,,,,,,,,,
Greece,Operator Holding Account,TOSOH ΕΛΛΑΣ TOSOH ΕΛΛΑΣ,,2005-01-01,closed,ΒΙΟΜΗΧΑΝΙΚΗ ΠΕΡΙΟΧΗ ΣΙΝΔΟΥ,57022,ΘΕΣΣΑΛΟΝΙΚΗ,,,,,,,,,,,,,,,,,,5611,15168,,Not Reported,Not Reported,,,,,,,,,,,,5611,15168,,,,,,,,,,,,,
Greece,Operator Holding Account,CaO HELLAS ΜΑΚΕΔΟΝΙΚΗ ΑΒΕΕ,038400905000,2005-01-01,open,6ο ΧΛΜ ΟΔΟΥ ΘΕΣΣΑΛΟΝΙΚΗΣ - ΛΑΓΚΑΔΑ,57013,ΕΥΚΑΡΠΙΑ,,,,49829,49829,49829,49829,49829,18656,18331,9004,0,0,0,0,0,0,0,0,0,0,145,798,21156,11399,8858,0,0,,,,,,,,,,145,798,21156,11399,8858,,,,,,
Greece,Operator Holding Account,ΑΤΛΑΣ ΑΤΕΒΕ,034979916000,2005-01-01,open,ΘΕΡΙΑΝΟ ΔΗΜΟΥ ΩΛΕΝΙΑΣ ΝΟΜΟΥ ΑΧΑΙΑΣ,26222,ΠΑΤΡΑ,,,,13200,13200,13200,13200,13200,0,0,0,0,0,0,0,0,0,5194,10012,4682,0,0,0,0,0,0,0,0,,,,,,5194,10012,4682,,,,,,,,,,,,
Greece,Operator Holding Account,ΚΕΡΑΜΟΠΟΙΙΑ ΕΒΡΟΣ ΑΕ,054408821000,2005-01-01,closed,ΛΕΠΤΗ ΟΡΕΣΤΙΑΔΟΣ,68100,ΑΛΕΞΑΝΔΡΟΥΠΟΛΗ,,,,7801,7801,7801,7801,7801,0,0,0,0,0,0,0,0,0,2525,9182,7583,5063,4319,0,0,0,0,0,0,,,,,,2525,9182,7583,5063,4319,,,,,,,,,,
Greece,Operator Holding Account,ΕΛΛΗΝΙΚΗ ΥΦΑΝΤΟΥΡΓΙΑ ΑΕ ΕΛΛΗΝΙΚΗ ΥΦΑΝΤΟΥΡΓΙΑ ΑΕ,,2005-01-01,closed,45ο ΧΛΜ ΕΟ ΘΕΣ/ΚΗ- ΕΔΕΣΣΗΣ,54624,ΘΕΣΣΑΛΟΝΙΚΗ,,,,,,,,,,,,,,,,,,7684,22945,,Not Reported,Not Reported,,,,,,,,,,,,7684,22945,,,,,,,,,,,,,
Greece,Operator Holding Account,ΚΕΡΑΜΟΥΡΓΙΚΗ ΧΑΛΚΙΔΟΣ ΑΒΕΕ,046134922000,2006-01-01,open,ΑΓΡΙΛΙΑ ΒΑΣΙΛΙΚΟΥ,34002,ΒΑΣΙΛΙΚΟ ΕΥΒΟΙΑΣ,,,,15912,15912,15912,15912,15912,,,,,,,,,0,4068,8722,4295,0,0,0,Not Reported,Not Reported,Not Reported,,,,,,,,4068,8722,4295,,,,,,,,,,,,
Greece,Operator Holding Account,Π. ΠΑΥΛΙΔΗΣ ΕΠΕ,023638604001,2007-03-27,open,ΠΛΑΓΙΑΡΙ ΔΗΜΟΥ ΚΥΡΡΟΥ,58100,ΓΙΑΝΝΙΤΣΑ,,,,92497,92497,92497,92497,92497,70902,69671,68425,67166,65893,64608,63307,62002,0,27537,93501,80447,58448,56996,62902,56779,49893,48213,48938,49161,,,,,,27537,93501,80447,58448,56996,62902,56779,49893,48213,48938,49161,,,,
Greece,Operator Holding Account,TATE & LYLE AE TATE & LYLE AE,,2005-01-01,closed,ΓΕΩΡΓΙΚΗΣ ΣΧΟΛΗΣ 52 ΤΘ 10018,54110,ΘΕΣΣΑΛΟΝΙΚΗ,,,,,,,,,,,,,,,,,,9034,24426,,Not Reported,Not Reported,,,,,,,,,,,,9034,24426,,,,,,,,,,,,,
Greece,Operator Holding Account,ΔΕΗ  ΑΕ,000786301000,2006-01-01,open,ΧΑΛΚΟΚΟΝΔΥΛΗ 29,10432,ΑΘΗΝΑ,,,,6232,6232,6232,8855,8578,,,,,,,,,,11499,12021,12647,12321,12231,12065,11480,11021,11352,11739,12059,,,,,,11499,12021,12647,12321,12231,12065,11480,11021,11352,11739,12059,,,,
Greece,Operator Holding Account,ΔΕΗ  ΑΕ,000786301000,2006-01-01,open,ΧΑΛΚΟΚΟΝΔΥΛΗ 29,10432,ΑΘΗΝΑ,,,,7024,7024,7024,13461,11464,,,,,,,,,,11265,10599,9381,10326,10484,10641,10531,10320,10545,10594,10167,,,,,,11265,10599,9381,10326,10484,10641,10531,10320,10545,10594,10167,,,,
Greece,Operator Holding Account,THERMOKIPIA DRAMAS A.E.,121573999000,2007-01-01,closed,"150, ANDREA PAPANDREOU",16561,ATHENS,,,,12302,12302,12302,12302,12302,5144,4603,4078,0,0,0,0,0,,,4691,9188,8880,9498,12870,15312,16391,15248,14803,,,,,,,,4691,9188,8880,9498,12870,15312,16391,4427,25624,,,,,
Greece,Operator Holding Account,G. DELAGRAMMATIKAS S.A,na,2005-01-01,closed,ΘΕΣΗ ΛΑΚΑ ΓΚΟΛΕΜΗ,19300,ΑΣΠΡΟΠΥΡΓΟΣ,,,,23235,23235,0,0,0,,,,,,,,,,,,3718,4993,,,,,,,,,,,,,,,3718,4993,,,,,,,,,,,
Greece,Operator Holding Account,KEBE  AE,026531340000,2008-01-01,open,NEA  SANTA,54500,KILKIS,,,,1587,45400,82380,68100,114000,23938,23521,23101,31306,30713,30114,29508,28900,,,,1556,29883,29915,24960,19800,18245,19099,25877,25925,,,,,,,,1556,29883,29915,24960,19800,18245,19099,25877,25925,,,,
Greece,Operator Holding Account,ΑΣΒΕΣΤΟΠΟΙΪΑ ΒΟΛΟΥ Κ ΠΑΠΑΔΟΠΟΥΛΟΣ & ΥΙΟΙΙ,051187944000,2009-03-31,open,ΑΓ  ΓΕΩΡΓΙΟΣ  ΦΕΡΡΩΝ,37500,ΜΑΓΝΗΣΙΑ,,,,0,0,62306,30608,30608,21824,21445,21061,20674,20282,19887,19486,19084,,,,,22395,26662,27731,26098,26832,26540,21683,21722,,,,,,,,,22395,26662,27731,26098,26832,26540,21683,21722,,,,
Greece,Operator Holding Account,THERMI SERRON,121631399000,2009-03-03,open,"150, ANDREA PAPANDREOU",16561,ATHENS-GLYFADA,,,,0,0,98655,65650,65650,15360,13746,12177,10658,9188,7764,6387,5058,,,,,19800,31809,41188,36640,22425,22627,28358,24184,,,,,,,,,19800,31809,41188,36640,22425,22627,28358,24184,,,,
Greece,Operator Holding Account,TSAVDARIDIS AE,011644236000,2010-05-31,closed,DREPANO DIMOS ELLHSPONTOU,50100,KOZANH,,,,0,0,36705,41222,41222,0,0,0,0,0,0,0,0,,,,,,8574,0,16547,Not Reported,Not Reported,Not Reported,,,,,,,,,,,8574,,3500,13047,,,,,,,
Greece,Operator Holding Account,HELLENIC GAS  TRANSMISSION SYSTEM OPERATOR,007483601000,2010-07-05,open,L MESOGEION 357-359,15231,ATHENS,,,,0,0,28819,64283,64283,31103,30562,30020,29480,28938,28397,27856,27314,,,,,,20127,36323,49366,50047,50698,54116,41956,,,,,,,,,,20127,36323,49366,50047,50698,54116,41956,,,,
Greece,Operator Holding Account,ΘΕΡΜΟΗΛΕΚΤΡΙΚΟΣ ΣΤΑΘΜΟΣ ΒΟΙΩΤΙΑΣ  ΗΡΩΝ II,005805601000,2011-05-12,open,ΘΗΒΑ ΒΟΙΩΤΙΑΣ,32200,ΘΗΒΑ,,,,0,0,0,552429,636077,,,,,,,,,,,,,,,811264,486267,553812,233643,165119,496401,,,,,,,,,,,811264,486267,553812,233643,165119,496401,,,,
Greece,Operator Holding Account,MYTILINEOS HOLDINGS S.A.,000757001000,2011-06-30,open,"ARTEMIDOS 8, MAROUSI",15125,ATHENS,,,,0,0,0,331709,654452,,,,,,,,,,,,,,,323596,865996,596725,175196,226618,537197,,,,,,,,,,,323596,865996,596725,175196,226618,537197,,,,
Greece,Operator Holding Account,ELPEDISON (ΠΡ ΕΝΕΡΓΕΙΑΚΗ ΘΕΣΣΑΛΟΝΙΚΗΣ Α.Ε.),009246101000,2011-04-15,open,7ο χλμ παλαιάς Ε.Ο. Θεσσαλονίκης-Βέροιας,54110,ΘΕΣΣΑΛΟΝΙΚΗ,,,,0,0,0,443889,620764,,,,,,,,,,,,,,,592406,771326,519671,212847,197708,517363,,,,,,,,,,,592406,771326,519671,212847,197708,517363,,,,
Greece,Operator Holding Account,SOFIDEL GREECE S.A.,053081348000,2011-03-28,open,KATERINI IND ZONE,60100,KATERINI,,,,0,0,0,5798,7586,6122,6016,5908,5799,5690,5579,5466,5354,,,,,,,6981,9891,9557,9786,9822,9480,,,,,,,,,,,6981,9891,9557,9786,9822,9480,,,,
Greece,Operator Holding Account,XARTOPOIIA KOMOTINIS,014072310000,2011-12-30,open,KOMOTINI INDUSTRIAL ZONE,67100,KOMOTINI,,,,0,0,0,0,17121,4207,4134,4060,3986,3910,3834,3757,3679,,,,,,,9184,4870,2044,1030,1347,2713,,,,,,,,,,,9184,4870,2044,1030,1347,2713,,,,
Greece,Operator Holding Account,ΒΑ ΥΑΛΟΥΡΓΙΑ ΕΛΛΑΔΟΣ Α.Ε.,140820501000,2005-01-01,open,ΟΡΥΖΟΜΥΛΩΝ 5,12244,ΑΙΓΑΛΕΩ,65531,65531,65531,57117,57117,57117,57117,57117,38923,38247,37563,36872,36174,35468,34754,34037,46386,45374,50795,51232,44140,47679,35070,46059,47444,48033,47258,47843,,,,,46386,45374,50795,51232,44140,47679,35070,46059,47444,48033,47258,47843,,,,
Greece,Operator Holding Account,ΔΕΗ  ΑΕ,000786301000,2005-01-01,open,ΧΑΛΚΟΚΟΝΔΥΛΗ 29,10432,ΑΘΗΝΑ,15804,15804,15804,19684,19684,19684,19684,19684,,,,,,,,,17511,18757,19560,8069,20333,20737,21486,22180,21579,22141,22562,22064,,,,,17511,18757,19560,8069,20333,20737,21486,22180,21579,22141,22562,22064,,,,
Greece,Operator Holding Account,ΔΕΗ  ΑΕ,000786301000,2005-01-01,open,ΧΑΛΚΟΚΟΝΔΥΛΗ 29,10432,ΑΘΗΝΑ,346129,346129,346129,305240,305240,885934,595587,595587,,,,,,,,,385734,376849,390885,337762,732646,753417,700152,735965,693567,729602,732837,753549,,,,,385734,376849,390885,337762,732646,753417,700152,735965,693567,729602,732837,753549,,,,
Greece,Operator Holding Account,ΗΡΩΝ ΘΕΡΜΟΗΛΕΚΤΡΙΚΗ ΑΕ,005805601000,2005-01-01,open,ΧΑΡΑΙΝΤΙΝΙ ΘΗΒΩΝ,GR-32200,ΧΑΡΑΙΝΤΙΝΙ ΘΗΒΩΝ,102531,102531,102531,43372,43372,43372,43372,43372,,,,,,,,,38245,10541,111501,157731,70063,10828,10568,2793,69,1628,88,3271,,,,,38245,10541,111501,157731,70063,10828,10568,2793,69,1628,88,3271,,,,
Greece,Operator Holding Account,MYTILINEOS HOLDINGS S.A.,000757001000,2005-01-01,open,ΑΓΙΟΣ ΝΙΚΟΛΑΟΣ,GR-32003,"ΑΓΙΟΣ ΝΙΚΟΛΑΟΣ, ΒΟΙΩΤΙΑ",510045,510045,510045,96319,96319,96319,96319,96319,749906,705429,692813,680065,667180,654170,640998,627780,513388,517434,514995,87295,86161,85546,87821,40422,1165202,1179691,1187290,1218625,,,,,513388,517434,514995,87295,86161,85546,87821,40422,1165202,1179691,1187290,1218625,,,,
Greece,Operator Holding Account,ΕΛΒΑΛ ΕΛΛΗΝΙΚΗ ΒΙΟΜΗΧΑΝΙΑ ΑΛΟΥΜΙΝΙΟΥ ΑΕ,121836901000,2005-01-01,closed,57ο ΧΛΜ ΕΟ ΑΘΗΝΩΝ ΛΑΜΙΑΣ,GR-32011,ΟΙΝΟΦΥΤΑ ΒΟΙΩΤΙΑΣ,70730,70730,70730,,,,,,,,,,,,,,85230,80884,83928,,,,,,,,,,,,,,85230,80884,83928,,,,,,,,,,,,,
Greece,Operator Holding Account,ΑΚΕΚ ΑΕ,077082127000,2005-01-01,open,ΒΙΠΕ ΗΡΑΚΛΕΙΟΥ ΚΡΗΤΗΣ,71500,ΗΡΑΚΛΕΙΟ,23277,23277,23277,31812,31812,31812,31812,72552,3583,7042,0,13577,0,0,0,0,29380,22451,27744,26286,14262,8023,5227,4295,7213,0,9946,0,,,,,29380,22451,27744,26286,14262,8023,5227,4295,7213,,9946,,,,,
Greece,Operator Holding Account,ΑΝΑΓΝΩΣΤΑΡΑ Α.Ε.,015136745000,2005-01-01,open,ΑΝΤΙΚΑΛΑΜΟΣ ΜΕΣΣΗΝΙΑΣ,24100,ΚΑΛΑΜΑΤΑ,19818,19818,19818,25482,25482,25482,25482,25482,4047,2700,2652,2603,2554,2504,2454,2403,19149,17851,16802,20868,6437,5289,2652,1788,1436,0,0,0,,,,,19149,17851,16875,20868,6437,5289,2652,1788,1436,,,,,,,
Greece,Operator Holding Account,ΦΙΕΡΑΤΕΞ Α.Ε. Αφοι Ανεζουλάκη,14487335000,2005-01-01,closed,Nea Santa,61110,Kilkis,14659,14659,14659,,,,,,,,,,,,,,17494,17913,14405,,,,,,,,,,,,,,17494,17913,14405,,,,,,,,,,,,,
Greece,Operator Holding Account,ΕΛΛΗΝΙΚΗ ΒΙΟΜΗΧΑΝΙΑ ΖΑΧΑΡΗΣ ΑΕ,057180404000,2005-01-01,open,ΜΗΤΡΟΠΟΛΕΩΣ 34,54110,ΘΕΣΣΑΛΟΝΙΚΗ,63173,63173,63173,62650,62650,62650,62650,62650,11962,5877,0,6930,6799,6667,6533,6398,60901,31288,15695,19576,35602,11549,11621,14609,6440,133,8473,9692,,,,,60901,31288,15695,19576,35602,11549,11621,14609,6440,133,8473,9692,,,,
Greece,Operator Holding Account,ΕΛΛΗΝΙΚΗ ΒΙΟΜΗΧΑΝΙΑ ΖΑΧΑΡΗΣ ΑΕ,057180404000,2005-01-01,closed,ΜΗΤΡΟΠΟΛΕΩΣ 34,54110,ΘΕΣΣΑΛΟΝΙΚΗ,67224,67224,67224,64937,64937,64937,64937,0,,,,,,,,,69384,51303,77,17,20,7,0,,,,,,,,,,69384,51303,77,17,20,7,,,,,,,,,,
Greece,Operator Holding Account,ΕΛΛΗΝΙΚΗ ΒΙΟΜΗΧΑΝΙΑ ΖΑΧΑΡΗΣ ΑΕ,057180404000,2005-01-01,open,ΜΗΤΡΟΠΟΛΕΩΣ 34,54110,ΘΕΣΣΑΛΟΝΙΚΗ,66068,66068,66068,62437,62437,62437,62437,62437,30433,29905,45863,28829,28283,27731,27173,26612,67885,48290,45125,42937,72045,46826,13731,23919,23753,43713,19213,21808,,,,,67885,48290,45125,42937,72045,46826,13731,23919,23753,43713,19213,21808,,,,
Greece,Operator Holding Account,ΕΛΛΗΝΙΚΗ ΒΙΟΜΗΧΑΝΙΑ ΖΑΧΑΡΗΣ ΑΕ,057180404000,2005-01-01,open,ΜΗΤΡΟΠΟΛΕΩΣ 34,54110,ΘΕΣΣΑΛΟΝΙΚΗ,40133,40133,40133,27222,27222,27222,27222,27222,13433,9553,5802,5695,5587,5478,5368,5257,36508,23997,18205,19766,35966,17515,9197,10563,4984,126,163,160,,,,,36508,23997,18205,19766,35966,17515,9197,10563,4984,126,163,160,,,,
Greece,Operator Holding Account,ΕΛΛΗΝΙΚΗ ΒΙΟΜΗΧΑΝΙΑ ΖΑΧΑΡΗΣ ΑΕ,057180404000,2005-01-01,closed,ΜΗΤΡΟΠΟΛΕΩΣ 34,54110,ΘΕΣΣΑΛΟΝΙΚΗ,40460,40460,40460,28819,28819,28819,0,0,,,,,,,,,38833,28846,358,214,388,210,0,,,,,,,,,,38833,28846,358,214,388,210,,,,,,,,,,
Greece,Operator Holding Account,ΜΕΒΓΑΛ,57242004000,2005-01-01,closed,ΚΟΥΦΑΛΙΑ,GR-57100,ΚΟΥΦΑΛΙΑ ΘΕΣΣΑΛΟΝΙΚΗΣ,9656,9656,9656,,,,,,,,,,,,,,10789,11104,10693,,,,,,,,,,,,,,10789,11104,10693,,,,,,,,,,,,,
Greece,Operator Holding Account,ΕΘΝΙΚΟ ΚΑΠΟΔΙΣΤΡΙΑΚΟ ΠΑΝΕΠΙΣΤΗΜΙΟ ΑΘΗΝΩΝ,n/a,2005-01-01,closed,ΠΑΝΕΠΙΣΤΗΜΙΟΥ 30,10679,ΑΘΗΝΑ,3122,3122,3122,,,,,,,,,,,,,,3184,2831,2046,,,,,,,,,,,,,,3184,2831,2046,,,,,,,,,,,,,
Greece,Operator Holding Account,ΧΑΛΥΒΟΥΡΓΙΑ ΕΛΛΑΔΟΣ ΑΕ,000409401000,2005-01-01,open,ΟΘΩΝΟΣ 86Α & ΚΟΚΚΟΤΑ,51020,ΚΗΦΙΣΙΑ-ΑΘΗΝΑ,23466,23466,23466,27289,27289,27289,27289,27289,27030,26560,26085,25605,25120,24630,24134,23637,25535,28429,28633,29463,26434,20776,22281,24545,22413,18702,16331,20570,,,,,25535,28429,28633,29463,26434,20776,22281,24545,22413,18702,16331,20570,,,,
Greece,Operator Holding Account,ΚΑΒΑΛΑ OIL AE,29345,2005-01-01,open,Ν. ΚΑΡΒΑΛΗ,64006,ΚΑΒΑΛΑ,107184,107184,107184,116788,116788,116788,116788,116788,58420,57404,56387,55370,54354,53338,52321,51305,91456,98397,95111,85831,87475,49793,46866,46290,42379,34100,31044,36980,,,,,91456,98397,95111,85831,87475,49793,46866,46290,42379,34100,31044,36980,,,,
Greece,Operator Holding Account,ΕΛΛΗΝΙΚΟΙ ΛΕΥΚΟΛΙΘΟΙ ΑΜΒΝΕΕ,NA,2005-01-01,closed,ΠΟΛΥΓΥΡΟΣ ΧΑΛΚΙΔΙΚΗΣ,GR-63100,ΓΕΡΙΚΙΝΗ,115939,115939,115939,,,,,,,,,,,,,,94732,89086,95816,,,,,,,,,,,,,,94732,89086,95816,,,,,,,,,,,,,
Greece,Operator Holding Account,ΕΛΛΗΝΙΚΑ ΠΕΤΡΕΛΑΙΑ ΑΕ,000296601000,2005-05-01,open,ΧΕΙΜΑΡΡΑΣ  8Α,15125,ΑΘΗΝΑ-ΜΑΡΟΥΣΙ,1579436,1579436,1579436,1595661,1453161,1524411,1524411,1524411,1089388,1070467,1051322,1031979,1012426,992684,972696,952638,1651719,1671550,1630409,1620433,1402132,1555902,1422965,1498887,1499799,1393017,1205858,1435361,,,,,1651719,1671550,1630409,1620433,1402132,1555902,1422965,1498887,1499799,1393017,1205858,1435361,,,,
Greece,Operator Holding Account,KEBE  AE,026531340000,2005-01-01,open,NEA  SANTA,54500,KILKIS,27476,27476,27476,25788,25788,25788,25788,25788,10412,10231,10049,9864,9677,9488,9297,9105,22433,24894,25738,23122,0,0,0,0,0,0,0,0,,,,,22433,24894,25738,23122,,,,,,,,,,,,
Greece,Operator Holding Account,ΕΛΛΗΝΙΚΑ ΠΕΤΡΕΛΑΙΑ ΑΕ,000296601000,2005-01-01,open,ΧΕΙΜΑΡΡΑΣ  8Α,15125,ΑΘΗΝΑ-ΜΑΡΟΥΣΙ,370158,370158,370158,390853,370523,380688,380688,496733,325900,181630,314512,308726,302876,296970,290990,284990,416322,399118,416759,388713,381946,417103,240605,329730,240443,239535,301079,297969,,,,,416322,399118,416759,388713,381946,417103,240605,329730,240443,239535,301079,297969,,,,
Greece,Operator Holding Account,ΜΟΤΟΡ ΟΙΛ - Δ. ΚΟΡΙΝΘΟΥ,000272801000,2005-01-01,open,ΑΓ. ΘΕΟΔΩΡΟΙ,GR-20100,ΑΓ. ΘΕΟΔΩΡΟΙ,1206609,1206609,1206609,1802180,1802180,1802180,2004170,1985882,1634941,1606544,1577812,1548781,1519438,1489809,1459810,1429708,1310994,1994441,2074871,1938511,1976541,1881213,1945300,1965070,1967681,2111906,2215663,2164076,,,,,1310994,1994441,2074871,1938511,1976541,1881213,1945300,1965070,1967681,2111906,2215663,2164076,,,,
Greece,Operator Holding Account,ΕΛΛΗΝΙΚΑ ΠΕΤΡΕΛΑΙΑ ΑΕ,000296601000,2005-01-01,open,ΧΕΙΜΑΡΡΑΣ  8Α,15125,ΑΘΗΝΑ-ΜΑΡΟΥΣΙ,275799,275799,275799,307977,234553,271265,271265,271265,90947,178734,175538,172308,169043,165747,162409,159060,258200,238000,246229,206946,218878,163414,47108,81881,1664347,1908758,1794882,1981891,,,,,258200,238000,246229,206946,218878,163414,47108,122068,1664347,1908758,1794882,1981891,,,,
Greece,Operator Holding Account,ΚΕΡΑΜΕΙΑ ΑΛΛΑΤΙΝΙ ΑΒΕΤΕ,014495204001,2005-01-01,closed,10ο χλμ ΚΙΛΚΙΣ ΔΟΙΡΑΝΗΣ,61100,ΚΙΛΚΙΣ,6410,6410,6410,3255,3255,3255,3255,0,,,,,,,,,0,0,0,0,0,0,Not Reported,,,,,,,,,,,,,,,,,,,,,,,,,
Greece,Operator Holding Account,ΓΜΜΑΕ ΛΑΡΚΟ,000584001000,2005-01-01,open,ΛΑΡΥΜΝΑ ΦΘΙΩΤΙΔΑΣ,GR-35012,ΛΑΡΥΜΝΑ,878437,878437,878437,809669,809669,809669,809669,809669,734026,721276,708377,695343,682169,668866,655398,641884,868478,827442,892482,760378,414557,638136,783633,797430,756414,805472,820170,800773,,,,,868478,827442,892482,760378,414557,638136,783633,797430,756414,805472,820170,800773,,,,
Greece,Operator Holding Account,ΧΑΛΥΒΟΥΡΓΙΑ ΕΛΛΑΔΟΣ ΑΕ,000409401000,2005-01-01,open,ΟΘΩΝΟΣ 86Α & ΚΟΚΚΟΤΑ,51020,ΚΗΦΙΣΙΑ-ΑΘΗΝΑ,71106,71106,71106,51734,51734,51734,51734,51734,0,0,0,0,0,0,0,0,44088,45763,48148,40447,40656,29897,27105,905,0,0,0,0,,,,,44088,45763,48148,40447,40656,29897,27105,905,,,,,,,,
Greece,Operator Holding Account,ΚΕΡΑΜΟΠΟΙΙΑ ΧΑΛΚΙΔΙΚΗΣ ΑΕ,032219457000,2005-01-01,open,ΑΓΙΟΣ ΜΑΜΑΣ,63200,ΧΑΛΚΙΔΙΚΗ,29894,29894,29894,29730,29730,29730,29730,29730,5767,5666,5565,5463,5359,5255,5149,5043,38149,25848,27202,23144,11260,10814,2911,1382,2478,1435,320,0,,,,,38149,25848,27202,23144,11260,10814,2911,1382,2478,1435,320,,,,,
Greece,Operator Holding Account,ΧΑΛΥΒΟΥΡΓΙΚΗ ΑΕ,000235501000,2005-01-01,open,20o ΧΙΛ ΠΕΟ ΑΘΗΝΩΝ ΚΟΡΙΝΘΟΥ,GR-19200,ΕΛΕΥΣΙΝΑ,178670,178670,178670,156098,94978,125538,125538,125538,18283,0,0,0,0,0,0,0,85849,89517,99348,92205,64041,51144,63608,17026,1519,1937,2723,870,,,,,85849,89517,99348,92205,64041,51144,63608,17026,1519,1937,2723,870,,,,
Greece,Operator Holding Account,ΣΙΔΕΝΟΡ ΒΙΟΜ ΚΑΤ ΣΙΔΗΡΟΥ ΑΕ,000285901000,2005-01-01,open,ΕΘΝΙΚΗΣ ΑΝΤΙΣΤΑΣΕΩΣ 57Β ΧΑΛΑΝΔΡΙ ΑΘΗΝΑ,GR-15231,ΧΑΛΑΝΔΡΙ ΑΘΗΝΑ,130350,130350,130350,100447,100447,100447,100447,100447,65593,32227,31652,31069,23985,23518,23043,22569,79688,81753,86937,73065,51741,44107,49722,38638,28611,29343,29205,26473,,,,,79688,81753,86937,73065,51741,44107,49722,38638,28611,29343,29205,26473,,,,
Greece,Operator Holding Account,Δ Ι ΚΟΚΚΙΝΟΓΕΝΗΣ ΑΕ,2500/01NT/B/627,2005-01-01,open,ΛΕΩΦΟΡΟΣ ΝΑΤΟ,19300,ΑΣΠΡΟΠΥΡΓΟΣ,27704,27704,27704,46970,46970,46970,46970,46970,17758,6191,6080,5968,5855,5741,5625,5509,36544,36802,27621,18342,15731,5426,4246,5333,1287,3377,2588,3410,,,,,36544,36802,27621,18342,15731,5426,4246,5333,1287,3377,2588,3410,,,,
Greece,Operator Holding Account,ΚΕΡΑΜΟΠΟΙΙΑ Β ΜΑΛΙΟΥΡΗ ΑΒΕ,038268105000,2005-01-01,open,ΟΔΟΣ ΣΙΝΔΟΥ  ΧΑΛΑΣΤΡΑΣ,57300,ΘΕΣΣΑΛΟΝΙΚΗ,31111,31111,31111,34810,34810,34810,34810,34810,2751,2703,7327,2293,0,0,0,0,27489,28557,29158,16533,18036,13807,6615,1860,3520,5571,2200,0,,,,,27489,28557,29158,16533,18036,13807,6615,1860,3520,5571,2200,,,,,
Greece,Operator Holding Account,KEBE  AE,026531340000,2005-01-01,closed,NEA  SANTA,54500,KILKIS,27924,27924,27924,28851,28851,28851,28851,28851,5374,5280,0,0,0,0,0,0,25187,28284,23030,11910,0,0,0,0,0,0,,,,,,,25187,28284,23030,11910,,,,,,,,,,,,
Greece,Operator Holding Account,ΧΑΛΥΒΟΥΡΓΙΑ ΕΛΛΑΔΟΣ ΑΕ,000409401000,2005-01-01,open,ΟΘΩΝΟΣ 86Α & ΚΟΚΚΟΤΑ,51020,ΚΗΦΙΣΙΑ-ΑΘΗΝΑ,110752,110752,110752,95296,95296,95296,95296,95296,39626,38938,38242,37538,36827,36109,35382,34652,54670,54476,55595,51280,36455,33988,30654,28496,27324,23718,20053,25215,,,,,54670,54476,55595,51280,36455,33988,30654,28496,27324,23718,20053,25215,,,,
Greece,Operator Holding Account,ΔΕΗ  ΑΕ,000786301000,2005-01-01,closed,ΧΑΛΚΟΚΟΝΔΥΛΗ 29,10432,ΑΘΗΝΑ,372034,372034,372034,306822,306822,306822,306822,306822,9834,0,0,0,0,0,0,0,358515,282003,335340,250409,233999,153502,158900,152349,117887,0,0,,,,,,358515,282003,335340,250409,233999,153502,158900,152349,117887,,,,,,,
Greece,Operator Holding Account,ΔΕΗ  ΑΕ,000786301000,2005-01-01,open,ΧΑΛΚΟΚΟΝΔΥΛΗ 29,10432,ΑΘΗΝΑ,4692639,4692639,4692639,4101240,4101240,4101240,4101240,4101240,9971,8923,3953,0,0,0,0,0,3487897,3839630,4330643,5150138,5027815,4204275,4376666,4068466,3406363,2541516,0,0,,,,,3487897,3839630,4330643,5150138,5027815,4204275,,8445132,3406363,2541516,,,,,,
Greece,Operator Holding Account,ΔΕΗ  ΑΕ,000786301000,2005-01-01,open,ΧΑΛΚΟΚΟΝΔΥΛΗ 29,10432,ΑΘΗΝΑ,9830833,9830833,9830833,8409379,8409379,8409379,8409379,8409379,47797,42773,37893,33167,28589,24159,19873,15741,9815429,8763371,9505560,9644380,9646055,8399515,9285357,10635171,8905278,8548594,8870729,5589447,,,,,9815429,8763371,9505560,9644380,9646055,8399515,9285357,10635171,8905278,8548594,8870729,5589447,,,,
Greece,Operator Holding Account,SOVEL  AE,002294101000,2005-01-01,open,ΑΜΑΡΟΥΣΙΟΥ ΧΑΛΑΝΔΡΙΟΥ 33,15125,ΜΑΡΟΥΣΙ,173332,173332,173332,162149,162149,188481,175315,175315,96743,95063,78026,69062,60368,59191,57999,56803,121512,124474,120975,121798,93168,88353,83103,68408,65395,61194,47474,48140,,,,,121512,124474,120975,121798,93168,88353,83103,68408,65395,61194,47474,48140,,,,
Greece,Operator Holding Account,ΔΕΗ  ΑΕ,000786301000,2005-01-01,open,ΧΑΛΚΟΚΟΝΔΥΛΗ 29,10432,ΑΘΗΝΑ,12947693,12947693,12947693,11049784,11049784,11049784,11049784,11049784,50386,45091,39946,34963,30138,25468,20950,16594,13629229,12362217,12954019,11803191,12919320,14292671,14228640,14732181,13105386,11810688,10558256,9050119,,,,,13629229,12362217,12954019,11803191,12919320,14292671,14228640,14732181,13105386,11810688,10558256,9050119,,,,
Greece,Operator Holding Account,KEBE(ex ALPHA KERAMICA AE),026531340000,2005-01-01,open,5ο χλμ ΟΔΟΥ ΛΑΡΙΣΑΣ ΣΥΚΟΥΡΙΟΥ,41110,ΛΑΡΙΣΑ,46394,46394,46394,57917,57917,57917,57917,57917,12609,9000,8839,8677,8512,8346,8178,8010,45446,46568,46239,46678,33442,29280,28570,7685,8921,6780,7115,8049,,,,,45446,46568,46239,46678,33442,29280,28570,7685,8921,6780,7115,8049,,,,
Greece,Operator Holding Account,ΔΕΗ  ΑΕ,000786301000,2005-01-01,open,ΧΑΛΚΟΚΟΝΔΥΛΗ 29,10432,ΑΘΗΝΑ,5226639,5226639,5226639,4357395,4357395,4357395,4357395,4357395,5079,4546,4027,3525,3038,2567,2112,1673,5124545,5119688,3922271,5256992,4396383,4609479,5056625,5016496,4197293,4095373,3743116,2652482,,,,,5124545,5119688,3922271,5256992,4396383,4609479,5056625,5016496,4197293,4095373,3743116,2652482,,,,
Greece,Operator Holding Account,ΚΕΡΑΜΟΠΟΙΙΑ ΜΑΤΖΙΑΡΗΣ ΑΕ,113709152000,2005-01-01,open,ΣΚΟΤΟΥΣΑ ΣΕΡΡΩΝ,62100,ΣΕΡΡΕΣ,3926,3926,3926,8329,8329,8329,8329,8329,1187,1166,1145,1124,1103,1082,1060,1038,7093,7021,3881,7038,0,0,0,0,0,0,0,0,,,,,7093,7021,3881,7038,,,,,,,,,,,,
Greece,Operator Holding Account,ΔΕΗ  ΑΕ,000786301000,2005-01-01,open,ΧΑΛΚΟΚΟΝΔΥΛΗ 29,10432,ΑΘΗΝΑ,4463466,4463466,4463466,3744120,3744120,3744120,3828897,2114024,1680,1503,1332,1166,1005,849,699,553,5518005,5072642,5672797,5300608,4461751,3422835,3076864,3237667,2402432,2782295,2422022,1898669,,,,,5518005,5072642,5672797,5300608,4461751,3422835,3076864,3237667,2402432,2782295,2422022,1898669,,,,
Greece,Operator Holding Account,ΔΕΗ  ΑΕ,000786301000,2005-01-01,open,ΧΑΛΚΟΚΟΝΔΥΛΗ 29,10432,ΑΘΗΝΑ,2604880,2604880,2604880,2196037,2196037,2196037,2196037,2196037,,,,,,,,,3151497,3422536,3329512,2190791,2914168,2694745,3009880,2658081,2847872,2418698,2205148,2378802,,,,,3151497,3422536,3329512,2190791,2914168,2694745,3009880,2658081,2847872,2418698,2205148,2378802,,,,
Greece,Operator Holding Account,KORINTHOS POWER SA,006198201000,2012-07-26,open,"ARTEMIDOS 8, MAROUSI",15125,ATHENS,,,,,,,,359292,,,,,,,,,,,,,,,,481499,574694,127693,240917,586751,,,,,,,,,,,,481499,574694,127693,240917,586751,,,,
Greece,Operator Holding Account,EYDAP S.A.,121578999000,2012-09-10,open,"OROPOU str. 156, GALATSI",11146,ATHENS,,,,,,,,83514,41309,36967,32750,28665,24708,20880,17176,13604,,,,,,,,18535,10984,5236,4085,3117,,,,,,,,,,,,18535,10984,5236,4085,3117,,,,
Greece,Aircraft Operator Account,GAINJET S.A.,235680,2010-01-01,open,A.PAPANDREOU 108,16561,GLYFADA ATHENS,,,,,,,,,,,,,638,638,638,638,,,,,,,,0,Excluded,3286,3169,4103,,,,,,,,,,,,,,3286,3169,4103,,,,
Greece,Operator Holding Account,ΦΙΜΠΡΑΝ Δ.ΑΝΑΣΤΑΣΙΑΔΗΣ Α.Ε.,114343952000,2012-12-31,open,ΤΕΡΠΝΗ ΣΕΡΡΩΝ,62200,ΤΕΡΠΝΗ ΣΕΡΡΩΝ,,,,,,,,,5267,5176,5083,4989,4895,4799,4703,4606,,,,,,,,,2741,3264,5346,10446,,,,,,,,,,,,,2741,3264,5346,10446,,,,
Greece,Operator Holding Account,CORINTH PIPEWORKS S.A.,003978301000,2011-03-01,open,MESOGEION 2-4,11527,ATHENS,,,,,,,867,1156,785,771,758,744,365,359,352,345,,,,,,,551,469,426,767,1727,1349,,,,,,,,,,,,1020,426,767,1727,1349,,,,
Greece,Operator Holding Account,GRECIAN MAGNESITE S.A.,000241801000,2012-12-31,open,45 MICHALAKOPOULOU STR.,11528,ATHENS,,,,,,,,,43438,25245,41921,41150,40369,39583,38786,37986,,,,,,,,,15287,26718,29137,28055,,,,,,,,,,,,,15287,26718,29137,28055,,,,
Greece,Operator Holding Account,GRECIAN MAGNESITE S.A.,000241801000,2012-12-31,open,45 MICHALAKOPOULOU STR.,11528,ATHENS,,,,,,,,,191062,187743,184387,180993,177565,174102,170596,167078,,,,,,,,,197978,189756,171723,197103,,,,,,,,,,,,,197978,189756,171723,197103,,,,
Greece,Aircraft Operator Account,S & K Bermuda Ltd,20425,2010-01-01,open,"CANON'S COURT, 22 VICTORIA STREET",HM 12,HAMILTON,,,,,,,,158,55,55,55,55,55,55,55,55,,,,,,,,1544,1653,1306,2092,2916,,,,,,,,,,,,1544,,2959,2092,2916,,,,
Greece,Aircraft Operator Account,Jadayel Aviation Ltd,4599,2010-01-01,open,P. O. Box 3865,21481,Jeddah,,,,,,,,,1,1,1,1,1,1,1,1,,,,,,,,109,Excluded,Excluded,Excluded,Excluded,,,,,,,,,,,,109,,,,,,,,
Greece,Aircraft Operator Account,Hanwha Chemical Corporation,110111-0360935,2011-01-01,open,"East Wing 4th Floor,Gimpo Intl Airport, 886, Bang",157-220,Seoul,,,,,,,,,,,,,,,,,,,,,,,,74,Excluded,Excluded,Excluded,Excluded,,,,,,,,,,,,,74,,,,,,,
Greece,Operator Holding Account,PFIC LTD,137001901001,2013-03-19,open,Pentelis 34,GR 17564,Palaio Faliro,,,,,,,,,289179,284156,279075,11415,11199,10980,10759,10537,,,,,,,,,246786,285710,282184,16534,,,,,,,,,,,,,246786,285710,282184,16534,,,,
Greece,Operator Holding Account,TOSOH HELLAS A.I.C,57218204000,2012-12-31,open,INDUSTRIAL AREA OF SINDOS,57022,THESSALONIKI,,,,,,,,,24879,24447,24010,23568,23122,22671,22214,21756,,,,,,,,,19223,23366,24713,20736,,,,,,,,,,,,,19223,23366,24713,20736,,,,
Greece,Operator Holding Account,Δ. ΝΟΜΙΚΟΣ ΑΒΕΚ,280501000,2012-12-31,open,Λ. ΚΗΦΙΣΙΑΣ 32,15125,ΜΑΡΟΥΣΙ,,,,,,,,,9327,9165,9001,8836,8668,8499,8328,8156,,,,,,,,,11420,12434,10954,10923,,,,,,,,,,,,,11420,12434,10954,10923,,,,
Greece,Operator Holding Account,Δ. ΝΟΜΙΚΟΣ ΑΒΕΚ,280501000,2012-12-31,closed,Λ. ΚΗΦΙΣΙΑΣ 32,15125,ΜΑΡΟΥΣΙ,,,,,,,,,582,121,0,0,0,0,0,0,,,,,,,,,902,899,,,,,,,,,,,,,,,902,899,,,,,,
Greece,Operator Holding Account,ΚΩΠΑΪΣ ΑΒΕΕ ΤΡΟΦΙΜΩΝ ΚΑΙ ΠΟΤΩΝ,262701000,2012-12-31,open,Λ. ΚΗΦΙΣΙΑΣ 32,15125,ΜΑΡΟΥΣΙ,,,,,,,,,10159,9982,9804,9623,9441,9257,9071,8884,,,,,,,,,11696,12637,14417,12484,,,,,,,,,,,,,11696,12637,14417,12484,,,,
Greece,Operator Holding Account,ΜΕΒΓΑΛ,57242004000,2012-12-31,open,ΚΟΥΦΑΛΙΑ,GR-57100,ΚΟΥΦΑΛΙΑ ΘΕΣΣΑΛΟΝΙΚΗΣ,,,,,,,,,5766,5160,4571,3999,3445,2909,2390,1891,,,,,,,,,9305,8329,7880,6709,,,,,,,,,,,,,9305,8329,7880,6709,,,,
Greece,Operator Holding Account,ΕΛΒΑΛ ΕΛΛΗΝΙΚΗ ΒΙΟΜΗΧΑΝΙΑ ΑΛΟΥΜΙΝΙΟΥ ΑΕ,121836901000,2012-12-31,open,57ο ΧΛΜ ΕΟ ΑΘΗΝΩΝ ΛΑΜΙΑΣ,GR-32011,ΟΙΝΟΦΥΤΑ ΒΟΙΩΤΙΑΣ,,,,,,,,,81828,80407,78969,77516,76047,74564,73063,71556,,,,,,,,,84133,86487,95007,89322,,,,,,,,,,,,,84133,86487,95007,89322,,,,
Greece,Operator Holding Account,ΦΙΕΡΑΤΕΞ Α.Ε. Αφοι Ανεζουλάκη,14487335000,2012-12-31,open,Nea Santa,61110,Kilkis,,,,,,,,,11492,11292,11090,10886,10680,10472,10261,10049,,,,,,,,,10013,9849,8750,7885,,,,,,,,,,,,,10013,9849,8750,7885,,,,
Greece,Operator Holding Account,"MUNICIPAL WATER, DRAINAGE & DISTRICT HEATING COMPANY OF KOZANI",N/A,2012-12-31,open,IOANNOU MIKROU 1,50100,KOZANI,,,,,,,,,1674,0,0,1161,1000,845,694,549,,,,,,,,,452,594,1917,1763,,,,,,,,,,,,,452,594,1917,1763,,,,
Greece,Operator Holding Account,MAXI A.B.E.E.,52869148000,2012-12-31,open,1o ΧΛΜ Π.Ε.Ο. ΚΑΤΕΡΙΝΗΣ - ΘΕΣΣΑΛΟΝΙΚΗΣ,60100,ΚΑΤΕΡΙΝΗ,,,,,,,,,7498,7368,7237,7107,6976,6846,6715,6585,,,,,,,,,9185,9775,9992,9540,,,,,,,,,,,,,9185,9775,9992,9540,,,,
Greece,Operator Holding Account,ZANAE ZYMAI A.E.,57176704000,2012-12-31,closed,"ΒΙ.ΠΕ.Θ. ΣΙΝΔΟΥ, Ο.Τ. 49, Β΄ ΦΑΣΗ, Γ΄ ΕΙΣΟΔΟΣ",57022,ΘΕΣΣΑΛΟΝΙΚΗ,,,,,,,,,716,641,0,0,0,0,0,0,,,,,,,,,247,0,,,,,,,,,,,,,,,247,,,,,,,
Greece,Operator Holding Account,DISTRICT HEATING MUNICIPAL COMPANY OF PTOLEMAIDA,n/a,2012-12-31,open,ΕΘΝΙΚΗΣ ΑΝΤΙΣΤΑΣΗΣ 11,50200,ΠΤΟΛΕΜΑΪΔΑ,,,,,,,,,2344,0,0,0,0,0,0,0,,,,,,,,,0,51,780,199,,,,,,,,,,,,,,51,780,199,,,,
Greece,Aircraft Operator Account,GREENLEAF CORPORATION,147358,2009-01-01,open,18695 GREENLEAF DR,16433,SAEGERTOWN,,,,,,,,,,,,,,,,,,,,,,,,98,Excluded,Excluded,Excluded,Excluded,,,,,,,,,,,,,98,,,,,,,
Greece,Operator Holding Account,ΑΘΗΝΑΪΚΗ ΖΥΘΟΠΟΙΪΑ Α.Ε.,000251401000,2012-12-31,open,Λ.ΚΗΦΙΣΟΥ 102,122 41,ΑΙΓΑΛΕΩ,,,,,,,,,10449,10268,10084,9898,9711,9522,9330,9137,,,,,,,,,9054,11499,14381,12529,,,,,,,,,,,,,9054,11499,14381,12529,,,,
Greece,Operator Holding Account,ΑΘΗΝΑΪΚΗ ΖΥΘΟΠΟΙΪΑ Α.Ε.,000251401000,2012-12-31,open,Λ.ΚΗΦΙΣΟΥ 102,122 41,ΑΙΓΑΛΕΩ,,,,,,,,,8611,8461,8310,8157,8002,7846,7688,7530,,,,,,,,,7072,7078,6911,6381,,,,,,,,,,,,,7072,7078,6911,6381,,,,
Greece,Operator Holding Account,ΕΛΛΗΝΙΚΗ ΕΤΑΙΡΕΙΑ ΚΟΝΣΕΡΒΩΝ Α.Ε. ΚΥΚΝΟΣ,30000413000,2012-12-31,open,ΣΙΔΗΡΑΣ ΜΕΡΑΡΧΙΑΣ 16,21100,ΝΑΥΠΛΙΟ,,,,,,,,,3305,3219,3131,3044,2958,2873,2787,2703,,,,,,,,,4415,4899,6213,5792,,,,,,,,,,,,,4415,4899,6213,5792,,,,
Greece,Aircraft Operator Account,ORASCOM,83692,2012-01-01,open,150 El Nile St,N/A,AGOUZA,,,,,,,,,,,,,,,,,,,,,,,,643,134,Excluded,300,303,,,,,,,,,,,,,,777,300,303,,,,
Greece,Operator Holding Account,UNILEVER - KNORR ΑΒΕΕ,7928101000,2012-12-31,open,ΚΥΜΗΣ 9 ΚΑΙ ΣΕΝΕΚΑ 10,14564,ΚΗΦΙΣΙΑ,,,,,,,,,4302,4185,4069,3954,3840,3726,3613,3502,,,,,,,,,5369,5786,6506,5191,,,,,,,,,,,,,5369,5786,6506,5191,,,,
Greece,Operator Holding Account,ΕΘΝΙΚΟ ΚΑΠΟΔΙΣΤΡΙΑΚΟ ΠΑΝΕΠΙΣΤΗΜΙΟ ΑΘΗΝΩΝ,n/a,2012-12-31,open,ΠΑΝΕΠΙΣΤΗΜΙΟΥ 30,10679,ΑΘΗΝΑ,,,,,,,,,2179,1950,864,1512,1303,1101,906,717,,,,,,,,,1486,953,1776,1457,,,,,,,,,,,,,1486,953,1776,1457,,,,
Greece,Aircraft Operator Account,ELLINAIR S.A.,124053104000,2014-01-01,open,KARATASOU 7,54626,THESSALONIKI,,,,,,,,,,,,,3254,3254,3254,3254,,,,,,,,,,3138,9910,25716,,,,,,,,,,,,,,3138,9910,25716,,,,
Greece,Operator Holding Account,ΕΛΛΗΝΙΚΗ ΥΦΑΝΤΟΥΡΓΙΑ Α.Ε.,57225204000,2012-12-31,open,ΚΟΜΝΗΝΩΝ 26,54624,ΘΕΣΣΑΛΟΝΙΚΗ,,,,,,,,,7629,4151,791,776,761,747,731,716,,,,,,,,,3742,77,Not Reported,Not Reported,,,,,,,,,,,,,3742,77,,,,,,
Greece,Operator Holding Account,HELLENIC GAS  TRANSMISSION SYSTEM OPERATOR,007483601000,2014-02-19,open,L MESOGEION 357-359,15231,ATHENS,,,,,,,,,7602,13495,5978,10464,9020,7622,6270,4966,,,,,,,,,9267,6396,13163,17345,,,,,,,,,,,,,9267,6396,13163,17345,,,,
Greece,Aircraft Operator Account,BLUE BIRD AIRWAYS,077700527000,2012-01-01,open,"Heraklion Airport ""N. Kazantzakis""",71306,Heraklion,,,,,,,,,,,,,,,,,,,,,,,,289,407,427,Excluded,50,,,,,,,,,,,,,,1000,123,50,,,,
Greece,Aircraft Operator Account,HERMES AIRLINES S.A.,116190401000,2014-01-01,open,Deligianni 2,17456,Athens,,,,,,,,,,,,,,,,,,,,,,,,0,30335,29826,18859,Not Reported,,,,,,,,,,,,,,,,,,,,
Greece,Aircraft Operator Account,AIR CANADA ROUGE LP,3369657781,2014-01-01,open,7373 COTE VERTU BLVD. WEST,H4S1Z3,ST. LAURENT,,,,,,,,,,,,,90,90,90,90,,,,,,,,,321,56,197,51,,,,,,,,,,,,,,377,197,51,,,,
Greece,Aircraft Operator Account,COMLUX AVTN,CH-020.3.026.661-6,2012-01-01,open,STOCKERSTRASSE 57,8002,ZURICH,,,,,,,,,,,,,,,,,,,,,,,,180,139,Excluded,Excluded,Excluded,,,,,,,,,,,,,,,319,,,,,
Greece,Operator Holding Account,TERNA MAG S.A.,002741501000,2015-11-23,open,Λ. ΚΗΦΙΣΙΑΣ 124 ΚΑΙ ΙΑΤΡΙΔΟΥ 2,11526,ΑΘΗΝΑ,,,,,,,,,,,22380,36170,34687,33234,31809,30418,,,,,,,,,,,11117,31551,,,,,,,,,,,,,,,11117,31551,,,,
Greece,Operator Holding Account,Hellagrolip S.A.,128405901000,2016-03-09,open,Pentelis 34A,17564,Palaio Faliro,,,,,,,,,,,,262525,257551,252530,247445,242342,,,,,,,,,,,,167912,,,,,,,,,,,,,,,,167912,,,,
