Country,Account Type,Account Holder Name,Company Registration No,Permit/Plan Date,Account status,Main Address Line,Postal Code,City,Allowance In Allocation In 2005,Allowance In Allocation In 2006,Allowance In Allocation In 2007,Allowance In Allocation In 2008,Allowance In Allocation In 2009,Allowance In Allocation In 2010,Allowance In Allocation In 2011,Allowance In Allocation In 2012,Allowance In Allocation In 2013,Allowance In Allocation In 2014,Allowance In Allocation In 2015,Allowance In Allocation In 2016,Allowance In Allocation In 2017,Allowance In Allocation In 2018,Allowance In Allocation In 2019,Allowance In Allocation In 2020,Verified Emissions In 2005,Verified Emissions In 2006,Verified Emissions In 2007,Verified Emissions In 2008,Verified Emissions In 2009,Verified Emissions In 2010,Verified Emissions In 2011,Verified Emissions In 2012,Verified Emissions In 2013,Verified Emissions In 2014,Verified Emissions In 2015,Verified Emissions In 2016,Verified Emissions In 2017,Verified Emissions In 2018,Verified Emissions In 2019,Verified Emissions In 2020,Units Surrendered In 2005,Units Surrendered In 2006,Units Surrendered In 2007,Units Surrendered In 2008,Units Surrendered In 2009,Units Surrendered In 2010,Units Surrendered In 2011,Units Surrendered In 2012,Units Surrendered In 2013,Units Surrendered In 2014,Units Surrendered In 2015,Units Surrendered In 2016,Units Surrendered In 2017,Units Surrendered In 2018,Units Surrendered In 2019,Units Surrendered In 2020
Hungary,Aircraft Operator Account,WIZZ AIR HUNGARY LTD,01-09-964332,2010-01-01,open,KŐÉR U 2/A,1103,Budapest,,,,,,,,789314,734441,734441,734441,734441,734441,734441,734441,734441,,,,,,,,1097535,1093495,1255436,1548220,1832991,,,,,,,,,,,,1097535,,2348931,1548220,1832991,,,,
Hungary,Aircraft Operator Account,MALEV,01-10-042034,2010-01-01,closed,Könyves Kálmán krt. 12-14.,1097,Budapest,,,,,,,,264086,,,,,,,,,,,,,,0,0,33878,,,,,,,,,,,,,,,,33878,,,,,,,,
Hungary,Aircraft Operator Account,CityLine Hungary Kft,13-09-09-3453,2010-01-01,open,Fő utca 137.,2220,Vecsés,,,,,,,,3881,3305,3305,3305,3305,3305,3305,3305,3305,,,,,,0,0,220,Excluded,Excluded,Excluded,Excluded,,,,,,,,,,,,220,,,,,,,,
Hungary,Aircraft Operator Account,Travel Service kft,01-09-693315,2010-01-01,open,Wesselényi u. 16/A,1077,Budapest,,,,,,,,40137,5702,5702,5702,5702,5702,5702,5702,5702,,,,,,,0,26832,4143,9544,10139,10271,,,,,,,,,,,,26832,,13687,10139,10271,,,,
Hungary,Operator Holding Account,"AES Borsodi Energetikai Kft. ""f.a""",05-09-003017,2005-01-01,closed,Ipari út,3700,Kazincbarcika,523700,523700,523700,233185,233185,233565,233565,0,0,,,,,,,,331095,358830,465675,519742,477764,479380,54236,Not Reported,Not Reported,Not Reported,,,,,,,331095,358830,465675,519742,477764,479380,54236,,,,,,,,,
Hungary,Operator Holding Account,"AES Borsodi Energetikai Kft. ""f.a""",05-09-003017,2005-01-01,closed,Ipari út,3700,Kazincbarcika,464930,464930,464930,156306,156306,156561,156561,0,0,,,,,,,,343954,339891,346520,266877,81554,5912,7805,Not Reported,Not Reported,Not Reported,,,,,,,343954,339891,346520,266877,81554,5912,7805,,,,,,,,,
Hungary,Operator Holding Account,AES Tisza Erõmû Kft.,05-09-007689,2005-01-01,closed,Verebély László utca,3580,Tiszaújváros,1435860,1435860,1435860,790781,790781,792068,792068,792068,0,0,0,0,0,0,0,0,862381,1076048,1218823,1153755,851167,860670,675455,100990,0,,,,,,,,862381,1076048,1218823,1153755,851167,860670,,776445,,,,,,,,
Hungary,Operator Holding Account,"Riegel Pharma Kft. ""FA""",01-09-262916,2005-01-01,closed,Bányalég utca,1225,Budapest,10715,10715,10715,6661,6661,6661,6661,6661,,,,,,,,,6713,5670,3793,3446,2996,2396,2328,2167,,,,,,,,,6713,5670,3793,3446,2996,2396,2329,2167,,,,,,,,
Hungary,Operator Holding Account,EVONIK Agroferm Fermentációipari ZRt.,09-10-000008,2005-01-01,open,Hrsz,4183,Kaba,31353,31353,31353,24012,24012,24012,24012,24012,18366,18047,17724,17398,17069,16736,16399,16061,24198,22021,9857,17528,14633,16163,15712,16214,16457,19276,19209,19110,,,,,24198,21803,10075,17528,14633,16163,15712,16214,16457,19276,19209,19110,,,,
Hungary,Operator Holding Account,Arconic-Köfém Székesfehérvári Könnyűfémmű Kft,07-09-001598,2005-01-01,open,Verseci út,8000,Székesfehérvár,114209,114209,114209,98085,98085,98085,98085,98085,81952,80528,79088,77633,76162,74677,73173,71664,98846,104300,96424,91570,57197,68482,69707,65603,72054,76292,76303,77118,,,,,98846,104300,96424,91570,57197,68482,69707,65603,72054,76292,76303,77118,,,,
Hungary,Operator Holding Account,Szekszárdi Távhőszolgáltató Nonprofit Kft.,17-09-010782,2005-01-01,open,Sárvíz utca,7100,Szekszárd,39070,39070,39070,12669,12669,12669,12669,12669,9773,8747,7747,6778,5839,4931,4051,3205,32087,28587,18618,11760,11382,14701,16359,14820,15178,13159,14694,14799,,,,,32087,28587,18618,11760,11382,14701,16359,14820,15178,13159,14694,14799,,,,
Hungary,Operator Holding Account,ALFA-NOVA Kft.,07-09-004392,2005-01-01,open,Építők útja,2400,Dunaújváros,26036,26036,26036,7145,7145,7145,7145,7145,4694,4201,3721,3255,2804,2368,1946,1539,23063,22722,19356,8243,5570,4744,5799,6305,7095,7970,6452,8178,,,,,23063,22722,19356,8243,5570,4744,11598,506,7095,7970,6452,8178,,,,
Hungary,Operator Holding Account,ALFA-NOVA Kft.,07-09-004392,2005-01-01,open,Építők útja,2400,Dunaújváros,5745,5745,5745,8420,4727,10097,7691,4727,3695,3297,2921,2556,2203,1863,1531,1214,5132,6917,7416,6688,6192,5641,5768,3873,3619,2960,3336,3336,,,,,5132,6917,7416,6688,6192,5641,5768,3873,3619,2960,3336,3336,,,,
Hungary,Operator Holding Account,ALFEN Almásfüzitői Energetikai és Szolgáltató Kft.,11-09-005866,2005-01-01,closed,Fõ út,2931,Almásfüzitõ,11345,11345,11345,8976,8976,8976,8976,8976,2952,2642,0,0,0,0,0,0,9746,7840,8165,7538,6013,6921,5015,4431,3678,1441,,,,,,,9746,7840,8165,7538,6013,6921,5015,4431,3678,1441,,,,,,
Hungary,Operator Holding Account,ALTEK-Tégla és Cserépipari Kft.,16-09-005019,2005-01-01,closed,Földvári út,5400,Mezõtúr,11336,11336,11336,5617,5617,5617,5617,5617,0,0,0,0,0,0,0,0,2671,5058,5912,3319,434,470,478,1403,Not Reported,Not Reported,Not Reported,,,,,,,7729,5912,3319,434,470,478,1403,,,,,,,,
Hungary,Operator Holding Account,Bakonyi Bioenergia Kft.,19-09-507082,2005-01-01,open,Gyártelep Hrsz,8400,Ajka,352814,352814,352814,16558,16558,16585,16585,16585,0,0,0,0,0,0,0,0,21904,13017,14230,3535,4450,642,911,530,487,528,494,730,,,,,21904,13017,14230,3535,4450,642,911,530,487,528,494,730,,,,
Hungary,Operator Holding Account,Bakonyi Erõmû Zrt.,19-10-500026,2005-01-01,open,Gyártelep Hrsz,8400,Ajka,419977,419977,419977,302996,302996,303488,303488,303488,35555,29180,23512,18533,14212,11402,9379,7429,530793,468218,431666,439609,212810,253387,287042,304605,202998,115558,72258,66617,,,,,530793,468218,431666,439609,212810,253387,287042,304605,202998,115558,72258,66617,,,,
Hungary,Operator Holding Account,Baranya-Tégla Ipari és Kereskedelmi Kft.,02-09-062387,2005-01-01,closed,Budai Nagy Antal utca,7624,Pécs,10113,10113,10113,7795,7795,7795,7795,7795,0,0,0,0,0,0,0,0,4734,4888,6214,6813,81,150,90,63,11,8,,,,,,,4734,4888,6214,6813,81,150,90,63,11,8,,,,,,
Hungary,Operator Holding Account,BC-Erõmû Kft.,05-09-007481,2005-01-01,open,Bólyai tér,3700,Kazincbarcika,218501,218501,218501,219174,219174,219174,219174,219174,0,0,0,0,0,0,0,0,220875,223348,225133,216171,191598,247887,265835,285335,270762,257714,252402,285753,,,,,220875,223348,225133,216171,191598,247887,265835,285335,270762,257714,252402,285753,,,,
Hungary,Operator Holding Account,"BÉM Borsodi Érc, Ásvány és Nyersanyag Feldolgozó Mû Zrt.",05-10-000352,2007-11-16,closed,Ipartelep,3791,Sajókeresztúr,80842,80842,80842,49450,49450,49450,49450,49450,13424,0,0,0,0,0,0,0,54038,53035,32178,14249,24938,21454,20785,20934,1748,,,,,,,,54038,53035,33649,14249,24938,21454,20785,20934,1748,,,,,,,
Hungary,Operator Holding Account,Berényi Téglaipari Kft.,04-09-002541,2005-01-01,open,Gyár utca,5650,Mezõberény,10244,10244,10244,8666,8666,8666,8666,8666,5396,3767,3701,5112,5014,4917,4819,4719,6069,5780,7488,7496,6526,6519,4575,6001,3678,3268,4747,6119,,,,,5763,6087,7487,7496,6526,6519,4575,6001,3678,3268,4747,6119,,,,
Hungary,Operator Holding Account,BorsodChem Zrt.,05-10-000054,2005-01-01,open,Bólyai tér,3700,Kazincbarcika,70697,70697,70697,62765,62791,68510,60837,60837,250175,245699,241176,236613,232007,227361,222664,217957,53483,61309,74124,69756,52445,55418,60697,56110,131100,154682,148627,117945,,,,,53483,61309,74124,69766,52445,55418,60697,56110,131100,154682,148627,117945,,,,
Hungary,Operator Holding Account,Borsodi Sörgyár Kft.,05-09-019849,2005-01-01,open,Rákóczi Ferenc utca,3574,Bõcs,17319,17319,17319,21505,14744,20594,14744,14744,8981,8036,7118,6228,5365,4531,3722,2945,14858,18499,20233,20504,17241,13148,9369,7654,6233,5745,5526,5903,,,,,14858,,38732,20504,17241,13148,9369,7654,6233,5745,5526,5903,,,,
Hungary,Operator Holding Account,BTG Budaörsi Településgazdálkodási Kft.,13-09-064364,2005-01-01,closed,Dózsa György utca,2040,Budaörs,8648,8648,8648,6712,6712,6712,6712,6712,4748,4249,0,0,0,0,0,0,7288,6561,5972,5621,5807,5880,5837,6090,5868,5113,,,,,,,7288,6561,5972,5621,5807,5880,5837,6090,5868,5113,,,,,,
Hungary,Operator Holding Account,Budapest Airport ZRt.,01-10-044665,2005-01-01,open,Nemzetközi Repülõtér,1185,Budapest,19520,19520,19520,19799,19799,19799,19799,19799,13063,11691,10355,9060,7804,6590,5415,4283,19953,18861,16173,15844,16208,17183,16763,15130,12855,10605,10960,10626,,,,,19953,18861,16173,15844,16208,17183,16763,15130,12855,10605,10960,10626,,,,
Hungary,Operator Holding Account,Budapesti Eromu ZRt.,01-10-041825,2005-01-01,open,Budafoki utca,1117,Budapest,387421,387421,387421,332714,332714,336120,336120,336120,169016,140795,115464,96589,83258,70358,57875,45841,397486,399814,411282,400405,325851,353064,280147,229383,200377,187235,218200,250447,,,,,397486,399814,411282,400405,325851,353064,280147,229383,200377,187235,218200,250447,,,,
Hungary,Operator Holding Account,Budapesti Eromu ZRt.,01-10-041825,2005-01-01,open,Budafoki utca,1117,Budapest,291740,291740,291740,253308,253308,253720,253720,253720,132902,108700,87230,72927,62861,53121,43696,34611,271315,286146,246806,338463,222628,227862,215976,214009,199614,189623,207504,217513,,,,,271315,,532952,338463,222628,227862,215976,214009,199614,189623,207504,217513,,,,
Hungary,Operator Holding Account,Budapesti Eromu ZRt.,01-10-041825,2005-01-01,open,Budafoki utca,1117,Budapest,300777,300777,300777,270628,270628,271069,271069,271069,148744,122797,115291,102935,90957,79355,68117,57272,297694,304721,301530,364012,304314,289080,261059,261228,244390,228257,245982,262438,,,,,297694,304721,301530,364012,304314,289080,261059,261228,244390,228257,245982,262438,,,,
Hungary,Operator Holding Account,Budapesti Eromu ZRt.,01-10-041825,2005-01-01,closed,Budafoki utca,1117,Budapest,58647,58647,58647,43446,43446,43446,43446,43446,,,,,,,,,47172,44201,24037,12380,10814,11639,7290,224,,,,,,,,,47172,44201,24037,12380,10814,11639,7290,224,,,,,,,,
Hungary,Operator Holding Account,Budapesti Eromu ZRt.,01-10-041825,2005-01-01,closed,Budafoki utca,1117,Budapest,28679,28679,28679,0,0,0,0,0,,,,,,,,,0,0,0,0,0,,,,,,,,,,,,,,,,,,,,,,,,,,,
Hungary,Operator Holding Account,Budapesti Távhoszolgáltató ZRt.,01-10-042582,2005-01-01,open,Kalotaszeg utca,1116,Budapest,89838,89838,89838,77741,77741,77741,77741,77741,23671,10699,9495,8328,7198,6102,5043,4024,84407,75366,53339,27299,37164,35112,42878,23206,14808,10225,9378,10064,,,,,84407,75366,53339,27299,37164,35112,42878,23206,14808,10225,9378,10064,,,,
Hungary,Operator Holding Account,Budapesti Távhoszolgáltató ZRt.,01-10-042582,2005-01-01,closed,Kalotaszeg utca,1116,Budapest,56211,56211,56211,52819,0,0,0,0,,,,,,,,,57348,55083,24412,25,0,,,,,,,,,,,,57348,55083,24412,25,,,,,,,,,,,,
Hungary,Operator Holding Account,Budapesti Távhoszolgáltató ZRt.,01-10-042582,2005-01-01,open,Kalotaszeg utca,1116,Budapest,55317,55317,55317,39701,39701,39701,39701,39701,20845,18655,16523,14457,12454,10515,8640,6836,43105,29701,23589,24163,24388,26719,22183,20757,18786,18447,18794,16737,,,,,43105,29701,23589,24163,24388,26719,22183,20757,18786,18447,18794,16737,,,,
Hungary,Operator Holding Account,Budapesti Távhoszolgáltató ZRt.,01-10-042582,2005-01-01,open,Kalotaszeg utca,1116,Budapest,13415,13415,13415,9872,9872,9872,9872,9872,9303,8325,7374,6452,5558,4693,3856,3051,10719,13537,10654,11132,11592,12291,12258,11578,10168,9027,10600,12017,,,,,10719,13537,10654,11132,11592,12291,12258,11578,10168,9027,10600,12017,,,,
Hungary,Operator Holding Account,Budapesti Távhoszolgáltató ZRt.,01-10-042582,2005-01-01,open,Kalotaszeg utca,1116,Budapest,59838,59838,59838,42651,42651,42651,42651,42651,24422,21856,19359,16938,14592,12320,10124,8009,46308,34529,28947,28646,29339,31016,27603,25875,30845,21365,21348,24305,,,,,46308,34529,28947,28646,29339,31016,27603,25875,30845,21365,21348,24305,,,,
Hungary,Operator Holding Account,Bunge ZRt.,01-10-041976,2005-01-01,closed,Váci út,1134,Budapest,11509,11509,11509,1085,1085,1085,1085,1085,0,0,0,0,0,0,0,0,1093,1444,1524,1492,1624,1683,1596,1755,0,,,,,,,,1093,1444,1524,1492,1624,1683,1596,1755,,,,,,,,
Hungary,Operator Holding Account,Green-R Zrt.,01-10-045108,2005-01-01,open,Bocskai út,1113,Budapest,22288,22288,22288,24431,24431,24431,24431,24431,8684,7771,6885,6026,5194,4390,3611,2860,7072,26526,26733,26209,24752,27397,20886,19909,21830,18915,18151,16507,,,,,7072,26526,26733,26209,24752,27397,20886,19909,21830,18915,18151,16507,,,,
Hungary,Operator Holding Account,Calmit Hungária Kft.,01-09-910147,2005-01-01,open,Noszlopy út,1103,Budapest,147549,147549,147549,128739,128739,128739,128739,128739,93931,92299,90649,88981,87295,85593,83869,82140,107060,101049,96786,100409,95627,90926,112854,102480,97667,100701,81434,83346,,,,,107060,101049,96786,100409,95627,90926,112854,102480,97667,100701,81434,83346,,,,
Hungary,Operator Holding Account,Carmeuse Hungária Kft.,02-09-066932,2005-01-01,open,Hrsz,7827,Beremend,151962,151962,151962,154286,154286,154286,154286,154286,137425,135038,132623,130183,127717,125226,122705,120174,141815,147841,120022,156336,89734,125096,125371,95544,92503,103737,136849,100395,,,,,141815,147841,120022,156336,89734,125096,125371,95544,92503,103737,136849,100395,,,,
Hungary,Operator Holding Account,Alpiq Csepel Kft.,01-09-701667,2005-01-01,open,Kálvin tér,1085,Budapest,810866,810866,810866,469500,469500,759648,759648,759648,54994,49214,43598,38160,32893,27797,22866,18111,777952,761485,964968,953297,476924,414922,842118,727908,492473,269733,293054,316459,,,,,777952,761485,964968,953297,476924,414922,842118,727908,492473,269733,293054,316459,,,,
Hungary,Operator Holding Account,Csepeli Erõmû Kft.,01-09-706086,2005-01-01,open,Színesfém utca,1211,Budapest,5290,5290,5290,2432,2432,2432,2432,2432,10324,0,0,0,0,0,0,0,2641,10713,1306,3665,17629,3697,1335,788,324,846,714,370,,,,,2641,10713,1306,5000,17629,3697,,788,324,846,714,370,,,,
Hungary,Operator Holding Account,Csornahõ Csornai Hõszolgáltató Kft.,08-09-003144,2005-01-01,closed,Barbacsi út,9300,Csorna,11950,11950,11950,7310,7310,7310,7310,7310,4676,1847,0,0,0,0,0,0,7937,7087,6689,5939,7203,6468,3398,3100,3316,2273,,,,,,,7937,7087,6689,5939,7203,6468,3398,3100,3316,2273,,,,,,
Hungary,Operator Holding Account,"DAM 2004 Acél- és Hengermû Ker. és Szolg. Kft. ""f.a.""",05-09-013076,2005-01-01,closed,Kiss Ernõ utca,3532,Miskolc,139524,139524,139524,39909,39909,0,0,0,,,,,,,,,43081,43612,52046,50748,0,Not Reported,,Not Reported,Not Reported,Not Reported,,,,,,,42842,43851,52046,50748,,,,,,,,,,,,
Hungary,Operator Holding Account,ISD POWER Energiatermelo és Szolgáltató Kft.,07-09-004531,2005-01-01,closed,Vasmû tér,2400,Dunaújváros,25097,25097,25097,16701,16701,0,0,0,,,,,,,,,16831,18561,17888,16471,3389,0,,,,,,,,,,,16831,18561,17888,16471,3389,0,,,,,,,,,,
Hungary,Operator Holding Account,Veolia Energia Magyarország Zrt.,13-10-041573,2005-01-01,open,Szabadság út,2040,Budaörs,89731,89731,89731,72223,72223,72223,72223,72223,53372,45872,40637,35569,30659,25909,21313,16881,78416,81639,53687,48072,66606,54686,65164,77011,87854,89652,96113,98591,,,,,78416,81639,53687,48072,66606,54686,65164,77011,87854,89652,96113,98591,,,,
Hungary,Operator Holding Account,DKCE Debreceni Kombinált Ciklusú Erőmű Kft.,09-09-005697,2005-01-01,closed,Mikepércsi út,4030,Debrecen,304261,304261,304261,228771,228771,229143,229143,229143,44194,0,0,0,0,0,0,0,302379,232405,260815,214384,153303,171087,140982,102486,44527,,,,,,,,302379,228466,264754,214384,153303,171087,140982,102486,44527,,,,,,,
Hungary,Operator Holding Account,Dorogi Erõmû Kft.,11-09-002481,2005-01-01,open,Esztergomi út,2510,Dorog,88523,88523,88523,79094,79094,79094,79094,79094,37531,34407,31772,29972,28219,26510,24843,23226,79708,78995,74753,76645,68926,75509,59900,54704,51581,42880,45267,37518,,,,,79708,78995,74753,221080,,,59900,54704,51581,42880,45267,37518,,,,
Hungary,Operator Holding Account,Dreher Sörgyárak ZRt.,01-10-042040,2005-01-01,open,Jászberényi út,1106,Budapest,18721,18721,18721,13110,13110,13110,13110,13110,9787,8760,7759,6788,5848,4938,4057,3209,13212,13172,13397,11591,9353,9458,9070,8427,7866,7131,7277,7267,,,,,13212,13172,13397,11591,9353,9459,9070,8427,7866,7131,7277,7267,,,,
Hungary,Operator Holding Account,Dunacell Dunaújvárosi Cellulózgyár Kft.,07-09-002447,2005-01-01,open,Papírgyári út,2400,Dunaújváros,22531,22531,22531,20290,20290,20290,20290,20290,36077,35450,34816,34176,33528,32874,32213,31548,20088,17300,14674,14027,13183,7863,9512,8943,9073,10358,8596,8443,,,,,20088,17300,14674,14027,13183,7863,9512,8943,9073,10358,8596,8443,,,,
Hungary,Operator Holding Account,Duna-Dráva Cement Kft.,13-09-060842,2005-01-01,open,Kõhídpart dûlõ,2600,Vác,653634,653634,653634,573726,573726,573726,573726,573726,552847,543244,533529,523712,513790,503771,493627,483448,546533,613854,673911,574413,448470,267208,246368,273700,286581,286584,292870,288356,,,,,546533,613854,673911,574413,448470,267208,246368,273700,286581,286584,292870,288356,,,,
Hungary,Operator Holding Account,ISD Kokszoló Kft.,07-09-002492,2005-01-01,open,Vasmû tér,2400,Dunaújváros,264233,264233,264233,220519,98707,209202,182514,175278,257999,253518,248984,244403,239772,235097,230363,225613,184815,299823,284249,222811,121052,150605,191303,177431,190170,250396,198565,178756,,,,,184815,299823,284249,222811,121052,150605,191303,177431,190170,250396,198565,178756,,,,
Hungary,Operator Holding Account,ISD Dunaferr Zrt.,07-10-001049,2005-01-01,open,Vasmû tér,2400,Dunaújváros,109537,109537,109537,87345,87345,87345,87345,87345,170914,167946,164943,161907,158840,155743,152606,149460,95449,109217,94748,98146,77894,93544,105567,125486,191795,159231,148868,137692,,,,,95449,109217,94748,98146,77894,93544,105567,125486,191795,159231,148868,137692,,,,
Hungary,Operator Holding Account,ISD Dunaferr Zrt.,07-10-001049,2005-01-01,open,Vasmû tér,2400,Dunaújváros,1923276,1923276,1923276,1015303,1015303,1015303,1015303,1015303,1668500,819760,1610199,1580572,1550626,1520389,1489775,1459054,1109508,1039658,1065174,1012730,878496,931288,926883,857480,473170,573297,819663,576426,,,,,1109508,1039658,1065174,1012730,878496,931288,926883,857480,473170,573297,819663,576426,,,,
Hungary,Operator Holding Account,ISD Dunaferr Zrt.,07-10-001049,2005-01-01,closed,Vasmû tér,2400,Dunaújváros,40749,40749,40749,38661,38661,38661,38661,38661,,,,,,,,,38961,38562,33745,28716,18628,22236,27924,29069,0,,,,,,,,38961,38562,33745,28716,18628,22236,27924,29069,,,,,,,,
Hungary,Operator Holding Account,Dunamenti Erõmû Zrt.,13-10-040106,2005-01-01,open,Erõmû út,2440,Százhalombatta,2643513,2643513,2643513,1715819,1715819,1718612,1718612,1718612,14388,12813,0,0,0,0,0,0,1949639,1746044,2142453,1649787,992126,1298761,727272,899884,408240,87108,244077,434824,,,,,1949639,1746044,2142453,1649787,992126,1298762,727272,899883,408240,87108,244077,434824,,,,
Hungary,Operator Holding Account,HAMBURGER Hungária Kft.,07-09-017523,2005-01-01,closed,Papírgyári út,2400,Dunaújváros,61192,61192,61192,57716,57716,0,0,0,,,,,,,,,57142,58506,58161,54828,19387,Not Reported,,,,,,,,,,,57142,58506,58161,54828,,19387,,,,,,,,,,
Hungary,Operator Holding Account,Eastern Sugar Cukoripari  ZRt.,09-10-000036,2005-01-01,closed,Meteorit utca,4183,Kaba,111002,111002,111002,,,,,,,,,,,,,,94852,57199,3008,,,Not Reported,,,,,,,,,,,,152051,3008,,,,,,,,,,,,,
Hungary,Operator Holding Account,EGIS Gyógyszergyár Zrt.,01-10-041762,2005-01-01,open,Keresztúri út,1106,Budapest,26423,26423,26423,25040,25040,25040,25040,25040,17721,17413,17102,16787,16469,16148,15823,15497,25234,24526,23220,22919,18348,13298,14608,13296,12225,10704,11320,9083,,,,,25234,24526,23220,22919,18348,13298,14608,13296,12225,10704,11320,9083,,,,
Hungary,Operator Holding Account,EGIS Gyógyszergyár Zrt.,01-10-041762,2005-01-01,open,Keresztúri út,1106,Budapest,3754,3754,3754,4110,4110,4110,4110,4110,4041,3970,3899,3828,3755,3682,3608,3533,4142,4198,3988,4370,4041,4371,4173,4198,4114,3516,3767,4173,,,,,4142,4198,3988,4370,4041,4371,4173,4198,4114,3516,3767,4173,,,,
Hungary,Operator Holding Account,EVAT ZRt.,10-10-020014,2005-01-01,open,Zalár út,3300,Eger,15324,15324,15324,8946,8946,8946,8946,8946,6401,5729,5074,4439,3824,3229,2653,2099,9713,9417,7324,7375,7202,7300,8720,8631,8073,8090,8097,9724,,,,,9713,9417,7429,7375,7202,7300,8720,8631,8073,8090,8097,9724,,,,
Hungary,Operator Holding Account,O-I Manufacturing Magyarország Üvegipari Kft.,04-09-003284,2005-01-01,open,Csorvási út,5900,Orosháza,67333,67333,67333,66896,66896,66896,66896,66896,41570,40847,40117,39379,38632,37880,37117,36352,56114,65937,65606,57372,54636,52365,59041,57490,58915,60257,61068,61761,,,,,,122053,65606,57372,54636,52365,59041,57490,58915,60257,61068,61761,,,,
Hungary,Operator Holding Account,Egyesült Vegyimuvek Rt.,01-10-042091,2005-01-01,closed,Cinkotai út,1172,Budapest,24327,24327,24327,0,0,0,0,0,,,,,,,,,21492,3636,1858,0,0,,,,,,,,,,,,21492,3636,1918,,,,,,,,,,,,,
Hungary,Operator Holding Account,Electrolux Lehel Kft.,16-09-001602,2005-01-01,open,Fémnyomó utca,5100,Jászberény,14290,14290,14290,11740,11740,11740,11740,11740,8598,8448,0,0,0,0,0,0,11831,10328,8682,9044,9162,8806,7785,6617,4344,1719,Not Reported,,,,,,11831,10328,8682,9044,9162,8806,7805,6597,4344,1719,,,,,,
Hungary,Operator Holding Account,ISD POWER Energiatermelo és Szolgáltató Kft.,07-09-004531,2005-01-01,open,Vasmû tér,2400,Dunaújváros,407325,407325,407325,1176109,1176109,1177862,1177862,1177862,14338,14089,13839,13590,13340,13090,12841,12592,1221181,1200745,1322924,1313006,1172469,1440509,1380214,1320668,793264,1019482,1432151,1070320,,,,,1221181,1200745,1322924,2485476,,1440511,1380214,1363611,793264,1019482,1432151,1070320,,,,
Hungary,Operator Holding Account,E.ON Energiatermelő Kft.,01-09-308221,2005-01-01,open,Váci út 17.,1134,Budapest,24303,24303,24303,26736,26736,26736,26736,26736,6767,12112,10730,9392,8095,6841,5627,4457,26943,28935,38478,38325,36814,39552,25865,17068,25674,24907,26242,26810,,,,,24303,31575,38478,38325,36814,39552,25865,17068,25674,24907,26242,26810,,,,
Hungary,Operator Holding Account,EURO-METAL Öntödei Kft.,01-09-074716,2005-01-01,closed,Elem utca,1045,Budapest,3910,3910,3910,,,,,,,,,,,,,,6508,7012,6892,,,Not Reported,,,,,,,,,,,6508,5222,8682,,,,,,,,,,,,,
Hungary,Operator Holding Account,FALCO Zrt.,18-10-100539,2005-01-01,open,Zanati út,9700,Szombathely,18903,18903,18903,14737,14737,14737,14737,14737,21715,21338,27540,24096,20758,17528,14402,11393,14851,13996,9356,3044,3928,3740,1870,1653,1816,2992,4340,8208,,,,,14851,13996,9356,3044,3929,3740,1870,1652,1816,2992,4340,8208,,,,
Hungary,Operator Holding Account,Fehérvári Téglaipari Kft.,07-09-002835,2005-01-01,closed,Kiskút út,8000,Székesfehérvár,8577,8577,8577,0,0,0,0,0,,,,,,,,,950,2523,11,0,0,,,,,,,,,,,,916,2557,11,,,,,,,,,,,,,
Hungary,Operator Holding Account,Fertõszéplaki Téglaipari Kft.,08-09-003830,2005-01-01,closed,Gyártelep,9436,Fertõszéplak,6664,6664,6664,6139,6139,6139,6139,6139,970,0,0,0,0,0,0,0,3896,2634,2993,3128,2460,1561,860,1371,362,,,,,,,,3599,2931,2993,3128,2460,1561,860,1371,362,,,,,,,
Hungary,Operator Holding Account,Finomhengermû Munkás Kft. F.a.,05-09-001346,2005-01-01,closed,Gyár út,3600,Ózd,4755,4755,4755,0,0,0,0,0,,,,,,,,,2446,19,Not Reported,0,0,Not Reported,,,,,,,,,,,,2465,,,,,,,,,,,,,,
Hungary,Operator Holding Account,Fovárosi Önkormányzat Szent János Kórház és Rendelointézet,1306/2003 VI.26.,2005-01-01,closed,Diós árok,1125,Budapest,13003,13003,13003,11241,0,0,0,0,,,,,,,,,11328,11034,8123,8450,0,,,,,,,,,,,,11328,11034,8123,8450,,,,,,,,,,,,
Hungary,Operator Holding Account,Fuzfoi Eromu Kft.,19-09-504687,2005-01-01,closed,Nike krt.,8184,Balatonfûzfõ,69822,69822,69822,43824,0,0,0,0,,,,,,,,,44164,31433,18870,5248,0,,,,,,,,,,,,44164,31433,18870,5248,,,,,,,,,,,,
Hungary,Operator Holding Account,GE Hungary Ipari és Kereskedelmi Kft.,01-09-719347,2005-01-01,closed,Váci út,1044,Budapest,23020,23020,23020,27656,27656,27656,27656,0,,,,,,,,,24373,24249,24849,20950,16046,9672,0,Not Reported,,,,,,,,,24373,24249,24849,20950,16046,9672,27656,,,,,,,,,
Hungary,Operator Holding Account,GE Hungary Ipari és Kereskedelmi Kft.,01-09-719347,2005-01-01,closed,Váci út,1044,Budapest,2779,2779,2779,2713,2713,2713,2713,2713,2265,2226,1202,0,0,0,0,0,2416,2440,2347,2306,2314,2314,1594,1460,1234,1153,1012,,,,,,2416,2440,2347,2713,1907,2314,1594,1460,1234,1153,1012,,,,,
Hungary,Operator Holding Account,GE Hungary Ipari és Kereskedelmi Kft.,01-09-719347,2005-01-01,open,Váci út,1044,Budapest,10834,10834,10834,10385,10385,10385,10385,10385,8357,4106,8065,7917,3884,3808,3731,3654,8183,9131,8993,8365,6439,5440,5322,4778,3211,5471,5722,3435,,,,,8183,9131,8993,14804,0,5440,5322,4778,3211,5471,5722,3435,,,,
Hungary,Operator Holding Account,GE Hungary Ipari és Kereskedelmi Kft.,01-09-719347,2005-01-01,open,Váci út,1044,Budapest,24036,24036,24036,31025,31025,31025,31025,31025,25429,24987,24541,24089,23632,23172,22705,22237,28159,27107,26507,22252,22275,23693,23024,22904,22079,24921,18277,22561,,,,,28159,27107,26507,22252,22275,23693,23024,22904,22079,24921,18277,22561,,,,
Hungary,Operator Holding Account,GLOBUS Konzervipari ZRt.,01-10-042257,2005-01-01,closed,Maglódi utca,1106,Budapest,7075,7075,7075,6540,6540,0,0,0,,,,,,,,,6591,6145,5979,5302,1392,Not Reported,,,,,,,,,,,6591,6145,5979,5302,1392,,,,,,,,,,,
Hungary,Operator Holding Account,Guardian Orosháza Kft.,04-09-005330,2005-01-01,open,Csorvási út,5900,Orosháza,134233,134233,134233,127773,127773,127773,127773,127773,88982,87436,85872,84292,82695,81083,79450,77812,120189,122682,123790,117005,111881,117522,118166,115532,110334,112642,110338,115151,,,,,120189,122682,123790,235171,111881,117522,,115532,110334,112642,110338,115151,,,,
Hungary,Operator Holding Account,GYÕR-SZOL Gyõri Közszolgáltató és Vagyongazdálkodó Zrt.,08-10-001825,2005-01-01,open,Orgona utca,9024,Gyõr,142831,142831,142831,126944,126944,126944,126944,126944,76479,68441,60632,53069,45745,38657,31798,25187,137830,135042,125925,122655,126587,127958,92238,91843,102746,83388,92143,73227,,,,,137830,135042,125925,122655,126587,127958,92238,91843,102746,83388,92143,73227,,,,
Hungary,Operator Holding Account,Gyõri Erõmû Kft.,08-09-019413,2005-01-01,open,Kandó Kálmán utca,9027,Gyõr,48645,48645,48645,39187,39187,39187,39187,39187,20705,18506,16395,1969,1698,1434,1180,934,42547,36108,31000,31033,28618,30466,20381,20104,22788,16885,8182,2421,,,,,42547,36108,31000,31033,28618,30466,20381,20104,22788,16885,8182,2421,,,,
Hungary,Operator Holding Account,Hajdú Ingatlan Kft.,09-09-013729,2005-01-01,closed,Bellegelõ utca,4080,Hajdúnánás,6174,6174,6174,6397,6397,6397,6397,6397,0,0,0,0,0,0,0,0,4049,5663,6409,7256,2527,1831,79,0,0,,,,,,,,3821,11554,746,7256,2527,1831,79,6397,,,,,,,,
Hungary,Operator Holding Account,Hartmann Hungary Kft.,11-09-001593,2005-01-01,open,Hartmann utca,2941,Ács,15920,15920,15920,17075,15310,18694,17620,16140,15974,15697,15416,15133,14846,14556,14263,13969,15158,14409,14083,16766,17492,15867,17468,15990,15928,15064,15319,16224,,,,,15158,14409,14083,16766,17492,15867,17468,15990,15928,15064,15319,16224,,,,
Hungary,Operator Holding Account,Hódmezõvásárhelyi Távfûtõ Tüzeléstechnikai Szolgáltató és Fejleszto Kft.,06-09-001870,2005-01-01,closed,Bajcsy Zsilinszky utca,6800,Hódmezõvásárhely,3390,3390,3390,,,,,,,,,,,,,,3601,3283,,,,Not Reported,,,,,,,,,,,3601,3179,104,,,,,,,,,,,,,
Hungary,Operator Holding Account,Holcim Hungária Cementipari ZRt.,11-10-001582,2005-01-01,closed,Rákóczi utca,2541,Lábatlan,380651,380651,380651,320587,320587,320587,320587,320587,216759,0,0,0,0,0,0,0,311306,327586,336006,336641,164448,114163,149073,167842,24141,Not Reported,,,,,,,311306,327586,336006,336641,164448,114163,149073,167842,24141,,,,,,,
Hungary,Operator Holding Account,Holcim Hungária Cementipari ZRt.,11-10-001582,2005-01-01,closed,Rákóczi utca,2541,Lábatlan,619880,619880,619880,575377,575377,575377,575377,575377,0,0,0,0,0,0,0,0,572904,540342,552311,541911,460126,403262,1345,0,0,,,,,,,,572904,540342,552311,541911,460126,403262,1345,575377,,,,,,,,
Hungary,Operator Holding Account,Veszprémi Közüzemi Szolgáltató ZRt.,19-10-500243,2005-01-01,open,Házgyári út,8200,Veszprém,19572,19572,19572,10726,10726,10726,10726,10726,6680,5979,5296,4633,3992,3370,2769,2190,11646,10814,8256,8798,9081,10370,11310,11274,9896,6419,6223,9013,,,,,,22460,8256,8798,9081,10370,11310,11274,9896,6419,6223,9013,,,,
Hungary,Operator Holding Account,HEBÜ Hõszolgáltató és Energetikai Berendezéseket Üzemeltetõ Kft.,06-09-007547,2005-01-01,closed,Damjanich utca,6724,Szeged,8816,8816,8816,7244,7244,0,0,0,,,,,,,,,7865,6750,5286,4748,2818,Not Reported,,,,,,,,,,,7865,6750,5286,4748,2818,,,,,,,,,,,
Hungary,Operator Holding Account,Veolia Energia ZRt.,13-10-041573,2005-01-01,closed,Szabadság út,2040,Budaörs,11162,11162,11162,8934,8934,8934,8934,8934,2556,0,0,0,0,0,0,0,9003,3838,3141,3058,2830,1693,2762,2972,25,0,,,,,,,9003,3838,3141,4751,2830,,2762,2972,25,,,,,,,
Hungary,Operator Holding Account,"HMN Energia Termelõ, Szolgáltató és Kereskedelmi Kft.",01-09-732377,2005-01-01,closed,Bocskai út,1113,Budapest,11206,11206,11206,35654,10379,63294,20975,11828,14272,0,0,0,0,0,0,0,10460,39444,31024,35589,33771,38150,21129,13762,13882,Not Reported,,,,,,,10460,39444,31584,65949,3411,38151,21129,13762,,,,,,,,
Hungary,Operator Holding Account,Hungrana Keményítõ és Izocukorgyártó Kft.,07-09-001129,2005-01-01,open,Ipartelep,2432,Szabadegyháza,132888,132888,132888,198760,167690,286705,230197,222512,154755,152068,149348,146599,143822,141018,138179,135329,135625,139029,142001,216574,220239,231306,228917,222524,177954,169874,159408,158456,,,,,135625,139029,142001,216574,220239,231306,228917,222524,177954,169874,159408,158456,,,,
Hungary,Operator Holding Account,ALKALOIDA Vegyészeti Gyár ZRt.,15-10-040330,2005-01-01,closed,Csatárka utca,1025,Budapest,39837,39837,39837,34040,0,0,0,0,,,,,,,,,34304,29661,18037,14113,0,,,,,,,,,,,,34304,29661,18037,14113,,,,,,,,,,,,
Hungary,Operator Holding Account,IMERYS Magyarország Tûzállóanyaggyártó Kft.,06-09-009993,2005-01-01,open,Erzsébeti út,6800,Hódmezõvásárhely,8304,8304,8304,9599,9599,9599,9599,9599,7065,6943,6819,6693,6567,6439,6309,6179,8037,7399,6977,7418,4394,5617,6566,6411,6377,6994,6487,6518,,,,,,15436,6977,7418,4394,5617,6566,6411,6377,6994,6487,6518,,,,
Hungary,Operator Holding Account,INTERSPAN Faipari Kft.,15-09-060317,2005-01-01,closed,Ipar utca,4800,Vásárosnamény,10980,10980,10980,5839,5839,5839,5839,0,,,,,,,,,5884,3052,1322,757,558,1411,,,,,,,,,,,5884,3052,1322,757,558,1411,,,,,,,,,,
Hungary,Operator Holding Account,Kalcinátor Kft.,02-09-070026,2005-01-01,closed,Hrsz,7827,Beremend,165064,165064,165064,146376,146376,146376,146376,146376,0,0,0,0,0,0,0,0,132677,113143,141493,145731,83660,62582,2164,2637,0,Not Reported,,,,,,,132677,113143,141493,160331,69060,62582,2164,2637,,,,,,,,
Hungary,Operator Holding Account,Kaposvári Önkormányzati Vagyonkezelõ és Szolgáltató ZRt.,14-10-300030,2005-01-01,open,Fõ utca,7400,Kaposvár,20672,20672,20672,14307,14307,14307,14307,14307,8663,7753,6868,6012,5181,4379,3602,2853,15168,15534,12073,13252,13245,12762,13245,12088,12260,11885,12451,13709,,,,,15168,15534,12073,26497,,12762,13245,12088,12260,11885,12451,13709,,,,
Hungary,Operator Holding Account,Kazinc Therm Fûtõerõmû  Kft.,05-09-009234,2005-01-01,open,Gorkij utca,3700,Kazincbarcika,52735,52735,52735,47803,47803,47803,47803,47803,25147,22504,19936,17450,15042,12711,10456,8281,51902,49743,44681,43831,43201,45131,41766,36655,35764,24699,26038,26164,,,,,51902,49743,44681,43831,43201,45131,41766,36655,35764,24699,26038,26164,,,,
Hungary,Operator Holding Account,Kecskeméti TERMOSTAR Hoszolgáltató Kft.,03-09-104005,2005-01-01,open,Akadémia krt.,6000,Kecskemét,16532,16532,16532,15449,15449,15449,15449,15449,9627,8615,7633,6680,5758,4866,4002,3170,16774,14886,14499,14393,13992,15657,14323,13762,12366,7533,8391,6859,,,,,,31660,14499,14393,13992,15657,14323,13762,12366,7533,8391,6859,,,,
Hungary,Operator Holding Account,Kecskeméti TERMOSTAR Hoszolgáltató Kft.,03-09-104005,2005-01-01,open,Akadémia krt.,6000,Kecskemét,31828,31828,31828,30877,30877,30877,30877,30877,17440,15607,13826,12102,10432,8815,7252,5743,33525,31548,29300,30062,29681,31670,27891,23799,25773,22156,21924,23583,,,,,,65073,29300,59743,,31670,27891,23799,25773,22156,21924,23583,,,,
Hungary,Operator Holding Account,Kertész Termelo és Értékesíto Szövetkezet,18-02-000217,2005-01-01,closed,Vízöntõ utca,9700,Szombathely,13854,13854,13854,,,,,,,,,,,,,,4938,178,,,,Not Reported,,,,,,,,,,,4938,178,,,,,,,,,,,,,,
Hungary,Operator Holding Account,Kisterenyei Bányászati Építõanyaggyártó és Kereskedelmi Kft.,12-09-003589,2005-01-01,closed,Zrínyi utca,3078,Bátonyterenye,1783,1783,1783,962,962,962,962,962,,,,,,,,,866,580,836,176,22,72,56,0,,,,,,,,,866,580,836,176,22,72,58,962,,,,,,,,
Hungary,Operator Holding Account,Komlói Fûtõerõmû ZRt.,02-10-060315,2005-01-01,open,Bem József utca,7300,Komló,33270,33270,33270,29791,29791,29791,29791,29791,16314,14599,12934,11321,9758,8246,6783,5373,32346,32617,31064,29527,29384,22044,10478,7038,4988,3238,3230,3140,,,,,32346,32617,31064,29527,29384,22044,10478,7038,4988,3238,3230,3140,,,,
Hungary,Operator Holding Account,KÕBÁNYAHÕ Távhõtermelõ és Szolgáltató Kft.,01-09-719906,2005-01-01,open,Fertõ út,1107,Budapest,91137,91137,91137,87432,87432,87432,87432,87432,13364,12567,11791,11034,10297,9582,8884,8208,88110,85369,84999,78260,80097,79467,48940,47514,51570,56678,40998,39762,,,,,88110,85369,84999,237824,,,48940,47514,51570,56678,40998,39762,,,,
Hungary,Operator Holding Account,Kunsági Téglaipari Kft.,16-09-002664,2005-01-01,closed,Külterület Hrsz,5310,Kisújszállás,9199,9199,9199,,,,,,,,,,,,,,1940,18,,,,Not Reported,,,,,,,,,,,,244,1714,,,,,,,,,,,,,
Hungary,Operator Holding Account,Lasselsberger Hungária Kft.,01-09-697623,2005-01-01,closed,Grassalkovics út,1239,Budapest,14861,14861,14861,0,0,0,0,0,,,,,,,,,14681,263,0,0,0,,,,,,,,,,,,14681,263,,,,,,,,,,,,,,
Hungary,Operator Holding Account,Leier Hungária Építõanyaggyártó Kft.,08-09-004486,2005-01-01,open,Baross Gábor út,9024,Gyõr,39876,39876,39876,40815,37749,37749,37749,37749,23045,18862,18524,18182,17838,17490,17139,16784,37013,30484,27249,36337,19751,17722,16971,23976,13645,18289,21045,29231,,,,,33993,33504,27249,36337,19751,21496,13197,23976,13645,18289,21045,29231,,,,
Hungary,Operator Holding Account,Leier Hungária Építõanyaggyártó Kft.,08-09-004486,2005-01-01,open,Baross Gábor út,9024,Gyõr,27650,27650,27650,46843,46843,46843,46843,46843,22865,31678,31112,30539,29961,29377,28785,28192,35881,42183,43762,40476,26069,29419,17730,17456,19816,22798,23807,37078,,,,,32274,45790,43762,40476,26069,29419,17730,17456,19816,22798,23807,37078,,,,
Hungary,Operator Holding Account,Leier Tégla Kft.,10-09-026512,2005-01-01,closed,Szováti útfél,4200,Hajdúszoboszló,6715,6715,6715,,,,,,,,,,,,,,5333,25,0,,,Not Reported,,,,,,,,,,,4932,401,27,,,,,,,,,,,,,
Hungary,Operator Holding Account,LIGHTTECH Lámpatechnológiai Kft.,13-09-067088,2005-01-01,open,Hegyrejáró út,2120,Dunakeszi,4932,4932,4932,5794,5794,5794,5794,5794,4661,4580,4498,4415,4331,4247,4161,4076,4957,4905,4806,5109,4096,5345,5585,5889,4677,5793,4613,3986,,,,,4255,5607,4806,5109,4096,5345,5585,5889,4677,5793,4613,3986,,,,
Hungary,Operator Holding Account,IC Profil Kft.,19-09-517354,2005-01-01,open,Rákóczi utca,8200,Veszprém,79866,79866,79866,78744,78744,78744,78744,78744,212705,172418,102636,50373,49419,48456,47480,46500,79355,77910,76595,72753,47156,54771,51734,42273,35164,26415,13558,13341,,,,,79355,77910,76595,72753,47156,54771,51734,42273,35164,26415,13558,13341,,,,
Hungary,Operator Holding Account,STRABAG Általános Éptő Kft.,01-09-930940,2005-01-01,open,Gábor Dénes utca,1117,Budapest,3992,3992,3992,3787,3610,3610,3610,3610,2846,2547,2257,1974,1701,1436,1180,933,3638,3870,3275,3918,3099,3585,4256,3138,4692,4467,4008,3322,,,,,3638,3870,3275,3918,3099,3585,4256,3138,4692,7313,4008,476,,,,
Hungary,Operator Holding Account,STRABAG Általános Éptő Kft.,01-09-930940,2005-01-01,closed,Gábor Dénes utca,1117,Budapest,5432,5432,5432,,,,,,,,,,,,,,5849,699,0,,,Not Reported,,,,,,,,,,,5849,699,,,,,,,,,,,,,,
Hungary,Operator Holding Account,Magyar Cukor ZRt.,01-10-043032,2005-01-01,open,Pécsi u.,7400,Kaposvár,36826,36826,36826,29266,29266,29266,29266,29266,43033,42286,41530,40766,39993,39213,38424,37631,34414,24459,20825,15148,27203,25805,30919,22767,28557,23232,24465,34576,,,,,34414,24459,20825,15148,27203,25805,30919,22767,63621,23232,24465,34576,,,,
Hungary,Operator Holding Account,Magyar Cukor ZRt.,01-10-043032,2005-01-01,closed,Pécsi u.,7400,Kaposvár,47323,47323,47323,36804,0,0,0,0,,,,,,,,,43615,29866,27001,1933,0,,,,,,,,,,,,43615,29866,27001,1933,,,,,,,,,,,,
Hungary,Operator Holding Account,Magyar Földgáztároló Zrt.,01-10-045043,2005-01-01,open,Váci út,1138,Budapest,17319,17319,17319,15011,15011,17863,15011,15011,12913,12689,12462,6117,12001,11767,11530,11292,15453,14962,8125,11827,16082,3280,6364,7639,6674,10750,5008,8398,,,,,,30415,8125,11827,16082,3280,6364,7639,6674,10750,5008,8398,,,,
Hungary,Operator Holding Account,FGSZ Földgázszállító ZRt.,14-10-300230,2005-01-01,open,Tanácsház út,8600,Siófok,45855,45855,45855,87082,87082,97599,87082,87082,31366,28070,24863,21753,18740,15824,13002,10285,89647,83804,69509,78371,41442,38587,35378,29766,21299,30287,35676,40947,,,,,89647,83804,69509,78371,41442,38587,35378,29766,21299,30287,35676,40947,,,,
Hungary,Operator Holding Account,FGSZ Földgázszállító ZRt.,14-10-300230,2005-01-01,open,Tanácsház út,8600,Siófok,5533,5533,5533,11130,11130,11130,11130,11130,29241,26169,23179,10147,17470,14751,12121,9590,11459,13960,9459,4379,29865,46467,41572,47129,28642,36463,14114,40142,,,,,11458,13961,9459,45951,29865,46467,,47129,28642,36463,14114,40142,,,,
Hungary,Operator Holding Account,FGSZ Földgázszállító ZRt.,14-10-300230,2005-01-01,open,Tanácsház út,8600,Siófok,64436,64436,64436,43194,43194,43194,43194,43194,7774,33,29,26,22,19,15,12,44466,37409,25202,43012,27027,7223,996,9024,144,248,50,368,,,,,44466,37409,25202,71035,,7223,,9024,144,248,50,368,,,,
Hungary,Operator Holding Account,FGSZ Földgázszállító ZRt.,14-10-300230,2005-01-01,open,Tanácsház út,8600,Siófok,38410,38410,38410,27280,27280,27395,27280,27280,21908,0,0,0,0,0,0,0,28083,26017,29207,36178,4609,4655,764,14408,2729,436,117,2400,,,,,28083,26017,29207,36178,4609,4655,764,14408,2729,436,117,2400,,,,
Hungary,Operator Holding Account,FGSZ Földgázszállító ZRt.,14-10-300230,2005-01-01,open,Tanácsház út,8600,Siófok,13061,13061,13061,20999,20999,20999,20999,20999,16576,3712,6571,3,4954,4182,3437,2719,21617,24756,17322,21827,22469,9238,14439,20389,4460,8666,985,9595,,,,,21617,24756,17322,21827,22469,9238,14439,20389,4460,8666,985,9595,,,,
Hungary,Operator Holding Account,MOL Magyar Olaj- és Gázipari Nyrt,01-10-041683,2005-01-01,closed,Október huszonharmadika utca,1117,Budapest,15796,15796,15796,13688,13688,13688,0,0,,,,,,,,,13794,16312,14213,15276,14683,7562,,,,,,,,,,,13794,16312,14213,15276,14683,7562,,,,,,,,,,
Hungary,Operator Holding Account,MOL Magyar Olaj- és Gázipari Nyrt,01-10-041683,2005-01-01,closed,Október huszonharmadika utca,1117,Budapest,26582,26582,26582,22524,22524,22524,22524,22524,34819,34214,16802,0,0,0,0,0,22699,23415,19257,24256,24602,23131,18893,21978,22466,9947,581,,,,,,22699,23415,19257,24256,24602,23131,18893,21978,22466,9947,581,,,,,
Hungary,Operator Holding Account,MOL Magyar Olaj- és Gázipari Nyrt,01-10-041683,2005-01-01,closed,Október huszonharmadika utca,1117,Budapest,8687,8687,8687,0,0,0,0,0,,,,,,,,,10092,10558,8450,,,,,,,,,,,,,,10092,10558,8450,,,,,,,,,,,,,
Hungary,Operator Holding Account,MOL Magyar Olaj- és Gázipari Nyrt,01-10-041683,2005-01-01,closed,Október huszonharmadika utca,1117,Budapest,10645,10645,10645,,,,,,,,,,,,,,3924,,,,,Not Reported,,,,,,,,,,,3924,,,,,,,,,,,,,,,
Hungary,Operator Holding Account,MOL Magyar Olaj- és Gázipari Nyrt,01-10-041683,2005-01-01,closed,Október huszonharmadika utca,1117,Budapest,19922,19922,19922,22696,22696,22696,22696,22696,0,0,0,0,0,0,0,0,22872,21964,21186,18265,18451,20794,20479,13931,,,,,,,,,22872,21964,21186,59538,18451,,,13931,,,,,,,,
Hungary,Operator Holding Account,MOL Magyar Olaj- és Gázipari Nyrt,01-10-041683,2005-01-01,closed,Október huszonharmadika utca,1117,Budapest,34368,34368,34368,26444,26444,26444,26444,26444,,,,,,,,,26649,26888,22928,20954,19784,19108,17474,11760,,,,,,,,,26649,26888,22928,20954,19784,19108,17474,11760,,,,,,,,
Hungary,Operator Holding Account,MOL Magyar Olaj- és Gázipari Nyrt,01-10-041683,2005-01-01,open,Október huszonharmadika utca,1117,Budapest,43527,43527,43527,40844,40844,40844,40844,40844,23769,23356,22938,22516,22089,21658,21222,20785,41161,40193,35095,37712,34223,33374,30820,30381,25947,19342,19090,20152,,,,,41161,40193,35095,71086,34223,,30820,30381,25947,19342,19090,20152,,,,
Hungary,Operator Holding Account,Wienerberger Téglaipari  ZRt.,01-10-041706,2005-01-01,closed,Bártfai utca,1119,Budapest,22176,22176,22176,17125,17125,0,0,0,,,,,,,,,12366,19643,20388,9250,0,,,,,,,,,,,,12366,19643,20388,9250,,,,,,,,,,,,
Hungary,Operator Holding Account,MVM GTER Zrt.,13-10-041190,2005-01-01,open,Kinizsi utca,2040,Budaörs,6199,6199,6199,1637,1637,1639,1639,1639,0,0,0,0,0,0,0,0,2255,1749,2203,2165,1980,4122,7922,6459,3111,2430,4544,2499,,,,,2255,1749,2203,2328,2143,4287,7922,5968,3111,2430,4544,2499,,,,
Hungary,Operator Holding Account,MVM MIFŰ Miskolci Fûtõerõmû Kft.,05-09-009782,2005-01-01,open,Tatár utca,3531,Miskolc,68721,68721,68721,61024,61024,61024,61024,61024,21744,9729,4310,3772,6503,5496,4521,3581,66257,63677,59244,62096,58911,60704,44972,28195,22556,14042,13246,17669,,,,,66257,63677,59244,62096,58911,60704,44972,28195,22556,14042,13246,17669,,,,
Hungary,Operator Holding Account,MVM GTER Zrt.,13-10-041190,2005-01-01,open,Kinizsi utca,2040,Budaörs,2810,2810,2810,939,939,941,941,941,0,0,0,0,0,0,0,0,1288,1006,1384,1017,1874,1951,3631,3886,2364,2411,5255,2591,,,,,1288,1006,1384,1099,1967,2045,3631,3617,2364,2411,5255,2591,,,,
Hungary,Operator Holding Account,Magyaróvári Timföld és Mukorund Rt.,08-09-002065,2005-01-01,closed,Timföld utca,9200,Mosonmagyaróvár,16265,16265,16265,5566,0,0,0,0,,,,,,,,,5609,3144,1806,0,0,,,,,,,,,,,,5609,3144,1806,,,,,,,,,,,,,
Hungary,Operator Holding Account,Mátra Cukor Mátravidéki Cukorgyárak Rt.,10-10-020015,2005-01-01,closed,Radnóti tér,3000,Hatvan,52961,52961,52961,41548,0,0,0,0,,,,,,,,,48312,31878,23068,0,0,,,,,,,,,,,,48312,31878,23068,,,,,,,,,,,,,
Hungary,Operator Holding Account,Mátra Cukor Mátravidéki Cukorgyárak Rt.,10-10-020015,2005-01-01,closed,Radnóti tér,3000,Hatvan,55633,55633,55633,43644,0,0,0,0,,,,,,,,,37350,18510,24707,285,0,,,,,,,,,,,,37350,18510,24707,285,,,,,,,,,,,,
Hungary,Operator Holding Account,Mátrai Erõmû Zrt.,10-10-020024,2005-01-01,open,Erõmû utca,3271,Visonta,6794106,6794106,6794106,4888341,4610036,5039585,4799962,4767347,17344,17395,16247,15130,14044,12988,11960,10964,6232340,6243791,6387467,6240347,6170960,6341522,6619756,6275022,6332911,6420588,6363197,6483882,,,,,6109935,6243791,6509872,10850383,1560924,6341522,6619756,6275022,6332911,6420588,6363197,6535344,,,,
Hungary,Operator Holding Account,"MÁV Vasjármû Jármûjavító és Gyártó Kft. ""f.a.""",18-09-101225,2005-01-01,closed,Szövõ utca,9700,Szombathely,4145,4145,4145,4125,4125,4125,4125,4125,3102,1525,984,0,0,0,0,0,3563,3262,3273,2965,2416,2300,2305,1935,1333,834,513,,,,,,3563,3262,3273,2965,2416,2300,2305,1935,1333,834,513,,,,,
Hungary,Operator Holding Account,Mázai Téglagyár Ipari és Kereskedelmi Kft.,02-09-062896,2005-01-01,open,Téglagyár út,7351,Máza,5059,5059,5059,5287,5287,5287,5287,5287,682,670,658,646,634,621,609,596,2732,3275,3381,3497,1069,1242,1942,973,805,698,805,851,,,,,2732,3275,3381,3497,1069,1242,1942,973,805,698,805,851,,,,
Hungary,Operator Holding Account,MESZ Mosonmagyaróvár Energia Szolgáltató Kft.,08-09-011393,2005-01-01,open,Timföldgyári út,9200,Mosonmagyaróvár,74853,74853,74853,29707,29707,29707,29707,29707,16232,13972,12232,10892,9594,8334,7116,5941,32254,29820,25722,31274,33858,32268,21268,23967,22340,20294,10635,10027,,,,,32254,29820,25722,31274,33858,32268,21268,23967,22340,20294,10635,10027,,,,
Hungary,Operator Holding Account,MIHÕ Miskolci Hõszolgáltató Kft.,05-09-004544,2005-01-01,open,Gagarin utca,3534,Miskolc,9695,9695,9695,5239,5239,5239,5239,5239,2951,2640,2339,2046,1763,1489,1223,968,5688,4880,3373,3351,3617,4273,4831,5345,5544,4250,4404,4092,,,,,5723,4845,3373,3351,3617,4273,4831,5345,5544,4250,4404,4092,,,,
Hungary,Operator Holding Account,MVM MIFŰ Miskolci Fûtõerõmû Kft.,05-09-009782,2005-01-01,open,Tatár utca,3531,Miskolc,97436,97436,97436,60025,60025,60025,122014,60025,39365,32722,14492,12680,10923,9223,7578,5996,65172,62032,43978,28808,23788,23886,26887,31086,33695,17577,16078,20311,,,,,65180,62024,43978,28808,23788,23886,26887,31086,33695,17577,16078,20311,,,,
Hungary,Operator Holding Account,KRONOSPAN-MOFA Hungary Farostlemezgyártó Kft.,02-09-069663,2005-01-01,open,Budapesti országút,7700,Mohács,28581,28581,28581,26205,24817,37030,37098,25372,29564,29050,18748,16403,14130,11931,9804,7756,25009,7481,14969,27520,26773,35360,37536,25575,4253,297,290,9362,,,,,25009,7481,14969,27520,26773,35360,37536,25575,4253,297,290,9362,,,,
Hungary,Operator Holding Account,AC-DC Logisztikai Park Zrt.,16-10-001656,2005-01-01,closed,Tószegi út,5000,Szolnok,69366,69366,69366,51767,51767,51767,51767,51767,,,,,,,,,51252,44281,41932,10619,1420,893,151,238,,,,,,,,,51252,44281,41932,10770,1420,893,,238,,,,,,,,
Hungary,Operator Holding Account,Nagykanizsa Téglagyár Burkoló- és Falazóanyaggyártó Kft.,20-09-061402,2005-01-01,closed,Csengery utca,8800,Nagykanizsa,10515,10515,10515,6794,6794,6794,6794,6794,3266,0,0,0,0,0,0,0,5801,3007,3355,2968,2079,2244,1223,1081,67,Not Reported,,,,,,,5801,3007,3355,2968,2079,2244,1223,1081,67,,,,,,,
Hungary,Operator Holding Account,Nagykõrösi Konzervgyár ZRt.,13-10-040707,2005-01-01,closed,József Attila utca,2750,Nagykõrös,10659,10659,10659,,,,,,,,,,,,,,3741,1439,238,,,Not Reported,,,,,,,,,,,3741,1439,238,,,,,,,,,,,,,
Hungary,Operator Holding Account,Nestlé Hungária Kft.,05-09-003669,2005-01-01,open,Lechner Ödön fasor,1095,Budapest,9312,9312,9312,11901,11901,11901,11901,11901,6627,5930,5253,4596,3959,3343,2747,2173,11993,11244,10650,10073,8596,8426,11507,12114,13820,15434,15069,13680,,,,,11993,11244,10650,10073,8596,8426,11507,12114,13820,15434,15069,13680,,,,
Hungary,Operator Holding Account,Nitrogénmûvek ZRt.,19-10-000148,2005-01-01,open,Hõsök tere,8105,Pétfürdõ,20347,20347,20347,12854,12854,12854,12854,12854,763803,750108,736275,722317,708227,694020,679657,665262,12954,9707,28556,26156,23909,29890,20297,16084,673161,896107,768493,864224,,,,,12954,9707,28556,26156,23909,29890,20297,16084,673161,896107,768493,864224,,,,
Hungary,Operator Holding Account,Veolia Energia Magyarország Zrt.,13-10-041573,2005-01-01,open,Szabadság út,2040,Budaörs,126156,126156,126156,84006,84006,84006,84006,84006,49972,44895,40835,36853,32989,29246,25617,22112,91210,87151,47659,28479,39064,35434,44724,40569,57756,59548,61644,60291,,,,,91210,87151,47659,28479,39064,35434,44724,40569,57756,59548,61644,60291,,,,
Hungary,Operator Holding Account,Ózdi Acélmuvek Kft.,05-09-002456,2005-01-01,open,Max Aicher út,3600,Ózd,60003,60003,60003,39733,33934,33934,33934,33934,14857,29197,40950,40197,39435,38666,37887,37106,37083,46808,42605,55542,24653,16381,26770,11788,22030,22135,25201,32411,,,,,37083,46808,42605,55542,24653,16381,26770,11788,22030,22135,25201,32411,,,,
Hungary,Operator Holding Account,Ózdi Távhõtermelõ és Szolgáltató Kft.,05-09-004801,2005-01-01,open,Zrínyi út,3600,Ózd,27125,27125,27125,24109,24109,24109,24109,24109,11334,10143,8986,7865,6780,5729,4713,3732,26177,17442,15334,15904,15355,16454,14729,13851,14738,11751,12464,13878,,,,,26177,17442,15334,15904,15355,16454,14729,13851,14738,11751,12464,13878,,,,
Hungary,Operator Holding Account,Pankaszi Téglaipari Kft.,18-09-101662,2005-01-01,closed,Hrsz,9937,Pankasz,1671,1671,1671,,,,,,,,,,,,,,0,0,,,,Not Reported,,,,,,,,,,,1,,,,,,,,,,,,,,,
Hungary,Operator Holding Account,"Pannon Hõerõmû Energiatermelõ, Kereskedelmi és Szolgáltató ZRt.",02-10-060024,2005-01-01,open,Edison utca,7630,Pécs,375649,375649,375649,265611,265611,255873,255873,255873,92794,83041,36784,32196,27752,23452,19291,15280,255831,198566,182204,125427,101671,93729,61291,36926,11361,2748,4616,2829,,,,,255831,198566,677384,125427,101671,93729,61291,36926,11361,2748,4616,2829,,,,
Hungary,Operator Holding Account,Pannon Tégla Építõanyaggyártó és Kereskedelmi Kft.,02-09-060810,2005-01-01,open,József Attila utca,7623,Pécs,10789,10789,10789,2181,2181,0,0,0,,,,,,,,,2270,1659,1228,1276,1343,Not Reported,Not Reported,Not Reported,Not Reported,Not Reported,,,,,,,2270,1659,1228,1276,1343,,,,,,,,,,,
Hungary,Operator Holding Account,Pannon Tégla Építõanyaggyártó és Kereskedelmi Kft.,02-09-060810,2005-01-01,closed,József Attila utca,7623,Pécs,22875,22875,22875,3822,3822,0,0,0,,,,,,,,,2589,3999,2560,1575,126,Not Reported,,,,,,,,,,,2589,3999,2560,1701,,,,,,,,,,,,
Hungary,Operator Holding Account,Pápateszéri Téglaipari Kft.,19-09-501623,2005-01-01,open,Téglagyári utca,8556,Pápateszér,9855,9855,9855,6673,6673,6673,6673,6673,5345,5252,5157,5062,4967,4870,4771,4674,5818,5997,4048,7513,5437,4092,3663,6203,6042,11697,8823,11720,,,,,5306,6509,4048,7513,5437,4092,3663,5603,6642,11697,8823,11720,,,,
Hungary,Operator Holding Account,PICK SZEGED Szalámigyár és Húsüzem ZRt.,06-10-000065,2005-01-01,open,Szabadkai út,6725,Szeged,12870,12870,12870,13515,13515,13515,13515,13515,8060,7213,6389,5590,4816,4067,3342,2643,9562,11885,11059,11261,10465,11073,10765,10638,10010,9273,10199,10653,,,,,9562,11885,11059,11261,10465,11073,10765,10638,10010,9273,10199,10653,,,,
Hungary,Operator Holding Account,Piszkei Papír ZRt. f.a,13-10-041039,2005-01-01,closed,Rákóczi utca,2541,Lábatlan,28123,28123,28123,25148,25148,0,0,0,,,,,,,,,24898,24958,25468,16046,0,,,,,,,,,,,,24898,24958,37547,16046,,,,,,,,,,,,
Hungary,Operator Holding Account,Veolia Energia ZRt.,13-10-041573,2005-01-01,closed,Szabadság út,2040,Budaörs,10086,10086,10086,,,,,,,,,,,,,,9336,9161,8860,,,Not Reported,,,,,,,,,,,9336,9161,8860,,,,,,,,,,,,,
Hungary,Operator Holding Account,Veolia Energia ZRt.,13-10-041573,2005-01-01,closed,Szabadság út,2040,Budaörs,10859,10859,10859,6757,0,0,0,0,,,,,,,,,6809,2798,1823,592,0,,,,,,,,,,,,6809,2798,1823,592,,,,,,,,,,,,
Hungary,Operator Holding Account,RÁBA Futómû Gyártó és Kereskedelmi Kft.,08-09-008494,2005-01-01,open,Martin út,9027,Gyõr,21219,21219,21219,16045,16045,16045,16045,16045,15256,8935,7914,6923,5965,5036,4138,3273,16169,14893,13383,12893,5347,7475,6635,6714,6198,5622,5687,5673,,,,,16169,14893,13383,12893,5347,7475,6635,6714,6198,5622,5687,5673,,,,
Hungary,Operator Holding Account,RATH Hungária Tûzálló Kft,01-09-901930,2005-01-01,open,Porcelán utca,1106,Budapest,7671,7671,7671,8616,8616,8616,8616,8616,7061,6939,6814,6689,6562,6434,6304,6175,8386,7642,7138,6954,6607,6072,6272,5766,6420,5997,6039,5016,,,,,,16028,7138,6954,6607,6072,6272,5766,6420,5997,6039,5016,,,,
Hungary,Operator Holding Account,"Samsung SDI Magyarország Gyártó és Értékesítõ ZRt. ""v.a.""",13-10-040717,2005-01-01,closed,Ipartelep Hrsz,2132,Göd,13988,13988,13988,9215,9215,9215,9215,9215,1885,0,0,0,0,0,0,0,9287,12038,6567,2265,1539,1423,1166,1306,732,137,,,,,,,9287,12038,6567,2265,1539,1423,1166,1306,732,137,,,,,,
Hungary,Operator Holding Account,SÁTO Tojásfeldolgozó és Kereskedelmi Kft.,11-09-001771,2005-01-01,closed,Szél utca,1222,Budapest,938,938,938,,,,,,,,,,,,,,594,174,,,,Not Reported,,,,,,,,,,,,768,,,,,,,,,,,,,,
Hungary,Operator Holding Account,Tisza-Therm Fûtõerõmû Kft.,05-09-009230,2005-01-01,open,Tisza út,3580,Tiszaújváros,34704,34704,34704,32322,32322,32322,32322,32322,16529,14792,13104,11469,9886,8355,6872,5443,35094,32203,29434,29581,28692,30002,27934,26753,23480,16696,17337,17586,,,,,35094,32203,29434,29581,28692,30002,27934,26753,23480,16696,17337,17586,,,,
Hungary,Operator Holding Account,Veolia Energia ZRt.,13-10-041573,2005-01-01,open,Szabadság út,2040,Budaörs,37197,37197,37197,36096,36096,36096,36096,36096,6291,5630,9974,8730,7525,6359,5231,4143,39191,39579,36761,33376,29001,31127,23448,12810,14365,20153,20972,18865,,,,,39191,39579,36761,64503,29001,,23448,12810,14365,20153,20972,18865,,,,
Hungary,Operator Holding Account,Soproni Erõmû Kft.,08-09-019412,2005-01-01,open,Somfalvi utca,9400,Sopron,45276,45276,45276,32159,32159,32159,32159,32159,13614,11940,10497,9187,7920,6692,5505,4360,34917,37221,35407,33342,32731,30319,21567,15467,14828,12002,11034,12852,,,,,34917,37221,35407,33342,32731,30319,21567,15467,14828,12002,11034,12852,,,,
Hungary,Operator Holding Account,Sopron Holding Vagyonkezelõ Zrt.,08-10-001790,2005-01-01,open,Verõ József utca,9400,Sopron,13112,13112,13112,7266,7266,7266,7266,7266,3029,2710,2401,2100,1809,1528,1256,993,7889,4143,3823,4044,4411,3449,6701,9457,9556,5709,5417,4870,,,,,7889,4143,3871,4044,4411,5127,6701,9457,9556,5709,5417,4870,,,,
Hungary,Operator Holding Account,"R-GLASS Hungary Üvegipari Kft. ""f.a""",12-09-005025,2005-01-01,closed,Huta utca,3100,Salgótarján,18594,18594,18594,23920,23920,23920,23920,0,,,,,,,,,20723,17092,21626,18900,9063,7,7,Not Reported,,,,,,,,,20723,17092,21626,27970,,7,,,,,,,,,,
Hungary,Operator Holding Account,SVT WAMSLER Háztartástechnikai ZRt.,12-10-001509,2005-01-01,closed,Rákóczi út,3100,Salgótarján,5582,5582,5582,,,,,,,,,,,,,,5421,5520,5227,,,Not Reported,,,,,,,,,,,,10941,5227,,,,,,,,,,,,,
Hungary,Operator Holding Account,SZETÁV Kft.,06-09-022763,2005-01-01,closed,Vág utca,6722,Szeged,5090,5090,5090,5749,5749,5749,5749,5749,3598,3220,2853,2497,0,0,0,0,6113,6242,5335,5577,4381,5398,5119,4402,3648,3006,3421,2667,,,,,6113,6242,5335,5577,4381,5398,5119,4402,3648,3006,3421,2667,,,,
Hungary,Operator Holding Account,SZETÁV Kft.,06-09-022763,2005-01-01,open,Vág utca,6722,Szeged,12935,12935,12935,11477,11477,11477,11477,11477,7501,6713,5946,5202,4481,3784,3109,2460,12461,10967,9503,9701,8350,9536,11709,12105,11463,9901,11099,11405,,,,,,23428,9503,9701,8350,9536,11709,12105,11463,9901,11099,11405,,,,
Hungary,Operator Holding Account,SZETÁV Kft.,06-09-022763,2005-01-01,open,Vág utca,6722,Szeged,6938,6938,6938,4980,4980,4980,4980,4980,3287,2942,2606,2280,1964,1659,1363,1078,5407,5422,3677,3075,3144,3309,5314,7010,6534,5479,6277,6587,,,,,5407,5422,3677,3075,3144,3309,5314,7010,6534,5479,6277,6587,,,,
Hungary,Operator Holding Account,SZETÁV Kft.,06-09-022763,2005-01-01,open,Vág utca,6722,Szeged,7511,7511,7511,12611,12611,12611,12611,12611,6992,6257,5543,4852,4182,3534,2907,2303,12803,13692,12235,12769,12177,11956,11794,8897,7229,6074,6665,6807,,,,,12803,13692,12235,12769,12177,11956,11794,8897,7229,6074,6665,6807,,,,
Hungary,Operator Holding Account,SZETÁV Kft.,06-09-022763,2005-01-01,open,Vág utca,6722,Szeged,10399,10399,10399,7447,7447,8276,7447,7447,5748,5144,4556,3987,3434,2899,2382,1885,8086,7855,6779,5959,6742,9446,10693,11653,10733,9378,10485,11028,,,,,8086,7855,6779,5959,6742,9446,10693,11653,10733,9378,10485,11028,,,,
Hungary,Operator Holding Account,Szegedi Tudományegyetem,15237-26/2006,2005-01-01,closed,Dugonics tér,6725,Szeged,12116,12116,12116,,,,,,,,,,,,,,8263,7709,7166,,,Not Reported,,,,,,,,,,,8263,7709,7709,,,,,,,,,,,,,
Hungary,Operator Holding Account,SZÉPHŐ Székesfehérvári Épületfenntartó és Hőszolgáltató Zrt.,07-10-001064,2005-01-01,open,Honvéd u.1.,8000,Székesfehérvár,59259,59259,59259,56610,56610,56610,92787,56610,31254,27602,24452,21403,18449,15590,12824,10158,61464,49593,29512,26555,25703,25635,25062,31237,30469,31897,32963,21620,,,,,,111057,29512,26555,25703,25635,25062,31237,30469,31897,32963,21620,,,,
Hungary,Operator Holding Account,Szema Makó Téglagyártó Kft.,06-09-005207,2005-01-01,closed,Járandó utca,6900,Makó,5062,5062,5062,5209,5209,5209,5209,5209,,,,,,,,,3391,3515,4683,4186,1590,133,64,9,,,,,,,,,3079,3827,4683,4186,1590,133,64,9,,,,,,,,
Hungary,Operator Holding Account,Szentendrei Papírgyár ZRt.,13-10-040174,2005-01-01,closed,Dózsa György utca,2000,Szentendre,5927,5927,5927,0,0,0,0,0,,,,,,,,,3177,47,0,0,0,,,,,,,,,,,,3177,47,,,,,,,,,,,,,,
Hungary,Operator Holding Account,"Szentesi Téglagyár Ipari és Kereskedelmi Kft. ""f.a.""",06-09-008910,2005-01-01,open,Téglagyári út,6600,Szentes,9386,9386,9386,6996,6996,6996,0,0,,,,,,,,,5105,3688,4570,4490,1785,6,Not Reported,Not Reported,Not Reported,Not Reported,Not Reported,,,,,,4746,4047,4570,4490,1785,6,,,,,,,,,,
Hungary,Operator Holding Account,Szombathelyi Távhõszolgáltató Kft.,18-09-101139,2005-01-01,open,Március 15. tér,9700,Szombathely,36302,36302,36302,19792,19792,19792,19792,19792,9210,8242,7302,6391,5509,4655,3830,3033,37874,37017,27456,18301,19441,18246,16097,14629,15520,12424,15561,15413,,,,,37874,37017,27456,18301,19441,18246,16097,14629,15520,12424,15561,15413,,,,
Hungary,Operator Holding Account,Tapolcafõi Téglaipari Kft.,19-09-501555,2005-01-01,open,Tóradûlõ utca Hrsz,8598,Pápa,9535,9535,9535,7350,7350,7350,7350,7350,1792,1761,1730,2743,2692,2640,2586,2532,4916,4702,5371,4627,3890,2331,2753,1197,1567,1183,2143,2065,,,,,4797,4821,5371,4627,3890,2332,2753,1197,1567,1183,2143,2065,,,,
Hungary,Operator Holding Account,Salgó Vagyon Salgótarjáni Önkormányzati Vagyonkezelő és Távhőszolgáltató Kft.,12-09-001857,2005-01-01,open,Park út,3104,Salgótarján,18934,18934,18934,15634,15634,15634,15634,15634,6091,4971,4402,3850,3315,2798,2297,1816,16975,15678,13520,12229,6682,7475,6109,6256,5418,5149,3689,3845,,,,,16975,15678,13520,12229,6682,7475,6109,6256,5418,5149,3689,3845,,,,
Hungary,Operator Holding Account,Tatabánya Erõmû Kft.,11-09-006930,2005-01-01,open,Vájár köz,2800,Tatabánya,141789,141789,141789,137616,137616,137616,137616,137616,71823,63303,56080,49086,42310,35755,29412,23296,149417,139239,127670,129884,133112,130021,114061,100452,100593,86318,75317,40505,,,,,,288656,127670,262996,,130021,114061,100452,100593,86318,75317,40505,,,,
Hungary,Operator Holding Account,Dunakeszi Közüzemi Kft.,13-09-069212,2005-01-01,closed,Tallér utca,2120,Dunakeszi,7135,7135,7135,4474,4474,4474,4474,4474,,,,,,,,,4858,4354,3991,4014,3583,3827,4858,3827,,,,,,,,,4858,4354,7982,7597,,3827,4858,3828,,,,,,,,
Hungary,Operator Holding Account,TEVA Gyógyszergyár ZRt.,09-10-000016,2005-01-01,open,Pallagi út,4042,Debrecen,33224,33224,33224,36759,36759,36759,36759,46626,27825,27342,26853,26359,25860,25355,24845,24332,37044,30657,29184,29132,26902,31229,33185,46690,36443,42347,44805,46911,,,,,37044,30657,29184,62317,26902,31229,,46690,36443,42347,44805,46911,,,,
Hungary,Operator Holding Account,MOL Petrolkémia Zrt.,05-10-000065,2005-01-01,open,"TVK-Ipartelep, TVK Központi Irodaház Hrsz.",3581,Tiszaújváros,17854,17854,17854,1224945,1224945,1224945,1224945,1224945,842922,828282,813468,798501,783372,768097,752631,737110,78,69,27,1147068,1056552,1127707,1116721,916229,991726,995285,1069296,939223,,,,,78,69,27,1147068,1056552,1127707,1116721,916229,991726,995285,1069296,939223,,,,
Hungary,Operator Holding Account,Tolna Megyei Önkormányzat Balassa János Kórháza,66/2001 (X.12),2005-01-01,closed,Béri Balogh Ádám utca,7100,Szekszárd,6574,6574,6574,5301,5301,5301,5301,5301,,,,,,,,,5342,4454,4530,4697,3650,3028,2758,Not Reported,,,,,,,,,5342,4454,4530,4697,3650,3028,2758,1299,,,,,,,,
Hungary,Operator Holding Account,Tondach Magyarország Zrt.,08-10-001776,2005-01-01,open,Cserépgyári út,9300,Csorna,7839,7839,7839,8143,8143,8143,8143,8143,6064,5958,5852,5744,5635,5525,5414,5302,7319,7214,7478,7316,6892,5930,6763,6634,6574,6268,6017,5208,,,,,7319,7214,7478,14208,,5930,6763,6634,6574,6268,6017,5208,,,,
Hungary,Operator Holding Account,Tondach Magyarország Zrt.,08-10-001776,2005-01-01,closed,Cserépgyári út,9300,Csorna,28698,28698,28698,30289,30289,30289,30289,30289,12276,12063,0,0,0,0,0,0,26454,27444,26955,26473,15625,11529,7880,207,106,87,,,,,,,26454,27444,26955,42098,,11529,15760,,106,87,,,,,,
Hungary,Operator Holding Account,Tondach Magyarország Zrt.,08-10-001776,2005-01-01,closed,Cserépgyári út,9300,Csorna,23253,23253,23253,20674,0,0,0,0,,,,,,,,,21928,15306,17531,8611,0,,,,,,,,,,,,21928,15306,17531,8611,,,,,,,,,,,,
Hungary,Operator Holding Account,Tondach Magyarország Zrt.,08-10-001776,2005-01-01,open,Cserépgyári út,9300,Csorna,20723,20723,20723,21911,21911,83933,42585,44643,17342,17042,16736,16428,16117,15802,15485,15165,19931,21233,19202,24731,37661,32034,40697,42565,26491,32134,30177,32062,,,,,19931,21233,19202,62392,,32034,40697,42565,26491,32134,30177,32062,,,,
Hungary,Operator Holding Account,TVK-ERÕMÛ Termelõ és Szolgáltató Kft.,05-09-007873,2005-01-01,open,Gyári út TVK-Ipartelep,3580,Tiszaújváros,150293,150293,150293,169894,169894,169894,169894,169894,0,0,0,0,0,0,0,0,157691,171212,173211,178957,167696,153225,151594,151790,143963,142480,136469,168445,,,,,157691,171212,173211,178957,167696,153225,151594,151790,143963,142480,136469,168445,,,,
Hungary,Operator Holding Account,UNILEVER Magyarország Gyártó és Kereskedelmi Kft.,01-09-078247,2005-01-01,closed,Váci út,1138,Budapest,9917,9917,9917,,,,,,,,,,,,,,4329,1966,,,,Not Reported,,,,,,,,,,,4330,1965,,,,,,,,,,,,,,
Hungary,Operator Holding Account,URSA Salgótarjáni Üveggyapot ZRt.,01-10-046746,2005-01-01,closed,Budapesti út,3104,Salgótarján,9659,9659,9659,10790,10790,0,0,0,,,,,,,,,10159,10001,10126,8778,2301,,,,,,,,,,,,,20160,10126,8778,2301,,,,,,,,,,,
Hungary,Operator Holding Account,Váci Távhõszolgáltatási Kft.,13-09-072931,2005-01-01,closed,Zrínyi utca,2600,Vác,7604,7604,7604,6067,6067,6067,6067,6067,3934,3520,0,0,0,0,0,0,6587,5807,4817,4686,3708,4097,5138,5041,4872,2205,,,,,,,6587,5807,4817,4686,3708,4097,5318,4861,4872,2205,,,,,,
Hungary,Operator Holding Account,Várpalotai Közüzemi Kft.,19-09-505188,2005-01-01,open,Fehérvári út,8100,Várpalota,16823,16823,16823,16142,16142,16142,16142,16142,10278,9197,8148,7131,6147,5195,4273,3385,17526,16295,14472,14685,13505,14365,12250,11496,7386,8295,9298,10502,,,,,17526,16295,14472,14685,13505,14365,12250,11496,7386,8295,9298,10502,,,,
Hungary,Operator Holding Account,Vértesi Erőmű Zrt.,11-10-001396,2005-01-01,open,Külterület Hrsz,2840,Oroszlány,1728503,1728503,1728503,1266114,1266114,966577,966577,966577,23067,19081,15521,0,0,0,0,0,1702685,1558331,1630456,1352479,913176,722135,957379,1172883,1037920,665585,427101,,,,,,1702685,1558331,1630456,1352479,913176,722135,957379,1172883,1037920,665585,427101,,,,,
Hungary,Operator Holding Account,Videoton Holding ZRt.,07-10-001107,2005-01-01,closed,Berényi utca,8000,Székesfehérvár,5576,5576,5576,,,,,,,,,,,,,,3087,0,,,,Not Reported,,,,,,,,,,,3087,,,,,,,,,,,,,,,
Hungary,Operator Holding Account,Videoton Holding ZRt.,07-10-001107,2005-01-01,closed,Berényi utca,8000,Székesfehérvár,16760,16760,16760,12967,12967,12967,12967,12967,,,,,,,,,13068,11865,10124,8764,6764,5688,4691,3191,Not Reported,Not Reported,,,,,,,13068,11865,10124,8764,6764,5688,4691,3191,,,,,,,,
Hungary,Operator Holding Account,Villeroy & Boch Magyarország Kft.,06-09-012295,2005-01-01,open,Erzsébeti út,6800,Hódmezõvásárhely,24358,24358,24358,29564,29564,29564,29564,29564,24376,23953,23524,23091,22653,22212,21765,21316,26266,26761,24793,23837,20497,22292,22710,19295,18438,16902,17013,16948,,,,,26266,26761,24793,23837,20497,22292,22710,19295,18438,16902,17013,16948,,,,
Hungary,Operator Holding Account,Wescast Hungary Autóipari Rt.,11-10-001581,2005-01-01,closed,Szent Borbála út,2840,Oroszlány,402,402,402,,,,,,,,,,,,,,170,311,278,,,Not Reported,,,,,,,,,,,170,311,278,,,,,,,,,,,,,
Hungary,Operator Holding Account,Wienerberger Téglaipari  ZRt.,01-10-041706,2005-01-01,open,Bártfai utca,1119,Budapest,46938,46938,46938,45804,45804,45804,45804,45804,15192,14929,14661,20246,14120,13844,13565,13285,36041,33029,34610,24946,13100,17595,16432,8300,11263,11667,14697,11561,,,,,36041,33029,34610,24946,13100,17595,16432,8300,11263,11667,14697,11561,,,,
Hungary,Operator Holding Account,Wienerberger Téglaipari  ZRt.,01-10-041706,2005-01-01,closed,Bártfai utca,1119,Budapest,20564,20564,20564,,,,,,,,,,,,,,11560,,,,,Not Reported,,,,,,,,,,,11560,,,,,,,,,,,,,,,
Hungary,Operator Holding Account,Wienerberger Téglaipari  ZRt.,01-10-041706,2005-01-01,closed,Bártfai utca,1119,Budapest,67345,67345,67345,41549,41549,41549,41549,41549,,,,,,,,,38425,38148,27849,28262,7624,19971,15560,234,,,,,,,,,38425,38148,27849,28262,7624,19971,15560,234,,,,,,,,
Hungary,Operator Holding Account,Wienerberger Téglaipari  ZRt.,01-10-041706,2005-01-01,closed,Bártfai utca,1119,Budapest,50159,50159,50159,55130,55130,55130,55130,55130,,,,,,,,,39268,31561,36287,29210,19675,11,365,228,,,,,,,,,39268,31561,36287,29210,19675,11,365,228,,,,,,,,
Hungary,Operator Holding Account,Wienerberger Téglaipari  ZRt.,01-10-041706,2005-01-01,closed,Bártfai utca,1119,Budapest,23881,23881,23881,29648,29648,0,0,0,,,,,,,,,24859,27164,22507,16606,0,Not Reported,,,,,,,,,,,24859,27164,22507,16606,,,,,,,,,,,,
Hungary,Operator Holding Account,Wienerberger Téglaipari  ZRt.,01-10-041706,2005-01-01,closed,Bártfai utca,1119,Budapest,39821,39821,39821,39345,39345,0,0,0,,,,,,,,,17494,29624,33537,23841,0,Not Reported,,,,,,,,,,,17494,29624,33537,23841,,,,,,,,,,,,
Hungary,Operator Holding Account,Wienerberger Téglaipari  ZRt.,01-10-041706,2005-01-01,closed,Bártfai utca,1119,Budapest,51597,51597,51597,49971,49971,49971,49971,0,,,,,,,,,43075,49072,42832,29557,142,12,0,,,,,,,,,,43075,49072,42832,29557,142,12,49971,,,,,,,,,
Hungary,Operator Holding Account,Wienerberger Téglaipari  ZRt.,01-10-041706,2005-01-01,closed,Bártfai utca,1119,Budapest,32324,32324,32324,23205,23205,23205,23205,0,,,,,,,,,16740,25637,26384,22319,8,11,0,,,,,,,,,,16740,25637,26384,45524,8,11,,,,,,,,,,
Hungary,Operator Holding Account,Wienerberger Téglaipari  ZRt.,01-10-041706,2005-01-01,closed,Bártfai utca,1119,Budapest,19437,19437,19437,16217,16217,16217,16217,0,,,,,,,,,14335,11015,18676,14233,16,13,0,,,,,,,,,,14335,11015,18676,14233,16,13,16217,,,,,,,,,
Hungary,Operator Holding Account,Wienerberger Téglaipari  ZRt.,01-10-041706,2005-01-01,closed,Bártfai utca,1119,Budapest,30502,30502,30502,30997,30997,30997,30997,30997,,,,,,,,,25561,25717,24506,24965,5752,7,180,151,,,,,,,,,25561,25717,24506,24965,5752,7,180,151,,,,,,,,
Hungary,Operator Holding Account,Wienerberger Téglaipari  ZRt.,01-10-041706,2005-01-01,closed,Bártfai utca,1119,Budapest,12654,12654,12654,14250,14250,0,0,0,,,,,,,,,13925,13889,11565,5093,0,Not Reported,,,,,,,,,,,13925,13889,11565,5093,,,,,,,,,,,,
Hungary,Operator Holding Account,Wienerberger Téglaipari  ZRt.,01-10-041706,2005-01-01,closed,Bártfai utca,1119,Budapest,13478,13478,13478,,,,,,,,,,,,,,8,,,,,Not Reported,,,,,,,,,,,8,,,,,,,,,,,,,,,
Hungary,Operator Holding Account,Wienerberger Téglaipari  ZRt.,01-10-041706,2005-01-01,closed,Bártfai utca,1119,Budapest,14667,14667,14667,,,,,,,,,,,,,,3774,,,,,Not Reported,,,,,,,,,,,3774,,,,,,,,,,,,,,,
Hungary,Operator Holding Account,Austria Juice Hungary Kft.,15-09-061873,2005-01-01,open,Nyíregyházi út,4800,Vásárosnamény,8741,8741,8741,5882,5882,5882,5882,5882,4876,4363,3865,3382,2913,2459,2021,1599,5928,6341,4000,6533,6634,6074,4661,6821,5843,7209,4972,5117,,,,,5928,6341,4000,6533,6634,6074,4661,6821,5843,7209,4972,5117,,,,
Hungary,Operator Holding Account,Austria Juice Hungary Kft.,15-09-061873,2005-01-01,open,Nyíregyházi út,4800,Vásárosnamény,4693,4693,4693,2752,2752,2752,2752,2752,2970,2657,2354,2059,1774,1498,1231,974,2773,3562,271,4274,4072,3648,561,4915,4303,5268,3185,4214,,,,,2773,3562,271,4274,4072,3648,561,4915,4303,5268,3185,4214,,,,
Hungary,Operator Holding Account,ZALAKERÁMIA ZRt.,20-10-040232,2005-01-01,closed,Rákóczi út,8946,Tófej,1309,1309,1309,,,,,,,,,,,,,,772,332,,,,Not Reported,,,,,,,,,,,756,348,,,,,,,,,,,,,,
Hungary,Operator Holding Account,ZALAKERÁMIA ZRt.,20-10-040232,2005-01-01,open,Rákóczi út,8946,Tófej,11955,11955,11955,13083,13083,13083,13083,13083,7987,7849,7708,7567,7423,7279,7132,6984,10111,10395,9767,9494,8107,8688,9111,8658,8507,8619,9176,9240,,,,,10007,10499,9767,9494,8107,8688,9111,8658,8507,8619,9176,9240,,,,
Hungary,Operator Holding Account,ZALAKERÁMIA ZRt.,20-10-040232,2005-01-01,open,Rákóczi út,8946,Tófej,23643,23643,23643,25349,25349,25349,25349,25349,21061,20695,20326,19952,19573,19191,18805,18418,21934,21937,25305,25789,17611,16444,17976,19260,19581,19280,20445,20154,,,,,21934,21937,25305,25789,17612,16444,17976,19259,19581,19280,20445,20154,,,,
Hungary,Operator Holding Account,Zoltek ZRt.,11-10-001447,2005-01-01,open,Varga József tér,2537,Nyergesújfalu,77094,77094,77094,62246,52600,52600,53117,52600,49489,24315,47760,46881,45993,45096,44188,43277,49457,59483,68375,63163,43271,40549,53056,45627,25813,40724,45314,45889,,,,,49457,59483,68375,63163,43271,40549,53056,45627,25813,40724,45314,45889,,,,
Hungary,Operator Holding Account,Wienerberger Téglaipari  ZRt.,01-10-041706,2005-01-01,open,Bártfai utca,1119,Budapest,,,,17711,17711,17711,17711,17711,13810,16833,11470,11259,15920,15610,15295,14980,6128,15021,21833,23131,7608,10207,11444,8954,10305,9670,11183,19592,,,,,,15021,27961,23131,7608,10207,11444,8954,10305,9670,11183,19592,,,,
Hungary,Operator Holding Account,CREATON South-East Europe Kft.,20-09-066613,2005-01-01,open,Cserépgyár utca,8960,Lenti,,,,23759,6259,38284,23007,23444,19454,19117,18774,18429,18080,17727,17370,17013,3877,5636,5480,14961,20577,22617,22380,22827,21513,21842,22504,22718,,,,,,9513,5480,23397,12141,22617,22380,22827,21513,21842,22504,22718,,,,
Hungary,Operator Holding Account,Zugló-Therm Kft.,01-09-717404,2005-01-01,open,II. János Pál pápa tér,1081,Budapest,,,,49556,49556,49556,49556,49556,16397,14673,12999,11378,9807,8288,6817,5400,29806,53806,52459,53260,52426,52143,48767,46974,30274,39447,46320,44696,,,,,,83612,52459,53260,52426,52143,48767,46974,30274,39447,46320,44696,,,,
Hungary,Operator Holding Account,Swietelsky Magyarország Kft.,01-09-897738,2005-01-01,open,Rákóczi út 42.,1072,Budapest,,,,3938,3938,3938,3938,3938,931,0,0,0,0,0,0,0,3253,3969,2838,1796,2391,1744,821,959,1770,0,Not Reported,,,,,,,7222,2838,1796,2391,1744,821,959,1770,,,,,,,
Hungary,Operator Holding Account,CHP-ERÕMÛ Kft.,01-09-861479,2005-01-01,open,Késmárk utca,1158,Budapest,,,,54696,54696,54696,54696,54696,19193,17176,15215,13318,11480,9702,7980,6320,30235,59386,61578,62800,61205,62187,58707,58172,56631,38283,46122,54863,,,,,,89621,62308,62800,61205,62187,58707,58172,56631,38283,46122,54863,,,,
Hungary,Operator Holding Account,Paksi Téglagyár Kft. f.a,19-09-508981,2005-01-01,closed,Dózsa György utca,8252,Balatonszepezd,,,,0,0,0,0,0,,,,,,,,,1356,1354,Not Reported,0,0,,,,,,,,,,,,,2710,,,,,,,,,,,,,,
Hungary,Operator Holding Account,TECHCON Környezetvédelmi és Energetikai Szolgáltató Kft.,09-09-005053,2005-01-01,closed,Hajdú út,4090,Polgár,,,,0,0,0,0,0,,,,,,,,,,Not Reported,Not Reported,0,0,Not Reported,Not Reported,,,,,,,,,,,,,,,,,,,,,,,,,
Hungary,Operator Holding Account,LAFARGE Cement Magyarország Kft.,02-09-077877,2005-01-01,closed,Hrsz,7953,Királyegyháza,,,,0,0,0,0,0,,,,,,,,,,,Not Reported,0,0,,,,,,,,,,,,,,,,,,,,,,,,,,,
Hungary,Operator Holding Account,DCC Energia Kft.,01-09-736500,2005-01-01,closed,Váci út,1138,Budapest,,,,25448,0,48846,13644,0,8647,0,0,0,0,0,0,0,,24757,26170,29743,27747,28370,18512,11582,2237,,,,,,,,,24757,26170,29743,27748,28370,18512,11582,2237,,,,,,,
Hungary,Operator Holding Account,NYKCE Nyíregyházi Kombinált Ciklusú Erõmû Kft.,15-09-069468,2005-01-01,closed,Bethlen Gábor utca,4400,Nyíregyháza,,,,117732,0,155229,54221,56281,25441,0,0,0,0,0,0,0,,,85807,132112,76155,101766,63239,63285,16324,,,,,,,,,,85807,132112,76155,101766,63239,63285,16324,,,,,,,
Hungary,Operator Holding Account,Dunafin Zrt.,07-10-001469,2008-01-02,open,Papírgyári út,2400,Dunaújváros,,,,7664,0,13397,7358,6808,42312,41577,40834,40083,39323,38556,37780,37001,,,,7667,6405,6922,7322,6808,6916,7112,7530,7886,,,,,,,,7667,6405,6996,7248,6808,6916,7112,7530,7886,,,,
Hungary,Operator Holding Account,MOL Magyar Olaj- és Gázipari Nyrt,01-10-041683,2007-11-27,closed,Október huszonharmadika utca,1117,Budapest,,,,166971,0,153597,104168,70113,0,0,0,0,0,0,0,0,,,10485,205116,82890,109751,134306,90162,129404,100920,105734,93106,,,,,,,10485,205116,82890,109751,134306,90162,129404,100920,105734,93106,,,,
Hungary,Operator Holding Account,MVM MIFŰ Miskolci Fûtõerõmû Kft.,05-09-009782,2007-03-02,open,Tatár utca,3531,Miskolc,,,,58315,0,132034,0,50937,24458,10944,0,0,0,0,0,0,,,21968,56882,59818,67303,59994,49872,22855,236,61,0,,,,,,,21968,56882,59818,67303,59994,49872,22855,236,61,,,,,
Hungary,Operator Holding Account,SZÉPHŐ Székesfehérvári Épületfenntartó és Hőszolgáltató Zrt.,07-10-001064,2007-05-14,open,Honvéd u.1.,8000,Székesfehérvár,,,,47999,0,92720,0,22380,16613,14867,6585,5764,9937,8397,6907,5471,,,27159,52609,50700,52918,39808,23250,26974,13073,17814,25584,,,,,,,27159,52609,50700,52918,39808,22380,27844,13073,17814,25584,,,,
Hungary,Operator Holding Account,ENERGOTT Kft.,07-09-009689,2007-07-27,open,Építõk útja,2400,Dunaújváros,,,,42968,0,74934,33754,19441,15548,13914,12327,10789,9299,7859,6464,5121,,,2202,45377,42408,38633,35650,20138,28618,23206,25882,21874,,,,,,,2202,45377,42408,38633,35650,20138,28618,23206,25882,21874,,,,
Hungary,Operator Holding Account,INOTAL Alumíniumfeldolgozó Zrt.,07-10-001361,2007-09-27,open,Nagyszombati út,8000,Székesfehérvár,,,,10774,0,20675,11525,11550,9017,8861,8702,8542,8380,8217,8051,7885,,,7514,10707,9140,11503,11387,11504,12260,13584,14463,15558,,,,,,,7514,18922,925,11503,11387,11504,12260,13584,14463,15558,,,,
Hungary,Operator Holding Account,Columbian Tiszai Koromgyártó Kft.,05-09-002252,2008-01-18,open,TVK Ipartelep Hrsz,3581,Tiszaújváros,,,,159202,155279,228189,207461,214591,187370,184115,180823,177495,174133,170737,167299,163849,,,,135071,114343,193907,208666,171313,177770,169779,187479,201654,,,,,,,,135071,114343,193907,208666,171313,177770,169779,187479,201654,,,,
Hungary,Operator Holding Account,MVM Észak-Budai Kogenerációs Futoeromu Kft.,01-09-866997,2008-03-28,open,Kunigunda utca,1037,Budapest,,,,157951,0,314254,126613,144107,70490,63081,55883,48913,42162,35630,29309,23214,,,,160345,157445,172279,129792,142916,133278,126637,142433,148186,,,,,,,,160345,157445,172279,129792,142916,133278,126637,142433,148186,,,,
Hungary,Operator Holding Account,Hankook Tire Magyarország Kft.,07-09-012055,2007-06-22,open,Hankook tér,2459,Rácalmás,,,,12611,0,27001,25726,29138,13473,13239,13003,12763,12522,12277,12030,11782,,,5789,12590,13176,15341,24714,29202,29469,32118,39908,40249,,,,,,,5789,12590,13176,15341,24714,29202,29469,32118,39908,40249,,,,
Hungary,Operator Holding Account,"Energo-Hõterm Beruházó, Mûködtetõ Kft.",07-09-011475,2007-07-23,open,Építok útja,2400,Dunaújváros,,,,42494,0,83319,38425,23399,16794,15029,13315,11654,10046,8489,6983,5531,,,3247,44317,46692,41179,39554,22733,33123,24781,30990,30001,,,,,,,3247,44317,46692,41179,39554,22733,33123,24781,30990,30001,,,,
Hungary,Operator Holding Account,"""My-Tech Invest"" Kft.",01-09-739727,2007-04-17,closed,Újházi utca,1119,Budapest,,,,,,,,,,,,,,,,,,,,0,0,Not Reported,Not Reported,Not Reported,,,,,,,,,,,,,,,,,,,,,,,,
Hungary,Operator Holding Account,Bakonyi Kombiciklus Erõmûépítõ és Fejlesztõ Kft.,19-09-504669,2005-01-01,closed,Gyártelep Hrsz,8400,Ajka,,,,0,0,0,0,0,,,,,,,,,,,,0,0,,,,,,,,,,,,,,,,,,,,,,,,,,,
Hungary,Operator Holding Account,HAMBURGER Hungária Kft.,07-09-017523,2007-07-13,open,Papírgyári út,2400,Dunaújváros,,,,0,0,131683,96107,101864,121136,119032,116903,114752,112578,110382,108160,105930,,,,0,41030,96199,95293,101864,103028,82644,0,0,,,,,,,,,41030,96199,95293,101864,103028,82644,,,,,,
Hungary,Operator Holding Account,STRABAG Általános Éptő Kft.,01-09-930940,2008-09-01,closed,Gábor Dénes utca,1117,Budapest,,,,0,0,6303,0,0,,,,,,,,,,,,1209,6303,0,Not Reported,,,,,,,,,,,,,1209,6303,,,,,,,,,,,
Hungary,Operator Holding Account,Perkons Tarján Energiaszolgáltató Kft,07-09-024290,2008-09-23,open,Építők útja 7.,2400,Dunaújváros,,,,1920,0,52413,17717,6710,0,0,0,0,0,0,0,0,,,,3243,30565,26777,19560,6922,9145,6766,13029,13842,,,,,,,,3243,30565,26777,19560,6922,9145,6766,13029,13842,,,,
Hungary,Operator Holding Account,BC-Therm Kft.,01-09-887812,2008-09-12,open,Váci út,1138,Budapest,,,,0,0,77036,61052,95952,0,0,0,0,0,0,0,0,,,,0,39032,33773,56409,89953,98288,78165,92055,79563,,,,,,,,,39032,33773,56409,89953,98288,78165,92055,79563,,,,
Hungary,Operator Holding Account,Rockwool Hungary Szigetelõanyag Gyártó és Kereskedelmi Kft.,19-09-060041,2008-04-25,open,Keszthelyi út,8300,Tapolca,,,,20724,20724,20724,20724,20724,21968,21587,21201,20811,20416,20018,19615,19211,,,,19267,19596,21665,27453,24919,26279,25794,28771,28271,,,,,,,,19267,19596,21665,27453,24919,26279,25794,28771,28271,,,,
Hungary,Operator Holding Account,Hydro Extrusion Hungary,07-09-012901,2008-12-22,open,Verseci út,8000,Székesfehérvár,,,,,,,,,11175,10981,7086,6200,5342,4510,3706,2932,,,,Not Reported,9622,12377,13012,11707,11881,9068,7780,7656,,,,,,,,13012,9622,12377,,11707,11881,9068,7780,7656,,,,
Hungary,Operator Holding Account,BHD Hõerõmû Zrt.,01-10-045707,2007-08-15,closed,Ó utca,1066,Budapest,,,,,,,,,,,,,,,,,,,,0,0,Not Reported,Not Reported,Not Reported,,,,,,,,,,,,,,,,,,,,,,,,
Hungary,Operator Holding Account,Kunsági Téglaipari Kft.,16-09-002664,2009-04-15,open,Külterület Hrsz,5310,Kisújszállás,,,,0,0,7208,3711,2684,3010,2958,2905,2852,2797,2743,2687,2633,,,,,3180,3964,4126,3426,4020,4380,5716,3205,,,,,,,,3180,,3964,4126,3426,4020,4380,5716,3205,,,,
Hungary,Operator Holding Account,AES BORSOD CFB VILLAMOSIPARI TERMELÕ ÉS SZOLGÁLTATÓ KFT,05-09-013237,2009-12-30,closed,Ipari út,3700,Kazincbarcika,,,,,,,,,,,,,,,,,,,,,0,0,0,Not Reported,,,,,,,,,,,,,,,,,,,,,,,,
Hungary,Operator Holding Account,DBM Dél-nyírségi Bioenergia Mûvek Energiatermelõ Zrt.,15-10-040341,2009-03-05,closed,Hrsz,4234,Szakoly,,,,,,,,,0,0,0,0,0,0,0,0,,,,,338,396,178,76,0,,,,,,,,,,,,339,396,178,,75,,,,,,,
Hungary,Operator Holding Account,TECHCON Környezetvédelmi és Energetikai Szolgáltató Kft.,09-09-005053,2009-08-24,closed,Hajdú út,4090,Polgár,,,,,,,,,,,,,,,,,,,,,0,0,Not Reported,Not Reported,Not Reported,Not Reported,,,,,,,,,,,,,,,,,,,,,,
Hungary,Operator Holding Account,LAFARGE Cement Magyarország Kft.,02-09-077877,2009-10-12,open,Hrsz,7953,Királyegyháza,,,,0,0,0,78096,327249,544653,267597,262811,515950,506175,496304,486311,476283,,,,,0,0,78087,327096,163854,209538,303575,308276,,,,,,,,78087,,,,327096,163854,209538,303575,308276,,,,
Hungary,Operator Holding Account,MMBF Zrt.,01-10-045494,2009-07-17,open,Montevideo utca,1037,Budapest,,,,0,0,19190,12631,10772,14238,12742,11286,9875,8507,7183,5902,4669,,,,,8639,10428,12631,10772,10554,13716,10418,8672,,,,,,,,23059,8639,,,10772,10554,13716,10418,8672,,,,
Hungary,Operator Holding Account,BE Optimum Kft.,01-09-916341,2010-04-28,open,Budafoki út,1117,Budapest,,,,0,0,15673,25757,6246,12477,11165,9891,8658,7463,6306,5187,4109,,,,,,16144,26670,6425,23314,26467,0,0,,,,,,,,,,19499,26670,3070,23314,26467,,,,,,
Hungary,Operator Holding Account,DRENIK Hungary Kft.,16-09-016374,2010-05-17,open,Piroskai út,5000,Szolnok,,,,0,0,0,5300,0,1968,7735,7597,7457,7316,7173,7029,6884,,,,,,4083,5299,2860,7987,8444,7226,8196,,,,,,,,,,,,,,19291,7735,17069,,,,
Hungary,Operator Holding Account,MVM GTER Zrt.,13-10-041190,2010-09-14,open,Kinizsi utca,2040,Budaörs,,,,0,0,0,3218,6916,0,0,0,0,0,0,0,0,,,,,,Not Reported,3013,7220,4348,5023,6742,4154,,,,,,,,,,,3013,7220,4348,5023,6742,4154,,,,
Hungary,Operator Holding Account,Uniper Hungary Kft.,01-09-868587,2010-07-22,open,Széchenyi István tér,1051,Budapest,,,,0,0,0,348364,445686,0,0,0,0,0,0,0,0,,,,,,Not Reported,362623,465355,104228,257734,353488,560268,,,,,,,,,,,362623,465355,104228,257734,353488,560268,,,,
Hungary,Operator Holding Account,Mercedes-Benz Manufacturing Hungary Kft.,03-09-119767,2010-10-06,open,Mercedes út,6000,Kecskemét,,,,0,0,1180,8772,14712,16119,14425,19444,19086,18724,18359,17990,17619,,,,,,1179,8772,14712,17286,15271,15064,14110,,,,,,,,,,1179,8772,14712,17286,15271,15064,14110,,,,
Hungary,Operator Holding Account,Wienerberger Téglaipari  ZRt.,01-10-041706,2010-01-05,open,Bártfai utca,1119,Budapest,,,,0,0,19072,20772,14629,26515,26055,15854,25118,24642,24161,23675,23187,,,,,,19056,20774,15914,16460,8993,16137,21929,,,,,,,,,,19056,20774,15914,16460,8993,16137,21929,,,,
Hungary,Operator Holding Account,FGSZ Földgázszállító ZRt.,14-10-300230,2011-09-26,open,Tanácsház út,8600,Siófok,,,,,,,,120,,,,,,,,,,,,,,,52,120,29,21,72,20,,,,,,,,52,,,,120,29,21,72,20,,,,
Hungary,Operator Holding Account,PIONEER HI-BRED,13-10-040666,2011-12-08,open,Neumann János utca,2040,Budaörs,,,,0,0,0,16,3051,3231,2892,2562,2242,1933,1633,1343,1064,,,,,,,16,3053,7048,5025,2381,3913,,,,,,,,,,,16,3053,7048,5025,2381,3913,,,,
Hungary,Operator Holding Account,MOL Magyar Olaj- és Gázipari Nyrt,01-10-041683,2005-01-01,closed,Október huszonharmadika utca,1117,Budapest,9570,9570,9570,8613,0,0,0,0,,,,,,,,,8680,7673,11316,9668,0,,,,,,,,,,,,8680,7673,11316,9668,,,,,,,,,,,,
Hungary,Operator Holding Account,MOL Magyar Olaj- és Gázipari Nyrt,01-10-041683,2005-01-01,open,Október huszonharmadika utca,1117,Budapest,1383170,1383170,1383170,1282403,1282403,1282403,1282403,1282403,1284526,1261999,1239221,1216212,1192966,1169506,1145761,1121943,1317231,1345427,1430045,1423114,1339210,1371511,1452219,1399872,1333085,1396850,1452871,1368268,,,,,1317231,1345427,1430045,1423114,1339210,1371511,1452219,1399872,1333085,1396850,1452871,1368268,,,,
Hungary,Operator Holding Account,Magyar Suzuki ZRt.,11-10-001371,2005-01-01,open,Schweidel József utca,2500,Esztergom,8566,8566,8566,25233,17302,17302,17302,17302,15893,14224,19173,18820,18463,18103,17739,17373,17436,18144,20243,22663,15042,15105,13937,12454,13018,11016,14985,17052,,,,,,35580,20243,22663,15042,15105,13937,12454,13018,11016,14985,17052,,,,
Hungary,Operator Holding Account,Rába Energiaszolgáltató Kft.,01-09-944154,2005-01-01,open,Martin út 1,9027,Győr,57319,57319,57319,35226,35226,35226,35226,35226,8794,7870,6972,6102,5260,4444,3656,2896,25643,35499,31035,23222,25763,29909,9673,9069,13883,6498,6322,6535,,,,,25643,35499,31035,23222,25763,29909,9673,9069,13883,6498,6322,6535,,,,
Hungary,Operator Holding Account,ESZAT Kft.,15-09-062619,2005-01-01,open,Jármi út,4700,Mátészalka,2273,2273,2273,1525,1525,1525,1525,1525,1148,1028,911,797,686,580,476,377,1537,1477,1261,1694,581,1726,1097,1669,2009,2675,2033,1989,,,,,1537,1477,1261,3388,,1726,1098,1413,2009,2675,2033,1989,,,,
Hungary,Operator Holding Account,MOL Magyar Olaj- és Gázipari Nyrt,01-10-041683,2005-01-01,open,Október huszonharmadika utca,1117,Budapest,122285,122285,122285,137790,137790,137790,137790,137790,122624,120494,118339,58081,113961,111738,109488,107231,138859,136338,123846,133012,120664,109574,78933,74340,76508,74303,62705,76582,,,,,138859,136338,123846,253676,,109574,78933,74340,76508,74303,62705,76582,,,,
Hungary,Operator Holding Account,MVM GTER Zrt.,13-10-041190,2005-01-01,open,Kinizsi utca,2040,Budaörs,1541,1541,1541,1064,1064,1066,1066,1066,0,0,0,0,0,0,0,0,1479,1098,1641,1123,1115,1878,4413,2608,1571,2121,1246,1590,,,,,1479,1098,1641,1229,1221,1984,4413,2290,1571,2121,1246,1590,,,,
Hungary,Operator Holding Account,ALMEX '96 Kft.,04-09-005578,2005-01-01,closed,Békési út,5600,Békéscsaba,,,,3151,0,5552,0,0,,,,,,,,,,3891,3404,3123,3697,1846,0,0,Not Reported,,,,,,,,,3891,3404,3123,3697,1847,,,36,,,,,,,
Hungary,Operator Holding Account,Duna-Dráva Cement Kft.,13-09-060842,2005-01-01,open,Kõhídpart dûlõ,2600,Vác,736156,736156,736156,655826,655826,655826,655826,655826,580958,570867,560658,550342,539915,529387,518727,508030,624033,640744,661328,658118,511499,412470,439608,325017,323360,374262,454134,487754,,,,,624033,640744,661328,658118,511499,412470,439608,325017,323360,374262,454134,487754,,,,
Hungary,Operator Holding Account,ISD Dunaferr Zrt.,07-10-001049,2005-01-01,open,Vasmû tér,2400,Dunaújváros,253555,253555,253555,244089,244089,244089,244089,244089,179860,176736,173575,170382,167153,163894,160594,157282,266737,253614,260206,291320,217558,280836,309184,277232,189758,260499,268508,202133,,,,,266737,253614,260206,291320,217558,280836,309184,277232,189758,260499,268508,202133,,,,
Hungary,Operator Holding Account,Gyõri Szeszgyár és Finomító ZRt.,08-10-001610,2005-01-01,open,Budai út,9027,Gyõr,28667,28667,28667,34922,34922,34922,34922,34922,31313,30770,30219,29663,29101,28534,27959,27383,31480,35193,32552,21925,17431,28995,21855,25167,21024,21811,23024,22692,,,,,31480,35193,32552,21925,17431,28995,21855,25167,21024,21811,23024,22692,,,,
Hungary,Operator Holding Account,Richter Gedeon Vegyészeti Gyár Nyilvánosan Mûködõ Rt.,01-10-040944,2005-01-01,open,Gyömrõi út,1103,Budapest,25273,25273,25273,15431,15431,15431,15431,15431,45443,44654,43855,43048,42233,41409,40575,39739,15551,17203,19852,22954,22383,21504,27336,22378,19619,19442,20789,24422,,,,,15551,17203,19852,22954,22383,21504,27336,22378,19619,19442,20789,24422,,,,
Hungary,Operator Holding Account,Mályi Tégla Kft.,05-09-008283,2005-01-01,open,Fõ út,3434,Mályi,18384,18384,18384,12350,12350,12350,12350,12350,6414,6303,6191,6076,9482,9297,9110,8922,9565,10547,12707,6419,2935,2478,3850,3494,2808,2710,4362,5802,,,,,9565,12675,12707,8897,2935,,3850,3494,2808,2710,4362,5802,,,,
Hungary,Operator Holding Account,Dotenergo Energetikai és Épületgépészeti ZRt.,03-10-100312,2005-01-01,open,Hegedûs Köz,6000,Kecskemét,10588,10588,10588,5752,5752,5752,5752,5752,3954,3538,3135,2744,2365,1999,1644,1302,5797,5990,5374,3793,4211,5377,4423,4459,3884,3583,3481,3276,,,,,10588,5990,5374,3793,4211,5377,4423,4459,3884,3583,3481,3276,,,,
Hungary,Operator Holding Account,Wienerberger Téglaipari  ZRt.,01-10-041706,2005-01-01,open,Bártfai utca,1119,Budapest,5828,5828,5828,4781,4781,4781,4781,4781,2366,2325,4175,2241,4021,3942,3863,3783,4124,4344,4806,4610,2295,2225,2212,2133,2166,2390,3087,4115,,,,,4124,4344,4806,4610,2295,2225,2212,2133,2166,2390,3087,4115,,,,
Hungary,Operator Holding Account,Univer-Product ZRt.,03-10-100244,2005-01-01,open,Szolnoki út,6000,Kecskemét,12201,12201,12201,6143,6143,6143,6143,6143,4498,4025,3741,3386,3039,2704,2378,2065,6191,6235,5300,4376,4977,3694,5793,4177,5470,5295,5996,4218,,,,,6191,6235,5300,4376,4977,3694,5793,4177,5470,5295,5996,4218,,,,
Hungary,Operator Holding Account,Hungranatrans Kft.,07 09 004525,2012-09-28,closed,Ipartelep,2432,Szabadegyháza,,,,,,,,,,,,,,,,,,,,,,,,0,,,,,,,,,,,,,,,,,,,,,,,,
Hungary,Operator Holding Account,AUDI HUNGARIA Zrt.,08-10-001840,2012-10-26,open,Audi Hungária út 1.,9027,Győr,,,,,,,,3992,8123,10343,21280,20896,20512,20129,19745,19361,,,,,,,,3922,15759,16402,24333,12160,,,,,,,,,,,,3922,15759,16402,24333,12160,,,,
Hungary,Operator Holding Account,Pannonia Ethanol Zrt.,01-10-046437,2012-02-14,open,Sas utca 7.,7020,Dunaföldvár,,,,,,,,58200,75151,71722,68366,65087,61883,58754,55699,52721,,,,,,,,58282,85243,92057,103226,129795,,,,,,,,,,,,58282,85243,92057,103226,129795,,,,
Hungary,Operator Holding Account,Richter Gedeon Vegyészeti Gyár Nyilvánosan Mûködõ Rt.,01-10-040944,2013-01-14,closed,Gyömrõi út,1103,Budapest,,,,,,,,,,,,,,,,,,,,,,,,,0,Not Reported,,,,,,,,,,,,,,,,,,,,,,
Hungary,Operator Holding Account,Pannon-Hő kft,02-09-068060,2012-11-21,closed,Edison utca 1,7630,Pécs,,,,,,,,,,,,,,,,,,,,,,,,,,Not Reported,,,,,,,,,,,,,,,,,,,,,,
Hungary,Aircraft Operator Account,AVIA CREW LEASING,L-0995844-1,2011-01-01,open,2040 S ALMA SCHOOL ROAD,85286,CHANDLER,,,,,,,,,,,,,,,,,,,,,,,,25,Excluded,Excluded,Excluded,Excluded,,,,,,,,,,,,25,,,,,,,,
Hungary,Operator Holding Account,Linde Gáz Magyarország Zrt.,1810100518,2013-12-09,open,Carl von Linde u. 1.,9653,Répcelak,,,,,,,,,92396,90792,89167,87527,85869,84194,82499,80798,,,,,,,,,107590,108247,116201,110831,,,,,,,,,,,,,107590,108247,116201,110831,,,,
Hungary,Operator Holding Account,Alpiq Csepel Kft.,01-09-701667,2012-12-13,open,Kálvin tér 12.,1085,Budapest,,,,,,,,,,,,,,,,,,,,,,,,,,,,0,,,,,,,,,,,,,,,,,,,,
Hungary,Operator Holding Account,TEVA Gyógyszergyár ZRt.,09-10-000016,2014-01-09,open,Pallagi út,4042,Debrecen,,,,,,,,,,13162,12929,12696,12463,12230,11997,11763,,,,,,,,,,11720,10121,9426,,,,,,,,,,,,,,11720,10121,9426,,,,
Hungary,Operator Holding Account,Star Power Kft.,01-09-998339,2014-05-23,open,Hajdú út. 40.,4090,Polgár,,,,,,,,,,,,,,,,,,,,,,,,,,4155,36227,43974,,,,,,,,,,,,,,4155,36227,43974,,,,
Hungary,Operator Holding Account,Veolia Energia Magyarország Zrt.,13-10041573,2014-07-31,open,Szabadság út 301.,2040,Budaörs,,,,,,,,,,0,8969,7851,6767,5719,4704,3726,,,,,,,,,,4767,11392,11734,,,,,,,,,,,,,,4767,11392,11734,,,,
Hungary,Operator Holding Account,Hamburger Hungária Kft.,07-09-017523,2014-11-17,open,Papírgyári út 42-46,2400,Dunaújváros,,,,,,,,,,,,,,,,,,,,,,,,,,7059,77168,328623,,,,,,,,,,,,,,7059,77168,328623,,,,
Hungary,Operator Holding Account,Magyar Gáz Tranzit Zrt.,01-10-047258,2014-12-01,open,"Záhony u. 7 ""B"" épület",1031,Budapest,,,,,,,,,,,,,,,,,,,,,,,,,,56,403,49,,,,,,,,,,,,,,56,403,49,,,,
Hungary,Operator Holding Account,MVM Oroszlányi Erőműfejlesztő Zrt.,11-10-001696,2015-11-16,open,Külterület hrsz. 0718/10,2840,Oroszlány,,,,,,,,,,,178,13868,11954,10102,8310,6582,,,,,,,,,,,306,21468,,,,,,,,,,,,,,,306,21468,,,,
Hungary,Operator Holding Account,"Altek- Tégla Kft. ""f.a.""",16 09 005019,2010-03-10,closed,Földvári út 6,5400,Mezőtúr,,,,,,,,,,,,,,,,,,,,,,,,,,,,,,,,,,,,,,,,,,,,,,,,
Hungary,Operator Holding Account,Bridgestone Tatabanya Manufacturing Ltd.,11-09-010941,2016-06-20,open,Kőhíd u.1.,2851,környe,,,,,,,,,,,,5709,8997,8829,8660,8492,,,,,,,,,,,,6207,,,,,,,,,,,,,,,,6207,,,,
Hungary,Operator Holding Account,KALL Ingredients Kft.,16-09-016853,2017-04-05,open,Fehértó part 1.,5211,Tiszapüspöki,,,,,,,,,,,,,,,,,,,,,,,,,,,,,,,,,,,,,,,,,,,,,,,,
Hungary,Aircraft Operator Account,ASL Airlines (Hungary) Kft.,01-09-076860,2016-01-01,open,Nemzetközi Repülőtér 52/A,1185,Budapest,,,,,,,,,,,,,,,,,,,,,,,,,,,,11985,,,,,,,,,,,,,,,,,,,,
Hungary,Operator Holding Account,Wienerberger Téglaipari  ZRt.,01-10-041706,2017-05-10,open,Bártfai utca,1119,Budapest,,,,,,,,,,,,,,,,,,,,,,,,,,,,,,,,,,,,,,,,,,,,,,,,
Hungary,Operator Holding Account,BC-KC Formalin Kft.,05-09-005730,2017-09-21,open,Bólyai tér 1.,3700,Kazincbarcika,,,,,,,,,,,,,,,,,,,,,,,,,,,,,,,,,,,,,,,,,,,,,,,,
