Country,Account Type,Account Holder Name,Company Registration No,Permit/Plan Date,Account status,Main Address Line,Postal Code,City,Allowance In Allocation In 2005,Allowance In Allocation In 2006,Allowance In Allocation In 2007,Allowance In Allocation In 2008,Allowance In Allocation In 2009,Allowance In Allocation In 2010,Allowance In Allocation In 2011,Allowance In Allocation In 2012,Allowance In Allocation In 2013,Allowance In Allocation In 2014,Allowance In Allocation In 2015,Allowance In Allocation In 2016,Allowance In Allocation In 2017,Allowance In Allocation In 2018,Allowance In Allocation In 2019,Allowance In Allocation In 2020,Verified Emissions In 2005,Verified Emissions In 2006,Verified Emissions In 2007,Verified Emissions In 2008,Verified Emissions In 2009,Verified Emissions In 2010,Verified Emissions In 2011,Verified Emissions In 2012,Verified Emissions In 2013,Verified Emissions In 2014,Verified Emissions In 2015,Verified Emissions In 2016,Verified Emissions In 2017,Verified Emissions In 2018,Verified Emissions In 2019,Verified Emissions In 2020,Units Surrendered In 2005,Units Surrendered In 2006,Units Surrendered In 2007,Units Surrendered In 2008,Units Surrendered In 2009,Units Surrendered In 2010,Units Surrendered In 2011,Units Surrendered In 2012,Units Surrendered In 2013,Units Surrendered In 2014,Units Surrendered In 2015,Units Surrendered In 2016,Units Surrendered In 2017,Units Surrendered In 2018,Units Surrendered In 2019,Units Surrendered In 2020
Ireland,Aircraft Operator Account,Eli Lilly and Company,35-0470950,2010-01-01,open,Lilly Corporate Center,46285,Indianapolis,,,,,,,,31,2,2,2,2,2,2,2,2,,,,,,,,73,Excluded,Excluded,Excluded,Excluded,,,,,,,,,,,,73,,,,,,,,
Ireland,Aircraft Operator Account,United States Steel Corporation,25-1897152,2010-01-01,open,USS Tower,15219,Pittsburgh,,,,,,,,77,13,13,13,13,13,13,13,13,,,,,,,,576,Excluded,Excluded,Excluded,Excluded,,,,,,,,,,,,576,,,,,,,,
Ireland,Aircraft Operator Account,Blue City Holdings,47-0951248,2010-01-01,open,NASA-ARC Mail Stop 211-7,94035-0001,Moffett Field,,,,,,,,186,2,2,2,2,2,2,2,2,,,,,,,,286,310,362,403,354,,,,,,,,,,,,286,,672,403,354,,,,
Ireland,Aircraft Operator Account,North American Airlines Inc,2194030,2010-01-01,open,101 World Drive,30269,Peachtree City,,,,,,,,135290,811,811,811,811,811,811,811,811,,,,,,,,125473,3982,349,Excluded,Excluded,,,,,,,,,,,,125473,,,2433,,,,,
Ireland,Aircraft Operator Account,ASL Airlines (Ireland) Limited,187849,2010-01-01,open,3 Malahide Road,D03 H277,County Dublin,,,,,,,,18422,13413,13413,13413,13413,13413,13413,13413,13413,,,,,,,,40971,39644,40004,39132,46941,,,,,,,,,,,,40971,,79648,39132,46941,,,,
Ireland,Aircraft Operator Account,Ryanair Designated Activity Company,104547,2010-01-01,open,Dublin Office,Co Dublin,Swords,,,,,,,,5560944,4610591,4610591,4610591,4610591,4610591,4610591,4610591,4610591,,,,,,,,7456718,6608939,6639350,7400795,8438841,,,,,,,,,,,,7456718,,13248289,7400795,8438841,,,,
Ireland,Operator Holding Account,Lagan Brick Limited,361969,2005-09-08,closed,Kingscourt Bricks Limited,County Cavan,Kingscourt,13218,13218,13218,9994,9994,9994,9994,0,,,,,,,,,12442,9200,9290,5162,2413,2932,4364,0,,,,,,,,,12442,9200,9290,5162,2413,2932,4364,,,,,,,,,
Ireland,Operator Holding Account,Lagan Brick Limited,361969,2005-09-19,closed,Kingscourt Bricks Limited,County Cavan,Kingscourt,7672,7672,7672,8662,8662,8662,8662,8662,1449,0,0,0,0,0,0,0,8473,8669,8082,5488,1100,412,681,517,429,,,,,,,,8518,8669,8037,5488,1100,412,681,517,429,,,,,,,
Ireland,Operator Holding Account,Saint-Gobain Construction Products (Ireland) Limited,11815,2005-09-08,open,"Unit 4, Kilcarbery Business Park",Dublin 22,Dublin,40778,40778,40778,49030,49030,49030,49030,49030,20932,25710,25250,24786,39478,38708,37928,37147,45592,52158,50002,35058,23299,19732,17378,14020,14720,16684,20381,26916,,,,,45592,,102160,35058,23299,19732,17378,14020,14720,16684,20381,26916,,,,
Ireland,Operator Holding Account,Arrabawn Cooperative Society Limited,Co-operative Society,2005-09-09,open,Stafford Street,Tipperary,Nenagh,22596,22596,22596,24316,24316,24316,24316,24316,14295,13792,13296,12806,12323,11847,11376,10917,23299,22970,22688,18338,21613,23588,22607,21137,23966,24822,24763,16823,,,,,23299,22970,22688,18338,21613,23588,22607,21131,23972,24822,24763,16823,,,,
Ireland,Operator Holding Account,Medite Europe Limited,80984,2005-09-09,open,Redmondstown,Tipperary,Clonmel,5963,5963,5963,6641,6641,6641,6641,6641,64328,63211,40794,35691,30747,25962,21332,16876,6345,6291,6162,4877,4981,5539,5628,5208,5624,5810,5899,6234,,,,,6345,6291,6162,4877,4981,5539,5628,5208,5624,5810,5899,6234,,,,
Ireland,Operator Holding Account,Irish Distillers Limited,23732,2006-01-23,open,Simmonscourt House,Dublin 4,Ballsbridge,20256,20256,20256,21312,21312,21312,21312,21312,20557,20113,19670,19225,18780,18334,17886,17442,27192,28112,31265,41407,27980,29001,33792,36611,40997,38391,37866,40333,,,,,27192,28112,31265,41407,27980,29001,33792,36611,40997,38391,37866,40333,,,,
Ireland,Operator Holding Account,Edenderry Power Limited,278071,2005-09-09,open,Main Street,Kildare,Newbridge,627676,627676,627676,632319,632319,632319,632319,632319,,,,,,,,,860660,865552,816166,895057,843867,674792,761828,711081,615975,697174,680652,538866,,,,,860660,865552,832816,895057,843867,674792,761828,711081,615975,697174,680652,538866,,,,
Ireland,Operator Holding Account,Kerry Ingredients (Ireland) Limited,206782,2005-09-08,open,Princes Street,Kerry,Tralee,79841,79841,79841,88732,88732,88732,88732,88732,30377,31769,30266,28794,27351,25936,24549,23198,84080,77158,76296,75777,71849,78238,74771,74264,82684,80900,86315,79021,,,,,72263,88975,84285,75777,71849,78238,74771,74264,82684,80900,86315,79021,,,,
Ireland,Operator Holding Account,Kerry Ingredients (Ireland) Limited,206782,2005-09-08,open,Princes Street,Kerry,Tralee,37370,37370,37370,40134,40134,40134,40134,40134,21059,19990,18944,17925,16929,15960,15014,14094,33317,27981,37031,29222,31260,33183,38683,37721,37938,38319,34331,39727,,,,,33317,27981,37031,29222,31260,33183,38683,37721,37938,38319,34331,39727,,,,
Ireland,Operator Holding Account,Carbery Food Ingredients Limited,22819,2005-09-09,open,Ballineen,County Cork,County Cork,48677,48677,48677,51465,51465,51465,51465,51465,39456,40488,39301,38134,36982,35847,34728,33628,41961,34975,41321,39745,40278,40172,41705,42963,42519,46017,44578,43943,,,,,41961,34975,55095,39745,40278,40172,41705,42963,42519,46017,44578,43943,,,,
Ireland,Operator Holding Account,Irving Oil Whitegate Refinery Limited,16576,2005-09-09,open,Whitegate,Cork,Midleton,398522,398522,398522,389103,389103,389103,389103,389103,257046,252582,248064,243500,238887,234228,229512,224779,411369,376666,360331,366959,314976,310211,285226,313366,294315,279270,358459,313412,,,,,411369,376666,360331,366959,314976,310211,285226,313366,294315,279270,358459,313412,,,,
Ireland,Operator Holding Account,Synergen Power Limited Power Plant,289737,2005-09-13,open,Pigeon House Road,Dublin 4,Ringsend,929783,929783,929783,774735,774735,774735,774735,774735,,,,,,,,,1131166,1082706,1181611,1184401,1008362,1114910,1031307,949038,1088618,1094267,1137015,995019,,,,,1131166,1082706,1181611,1184401,1008362,1114910,1031307,949038,1088618,1094267,1137015,995019,,,,
Ireland,Operator Holding Account,Premier Proteins {2000} Limited,316676,2005-09-09,closed,Poolboy,County Galway,Ballinasloe,1530,1530,1530,735,735,735,735,0,,,,,,,,,30,271,211,258,367,393,497,0,,,,,,,,,30,271,211,258,367,393,497,,,,,,,,,
Ireland,Operator Holding Account,MSD International GmbH t/a MSD Ireland (Brinny),908472,2005-09-13,open,Brinny,County Cork,Innishannon,11711,11711,11711,12120,12120,12120,12120,12120,10257,10079,9898,9716,9532,9346,9158,8969,10889,11221,11017,11257,11079,10741,11631,12018,10004,12974,11888,12605,,,,,10889,11221,11017,11257,11079,10741,11631,12018,10004,12974,11888,12605,,,,
Ireland,Operator Holding Account,MSD International GmbH t/a MSD Ireland (Rathdrum),908473,2005-09-13,closed,Rathdrum,Wicklow,Rathdrum,10790,10790,10790,9477,9477,9477,9477,9477,2166,4246,4170,4094,0,0,0,0,7023,7280,7228,2931,3650,4149,3146,2211,3223,3228,3477,2155,,,,,7023,7280,7228,2931,3650,4149,3146,2211,3223,3228,3477,2155,,,,
Ireland,Operator Holding Account,Guerbet Ireland Unlimited Company,177470,2005-09-09,open,Damastown Industrial Estate,D15 YE36,Dublin,8874,8874,8874,9166,9166,9166,9166,9166,7263,7137,7009,6880,6750,6618,6485,6351,8732,9051,8426,7316,7961,7699,7858,8530,6898,7465,7813,8927,,,,,8732,9051,8426,7316,7961,7699,7858,8530,6898,7465,7813,8927,,,,
Ireland,Operator Holding Account,PSE Kinsale Energy Limited,904997,2005-09-09,open,Mahon Industrial Estate,Cork,Blackrock,76841,76841,76841,66636,66636,66636,66636,66636,48201,47364,46517,45661,22398,21962,21519,21076,60176,51170,51244,58327,43054,44091,40945,39035,37124,34828,29669,24346,,,,,60176,51170,51244,58327,43054,44091,40945,39035,37124,34828,29669,24346,,,,
Ireland,Operator Holding Account,Beamish & Crawford plc,2616,2005-09-08,closed,South Main Street,County Cork,Cork,3038,3038,3038,3090,3090,0,0,0,,,,,,,,,3322,3357,3158,2935,765,,,,,,,,,,,,3322,3357,3158,2935,765,,,,,,,,,,,
Ireland,Operator Holding Account,Eli Lilly Kinsale Limited,590814,2005-09-09,open,Dunderrow,P17 NY71,Cork,14366,14366,14366,12877,12877,12877,12877,12877,9716,9547,9376,9203,9030,8853,8675,8496,10742,12387,12010,12678,13344,16549,11674,10539,10577,10821,12761,15602,,,,,10742,12387,19969,12678,13344,16549,11674,10539,10577,10821,12761,15602,,,,
Ireland,Operator Holding Account,Genzyme Ireland Limited,316537,2005-09-09,open,IDA Industrial Park,Waterford,Old Kilmeaden Road,6325,7266,8782,6788,6788,6788,6788,6788,3986,3917,3846,3775,3704,3632,3559,3486,4510,4520,4602,4925,5130,5919,5162,4732,4417,4046,3905,4695,,,,,4510,4520,4602,4925,5130,5919,5162,4732,4417,4046,3905,4695,,,,
Ireland,Operator Holding Account,Diageo Ireland,22876,2005-09-09,open,St. James' Gate,Dublin 8,Dublin,71911,71911,71911,73912,73912,73912,73912,73912,24756,22156,19628,17178,14808,12514,10294,8153,64514,60213,62547,59421,57833,55294,58154,52199,52715,53650,53443,52713,,,,,64514,60213,62547,59421,57833,55294,58154,52199,52715,53650,53443,52713,,,,
Ireland,Operator Holding Account,Diageo Ireland,22876,2005-09-09,closed,St. James' Gate,Dublin 8,Dublin,7315,7315,7315,8609,8609,8609,8609,8609,2330,2085,0,0,0,0,0,0,7741,6887,5821,5691,4433,4085,3191,3002,2615,405,,,,,,,7741,6887,5821,5691,4433,4085,3191,3002,2615,405,,,,,,
Ireland,Operator Holding Account,Diageo Ireland,22876,2005-09-09,closed,St. James' Gate,Dublin 8,Dublin,6228,6228,6228,6811,6811,6811,6811,6811,3783,0,0,0,0,0,0,0,6539,6088,4883,4697,4726,4539,3896,3603,2519,,,,,,,,6539,6088,4883,4697,4726,4539,3896,3603,2519,,,,,,,
Ireland,Operator Holding Account,Lakeland Dairies Co-operative Society Limited,Co-operative Society,2005-09-09,open,Church Street,Cavan,Killeshandra,17464,17464,17464,18339,18747,33237,33237,33237,24358,23922,23485,23049,22615,22179,21745,21311,11162,11243,17592,17808,17620,34981,38229,38626,39980,41877,39507,55053,,,,,11162,11243,17592,17808,17620,33721,39489,38626,39980,41877,39507,55053,,,,
Ireland,Operator Holding Account,Lakeland Dairies Co-operative Society Limited,Co-operative Society,2005-09-08,closed,Church Street,Cavan,Killeshandra,18930,18930,18930,24066,24066,24066,24066,24066,,,,,,,,,22510,17094,19806,18087,17917,2498,0,0,,,,,,,,,22510,17094,19806,18087,17917,2498,,,,,,,,,,
Ireland,Operator Holding Account,Lakeland Dairies Co-operative Society Limited,Co-operative Society,2005-09-08,open,Church Street,Cavan,Killeshandra,6668,6668,6668,8351,8351,8351,8351,8351,4574,4277,3988,3706,3429,3161,2900,2648,5017,4656,7416,6289,5804,6279,7002,6818,7436,9516,10949,10783,,,,,5017,4656,7416,6289,5804,6279,7002,6818,7436,9516,10949,10783,,,,
Ireland,Operator Holding Account,College Proteins,136971,2005-09-14,open,College Road,Meath,Meath,3247,3247,3247,1363,1363,1363,1363,1363,6446,6249,6052,5859,5668,5478,5289,5105,454,10,1247,9383,4319,7579,7970,10521,15469,9749,12027,16562,,,,,460,4,1300,9383,4319,7579,7970,1425,24565,9749,12027,16562,,,,
Ireland,Operator Holding Account,College Proteins,136971,2005-09-14,open,College Road,Meath,Meath,16778,16778,16778,10205,10205,10205,10205,10205,15451,15183,14912,14637,14360,14080,13796,13511,291,99,77,91,97,66,52,4194,6274,9088,8908,10554,,,,,296,94,120,91,97,66,52,4194,6274,9088,8908,10554,,,,
Ireland,Operator Holding Account,Limerick Alumina Refining Limited,231248,2005-09-13,open,Aughinish Island,Limerick,Askeaton,1073318,1073318,1073318,1146694,1146694,1146694,1146694,1146694,821556,807261,792966,778671,764376,750080,735785,721490,1157505,1421109,1446979,1009785,883273,1031153,1028687,1047400,1345722,1304817,1301948,1235106,,,,,1157505,1419133,1636321,1009785,883273,1031153,1028687,1047400,1345722,1304817,1301948,1235106,,,,
Ireland,Operator Holding Account,St. James's Hospital Board,Statutory Body,2005-01-01,open,Technical Services,Dublin 8,St James Hospital,7643,7643,7643,8800,8800,8800,8800,8800,5739,5137,4550,3980,3429,2895,2379,1882,8663,8475,8381,8665,9095,8784,7034,9458,8915,7395,8064,10748,,,,,8663,8475,8751,8665,9095,8784,7034,9458,8915,7395,8064,10748,,,,
Ireland,Operator Holding Account,CRH plc,12965,2005-01-01,open,42 Fitzwilliam Square,Dublin,Dublin 2,824581,824581,824581,854357,854357,854357,854357,854357,331499,325741,639830,628058,616159,604143,591979,579771,844873,794696,816699,791050,438699,307799,246024,223129,240012,418005,569853,703030,,,,,844873,794696,816699,791050,438699,307799,246024,223129,240012,417946,569912,703030,,,,
Ireland,Operator Holding Account,CRH plc,12965,2005-01-01,open,42 Fitzwilliam Square,Dublin,Dublin 2,1425029,1425029,1425029,1496902,1496902,1498824,1720587,1855721,1203575,1182670,1161520,1140148,1118547,1096735,1074651,1052491,1467121,1463511,1471581,1245764,608446,488037,469231,694319,734302,841412,869546,875299,,,,,1467121,1463511,1471581,1245764,608446,488037,469231,694319,734302,841412,869546,875299,,,,
Ireland,Operator Holding Account,CRH plc,12965,2005-09-09,open,42 Fitzwilliam Square,Dublin,Dublin 2,102938,102938,102938,109257,109257,109257,109257,109257,83997,82538,81062,79571,78063,76541,75000,73453,102289,103574,77870,69000,47789,58194,53324,65887,68309,61077,66861,59179,,,,,102289,103574,87870,69119,47789,58194,53205,65887,68309,61077,66861,59179,,,,
Ireland,Operator Holding Account,CRH plc,12965,2005-09-09,closed,42 Fitzwilliam Square,Dublin,Dublin 2,11689,11689,11689,9219,9219,0,0,0,,,,,,,,,8746,8736,6995,4133,11,0,,,,,,,,,,,8746,8736,6995,4133,11,,,,,,,,,,,
Ireland,Operator Holding Account,CRH plc,12965,2006-12-06,open,42 Fitzwilliam Square,Dublin,Dublin 2,,,,123830,123830,123830,123830,123830,65997,64851,63691,62519,61335,60139,58928,57713,,0,46628,67151,52677,60599,74338,74791,69181,69933,76746,82196,,,,,,,54628,67017,52811,60599,74338,74791,69181,69933,76746,82196,,,,
Ireland,Operator Holding Account,United Fish Industries,8639,2005-09-09,open,Donegal Road,Donegal,Killybegs,12265,12265,12265,9177,9177,9177,9177,9177,8306,8161,8015,5039,4943,4847,4749,4651,11847,6615,5129,10779,7078,9263,6365,10893,10934,9570,9963,8334,,,,,11847,6615,5129,10779,7078,9263,6365,10893,10934,9570,9963,8334,,,,
Ireland,Operator Holding Account,BASF Ireland Limited,42876,2005-09-08,open,Inchera and Wallingstown,Cork,Little Island,27656,27656,27656,30423,30423,30423,30423,30423,18255,17938,11496,11285,11070,10854,10636,10417,32088,29362,29139,27856,23538,30473,29320,28800,25000,17727,13114,15993,,,,,32088,29362,29139,27856,23538,30473,29320,28800,25000,17727,13114,15993,,,,
Ireland,Operator Holding Account,Dairygold Co-Operative Society Limited,Co-operative Society,2005-09-09,open,Clonmel Road,Cork,Mitchelstown,56860,56860,56860,60800,60800,60800,60800,60800,33604,31761,29960,28205,26496,24831,23208,21632,55223,57023,60581,58870,58550,57858,57186,58775,56475,56448,67219,65167,,,,,55223,57023,61181,58870,58550,57858,57186,58775,56475,56448,67219,65167,,,,
Ireland,Operator Holding Account,Dairygold Co-Operative Society Limited,Co-operative Society,2005-09-09,open,Clonmel Road,Cork,Mitchelstown,33372,33372,33372,31965,31965,31965,31965,31965,12896,12672,6224,12223,11998,11774,11550,11325,28181,20976,17494,11032,9712,14395,13315,12544,14222,9172,10610,22435,,,,,28181,20976,27494,11032,9712,14395,13315,12508,14258,9172,10610,22435,,,,
Ireland,Operator Holding Account,Swords Laboratories,60709,2005-09-09,closed,Watery Lane,Dublin,Swords,7743,7743,7743,8814,8814,8814,8814,8814,5424,5330,5234,5138,5041,0,0,0,8228,8054,5833,6835,6971,6480,6465,6611,6584,5812,5628,5485,,,,,8228,8054,7743,6835,6971,6480,6465,6611,6584,5812,5628,5485,,,,
Ireland,Operator Holding Account,Swords Laboratories,60709,2005-09-09,closed,Watery Lane,Dublin,Swords,7415,7415,7415,7778,7778,7778,7778,7778,2148,2111,2072,0,0,0,0,0,2381,3324,2064,1530,1734,2405,1677,1954,1475,1523,1121,,,,,,2381,3324,2171,1530,1734,2405,1677,1954,1475,1523,1121,,,,,
Ireland,Operator Holding Account,Smurfit Recycling Ireland Limited,368940,2005-09-09,closed,32 Clonskeagh Road,Dublin 6,Dublin,17440,17440,17440,,,,,,,,,,,,,,1815,,,,,Not Reported,,,,,,,,,,,1815,,,,,,,,,,,,,,,
Ireland,Operator Holding Account,Intel Ireland Limited,902934,2005-09-09,open,Collinstown Industrial Park,Kildare,Leixlip,48006,48006,48006,43627,43627,43627,43627,43627,29055,28550,28039,27524,27002,26476,25942,25407,37601,40426,32086,30698,31655,32895,25629,24866,28429,29070,37252,40063,,,,,37601,40426,46302,30698,31655,32895,25629,24866,28429,29070,37252,40063,,,,
Ireland,Operator Holding Account,Gas Networks Ireland,555744,2005-09-16,open,Gasworks Road,Cork,Cork,1269,1269,1269,5023,5023,5023,5023,5023,2966,2654,2351,2056,1772,1496,1229,973,5116,4272,3102,2932,3073,4932,8528,9707,8116,6536,9204,11534,,,,,5116,4272,3102,2932,3073,4932,8582,9707,8116,6536,9204,11534,,,,
Ireland,Operator Holding Account,Bord Gais Energy Limited,463078,2010-02-23,open,1 Warrington Place,Dublin 2,Dublin,,,,0,0,271842,921297,923796,,,,,,,,,,,,,,318258,868163,784102,744346,652365,752676,960410,,,,,,,,,,318258,868163,784102,744346,652365,752676,960410,,,,
Ireland,Operator Holding Account,Lagan Cement Limited,237663,2005-09-08,open,Killaskillen,Westmeath,Kinnegad,486269,486269,486269,509225,509225,509225,509225,509225,420984,413672,406273,398798,391242,383613,375889,368138,471772,504569,487855,444476,325284,285765,320557,366477,383955,433309,423232,421383,,,,,471772,504569,507855,444476,325284,285765,320557,366477,383955,433309,423232,421383,,,,
Ireland,Operator Holding Account,Electricity Supply Board,00001,2005-09-09,open,Two Gateway,D03 A995,Dublin,730433,730433,730433,530318,530318,530318,530318,530318,,,,,,,,,907525,868707,731826,522658,665641,568497,176252,122146,78926,110774,23047,30029,,,,,907525,868707,800000,522658,665641,568497,176252,122146,78926,110774,23047,30029,,,,
Ireland,Operator Holding Account,Electricity Supply Board,00001,2005-09-09,closed,Two Gateway,D03 A995,Dublin,167580,167580,167580,,,,,,,,,,,,,,38465,,,,,Not Reported,,,,,,,,,,,38465,,,,,,,,,,,,,,,
Ireland,Operator Holding Account,Electricity Supply Board,00001,2005-09-09,open,Two Gateway,D03 A995,Dublin,0,0,0,516190,516190,516190,516190,516190,,,,,,,,,612694,698188,501875,778703,827642,515231,805410,786009,812046,788708,852264,830461,,,,,612694,698188,523416,778703,827642,515231,805410,786009,812046,788708,852264,830461,,,,
Ireland,Operator Holding Account,Electricity Supply Board,00001,2005-09-09,open,Two Gateway,D03 A995,Dublin,301596,301596,301596,264244,264244,264244,264244,264244,,,,,,,,,152080,232889,214023,258733,158412,141931,35823,14629,5545,1434,78,35,,,,,152080,232889,250000,258733,158412,141931,35823,14629,5545,1434,78,35,,,,
Ireland,Operator Holding Account,Electricity Supply Board,00001,2005-09-09,open,Two Gateway,D03 A995,Dublin,4181600,4181600,4181600,3769179,3769179,3769179,3769179,3769179,,,,,,,,,5692512,4935148,4714498,3951387,3122238,3457369,3653205,4650911,3886795,3779856,4528857,4414770,,,,,5692512,4935148,4916850,3951387,3122238,3457369,3653205,4650911,3886795,3779856,4528857,4412727,,,,
Ireland,Operator Holding Account,Electricity Supply Board,00001,2005-09-09,open,Two Gateway,D03 A995,Dublin,390815,390815,390815,327865,327865,327865,327865,327865,,,,,,,,,248184,247734,252279,150686,144318,187650,127184,41371,21672,8950,3769,9683,,,,,248184,247734,280000,150686,144318,187650,127184,41371,21672,8950,3769,9683,,,,
Ireland,Operator Holding Account,Electricity Supply Board,00001,2005-09-09,closed,Two Gateway,D03 A995,Dublin,1953404,1953404,1953404,,,,,,,,,,,,,,2018121,1294138,1441173,,,Not Reported,,,,,,,,,,,2018121,1294138,1575000,,,,,,,,,,,,,
Ireland,Operator Holding Account,Electricity Supply Board,00001,2005-09-09,open,Two Gateway,D03 A995,Dublin,0,0,0,709660,709660,709660,709660,709660,,,,,,,,,888107,615917,811583,1089030,1055151,1125534,713214,1180750,1033105,1177033,1105804,1138202,,,,,888107,615917,846417,1089030,1055151,1126302,712446,1180750,1033105,1177033,1105804,1138202,,,,
Ireland,Operator Holding Account,Electricity Supply Board,00001,2008-10-30,closed,Two Gateway,D03 A995,Dublin,,,,173906,173906,173906,0,0,,,,,,,,,,,,78855,119924,41772,,,,,,,,,,,,,,78855,119924,41772,,,,,,,,,,
Ireland,Operator Holding Account,Electricity Supply Board,00001,2008-10-30,closed,Two Gateway,D03 A995,Dublin,,,,201899,201899,201899,0,0,,,,,,,,,,,,43180,101755,31960,,,,,,,,,,,,,,43180,101755,31960,,,,,,,,,,
Ireland,Operator Holding Account,Electricity Supply Board,00001,2008-10-30,closed,Two Gateway,D03 A995,Dublin,,,,0,0,0,0,0,,,,,,,,,,,,,,Not Reported,,,,,,,,,,,,,,,,,,,,,,,,,,
Ireland,Operator Holding Account,Electricity Supply Board,00001,2008-10-30,open,Two Gateway,D03 A995,Dublin,,,,901446,901446,901446,901446,901446,,,,,,,,,,,,1121686,1032702,1090193,817263,1024130,1026642,794122,104821,364984,,,,,,,,1121686,1032702,1090193,817263,1024130,1026642,794122,104821,364984,,,,
Ireland,Operator Holding Account,Electricity Supply Board,00001,2009-12-01,open,Two Gateway,D03 A995,Dublin,,,,0,0,804906,851638,853946,,,,,,,,,,,,,36385,583801,434102,334127,451524,449482,337570,544704,,,,,,,,,36385,583801,434102,334127,451524,449482,337570,544704,,,,
Ireland,Operator Holding Account,Novartis Ringaskiddy Limited,147396,2005-09-09,open,Ringaskiddy,County Cork,Cork,9634,9634,9634,10806,10806,10806,10806,10806,8399,8253,8106,7957,3907,3831,3754,3676,11299,8731,8237,8395,10267,10360,7883,6806,5869,5419,5354,4519,,,,,11299,8731,8237,8395,10267,10360,7883,6806,5869,5411,5362,4519,,,,
Ireland,Operator Holding Account,Huntstown Power Company Limited,265062,2005-09-08,open,"Mill House, Ashtowngate",Dublin 15,Navan Road,781656,781656,781656,727124,727124,727124,727124,727124,,,,,,,,,851847,862695,907150,896294,891186,669268,587080,341900,124041,41113,329204,263863,,,,,851847,862695,907150,896294,891186,669268,587080,341900,124041,41113,329204,263863,,,,
Ireland,Operator Holding Account,Dublin City University,University,2005-09-09,closed,Glasnevin,Dublin 9,Dublin,3746,3746,3746,,,,,,,,,,,,,,3524,3179,3008,,,Not Reported,,,,,,,,,,,3524,3179,3008,,,,,,,,,,,,,
Ireland,Operator Holding Account,Waterford Crystal Ltd.,78088,2005-09-13,closed,Kilbarry,County Waterford,Waterford,21089,21089,21089,18336,18336,0,0,0,,,,,,,,,14930,14479,11522,13768,2758,,,,,,,,,,,,14930,14479,12522,13768,2758,,,,,,,,,,,
Ireland,Operator Holding Account,Tipperary Co Operative Creamery Limited,Co-operative Society,2005-11-25,open,Station Road,Tipperary,Tipperary Town,20414,20414,20414,21498,21498,21498,21498,21498,14070,12999,11954,10936,9948,8987,8054,7151,22045,22710,23853,23346,24425,24483,19002,16967,17829,17089,18210,20312,,,,,22045,22710,23853,23346,24425,24483,19002,16967,17829,17089,18210,20312,,,,
Ireland,Operator Holding Account,Finsa Forest Products Ltd,98769,2005-10-06,closed,Scarriff,County Clare,Scarriff,19123,19123,19123,19158,19158,19158,19158,19158,,,,,,,,,16841,11079,6710,4557,230,459,302,57,,,,,,,,,16841,11079,6710,4557,230,459,302,57,,,,,,,,
Ireland,Operator Holding Account,Masonite Ireland,229654,2005-09-09,open,6th Floor - South Bank House,Dublin 4,Dublin,1031,1031,1031,362,362,362,362,362,39537,38850,25072,21937,18897,15957,13111,10372,582,387,380,379,428,527,463,123,131,307,213,169,,,,,582,387,380,379,428,527,463,123,131,307,213,169,,,,
Ireland,Operator Holding Account,IBM International Holdings BV,903924,2005-09-08,closed,Damastown Industrial Estate,Dublin 15,Mulhuddart,4117,4117,4117,,,,,,,,,,,,,,4649,4914,3292,,,Not Reported,,,,,,,,,,,4649,4914,3292,,,,,,,,,,,,,
Ireland,Operator Holding Account,Tynagh Energy Limited,378735,2005-01-01,open,The Crescent Building,Dublin 9,Santry,0,0,0,746094,746094,746094,746094,746094,,,,,,,,,974,920880,852064,912299,887485,904475,389322,274754,168662,446134,217682,341195,,,,,974,920880,1119438,912299,887485,904475,389322,274754,168662,527673,136143,341195,,,,
Ireland,Operator Holding Account,Quinn Cement Limited,320388,2005-09-09,open,Scotchtown,Cavan,Ballyconnell,879739,879739,879739,1006753,1006753,1006753,1006753,1006753,881251,432973,850458,834810,818994,803023,786854,770628,1028010,1029753,1043765,909464,722368,655857,497581,547950,390152,605618,683092,719005,,,,,1028010,1029753,1043765,909464,722368,655857,497581,547950,390152,605618,683092,719005,,,,
Ireland,Operator Holding Account,DAA Public Limited Company,9401,2005-09-09,open,Dublin Airport,Dublin,Cloghran,20372,20372,20372,25371,25711,33091,36785,36903,7612,6812,6033,5280,4548,3840,3154,2496,17300,14240,20290,15151,13310,13201,11751,11663,9822,10502,10570,10645,,,,,17300,14240,20290,15151,13310,13201,11751,11663,9822,10502,10570,10645,,,,
Ireland,Operator Holding Account,GlaxoSmithKline,322582,2005-09-08,closed,980 Great West Road,TW 9GS,"Brentford, Middlesex TW8 9GS",7597,7597,7597,,,,,,,,,,,,,,3723,3670,3276,,,Not Reported,,,,,,,,,,,3723,3670,3276,,,,,,,,,,,,,
Ireland,Operator Holding Account,University of Dublin,University,2006-01-10,closed,Director of Buildings Office,Dublin 2,West Chapel,4633,4633,4633,,,,,,,,,,,,,,4802,4363,4534,,,Not Reported,,,,,,,,,,,4802,4363,4534,,,,,,,,,,,,,
Ireland,Operator Holding Account,Mondelez Ireland Production Limited,IE8306,2005-09-13,closed,Malahide Road,Dublin 5,Coolock,8059,8059,8059,7564,7564,7564,7564,7564,4199,3757,2132,1865,0,0,0,0,6510,5940,5593,5758,4881,4957,4625,5262,4652,3741,3668,877,,,,,6510,5940,5593,5758,4881,4957,4625,5262,4652,3741,3668,877,,,,
Ireland,Operator Holding Account,Mondelez Ireland Production Limited,IE8306,2005-09-13,open,Malahide Road,Dublin 5,Coolock,12412,12412,12412,12460,12460,12460,12460,12460,6455,5777,5117,4477,3857,3257,2676,2117,12364,13182,12205,11498,10842,9396,9999,10729,9419,8170,8815,7521,,,,,12364,13182,12205,11498,10842,9396,9999,10729,9419,8170,8815,7521,,,,
Ireland,Operator Holding Account,Abbott Ireland,99308,2005-09-08,open,Abbott Ireland Nutrition Division,Sligo,Ballytivnan,0,0,0,34872,34872,34872,34872,34872,16628,14880,20058,19689,19316,18939,18558,18175,28761,28880,28632,30361,28395,26076,22718,22948,20083,16695,18111,20522,,,,,28761,57760,,30361,28395,26076,22718,22948,20083,16695,18111,20522,,,,
Ireland,Operator Holding Account,Glanbia Ireland Designated Activity Company,501098,2005-09-09,open,Glanbia House,Kilkenny,Kilkenny,79309,79309,79309,84602,85154,85556,85556,85556,49575,47846,46137,44448,42785,41145,39525,37938,75778,78981,83069,74451,70988,77413,77748,77646,79081,81695,85253,83214,,,,,75778,78981,83069,74451,70988,77413,77748,77646,79081,81695,85253,83214,,,,
Ireland,Operator Holding Account,Glanbia plc,129933,2005-09-09,closed,Glanbia Ingredients,County Kilkenny,Ballyragget,5468,5468,5468,6484,6484,0,0,0,,,,,,,,,6557,0,0,0,0,,,,,,,,,,,,6557,,,,,,,,,,,,,,,
Ireland,Operator Holding Account,Glanbia Ireland Designated Activity Company,501098,2005-01-01,open,Glanbia House,Kilkenny,Kilkenny,22354,22354,22354,24431,24431,24431,24431,24431,20489,20133,19772,19408,19040,18669,18293,17916,24032,25505,23516,23833,21181,22796,23601,22924,24815,25116,24290,24784,,,,,24032,25505,23516,23833,21181,22796,23601,22924,24815,25116,24290,24784,,,,
Ireland,Operator Holding Account,Bord na Mona Fuels Limited,303301,2005-09-09,open,Main Street,Kildare,Newbridge,58501,58501,58501,71467,71467,71467,71467,71467,20892,18696,16560,7245,12482,10540,8660,6851,64218,65006,63283,70398,78523,74266,52762,63741,68897,50741,38018,51980,,,,,64218,65006,71283,70398,78523,74266,52762,63741,68897,50741,38018,51980,,,,
Ireland,Operator Holding Account,Bord na Mona Fuels Limited,303301,2005-09-09,open,Main Street,Kildare,Newbridge,66092,66092,66092,70250,70250,70250,70250,70250,16713,14957,13247,11591,9985,8431,6928,5480,46961,55670,51356,54543,69233,54330,41615,42115,54576,47611,35661,44163,,,,,46961,55670,60641,54543,69233,54330,41615,42115,54576,47611,35661,44163,,,,
Ireland,Operator Holding Account,Smartply Europe Limited,205747,2005-09-09,open,Belview,Waterford,Slieverue,3384,3384,3384,2795,2795,2795,2795,2795,80107,78715,50800,44446,38288,32330,26564,21016,1352,1559,1466,603,827,904,635,663,674,442,391,814,,,,,1352,1559,1466,603,827,904,635,663,674,442,391,814,,,,
Ireland,Operator Holding Account,Irish Sugar Limited,8532,2005-09-08,closed,Athy Road,Co. Carlow,Carlow,64778,64778,64778,,,,,,,,,,,,,,695,0,0,,,Not Reported,,,,,,,,,,,695,,,,,,,,,,,,,,,
Ireland,Operator Holding Account,Irish Sugar Limited,8532,2005-09-08,closed,Athy Road,Co. Carlow,Carlow,100457,100457,100457,,,,,,,,,,,,,,111571,36164,0,,,Not Reported,,,,,,,,,,,111571,36164,,,,,,,,,,,,,,
Ireland,Operator Holding Account,ADM Ringaskiddy,164639,2005-09-08,closed,Ringaskiddy,County Cork,Cork,105742,105742,105742,,,,,,,,,,,,,,75914,,,,,Not Reported,,,,,,,,,,,75914,,,,,,,,,,,,,,,
Ireland,Operator Holding Account,Janssen Pharmaceutical,79963,2005-01-01,closed,Wallingstown,Cork,Little Island,3786,3786,3786,5701,5701,5701,5701,7070,4965,4879,4790,4702,0,0,0,0,4049,4742,4831,4972,5073,5615,5169,6739,7265,6721,7517,7994,,,,,4049,4761,5628,4972,5073,5615,5169,6739,7265,6721,7517,7994,,,,
Ireland,Operator Holding Account,University College Dublin,University,2005-09-20,closed,Belfield,Dublin 4,Dublin,10096,10096,10096,,,,,,,,,,,,,,8458,9139,9353,,,Not Reported,,,,,,,,,,,8431,9166,9353,,,,,,,,,,,,,
Ireland,Operator Holding Account,Moy Isover Ltd.,41766,2005-09-09,closed,Ardfinnan,County Tipperary,Clonmel,10391,10391,10391,9285,0,0,0,0,,,,,,,,,8650,8074,7659,5673,,Not Reported,,,,,,,,,,,8650,8074,7662,5673,,,,,,,,,,,,
Ireland,Operator Holding Account,Fruit of the Loom International Limited,83732,2005-09-09,closed,Ballymacarry Lower,County Donegal,Buncrana,20194,20194,20194,,,,,,,,,,,,,,25401,11040,0,,,Not Reported,,,,,,,,,,,27970,8471,,,,,,,,,,,,,,
Ireland,Operator Holding Account,University College Cork,University,2005-09-09,closed,Office of Secretary & Bursar,County Cork,Universtiy College Cork,7803,7803,7803,,,,,,,,,,,,,,8218,8819,8253,,,Not Reported,,,,,,,,,,,7924,9113,8253,,,,,,,,,,,,,
Ireland,Operator Holding Account,Atlantic Industries,902522,2005-09-08,closed,Industrial Estate,County Louth,Drogheda,5936,5936,5936,5247,0,0,0,0,,,,,,,,,4113,3641,2304,1519,,Not Reported,,,,,,,,,,,4113,3641,2304,1519,,,,,,,,,,,,
Ireland,Operator Holding Account,Minch Malt Limited,50903,2005-09-09,open,The Maltings,Kildare,Athy,15151,15151,15151,14678,14678,14678,14678,14678,14538,14286,14030,13773,13511,13248,12981,12713,14875,15876,14461,14285,11625,10553,10685,10676,12190,13012,12323,11562,,,,,14875,15876,14465,14285,11625,10553,10685,10676,12190,13012,12323,11562,,,,
Ireland,Operator Holding Account,Baxter Healthcare SA,904362,2005-09-09,open,Moneen Road,-,Castlebar,20216,20073,21003,20623,20623,20623,20623,20623,10677,10492,10304,10115,9923,9729,9534,9337,19740,19318,20318,19969,20151,21370,19048,20862,19960,20689,19822,20402,,,,,19740,19318,21318,19969,20151,21370,19048,20862,19960,20689,19822,20402,,,,
Ireland,Operator Holding Account,Health Service Executive-South Eastern Area,Statutory Body,2005-09-09,closed,Waterford Regional Hospital,Waterford,Dunmore Road,3198,3198,3198,,,,,,,,,,,,,,3268,3560,3470,,,Not Reported,,,,,,,,,,,3268,3560,3470,,,,,,,,,,,,,
Ireland,Operator Holding Account,EMC Information Systems International,461022,2005-09-09,closed,-,County Cork,Ovens,3659,3659,3659,3948,3948,3948,3948,3948,2595,2550,0,0,0,0,0,0,3670,3278,3021,3219,2938,3029,2931,2508,2519,2594,,,,,,,3670,3278,3021,3219,2938,3029,2931,2508,2519,2594,,,,,,
Ireland,Operator Holding Account,Dublin City Council,Statutory Authority,2005-09-09,closed,Ballymun,Dublin 11,Dublin,14497,14497,14497,13893,13893,13893,0,0,,,,,,,,,12278,13089,10417,8307,6847,3647,,,,,,,,,,,12278,13089,18124,8307,6847,3647,,,,,,,,,,
Ireland,Operator Holding Account,"Health Service Executive, Southern Area",Statutory Body,2005-09-09,closed,Arus Slainte,Cork,Wilton Road,3486,3486,3486,,,,,,,,,,,,,,4258,3755,3538,,,Not Reported,,,,,,,,,,,4258,3755,3538,,,,,,,,,,,,,
Ireland,Operator Holding Account,Nutricia Infant Nutrition Limited,384474,2005-09-09,open,70 Sir John Rogerson's Quay,Dublin 2,Dublin,16263,16263,16263,18368,18368,18368,18368,33031,10447,9350,12602,12370,12136,11899,11660,11419,18617,20341,21183,18771,19843,20172,19614,24861,31421,32787,33313,30418,,,,,18617,20341,22831,18771,19843,20172,19614,24861,31421,32787,33313,30418,,,,
Ireland,Operator Holding Account,Nutricia Infant Nutrition Limited,384474,2005-09-09,open,70 Sir John Rogerson's Quay,Dublin 2,Dublin,16642,16642,16642,17183,17183,17183,17183,17183,8588,7686,8850,8379,7917,7466,7023,6594,16080,16325,15244,15584,15634,16100,16285,16157,10600,11274,10327,11476,,,,,16080,16325,17521,15584,15634,16100,16285,16157,10600,11274,10327,11476,,,,
Ireland,Operator Holding Account,Health Service Executive West,123,2006-03-30,open,Merlin Park Regional Hospital,Merlin Park,Galway,5708,5708,5708,6317,6317,6317,6317,6317,2948,2638,2337,2044,1761,1487,1222,966,6462,6437,6101,5386,5149,5113,5041,5020,5211,5165,5433,5398,,,,,6462,6437,6101,5386,5149,5113,5041,5020,5211,5165,5433,5398,,,,
Ireland,Operator Holding Account,Anglo Beef Processors Ireland Unlimited Company,217122,2005-09-08,open,14 Castle Street,A92 F409,Louth,3212,3212,3212,3217,3217,3217,3217,3217,14774,14391,14011,13632,13255,12882,12509,12139,2803,2226,3310,2787,2561,3037,10942,15949,19245,16793,14163,14972,,,,,2803,2226,3310,2787,2561,3037,10942,15949,19245,16793,15671,14972,,,,
Ireland,Operator Holding Account,Anglo Beef Processors Ireland Unlimited Company,217122,2005-09-08,open,14 Castle Street,A92 F409,Louth,10605,10605,10605,11654,11654,11654,11654,11654,11181,10852,10527,10203,9883,9566,9251,8940,5313,4942,8194,12272,4387,9971,9279,12031,14243,16415,16697,16951,,,,,5313,4942,8194,12272,4387,9971,9279,12031,14243,16415,18499,16951,,,,
Ireland,Operator Holding Account,Dublin Products Limited,33508,2005-10-13,open,Tornant Lower,Wicklow,Dunlavin,,,,9033,9033,9033,9033,9033,9205,9045,8883,8720,8554,8388,8219,8049,1238,384,232,219,283,190,81,57,41,47,39,9384,,,,,1238,384,232,219,283,190,81,57,41,47,39,9384,,,,
Ireland,Operator Holding Account,Wexford Proteins Limited,588252,2006-01-23,open,Ryland Lower,Y21 E1T6,Bunclody,,,,3555,3555,3555,3555,3555,3175,3089,3001,2914,2829,2744,2659,2575,446,177,286,346,166,177,282,1516,2831,2711,2621,3007,,,,,446,177,1286,346,166,177,282,1516,2831,2711,2621,3007,,,,
Ireland,Operator Holding Account,Vitra (Ireland) Ltd,291147,2006-09-21,closed,IDA Business Park,Co Wicklow,Arklow,,,,5528,0,0,0,0,,,,,,,,,4856,5286,5004,5200,,Not Reported,,,,,,,,,,,,9557,5589,5200,,,,,,,,,,,,
Ireland,Operator Holding Account,Aurivo Dairy Ingredients Limited,356156,2006-10-02,open,Ballaghadereen,Roscommon,Roscommon,,,,25259,25259,25259,25259,25259,13304,12781,12265,11757,11258,10767,10284,9812,25849,23873,20676,19277,15272,17487,19776,22352,22418,21241,17467,14949,,,,,,49722,20676,19277,15272,17487,19776,22352,22418,21241,17467,14949,,,,
Ireland,Operator Holding Account,Viridian Power Limited,323213,2006-10-02,open,Mill House,Dublin 15,Navan Road,,,,813085,813085,813085,813085,813085,,,,,,,,,,0,391677,1077095,1020813,1039070,931269,879458,650399,440825,467046,530389,,,,,,,391677,1077095,1020813,1039070,931269,879458,650399,440825,467046,530389,,,,
Ireland,Operator Holding Account,Allergan Pharmaceuticals Ireland,514125,2006-10-02,open,Castlebar Road,Mayo,Westport,,,,9347,9347,9347,9347,9347,5023,4936,4847,4758,4668,4577,4485,4392,,4733,7889,6570,5543,5336,5502,6184,6579,6795,7609,7946,,,,,,4733,7889,6570,5543,5336,5502,6184,6579,6795,7609,7946,,,,
Ireland,Operator Holding Account,Janssen Biologics (Ireland),391741,2006-10-17,open,Barnahely,Cork,Ringaskiddy,,,,3652,3652,3652,3652,3652,3730,3666,3600,3534,3467,3399,3330,3262,,0,1130,3110,2083,3247,3147,3571,3587,3690,3771,4181,,,,,,,4144,3110,2083,3247,3147,3571,3587,3690,3771,4181,,,,
Ireland,Operator Holding Account,Beaumont Hospital,Statutory Body,2006-11-20,closed,Beaumont Road,Dublin 9,Dublin,,,,5014,5014,5014,5014,5014,3015,0,0,0,0,0,0,0,,1902,4030,4215,4239,4566,4391,4587,4536,,,,,,,,,1902,4030,4215,4239,4566,4391,4587,4536,,,,,,,
Ireland,Operator Holding Account,SSE Generation Ireland Limited,459400,2005-09-09,open,Red Oak South,Dublin 18,Leopardstown,487968,487968,487968,355029,355029,355029,355029,355029,,,,,,,,,396788,206213,99086,94384,67384,39831,11352,21214,14944,54262,546698,822186,,,,,396788,206213,103339,94384,67384,39831,11352,21214,14944,54262,546698,822186,,,,
Ireland,Operator Holding Account,SSE Generation Ireland Limited,459400,2005-09-09,open,Red Oak South,Dublin 18,Leopardstown,1543852,1543852,1543852,1009580,1009580,1009580,1009580,1009580,,,,,,,,,1287355,1536982,1006580,940858,479915,229189,56443,16172,16035,11938,18257,43382,,,,,1287355,1536982,1049784,940858,479915,229189,56443,16172,16035,11938,18257,43382,,,,
Ireland,Operator Holding Account,SSE Generation Ireland Limited,459400,2005-09-09,open,Red Oak South,Dublin 18,Leopardstown,2866,2866,2866,4825,4825,4825,4825,4825,,,,,,,,,24371,20527,6505,7537,2608,4425,889,969,211,1490,1668,1916,,,,,24371,20527,6784,7537,2608,4425,889,969,211,1490,1668,1916,,,,
Ireland,Operator Holding Account,SSE Generation Ireland Limited,459400,2005-11-24,open,Red Oak South,Dublin 18,Leopardstown,,,,20019,20019,20019,20019,20019,,,,,,,,,29229,24805,6833,4665,2168,1581,1090,705,375,1465,3204,6190,,,,,29229,24805,7126,4665,2168,1581,1090,705,375,1465,3204,6190,,,,
Ireland,Operator Holding Account,Hovione Limited,463979,2005-09-13,open,Loughbeg,Cork,Ringaskiddy,19770,19770,19770,16832,16832,16832,16832,16832,5650,5552,5452,5352,5251,5149,5044,4941,12823,12765,11190,11962,7974,6687,6393,5675,5469,3455,3923,3912,,,,,12823,12765,11190,11962,7974,6687,6393,5675,5469,3455,3923,3912,,,,
Ireland,Operator Holding Account,Cushaling Power Limited,473629,2010-08-18,open,C/O Bord Na Mona Offices,Kildare,Newbridge,,,,0,0,5290,6518,6535,,,,,,,,,,,,,,5668,3716,2610,1249,2559,3638,7959,,,,,,,,,,5668,3716,2610,1249,2559,3638,7959,,,,
Ireland,Operator Holding Account,MSD International GmbH (trading as MSD Ireland (Ballydine)),903991,2005-09-19,open,Ballydine,Tipperary,Kilsheelan,14448,14448,14448,12806,12806,12806,12806,12806,8703,8552,8399,8245,8088,7931,7771,7610,11090,10492,11551,11653,10777,11313,11036,9985,10133,9843,9551,9196,,,,,11090,10492,11551,11653,10777,11313,11036,9985,10133,9843,9551,9196,,,,
Ireland,Operator Holding Account,Pfizer Ireland Pharmaceuticals,490938,2005-09-13,open,Operations Support Group,Ringaskiddy,Cork,7184,7184,7184,19963,19963,19963,19963,19963,13462,13228,12991,12753,12511,12268,12020,11772,16838,16030,14262,15070,16764,14979,14794,12663,12214,12475,11618,11819,,,,,16838,16030,14262,15070,16764,14979,14794,12663,12214,12475,11618,11819,,,,
Ireland,Operator Holding Account,Pfizer Ireland Pharmaceuticals,490938,2005-09-13,open,Operations Support Group,Ringaskiddy,Cork,16867,16915,17105,26771,26771,47240,43075,43075,17713,17405,17094,16779,16461,16140,15815,15489,22348,23041,23978,24278,26728,34983,33836,35122,34391,33191,33606,33083,,,,,22348,23041,23978,24278,26728,34983,33836,35122,34391,33191,33606,33083,,,,
Ireland,Operator Holding Account,Pfizer Ireland Pharmaceuticals,490938,2005-09-26,open,Operations Support Group,Ringaskiddy,Cork,16406,16406,16406,37695,37695,37695,37695,37695,12694,12473,12250,12025,11797,11567,11334,11100,16218,17324,22647,22120,24401,19826,13156,17324,15633,16164,13893,17152,,,,,16218,17324,22647,22120,24401,19826,13156,17324,15633,16164,13893,17152,,,,
Ireland,Operator Holding Account,Pfizer Ireland Pharmaceuticals,490938,2005-09-13,open,Operations Support Group,Ringaskiddy,Cork,5373,5373,5373,4148,4148,4148,4148,4148,2850,2800,2750,2699,2648,2597,2544,2492,3368,3267,3206,3061,3483,3254,3132,3088,3017,2647,3423,3236,,,,,3368,3267,3206,3061,3483,3254,3132,3088,3017,2647,3423,3236,,,,
Ireland,Operator Holding Account,Amgen Technology Ireland,IE415665,2006-12-14,closed,70 Sir John Rogerson's Quay,Dublin 2,Dublin 2,,,,6030,6030,6030,6030,6030,,,,,,,,,,2339,5358,4196,3757,3724,3662,4314,0,,,,,,,,,2339,5358,4196,3757,3724,3662,4314,,,,,,,,
Ireland,Operator Holding Account,FMC Manufacturing Limited,152876,2010-05-04,open,Arthur Cox Building,Dublin 2,Dublin 2,,,,0,0,0,5120,35368,31653,31102,30552,30001,29450,28899,28348,27798,,,,,,18259,32892,36105,30226,31767,33163,34290,,,,,,,,,,,51151,36105,30226,31767,33163,34290,,,,
Ireland,Operator Holding Account,Alkermes Pharma Ireland Limited,448848,2005-09-09,closed,Monksland,Co WMeath,Co Westmeath,11439,11439,11439,13450,13450,13450,13450,13450,,,,,,,,,11840,10487,8310,8391,8079,7028,7564,8325,,,,,,,,,11840,10487,8310,8391,8079,7028,7564,8325,,,,,,,,
Ireland,Operator Holding Account,Premier Periclase Limited,59188,2005-09-09,open,Boyne Road,Louth,Drogheda,220343,220343,220343,286256,286256,286256,286256,286256,174184,171159,168099,165005,161879,158722,155527,152319,223703,211580,211807,196490,176616,217706,224022,228690,199611,208546,161885,154250,,,,,223703,211581,211807,196490,176616,217706,224003,228709,199611,208546,161885,154250,,,,
Ireland,Operator Holding Account,Wyeth Nutritionals Ireland Limited,393631,2005-09-09,open,Tomdeely North,Askeaton,Limerick,36392,36392,36392,43007,43007,43007,43007,43007,24102,21569,29079,28555,28030,27506,26982,26458,40469,41127,41822,44124,42805,38312,39441,38373,36273,37816,37170,37667,,,,,40469,41127,41822,44124,42805,40068,37685,38373,36273,37816,37170,37667,,,,
Ireland,Aircraft Operator Account,Select Management Resources LLC,F10397,2010-01-01,open,3440 Preston Ridge Road,30005,Alpharetta,,,,,,,,8,0,0,0,0,0,0,0,0,,,,,,,,23,Excluded,Excluded,Excluded,Excluded,,,,,,,,,,,,,23,,,,,,,
Ireland,Aircraft Operator Account,Phillips Edison & Company,20-1155318,2011-01-01,open,222 South Main,84101,Salt Lake City,,,,,,,,2,,,,,,,,,,,,,,,,16,Excluded,Excluded,Excluded,Excluded,,,,,,,,,,,,,,,,,,,,
Ireland,Aircraft Operator Account,Owens-Illinois General inc,22-2784167,2010-01-01,open,One Michael Owens Way,43551,Perrysburg,,,,,,,,34,4,4,4,4,4,4,4,4,,,,,,,,198,Excluded,Excluded,Excluded,Excluded,,,,,,,,,,,,198,,,,,,,,
Ireland,Aircraft Operator Account,CityJet Limited,193772,2010-01-01,open,Swords Business Campus,Co. Dublin,Swords,,,,,,,,106633,91268,91268,91268,91268,91268,91268,91268,91268,,,,,,,,190533,133502,119725,112886,127850,,,,,,,,,,,,190533,,253227,112879,127857,,,,
Ireland,Aircraft Operator Account,CMC Group Inc,59-2858113,2011-01-01,open,701 Brickell Ave Suite 3150,33131,Miami,,,,,,,,25,3,3,3,3,3,3,3,3,,,,,,,,59,Excluded,Excluded,Excluded,Excluded,,,,,,,,,,,,59,,,,,,,,
Ireland,Aircraft Operator Account,Group Holdings Inc,75-2136836,2010-01-01,open,208 Aviation Way,76106,Fort Worth,,,,,,,,20,3,3,3,3,3,3,3,3,,,,,,,,34,Excluded,Excluded,Excluded,Excluded,,,,,,,,,,,,,34,,,,,,,
Ireland,Aircraft Operator Account,Prime Aviation JSC,76589-1910-AO,2010-01-01,open,"65, Furmanova Avenue, Office 300",050004,Almaty,,,,,,,,79,8,8,8,8,8,8,8,8,,,,,,,,664,751,279,325,374,,,,,,,,,,,,79,1336,279,325,374,,,,
Ireland,Aircraft Operator Account,Flightstar Corporation,51623789,2010-01-01,open,7 Airport Road,61874,Savoy,,,,,,,,66,3,3,3,3,3,3,3,3,,,,,,,,51,115,58,Excluded,73,,,,,,,,,,,,51,,173,,73,,,,
Ireland,Aircraft Operator Account,Aer Lingus Limited,9215,2012-01-01,open,Head Office Building,Co Dublin,Dublin,,,,,,,,1161812,576455,576455,576455,576455,576455,576455,576455,576455,,,,,,,,1443585,819673,800287,795321,813633,,,,,,,,,,,,1443585,,1619960,795322,813632,,,,
Ireland,Aircraft Operator Account,Texas Instruments Inc,EM10155,2009-01-01,open,1401 FM 546,75069,McKinney,,,,,,,,33,1,1,1,1,1,1,1,1,,,,,,,,70,Excluded,Excluded,Excluded,11,,,,,,,,,,,,70,,,,11,,,,
Ireland,Aircraft Operator Account,Irving Air Service Inc,008560,2010-01-01,open,PO Box 5777,E2L 4M3,Saint John,,,,,,,,18,2,2,2,2,2,2,2,2,,,,,,,,70,Excluded,Excluded,Excluded,Excluded,,,,,,,,,,,,70,,,,,,,,
Ireland,Aircraft Operator Account,EMC Ireland,23828,2010-01-01,open,380 Hanscom Drive,01730,Bedford,,,,,,,,136,97,97,97,97,97,97,97,97,,,,,,,,1848,1327,1225,1095,Excluded,,,,,,,,,,,,136,1712,2552,1095,,,,,
Ireland,Aircraft Operator Account,Federal Mogul,38-0533380,2010-01-01,open,7151 North Astro Drive,48327,Waterford,,,,,,,,21,2,2,2,2,2,2,2,2,,,,,,,,432,Excluded,Excluded,Excluded,Excluded,,,,,,,,,,,,432,,,,,,,,
Ireland,Aircraft Operator Account,"PepsiCo, Inc.",0198463,2010-01-01,open,"150 Airport Road, Hangar V",10604,White Plains,,,,,,,,,,,,,,,,,,,,,,,,60,3,Excluded,Excluded,31,,,,,,,,,,,,60,,3,,31,,,,
Ireland,Aircraft Operator Account,Mozart Investments Inc.,05006739,2012-01-01,open,2965 Colonnade Drive,24018,Roanoke,,,,,,,,5,0,0,0,0,0,0,0,0,,,,,,,,19,Excluded,Excluded,Excluded,Excluded,,,,,,,,,,,,,19,,,,,,,
Ireland,Aircraft Operator Account,"EAC Air, LLC",20-5073252,2012-01-01,open,9 West 57th Street,10019,New York,,,,,,,,,,,,,,,,,,,,,,,,151,Excluded,Excluded,Excluded,Excluded,,,,,,,,,,,,151,,,,,,,,
Ireland,Aircraft Operator Account,Luna Entertainment,383692376,2010-01-01,open,42875 Grand River Avenue,48375,Novi,,,,,,,,,,,,,,,,,,,,,,,,22,Excluded,Excluded,Excluded,Excluded,,,,,,,,,,,,22,,,,,,,,
Ireland,Aircraft Operator Account,Leonard Green & Partners,199417300029,2010-01-01,open,11111 Santa Monica Boulevard,90025,Los Angeles,,,,,,,,3,0,0,0,0,0,0,0,0,,,,,,,,30,Excluded,Excluded,Excluded,Excluded,,,,,,,,,,,,30,,,,,,,,
Ireland,Aircraft Operator Account,Transit Air Services,NA,2009-01-01,open,9 Airport Road,07960,Morristown,,,,,,,,,,,,,,,,,,,,,,,,23,Excluded,Excluded,Excluded,Excluded,,,,,,,,,,,,,23,,,,,,,
Ireland,Aircraft Operator Account,Professional Care I Inc,65-0340771,2010-01-01,open,10850 SW 113th Place,33176,Miami,,,,,,,,,,,,,,,,,,,,,,,,35,Excluded,Excluded,Excluded,Excluded,,,,,,,,,,,,35,,,,,,,,
Ireland,Aircraft Operator Account,GP Air Limited,10230,2010-01-01,open,PO Box 329,L0R 1W0,Mount Hope,,,,,,,,,,,,,,,,,,,,,,,,0,Excluded,Excluded,Excluded,Excluded,,,,,,,,,,,,,,,,,,,,
Ireland,Aircraft Operator Account,MVA Aviation Limited,37939,2012-01-01,open,Clarendon House,HM11,Hamilton,,,,,,,,,,,,,,,,,,,,,,,,296,Excluded,Excluded,Excluded,Excluded,,,,,,,,,,,,296,,,,,,,,
Ireland,Aircraft Operator Account,Weldbend Corporation,36-2677270,2012-01-01,open,6600 South Harlem Avenue,60643,Argo,,,,,,,,,,,,,,,,,,,,,,,,17,Excluded,Excluded,Excluded,Excluded,,,,,,,,,,,,17,,,,,,,,
Ireland,Aircraft Operator Account,Valley Jet LLC,11803,2011-01-01,open,PO Box 4715,83340,Ketchum,,,,,,,,,,,,,,,,,,,,,,,,18,Excluded,Excluded,Excluded,Excluded,,,,,,,,,,,,18,,,,,,,,
Ireland,Aircraft Operator Account,NCR Corporation,31-0387920,2009-01-01,open,1715 McCollum Parkway,30144,Kennesaw,,,,,,,,,,,,,,,,,,,,,,,,2,Excluded,Excluded,Excluded,Excluded,,,,,,,,,,,,2,,,,,,,,
Ireland,Aircraft Operator Account,Stobart Air Unlimited Company,28858,2011-01-01,open,1 Northwood Avenue,D09V2F7,Dublin,,,,,,,,28660,24712,24712,24712,24712,24712,24712,24712,24712,,,,,,,,57749,55960,68924,59749,70375,,,,,,,,,,,,57749,,124884,59749,70375,,,,
Ireland,Aircraft Operator Account,Jarden Corporation,31850,2013-01-01,open,288 Christian Street,06478,Oxford,,,,,,,,,,,,,,,,,,,,,,,,97,Excluded,Excluded,Excluded,Excluded,,,,,,,,,,,,97,,,,,,,,
Ireland,Aircraft Operator Account,"Harley-Davidson Motor Company Group, LLC",39-1805420,2010-01-01,open,5460 S. Howell Avenue,53207,Milwaukee,,,,,,,,6,2,2,2,2,2,2,2,2,,,,,,,,70,Excluded,Excluded,Excluded,Excluded,,,,,,,,,,,,73,,,,,,,,
Ireland,Aircraft Operator Account,Johnson & Johnson Aviation,5106301000,2009-01-01,open,"One Johnson & Johnson Plaza, WH2333,",08933,New Brunswick,,,,,,,,50,1,1,1,1,1,1,1,1,,,,,,,,59,127,56,168,170,,,,,,,,,,,,59,,183,168,170,,,,
Ireland,Aircraft Operator Account,"Letica Leasing, LLC",71-0929459,2011-01-01,open,52585 Dequindre,48307,Rochester,,,,,,,,,,,,,,,,,,,,,,,,18,Excluded,Excluded,Excluded,Excluded,,,,,,,,,,,,18,,,,,,,,
Ireland,Aircraft Operator Account,Apache Corporation,41-0747868,2012-01-01,open,2000 Post Oak Boulevard,77056-4400,Houston,,,,,,,,,,,,,,,,,,,,,,,,14,Excluded,Excluded,Excluded,Excluded,,,,,,,,,,,,,14,,,,,,,
Ireland,Aircraft Operator Account,The Sherwin-Williams Company,f10441,2010-01-01,open,C/O ATLANTIC AVIATION,44135-3144,Cleveland,,,,,,,,,,,,,,,,,,,,,,,,74,Excluded,Excluded,Excluded,Excluded,,,,,,,,,,,,74,,,,,,,,
Ireland,Aircraft Operator Account,Warner Chilcott,0101009144,2011-01-01,open,17 Airport Road,07960,Morristown,,,,,,,,32,1,1,1,1,1,1,1,1,,,,,,,,101,107,0,27,Excluded,,,,,,,,,,,,101,,107,27,,,,,
Ireland,Aircraft Operator Account,Cintas,5078,2010-01-01,open,418 Wilmer Avenue,45226,Cincinnati,,,,,,,,5,0,0,0,0,0,0,0,0,,,,,,,,41,Excluded,Excluded,Excluded,Excluded,,,,,,,,,,,,41,,,,,,,,
Ireland,Aircraft Operator Account,Dow Corning Corporation,28485,2010-01-01,closed,2200 W Salzburg Road,48686,Midland,,,,,,,,21,0,0,0,0,0,0,0,0,,,,,,,,52,Excluded,Excluded,Excluded,Excluded,,,,,,,,,,,,21,31,,,,,,,
Ireland,Aircraft Operator Account,OMEGA Air Inc,24477,2012-01-01,open,29/31 Athol Street,IM1 1LB,Douglas,,,,,,,,,,,,,,,,,,,,,,,,151,Excluded,Excluded,Excluded,Excluded,,,,,,,,,,,,151,,,,,,,,
Ireland,Aircraft Operator Account,Boston Scientific Corporation,04-2695240,2010-01-01,open,140 Hanscom Drive,01730,Bedford,,,,,,,,29,0,0,0,0,0,0,0,0,,,,,,,,22,Excluded,Excluded,Excluded,Excluded,,,,,,,,,,,,,27,,,,,,,
Ireland,Aircraft Operator Account,Altivia Flight,33209,2009-01-01,open,"313, #02-13 Old Birdcage Walk",798486,Singapore,,,,,,,,,,,,,,,,,,,,,,,,112,Excluded,Excluded,Not Reported,Not Reported,,,,,,,,,,,,112,,,,,,,,
Ireland,Aircraft Operator Account,MIL Ireland,1104,2012-01-01,open,Department of Defence,NA,Newbridge,,,,,,,,,,,,,,,,,,,,,,,,877,1161,0,Excluded,Excluded,,,,,,,,,,,,877,,1161,,,,,,
Ireland,Aircraft Operator Account,Astor Street Asset Management,29280,2010-01-01,open,6150 S. Laramie St,60638,Chicago,,,,,,,,14,0,0,0,0,0,0,0,0,,,,,,,,94,Excluded,Excluded,Excluded,Excluded,,,,,,,,,,,,,107,,,,,,,
Ireland,Aircraft Operator Account,PNC Financial Services Group,25-1435979,2011-01-01,open,24 Allegheny County Airport,15122,West Mifflin,,,,,,,,18,1,1,1,1,1,1,1,1,,,,,,,,86,Excluded,Excluded,Excluded,Excluded,,,,,,,,,,,,86,,,,,,,,
Ireland,Aircraft Operator Account,I.A.M.A.W.,536001417,2012-01-01,open,9000 Machinists Place,20772-2687,Upper Marlboro,,,,,,,,,,,,,,,,,,,,,,,,25,Excluded,Excluded,Excluded,Excluded,,,,,,,,,,,,,25,,,,,,,
Ireland,Aircraft Operator Account,Washington Penn Plastic Co Inc,25-1196198,2010-01-01,open,450 Racetrack Road,15301,Washington,,,,,,,,39,6,6,6,6,6,6,6,6,,,,,,,,77,Excluded,Excluded,Excluded,Excluded,,,,,,,,,,,,77,,,,,,,,
Ireland,Aircraft Operator Account,Ven Air,79176,2010-01-01,open,Milestown,Co Louth,Castlebellingham,,,,,,,,19,11,11,11,11,11,11,11,11,,,,,,,,635,Excluded,Excluded,Excluded,Excluded,,,,,,,,,,,,,635,,,,,,,
Ireland,Aircraft Operator Account,HANC LLP- Highfields Capital Management,271477187,2012-01-01,open,160 Hanscom Drive,01730,Bedford,,,,,,,,,,,,,,,,,,,,,,,,29,Excluded,Excluded,Excluded,Excluded,,,,,,,,,,,,29,,,,,,,,
Ireland,Aircraft Operator Account,Fairmont Aviation Services Inc,707171-0,2010-01-01,open,6120 Midfield Road,L5P 1B1,Mississauga,,,,,,,,18,3,3,3,3,3,3,3,3,,,,,,,,134,Excluded,Excluded,Excluded,Excluded,,,,,,,,,,,,134,,,,,,,,
Ireland,Aircraft Operator Account,Cook Aircraft Leasing Inc,32509,2012-01-01,open,973 South Kirby Road,47403,Bloomington,,,,,,,,19,3,3,3,3,3,3,3,3,,,,,,,,6,Excluded,Excluded,Excluded,Excluded,,,,,,,,,,,,6,,,,,,,,
Ireland,Aircraft Operator Account,Fagen Inc,41-1604605,2010-01-01,open,501 W. Highway 212,56241,Granite Falls,,,,,,,,2,0,0,0,0,0,0,0,0,,,,,,,,18,Excluded,Excluded,Excluded,Excluded,,,,,,,,,,,,,18,,,,,,,
Ireland,Aircraft Operator Account,Cross Aviation Ltd,04340105,2010-01-01,open,Curzon House,SM7 2LJ,Surrey,,,,,,,,64,60,60,60,60,60,60,60,60,,,,,,,,846,Excluded,Excluded,Excluded,Excluded,,,,,,,,,,,,64,782,,,,,,,
Ireland,Aircraft Operator Account,Aero Ways Inc,3220906,2012-01-01,open,131 North DuPont Highway,Delaware,New Castle,,,,,,,,,9,4,4,4,4,4,4,4,,,,,,,,85,Excluded,Excluded,Excluded,Excluded,,,,,,,,,,,,85,,,,,,,,
Ireland,Aircraft Operator Account,Friedkin Aviation Inc,EIN 76-0245982,2012-01-01,open,8602 West Monroe Road,77061,Houston,,,,,,,,,,,,,,,,,,,,,,,,134,116,Excluded,Excluded,Excluded,,,,,,,,,,,,,134,116,,,,,,
Ireland,Aircraft Operator Account,Nustar Logistics,74-2958817,2012-01-01,open,11330 US 281 North,TX 78216,San Antonio,,,,,,,,,,,,,,,,,,,,,,,,0,Excluded,Excluded,Excluded,Excluded,,,,,,,,,,,,,,,,,,,,
Ireland,Aircraft Operator Account,C-DOT AVIATION LLC,IE 354127336149,2012-01-01,open,4228 Houma Boulevard,70006,Metairie,,,,,,,,,,,,,,,,,,,,,,,,7,Excluded,Excluded,Excluded,Excluded,,,,,,,,,,,,,7,,,,,,,
Ireland,Aircraft Operator Account,Alltech Inc,61-0977517,2009-01-01,open,3031 Catnip Hill Road,40356,Nicholasville,,,,,,,,,,,,,,,,,,,,,,,,206,245,525,292,290,,,,,,,,,,,,,206,770,292,290,,,,
Ireland,Aircraft Operator Account,Ferro Corporation,34-0217820,2012-01-01,open,6060 Parkland Boulevard,44124,Mayfield Heights,,,,,,,,,1,0,0,0,0,0,0,0,,,,,,,,58,Excluded,Excluded,Excluded,Excluded,,,,,,,,,,,,,,58,,,,,,
Ireland,Aircraft Operator Account,Orange Crimson Aviation LLC,56 0891470,2012-01-01,open,1001 Pennsylvania Avenue,20004,Washington,,,,,,,,,,,,,,,,,,,,,,,,,Excluded,Excluded,Excluded,Excluded,,,,,,,,,,,,,,,,,,,,
Ireland,Aircraft Operator Account,Codale Electric Supply Inc,180405200225,2012-01-01,open,369 North 2370 West,84116,North Salt Lake,,,,,,,,,,,,,,,,,,,,,,,,5,Excluded,Excluded,Excluded,Excluded,,,,,,,,,,,,,5,,,,,,,
Ireland,Aircraft Operator Account,RKK Management Inc,DE 4197504,2013-01-01,open,4300 Westgrove Drive,75001,Addison,,,,,,,,,,,,,,,,,,,,,,,,17,Excluded,Excluded,Excluded,Excluded,,,,,,,,,,,,,17,,,,,,,
Ireland,Aircraft Operator Account,Centurion Aviation Services Inc,EIN 352182298,2010-01-01,open,478 Hangar Road,28306,Fayetteville,,,,,,,,,47,21,21,21,21,21,21,21,,,,,,,,545,466,257,171,288,,,,,,,,,,,,,545,723,171,288,,,,
Ireland,Aircraft Operator Account,Aero Timber Partners LLC,29293,2012-01-01,open,"c/o HAP Investment Group, LLC",30327,Atlanta,,,,,,,,,,,,,,,,,,,,,,,,22,Excluded,Excluded,Excluded,Excluded,,,,,,,,,,,,,22,,,,,,,
Ireland,Aircraft Operator Account,General Dynamics Land Systems,540582680,2012-01-01,open,38500 Mound Road,48310,Sterling Heights,,,,,,,,,,,,,,,,,,,,,,,,,Excluded,Excluded,Excluded,Excluded,,,,,,,,,,,,,,,,,,,,
Ireland,Aircraft Operator Account,Tashi Corporation,34-6562875,2012-01-01,open,8433 Earhart RD,94621,Oakland,,,,,,,,,,,,,,,,,,,,,,,,58,Excluded,Excluded,Excluded,Excluded,,,,,,,,,,,,,58,,,,,,,
Ireland,Aircraft Operator Account,Motorola Solutions,36-1115800,2012-01-01,closed,1001 S. Wolf Road,60090,Wheeling,,,,,,,,,,,,,,,,,,,,,,,,156,Excluded,Excluded,26,Excluded,,,,,,,,,,,,,156,,26,,,,,
Ireland,Aircraft Operator Account,Kellogg Aviation Company,8180,2013-01-01,open,One Kellogg Square,49016,Battle Creek,,,,,,,,,1,0,0,0,0,0,0,0,,,,,,,,67,Excluded,Excluded,Excluded,Excluded,,,,,,,,,,,,,67,,,,,,,
Ireland,Aircraft Operator Account,Goodyear,34-0253240,2010-01-01,open,5400 Lauby Road,44720,North Canton,,,,,,,,,,,,,,,,,,,,,,,,107,Excluded,Excluded,Excluded,Excluded,,,,,,,,,,,,,,,,,,,,
Ireland,Aircraft Operator Account,Quest AVTN,DB024565,2013-01-01,open,440 East Highway 12,57401,Aberdeen,,,,,,,,,,,,,,,,,,,,,,,,,Excluded,Excluded,Excluded,Excluded,,,,,,,,,,,,,,,,,,,,
Ireland,Aircraft Operator Account,Guthy Renker Aviation,0001516924/33-0587817,2012-01-01,open,"41-550 Eclectic St., Suite 200",92260,Palm Desert,,,,,,,,,,,,,,,,,,,,,,,,26,Excluded,Excluded,Excluded,Excluded,,,,,,,,,,,,,26,,,,,,,
Ireland,Aircraft Operator Account,Nestle Purina PetCare,00007498,2009-01-01,open,18216 Edison Avenue,63005,Chesterfield,,,,,,,,,,,,,,,,,,,,,,,,,Excluded,Excluded,Excluded,Excluded,,,,,,,,,,,,,,,,,,,,
Ireland,Aircraft Operator Account,Premier Executive Jets Ltd,437258,2012-01-01,open,Weston Airport,County Kildare,Leixlip,,,,,,,,,,,,,,,,,,,,,,,,,Excluded,Excluded,Excluded,Excluded,,,,,,,,,,,,,,,,,,,,
Ireland,Aircraft Operator Account,Manhag AG,CHE-102.729.762,2012-01-01,open,Delphinweg 19,5616,Meisterschwanden,,,,,,,,,,,,,,,,,,,,,,,,268,Excluded,Excluded,Excluded,Excluded,,,,,,,,,,,,,268,,,,,,,
Ireland,Aircraft Operator Account,First Virtual Air LLC,30469,2009-01-01,open,2040 Milligan Way,97504,Medford,,,,,,,,,0,0,0,0,0,0,0,0,,,,,,,,0,Excluded,163,Excluded,Excluded,,,,,,,,,,,,,,163,,,,,,
Ireland,Aircraft Operator Account,Konfara Company,L12608288,2010-01-01,open,15050 N. 78th Way,85260,Scottsdale,,,,,,,,,,,,,,,,,,,,,,,,,Excluded,Excluded,Excluded,Excluded,,,,,,,,,,,,,,,,,,,,
Ireland,Aircraft Operator Account,North Star Aviation Inc,109615,2012-01-01,open,3030 Airport Road N,56001,Mankato,,,,,,,,,,,,,,,,,,,,,,,,15,Excluded,Excluded,Excluded,Excluded,,,,,,,,,,,,,15,,,,,,,
Ireland,Operator Holding Account,Google Ireland Limited,368047,2013-04-26,open,Gordon House,Dublin 4,Dublin,,,,,,,,,,,,,,,,,,,,,,,,139,10,82,310,87,,,,,,,,,,,,,150,81,311,91,,,,
Ireland,Aircraft Operator Account,The Bank of Nova Scotia,34053,2009-01-01,open,44 King Street West,M5H 1H1,Toronto,,,,,,,,,,,,,,,,,,,,,,,,39,Excluded,Excluded,Excluded,Excluded,,,,,,,,,,,,,39,,,,,,,
Ireland,Operator Holding Account,Lakeland Dairies Co-operative Society Limited,Co-operative Society,2013-05-13,open,Church Street,Cavan,Killeshandra,,,,,,,,,0,10732,6134,6023,5913,5802,5692,5581,,,,,,,,,4574,9322,13067,13896,,,,,,,,,,,,,4574,9322,13067,13896,,,,
Ireland,Aircraft Operator Account,Baxter Health Care,36-0781620,2011-01-01,open,3900 Foster McGaw Dr.,60087,Waukegan,,,,,,,,,3,1,1,1,1,1,1,1,,,,,,,,115,87,Excluded,Excluded,Excluded,,,,,,,,,,,,,,202,,,,,,
Ireland,Aircraft Operator Account,"GC International, LLC",20-1495285,2012-01-01,open,P.O. Box 620328,30362,Atlanta,,,,,,,,,,,,,,,,,,,,,,,,18,Excluded,Excluded,Excluded,Excluded,,,,,,,,,,,,,,18,,,,,,
Ireland,Operator Holding Account,Amazon Data Services Ireland Limited,390566,2014-03-25,open,One Burlington Plaza,D04RH96,Dublin,,,,,,,,,,,,,,,,,,,,,,,127,235,111,208,240,337,,,,,,,,,,,,,,624,298,337,,,,
Ireland,Operator Holding Account,Amazon Data Services Ireland Limited,390566,2014-03-25,open,One Burlington Plaza,D04RH96,Dublin,,,,,,,,,,,,,,,,,,,,,,,,80,120,101,288,197,,,,,,,,,,,,,,253,337,197,,,,
Ireland,Operator Holding Account,Amazon Data Services Ireland Limited,390566,2014-03-25,open,One Burlington Plaza,D04RH96,Dublin,,,,,,,,,,,,,,,,,,,,,,,41,79,59,137,382,100,,,,,,,,,,,,,,269,430,100,,,,
Ireland,Operator Holding Account,Shell E&P Ireland Limited,316588,2014-09-10,open,Corrib House,Dublin 2,Dublin,,,,,,,,,,,,,,,,,,,,,,,,,,,11519,45133,,,,,,,,,,,,,,,12629,45133,,,,
Ireland,Operator Holding Account,Waspar Limited,423801,2006-12-18,open,Unit 9,Dublin 15,Dublin,,,,,,,,,,,,,,,,,,7,160,168,206,247,192,174,190,242,245,297,,,,,,,,,,,,,,2247,,,,,,
Ireland,Aircraft Operator Account,Zarox Holdings Ltd,109367,2014-01-01,open,57/63 Line Road,n/a,Gibraltar,,,,,,,,,,,,,,,,,,,,,,,,,Excluded,25,Excluded,Excluded,,,,,,,,,,,,,,25,,,,,,
Ireland,Aircraft Operator Account,Eaton Corporation,47290,2009-01-01,open,26340 Curtiss Wright Parkway,44143-1400,Richmond Heights,,,,,,,,,,,,,,,,,,,,,,,,91,Excluded,94,Excluded,Excluded,,,,,,,,,,,,,,185,,,,,,
Ireland,Operator Holding Account,Regeneron Ireland Unlimited Company,519550,2015-03-23,open,"Europa House, Harcourt Centre",Dublin 2,Dublin,,,,,,,,,,,,,,,,,,,,,,,,,,,2102,5672,,,,,,,,,,,,,,,2102,5672,,,,
Ireland,Operator Holding Account,Glanbia Ireland Designated Activity Company,501098,2014-11-27,open,Glanbia House,Kilkenny,Kilkenny,,,,,,,,,,,,34181,18954,18600,18245,17891,,,,,,,,,,,16701,21719,,,,,,,,,,,,,,,16701,21719,,,,
Ireland,Aircraft Operator Account,Norwegian Air International Limited,525771,2015-01-01,open,"Ground Floor, Imbus House",Dublin,Dublin,,,,,,,,,,,,,,,,,,,,,,,,,,,114468,960025,,,,,,,,,,,,,,,114468,960025,,,,
Ireland,Operator Holding Account,Lagan Brick Limited,10541,2015-06-05,open,Kingscourt Bricks Limited,00,Cavan,,,,,,,,,,,1699,2955,2901,2847,2792,2738,,,,,,,,,,,2622,4386,,,,,,,,,,,,,,,2622,4386,,,,
Ireland,Operator Holding Account,Microsoft Ireland Operations Limited,256796,2016-02-29,open,70 Sir John Rogerson's Quay,D02 R296,Dublin,,,,,,,,,,,,,,,,,,,,,,,,,,,,292,,,,,,,,,,,,,,,,1700,,,,
Ireland,Operator Holding Account,Amazon Data Services Ireland Limited,390566,2016-09-08,open,One Burlington Plaza,D04RH96,Dublin,,,,,,,,,,,,,,,,,,,,,,,,,,,,106,,,,,,,,,,,,,,,,106,,,,
Ireland,Operator Holding Account,C&D Foods,26191,2016-01-15,open,Edgeworthstown (Mostrim),N39 AK40,Edgeworthstown,,,,,,,,,,,,,,,,,,,,,,,,,,,,11263,,,,,,,,,,,,,,,,11263,,,,
Ireland,Operator Holding Account,Amazon Data Services Ireland Limited,390566,2017-02-16,open,One Burlington Plaza,D04RH96,Dublin,,,,,,,,,,,,,,,,,,,,,,,,,,,,,,,,,,,,,,,,,,,,,,,,
