Country,Account Type,Account Holder Name,Company Registration No,Permit/Plan Date,Account status,Main Address Line,Postal Code,City,Allowance In Allocation In 2005,Allowance In Allocation In 2006,Allowance In Allocation In 2007,Allowance In Allocation In 2008,Allowance In Allocation In 2009,Allowance In Allocation In 2010,Allowance In Allocation In 2011,Allowance In Allocation In 2012,Allowance In Allocation In 2013,Allowance In Allocation In 2014,Allowance In Allocation In 2015,Allowance In Allocation In 2016,Allowance In Allocation In 2017,Allowance In Allocation In 2018,Allowance In Allocation In 2019,Allowance In Allocation In 2020,Verified Emissions In 2005,Verified Emissions In 2006,Verified Emissions In 2007,Verified Emissions In 2008,Verified Emissions In 2009,Verified Emissions In 2010,Verified Emissions In 2011,Verified Emissions In 2012,Verified Emissions In 2013,Verified Emissions In 2014,Verified Emissions In 2015,Verified Emissions In 2016,Verified Emissions In 2017,Verified Emissions In 2018,Verified Emissions In 2019,Verified Emissions In 2020,Units Surrendered In 2005,Units Surrendered In 2006,Units Surrendered In 2007,Units Surrendered In 2008,Units Surrendered In 2009,Units Surrendered In 2010,Units Surrendered In 2011,Units Surrendered In 2012,Units Surrendered In 2013,Units Surrendered In 2014,Units Surrendered In 2015,Units Surrendered In 2016,Units Surrendered In 2017,Units Surrendered In 2018,Units Surrendered In 2019,Units Surrendered In 2020
Latvia,Aircraft Operator Account,Smartlynx Airlines,40003056133,2010-01-01,open,"""Mazrūdas""",LV-2167,Mazrūdas,,,,,,,,23284,9162,9162,9162,9162,9162,9162,9162,9162,,,,,,,,19972,11846,10813,10913,17841,,,,,,,,,,,,19972,,22659,10913,17841,,,,
Latvia,Aircraft Operator Account,"A/S ""AirBaltic Corporation""",40003245752,2010-01-01,open,Lidosta Rīga,LV1053,Mārupes nov.,,,,,,,,288236,189706,189706,189706,189706,189706,189706,189706,189706,,,,,,0,0,286527,272063,265566,285839,285529,,,,,,,,,,,,286527,,537629,285839,285529,,,,
Latvia,Operator Holding Account,A/S “Olaines udens un siltums”,50003182001,2007-12-21,open,Kudras iela 27,LV-2114,Olaine,38309,37565,36849,16259,16259,16259,16259,16259,10467,9367,4149,3630,3127,2640,2170,1717,13994,13842,13428,12806,12929,13846,12273,8031,7327,5792,3156,4128,,,,,13994,13842,13428,12806,12929,13846,12273,8031,7327,5792,3156,4128,,,,
Latvia,Operator Holding Account,Pasvaldibas SIA „Ventspils siltums”,40003007655,2007-12-27,open,Brivibas iela 38,LV-3601,Ventspils,56836,55732,54671,39735,39735,39735,39735,39735,19411,17371,15386,13462,11597,9792,8046,6365,37592,29446,24189,22443,23050,26851,23635,21034,6076,324,21,180,,,,,37592,29446,24189,22443,23050,26851,23635,21034,6076,324,21,180,,,,
Latvia,Operator Holding Account,Pasvaldibas SIA “Ventspils siltums”,40003007655,2007-12-27,open,Talsu iela 69,LV-3602,Ventspils,62965,61767,60615,46247,46247,46247,46247,46247,22995,18680,16441,14390,12404,10482,8623,6830,41165,41178,46106,40655,48676,53505,46652,49252,48126,16631,9950,15370,,,,,41165,41178,46106,40655,48676,53505,46652,49252,48126,16631,9950,15370,,,,
Latvia,Operator Holding Account,A/S “Jelgavas cukurfabrika”,LV40003017988,2008-12-10,closed,Cukura iela 22,LV-3002,Jelgava,49337,48486,47666,12381,0,0,0,0,,,,,,,,,40331,38051,15004,7501,,Not Reported,,,,,,,,,,,40331,38051,15004,7501,,,,,,,,,,,,
Latvia,Operator Holding Account,A/S “Liepajas cukurfabrika”,,2005-11-30,closed,Grizupes iela 2,LV-3402,Liepaja,23613,23613,23613,,,,,,,,,,,,,,14218,14841,478,0,,Not Reported,,,,,,,,,,,14218,14841,478,,,,,,,,,,,,,
Latvia,Operator Holding Account,AS “Latvenergo” TEC-1,40003032949,2007-11-16,open,Pulkveþa Brieþa 12,LV-1230,Riga,368920,363417,358123,444782,444782,444782,444782,444782,190072,170096,150687,131892,113688,96074,79029,62595,381589,416338,385897,329379,313535,350007,320300,282200,257817,311139,310824,373172,,,,,381589,416338,385897,329379,313535,350007,320300,282200,257817,311139,310824,373172,,,,
Latvia,Operator Holding Account,AS „Latvenergo” TEC-2,40003032949,2007-11-16,open,Pulkveþa Brieþa 12,LV-1230,Riga,986878,973696,961017,735907,956593,956593,956593,956593,312793,272682,241568,211438,182254,154017,126692,100348,619389,629723,567193,638231,584766,857410,813039,615640,817575,627206,742877,739510,,,,,619389,629723,567193,638231,584766,857410,813039,615640,817575,627206,742877,739510,,,,
Latvia,Operator Holding Account,SIA „Fortum Jelgava”,50003549231,2007-12-14,open,"Lidosta ""Riga""",LV- 1053,Marupes pagasts,53044,52014,51023,29309,29309,29309,29309,29309,26658,23858,0,0,0,0,0,0,27740,28822,26886,25635,25083,30678,25354,27217,17983,973,471,732,,,,,27740,28822,26886,25635,25083,30678,25354,27217,17983,973,471,732,,,,
Latvia,Operator Holding Account,"SIA ""Fortum Jelgava""",50003549231,2007-12-14,open,"Lidosta ""Riga""",LV-1053,Rigas rajons,16342,16024,15719,11541,11541,11541,11541,11541,0,0,0,0,0,0,0,0,11942,10569,11424,9971,6105,0,60,5,0,5,0,0,,,,,11942,10569,11424,9971,6105,,60,5,,5,,,,,,
Latvia,Operator Holding Account,SIA „Valmieras siltums”,,2005-11-24,closed,Rigas iela 27A,LV-4201,Valmiera,18622,18260,17912,,,,,,,,,,,,,,10364,9955,0,,,Not Reported,,,,,,,,,,,10364,9955,,,,,,,,,,,,,,
Latvia,Operator Holding Account,SIA „Valmieras siltums”,,2005-11-24,closed,Rigas iela 27A,LV-4201,Valmiera,16340,16023,15718,,,,,,,,,,,,,,12861,12472,0,,,Not Reported,,,,,,,,,,,12861,12472,,,,,,,,,,,,,,
Latvia,Operator Holding Account,SIA „Livanu siltums”,40003482591,2007-11-30,open,Zala iela 39,LV-5316,Livani,10269,10069,9878,2852,2852,2852,2852,2852,4829,4321,3827,0,0,0,0,0,1862,1761,627,59,136,906,475,404,241,246,19,,,,,,1862,1761,627,59,136,906,475,404,241,246,19,,,,,
Latvia,Operator Holding Account,SIA „Aizkraukles siltums”,40003007886,2007-11-20,open,Rupniecibas iela 2,LV-5101,Aizkraukle,23381,22927,22491,10738,10738,10738,10738,10738,8299,7427,6579,2878,2479,2094,1720,1361,10255,10221,10058,9612,9297,9893,8594,9120,8525,8168,4369,3607,,,,,10255,10221,10058,9612,9297,9893,8594,9120,8525,8168,4369,3607,,,,
Latvia,Operator Holding Account,A/S „Rigas siltums” katlu maja Gobas iela 33a,40003286750,2007-11-16,open,Cesu iela 3a,LV-1012,Riga,9154,8976,8805,8748,8748,8748,8748,8748,6554,5866,5195,4546,3915,3306,2716,2149,8434,8243,8001,7296,4220,4804,3708,4157,4342,4199,4026,4179,,,,,8434,8243,8001,7296,4220,4804,3708,4157,4342,4199,4026,4179,,,,
Latvia,Operator Holding Account,"A/S „Rigas siltums” siltumcentrale ""Daugavgriva""",40003286750,2007-11-20,open,Cesu iela 3a,LV-1012,Riga,12443,12201,11969,5675,5675,5675,5675,5675,8758,7838,6944,6077,5239,4427,3642,2884,5727,6514,6130,4234,7211,5819,5080,5576,5390,4556,4936,6072,,,,,5727,6514,6130,4234,7211,5819,5080,5576,5390,4556,4936,6072,,,,
Latvia,Operator Holding Account,"A/S „Rigas siltums” siltumcentrale ""Vecmilgravis""",40003286750,2007-11-16,open,Cesu iela 3a,LV-1012,Riga,35238,34553,33895,28230,28230,28230,28230,28230,20579,18417,16312,14272,12295,10381,8530,6748,26919,26090,25259,23110,23268,22201,10285,9095,7667,6038,4584,6412,,,,,26919,26090,25259,23110,23268,22201,10285,9095,7667,6038,4584,6412,,,,
Latvia,Operator Holding Account,"A/S „Rigas siltums” siltumcentrale ""Ziepniekkalns""",40003286750,2007-11-16,open,Cesu iela 3a,LV- 1012,Riga,49285,48328,47408,35908,35908,35908,35908,35908,27570,24673,21854,19121,16472,13909,11428,9041,35130,34788,33520,31345,30208,25695,20859,22806,13337,7801,7054,9497,,,,,35130,34788,33520,31345,30208,25695,20859,22806,13337,7801,7054,9497,,,,
Latvia,Operator Holding Account,"A/S „Rigas siltums” iecirknis ""Zasulauks""",40003286750,2007-11-16,open,Cesu iela 3a,LV- 1012,Riga,63983,62741,61546,21924,21924,21924,21924,21924,805,721,639,559,481,406,334,264,25065,356,1024,1060,6913,446,2584,2786,453,1191,122,244,,,,,25065,356,1024,1060,6913,446,2584,2786,453,1191,122,244,,,,
Latvia,Operator Holding Account,"A/S „Rigas siltums” siltumcentrale ""Imanta""",40003286750,2007-11-16,open,Cesu iela 3a,LV- 1012,Riga,149547,146643,143850,247916,247916,247916,247916,247916,159222,130169,104404,82765,71341,60288,49592,39280,136436,205899,230374,215180,164311,188425,158087,163964,132992,106073,105616,118293,,,,,136436,205899,230374,215180,164311,188425,158087,163964,132992,106073,105616,118293,,,,
Latvia,Operator Holding Account,SIA „Dobeles energija”,45103002039,2007-12-14,open,E. Francmana iela 6,LV-3701,Dobele,18609,18248,17900,11391,11391,11391,11391,11391,9312,7670,6210,5423,4675,3951,3250,2574,12722,11821,12316,12047,10435,11802,10288,8908,10120,9495,9409,10064,,,,,12722,11821,12316,12047,10435,11802,10288,8908,10120,9495,9409,10064,,,,
Latvia,Operator Holding Account,Ogres novada PA „Ogres namsaimnieks”,LV 90010402651,2007-12-12,open,Malkalnes prospekts 3,LV-5005,Ogre,21647,21227,20822,18627,18627,18627,18627,18627,14623,12998,11512,5037,4339,3664,3010,2381,17245,18114,15623,13040,11549,10809,8943,7983,8866,8681,7747,5310,,,,,17245,18114,15623,13040,11549,10809,8943,7983,8866,8681,7747,5310,,,,
Latvia,Operator Holding Account,SIA „Wesemann –Sigulda”,40003709385,2007-11-23,open,Pulkveþa Brieþa 109,LV-2150,Sigulda,7167,7028,6894,1613,1613,1613,1613,1613,3232,2893,2562,2242,1931,1631,1340,1060,2207,1453,1121,407,67,136,6,6,0,76,54,48,,,,,2207,1453,1121,407,67,136,6,6,,76,54,48,,,,
Latvia,Operator Holding Account,SIA „Jurmalas siltums”,,2005-11-30,closed,Slokas iela 55a liters 2,LV-2015,Jurmala,671,658,646,,,,,,,,,,,,,,321,0,0,0,,Not Reported,,,,,,,,,,,321,,,,,,,,,,,,,,,
Latvia,Operator Holding Account,SIA „Jurmalas siltums” Dubulti,42803008058,2007-12-13,open,Slokas iela 55a liters 2,LV-2015,Jurmala,11459,11237,11023,9471,9471,9471,9471,9471,1682,1506,1334,1167,1005,849,698,552,10814,7294,9416,8414,8811,3444,8403,1743,1508,1515,1055,2451,,,,,10814,7294,9416,8414,8811,3444,8403,1743,1508,1515,1055,2451,,,,
Latvia,Operator Holding Account,SIA „Jurmalas siltums” Kauguri,42803008058,2007-12-13,open,Slokas iela 55a liters 2,LV-2015,Jurmala,30951,30350,29772,30166,30166,30166,30166,30166,20074,17966,15913,13923,11994,10127,8321,6583,27850,27115,25398,23859,23302,25221,21675,22464,21079,20587,19433,12052,,,,,27850,27115,25398,23859,23302,25221,21675,22464,21079,20587,19433,12052,,,,
Latvia,Operator Holding Account,SIA „Bauskas siltums”,,2005-11-24,closed,Darza iela 8/1,LV- 3901,Bauska,8924,9358,9180,,,,,,,,,,,,,,3582,3441,3613,0,,Not Reported,,,,,,,,,,,3582,3441,3613,,,,,,,,,,,,,
Latvia,Operator Holding Account,A/S „Rigas piena kombinats”,,2005-11-24,closed,Bauskas iela 180,LV-1004,Riga,8679,8679,8679,,,,,,,,,,,,,,6949,8036,10886,0,,Not Reported,,,,,,,,,,,6949,8036,10886,,,,,,,,,,,,,
Latvia,Operator Holding Account,A/S „Cesvaines piens”,40003212709,2005-11-24,open,Rupnicas iela 1,LV-4871,Cesvaine,6419,6419,6419,4463,4463,4463,4463,4463,1852,1657,1467,1284,1107,934,768,608,2699,2720,2470,1760,1121,768,192,71,0,0,0,0,,,,,2699,2720,2470,1760,1121,768,192,71,,,,,,,,
Latvia,Operator Holding Account,SIA „Rigas laku un krasu rupnica”,40003284444,2007-12-21,open,Daugavgrivas iela 63/65,LV-1007,Riga,2852,2852,2852,2575,2575,2575,2575,2575,563,504,446,391,336,284,233,185,1997,1663,1376,1010,571,959,800,572,642,486,427,437,,,,,1997,1663,1376,1010,571,959,800,572,642,486,427,437,,,,
Latvia,Operator Holding Account,A/s „Putnu fabrika Kekava””,50003007411,2008-03-27,open,"""Putnu fabrika Kekava""",LV-2123,Kekavas novads,18300,19005,19005,23366,23366,23366,23366,23366,13165,5891,10435,9130,7866,6641,5457,4317,15194,17319,18232,16589,15474,13270,10022,8291,7753,8352,8830,8959,,,,,15194,17319,18232,16589,15474,13270,10022,8291,7753,8352,8830,8959,,,,
Latvia,Operator Holding Account,A/S „Rigas kugu buvetava”,40003045892,2008-10-23,open,Gales iela 2,LV-1015,Riga,7550,7550,7550,7594,7594,7594,7594,7594,3135,0,0,1485,1457,1429,1400,1371,6402,6097,5248,3496,2350,2643,2355,2099,281,574,955,1004,,,,,6402,6097,5248,3496,2350,2643,2355,2099,281,574,955,1004,,,,
Latvia,Operator Holding Account,A/S „BLB Baltijas Terminals”,40003188572,2007-10-26,open,Ezera iela 22,LV-1034,Riga,10349,10349,10349,23620,23722,23722,32423,41046,21617,19346,17135,14992,12915,10905,8960,7089,10302,10755,14233,14777,19315,23492,23849,27572,26069,28229,27777,23243,,,,,10302,10755,14233,14777,19315,23492,23849,27572,26069,28229,27777,23243,,,,
Latvia,Operator Holding Account,A/S „Jekabpils labiba”,,2005-11-24,closed,"“Mikelani”,  Jekabpils raj.",LV-5214,Salas pag.,3435,3435,3435,,,,,,,,,,,,,,0,0,0,0,,Not Reported,,,,,,,,,,,,,,,,,,,,,,,,,,
Latvia,Operator Holding Account,SIA „Kraslavas nami”,45903001693,2008-10-23,open,Brivibas iela 5,LV-5601,Kraslava,12568,12324,12089,2079,2079,2079,2079,2079,6887,6164,5460,4779,4120,3481,2863,2268,2191,1114,2108,1332,69,29,10,8,3,2,2,3,,,,,2191,1114,2108,1332,69,29,10,8,3,2,2,3,,,,
Latvia,Operator Holding Account,SIA „Rigas udens”,,2005-11-24,closed,Basteja bulv. 1,LV-1495,Riga,5595,5595,5595,,,,,,,,,,,,,,1597,1250,933,0,,Not Reported,,,,,,,,,,,1597,1250,933,,,,,,,,,,,,,
Latvia,Operator Holding Account,SIA „Cesu siltumtikli”,40003007848,2007-12-27,open,Dzintara iela 7,LV-4101,Cesis,17833,17487,17154,15347,15347,15347,15347,15347,10522,9210,8159,7141,6156,5201,4279,3389,14411,13130,13092,12742,12260,13464,10926,9657,2235,1768,1929,1411,,,,,14411,13130,13092,12742,12260,13464,10926,9657,2235,1768,1929,1411,,,,
Latvia,Operator Holding Account,SIA „Tukuma siltums”,49203001267,2007-12-19,closed,Asteru iela 6,LV-3101,Tukums,15414,15114,14827,3474,3474,3474,3474,3474,,,,,,,,,3882,2895,3324,3074,2695,4535,2862,119,0,,,,,,,,3882,2895,3324,3074,2695,4535,2862,119,,,,,,,,
Latvia,Operator Holding Account,PAS „Daugavpils siltumtikli” SC3,41503002945,2007-12-17,open,18.Novembra iela 4,LV-5401,Daugavpils,134722,132106,129590,77107,77107,77107,77107,77107,29122,23131,20489,8963,7721,6520,5357,4238,73782,74569,69772,58957,35422,34647,31337,26378,27394,21195,7599,8333,,,,,73782,74569,69772,58957,35422,34647,31337,26378,27394,21195,7599,8333,,,,
Latvia,Operator Holding Account,PAS „Daugavpils siltumtikli” SC1,41503002945,2007-12-17,open,18.Novembra iela 4,LV-5401,Daugavpils,82387,80787,79249,56007,56007,56007,56007,56007,27362,22121,17501,15126,13038,11018,9064,7179,54223,53146,49513,40292,44742,40600,33525,32364,25801,23510,24318,28476,,,,,54223,53146,49513,40292,44742,40600,33525,32364,25801,23510,24318,28476,,,,
Latvia,Operator Holding Account,PAS „Daugavpils siltumtikli” SC2,41503002945,2007-12-17,open,18.Novembra iela 4,LV-5401,Daugavpils,46955,46044,45167,26231,26231,26231,26231,26231,16893,15118,6695,5858,5047,4262,3501,2770,24734,20927,14172,15197,26603,24223,23517,22356,14745,8774,7425,8126,,,,,24734,20927,14172,15197,26603,24223,23517,22356,14745,8774,7425,8126,,,,
Latvia,Operator Holding Account,A/S „Ligija teks”,40003063883,2007-12-07,open,Ðampetera iela 1,LV-1046,Riga,19505,19505,19505,19675,19675,19675,19675,19675,0,0,0,0,0,0,0,0,8536,6643,5981,3460,118,0,0,0,0,0,Not Reported,,,,,,8536,6643,5981,3460,118,,,,,,,,,,,
Latvia,Operator Holding Account,SIA „Jekabpils siltums”,40003007778,2008-04-18,open,Nameja iela 4a,LV-5201,Jekabpils,27031,26485,25939,7665,7665,7665,7665,7665,9761,8735,7738,6773,5838,4934,4058,3214,9465,6612,7012,5830,3953,5245,3802,1401,1209,842,953,1512,,,,,9465,6612,7012,5830,3953,5245,3802,1401,1209,842,953,1512,,,,
Latvia,Operator Holding Account,SIA „Latgales Energija”,,2007-12-28,closed,Kr.Valdemara 21,LV-1010,Riga,25799,25298,24816,11873,0,0,0,0,,,,,,,,,23344,14377,13032,7068,0,,,,,,,,,,,,23344,14377,13032,7068,,,,,,,,,,,,
Latvia,Operator Holding Account,SIA „Latgales Energija”,,2007-12-28,closed,Kr.Valdemara 21,LV-1010,Riga,46621,45716,44845,20127,0,0,0,0,,,,,,,,,37679,27859,27099,13878,0,,,,,,,,,,,,37679,27859,27099,13878,,,,,,,,,,,,
Latvia,Operator Holding Account,A/S „Valmieras piens”,40003020475,2007-12-27,open,Rigas iela 93,LV-4201,Valmiera,15357,15968,17847,13470,13470,13470,13470,13470,9792,8919,8067,7241,6437,5660,4906,4178,11808,11845,10732,9591,9168,10126,8108,9056,8529,7759,6566,6944,,,,,11808,11845,10732,9591,9168,10126,8108,9056,8529,7759,6566,6944,,,,
Latvia,Operator Holding Account,SIA „Aurora Baltika”,,2005-11-30,closed,M. Nometnu 3-604,LV-1002,Riga,3516,3516,3516,,,,,,,,,,,,,,1579,0,0,,,Not Reported,,,,,,,,,,,1579,,,,,,,,,,,,,,,
Latvia,Operator Holding Account,"SIA ""Lauma Fabrics""",42103036112,2007-11-30,open,Ziemelu iela 19,LV-3417,Liepaja,22474,22474,22474,16931,16931,16931,16931,16931,13005,12779,12550,6160,6043,5925,5806,5686,14714,13968,13499,9725,7497,9176,7942,8214,7775,7212,5098,5851,,,,,14714,13968,13499,9725,7497,9176,7942,8214,7775,7212,5098,5851,,,,
Latvia,Operator Holding Account,"SIA ""Liepajas energija""",LV42103035386,2007-11-28,open,Ludvika iela 15,LV-3401,Liepaja,7670,7521,7378,7745,7745,7745,7745,7745,14298,12795,11335,4961,4276,3614,2973,2355,8730,7651,10277,9902,18708,23627,25864,28250,21070,16760,15686,15993,,,,,8730,7651,10277,9902,18708,23627,25864,28250,21070,16760,15686,15993,,,,
Latvia,Operator Holding Account,"SIA ""Liepajas energija""",LV42103035386,2007-11-28,open,Ludvika iela 15,LV-3401,Liepaja,155680,152931,150288,103278,103278,103278,103278,103278,22238,16230,14371,12565,10812,9115,7475,5901,95716,84482,64947,49388,37127,37189,25423,19076,7920,469,385,863,,,,,95716,84482,64947,49388,37127,37189,25423,19076,7920,469,385,863,,,,
Latvia,Operator Holding Account,A/S „Preilu siers”,50003026431,2008-03-18,open,Daugavpils iela 75,LV-5301,Preili,12153,12153,12153,14417,14417,14417,14417,14417,5769,5275,4794,4326,3872,3430,3003,2591,6234,6391,7839,8244,6972,6569,6236,6943,6787,6850,7084,1404,,,,,6234,6391,7839,8244,6972,6569,6236,6943,6787,6850,7084,1404,,,,
Latvia,Operator Holding Account,SIA „Ogres Trikotāža”,50003601471,2007-12-27,closed,Ikšķiles iela 4-1,LV-5001,Ogre,21771,21771,21771,12847,12847,12847,12847,12847,2689,2497,1311,0,0,0,0,0,6136,8248,8164,4021,1786,1721,1083,1045,824,0,0,,,,,,6136,8248,8164,4021,1786,1721,1083,1045,824,,,,,,,
Latvia,Operator Holding Account,SIA „Salaspils siltums”,40003310183,2007-11-15,open,Miera iela 31a,LV-2169,Salaspils,23521,23064,22625,20942,20942,20942,20942,20942,11754,9626,8404,7353,6334,5348,4395,3476,19525,19022,18227,12964,8562,10120,7637,6886,2142,1675,986,1528,,,,,19525,19022,18227,12964,8562,10120,7637,6886,2142,1675,986,1528,,,,
Latvia,Operator Holding Account,"A/S ""Latvijas finieris"" rupnica ""Furniers""",40003094173,2007-12-21,open,Bauskas iela 59,LV-1004,Riga,12470,13094,13748,13365,13365,13365,13365,13365,12978,12612,8485,7424,6395,5400,4437,3510,10837,9832,8425,7760,3268,6977,7687,7753,7743,7312,7862,8356,,,,,10837,9832,8425,7760,3268,6977,7687,7753,7743,7312,7862,8356,,,,
Latvia,Operator Holding Account,"A/S ""Latvijas Finieris"" rupnica ""Lignums""",40003094173,2007-12-21,open,Bauskas iela 59,LV-1004,Riga,14512,14914,15363,13071,13071,13071,13071,13071,26832,25935,18145,15876,13676,11547,9488,7506,10589,9956,10452,7350,1409,2021,4081,8607,2087,2097,2451,2126,,,,,10589,9956,10452,7350,1409,2021,4081,8607,2087,2097,2451,2126,,,,
Latvia,Operator Holding Account,"SIA ""Sabiedriba Marupe""",40103045371,2008-03-25,open,Mazcenas aleja 41,LV-2166,Jaunmarupe,16192,16192,16192,21715,21715,21715,21715,21715,10286,9205,8155,7138,6153,5200,4276,3387,16181,17031,16201,15411,14857,15781,14879,15976,18074,17079,19395,19000,,,,,16181,17031,16201,15411,14857,15781,14879,15976,18074,17079,19395,19000,,,,
Latvia,Operator Holding Account,A/S „Balticovo”,40003058863,2007-12-14,closed,Iecava,LV-3913,Iecavas novads,8143,8143,8143,8670,8670,8670,8670,8670,,,,,,,,,5900,5911,5555,3744,2413,2109,1800,2341,,,,,,,,,5900,5911,5555,5544,2413,2109,,2341,,,,,,,,
Latvia,Operator Holding Account,A/S „Ventbunkers”,50003179321,2007-12-20,open,Dzintaru iela 90,LV-3602,Ventspils,41196,51494,51494,32042,32042,32042,32042,32042,13054,11682,10348,9054,7799,6585,5412,4281,26208,23356,20844,21009,18831,19796,12684,16139,13085,16946,17043,13252,,,,,26208,23356,20844,21009,18831,19796,12684,16139,13085,16946,17043,13252,,,,
Latvia,Operator Holding Account,SIA „Solum Estate”,40103295641,2008-06-06,open,Pilsonu iela 1,LV- 4110,Ligatne,6294,6294,6294,11571,11571,11571,11571,11571,3948,3878,3810,3739,3668,3597,3524,3452,6635,6981,6634,6040,722,159,0,0,0,0,0,0,,,,,6635,6981,6634,6040,722,159,,,,,,,,,,
Latvia,Operator Holding Account,SIA „Saulkalne S”,50003256461,2008-10-11,open,Saulkalne,LV- 2117,Salaspils novads,70945,70945,70945,7196,7196,7196,7196,7196,3653,3590,4168,4092,2776,2721,2667,2612,6223,5759,5531,3270,2987,3068,2184,2633,3112,3176,3151,1793,,,,,6223,5759,5531,3270,2987,3068,2184,2633,3112,3176,3151,1793,,,,
Latvia,Operator Holding Account,"PILLAR 21, SIA",40103929286,2007-12-17,open,Elizabetes 23,LV-1010,Rīga,11216,22434,33650,2108,2108,2108,2108,2108,2326,2286,2244,2204,2161,2119,2077,2034,1045,1767,593,178,1036,917,1334,2398,2659,2603,1,11,,,,,1045,1767,593,178,1036,917,1334,2398,2659,2603,1,11,,,,
Latvia,Operator Holding Account,A/S „Valmieras stikla ðkiedra”,40003031676,2008-02-12,open,Cempu iela 13,LV-4201,Valmiera,31398,31398,38887,59710,59710,59710,59710,60643,18437,18116,17793,17465,17135,16800,16462,16122,29826,28415,32485,29919,20871,28291,26020,27520,30221,27311,27166,29423,,,,,29826,28415,32485,29919,20871,28291,26020,27520,30221,27311,27166,29423,,,,
Latvia,Operator Holding Account,"SIA ""Kalnciema kiegelis Kalnciema raþotne""",,2007-12-21,closed,Jelgavas iela 17,LV-3016,Kalnciems,5319,5848,6449,11514,0,0,0,0,,,,,,,,,6328,7560,10332,3567,,Not Reported,,,,,,,,,,,6328,7560,10332,3567,,,,,,,,,,,,
Latvia,Operator Holding Account,"LODE SIA, Liepa plant",50003032071,2007-12-27,open,Lodes iela 1,LV-4128,Liepas pagasts,41544,41544,41544,34890,34890,34890,34890,34890,12675,12456,12231,12007,11780,11550,11317,11083,17220,18228,16268,16703,7005,9723,16338,12807,14091,14220,10544,12350,,,,,17220,18228,16268,16703,7005,9723,16338,12807,14091,14220,10544,12350,,,,
Latvia,Operator Holding Account,"SIA ""CEMEX""",,2007-12-03,closed,Podraga iela 2,LV-1007,Riga,349921,349921,349921,340947,340947,0,0,0,,,,,,,,,285324,357973,362730,357747,140979,,,,,,,,,,,,285324,357973,362730,357747,140979,,,,,,,,,,,
Latvia,Operator Holding Account,AS KVV Liepājas metalurgs,40103829976,2008-01-15,open,Brivibas iela 93,LV-3401,Liepaja,369830,369830,369830,399236,399236,399236,399236,399236,132941,66101,1541,1513,1484,1455,1426,1397,365920,361850,355669,336370,296574,339630,79052,139269,44503,683,23353,2399,,,,,365920,361850,355669,336370,296574,339630,79052,139269,44503,683,23353,2399,,,,
Latvia,Operator Holding Account,"LODE SIA, Livani plant",50003032071,2007-12-17,closed,Lodes iela 1,LV-4128,Liepas pagasts,22025,22177,22329,11506,11506,11506,11506,11506,,,,,,,,,5569,6136,6609,5260,118,140,78,33,,,,,,,,,5569,6136,6609,5260,118,140,78,33,,,,,,,,
Latvia,Operator Holding Account,MSIA „AKD Logistik”,,2007-12-06,closed,Katlakalna iela 10,LV-1073,Riga,53954,61697,58579,11406,11406,11406,0,0,,,,,,,,,21520,0,0,0,0,Not Reported,,,,,,,,,,,21520,,,,,,,,,,,,,,,
Latvia,Operator Holding Account,SIA „Ceplis”,45103002772,2007-12-18,closed,“Kiegelceplis”,LV-3723,Lielauces pagasts,2918,3924,5465,2680,2680,2680,2680,2680,,,,,,,,,1202,946,1119,404,259,169,149,147,,,,,,,,,1202,946,1119,404,259,169,149,147,,,,,,,,
Latvia,Operator Holding Account,"LODE SIA, Ane plant",50003032071,2007-12-20,open,Lodes iela 1,LV-4128,Liepas pagasts,2448,2891,3334,29556,29556,29556,29556,29556,21550,21176,20797,20415,20028,19638,19242,18845,6626,5007,5504,13103,3344,5637,6037,6449,8662,11125,12281,18227,,,,,6626,5007,5504,13103,3344,5637,6037,6449,8662,11125,12281,18227,,,,
Latvia,Operator Holding Account,SIA „Jurmalas siltums” Pliekðana 80,42803008058,2007-12-13,closed,Slokas iela 55a liters 2,LV-2015,Jurmala,2210,2167,2126,2035,2035,2035,2035,2035,,,,,,,,,1852,1655,1546,1631,1737,1785,1588,1505,,,,,,,,,1852,1655,1546,1631,1737,1785,1588,1505,,,,,,,,
Latvia,Operator Holding Account,SIA „Jurmalas siltums” Aizputes 1d,42803008058,2007-12-13,closed,Slokas iela 55a liters 2,LV-2015,Jurmala,3450,3383,3319,3153,3153,3153,3153,3153,,,,,,,,,2982,2859,2873,2914,2735,3013,2616,2836,,,,,,,,,2982,2859,2873,2914,2735,3013,2616,2836,,,,,,,,
Latvia,Operator Holding Account,Paðvaldibas AS “Daugavpils siltumtikli”,,2005-11-24,closed,18.Novembra iela 4,LV-5401,Daugavpils,2447,2399,2354,,,,,,,,,,,,,,2873,2761,2318,0,,Not Reported,,,,,,,,,,,2873,2761,2318,,,,,,,,,,,,,
Latvia,Operator Holding Account,Paðvaldibas AS „Daugavpils siltumtikli”,,2005-11-24,closed,18.Novembra iela 4,LV-5401,Daugavpils,13211,12954,12708,,,,,,,,,,,,,,4242,4097,3883,0,,Not Reported,,,,,,,,,,,4242,4097,3883,,,,,,,,,,,,,
Latvia,Operator Holding Account,SIA „Latgales Energija”,,2007-12-28,closed,Kr.Valdemara 21,LV-1010,Riga,4386,4301,4219,2100,0,0,0,0,,,,,,,,,3325,3687,3452,1742,0,,,,,,,,,,,,3325,3687,3452,1742,,,,,,,,,,,,
Latvia,Operator Holding Account,SIA „Dobeles energija”,45103002039,2005-11-24,closed,E. Francmana iela – 6,LV- 3701,Dobele,3889,3814,3741,,,,,,,,,,,,,,2232,1981,1893,0,,Not Reported,,,,,,,,,,,2232,1981,1893,,,,,,,,,,,,,
Latvia,Operator Holding Account,SIA „Dobeles energija”,45103002039,2005-11-24,closed,E. Francmana iela – 6,LV- 3701,Dobele,340,334,327,,,,,,,,,,,,,,309,328,461,0,,Not Reported,,,,,,,,,,,309,328,461,,,,,,,,,,,,,
Latvia,Operator Holding Account,SIA „Dobeles energija”,45103002039,2005-11-24,closed,E. Francmana iela – 6,LV- 3701,Dobele,76,74,73,,,,,,,,,,,,,,92,93,81,0,,Not Reported,,,,,,,,,,,92,93,81,,,,,,,,,,,,,
Latvia,Operator Holding Account,SIA „Dobeles energija”,45103002039,2005-11-24,closed,E. Francmana iela – 6,LV- 3701,Dobele,2367,2321,2277,,,,,,,,,,,,,,927,754,633,0,,Not Reported,,,,,,,,,,,927,754,633,,,,,,,,,,,,,
Latvia,Operator Holding Account,Paðvaldibas AS „Daugavpils siltumtikli”,,2005-11-24,closed,18.Novembra iela 4,LV-5401,Daugavpils,688,675,662,,,,,,,,,,,,,,776,638,564,0,,Not Reported,,,,,,,,,,,776,638,564,,,,,,,,,,,,,
Latvia,Operator Holding Account,SIA „Ludzas Bio-Energija”,,2007-11-29,closed,S. Eizenðteina iela 29,LV-1079,Riga,13418,13158,12907,100,100,100,100,0,,,,,,,,,169,82,123,177,50,160,,,,,,,,,,,169,82,123,177,50,160,,,,,,,,,,
Latvia,Operator Holding Account,SIA „Latelektro Gulbene”,,2007-12-21,closed,Miera iela 17,LV-4403,Gulbene,52311,51887,51479,0,0,0,0,0,,,,,,,,,0,0,0,0,,Not Reported,,,,,,,,,,,,,,,,,,,,,,,,,,
Latvia,Operator Holding Account,AS „Olaines ķīmiskā rūpnīca BIOLARS”,40003245470,2007-12-28,open,Rupnicu iela 3,LV-2114,Olaine,4134,4134,4134,3197,3197,3197,3197,3197,2334,2294,2253,2211,2169,2127,2084,2041,2563,2641,2162,1936,1618,1367,1389,1487,1420,1529,1566,1685,,,,,2563,2641,2162,1936,1618,1367,1389,1487,1420,1529,1566,1685,,,,
Latvia,Operator Holding Account,SIA „Kuldigas siltumtikli”,,2005-11-24,closed,Planicas iela 4,LV-3301,Kuldiga,4709,4618,4530,,,,,,,,,,,,,,6401,6340,3818,0,,Not Reported,,,,,,,,,,,6401,6340,3818,,,,,,,,,,,,,
Latvia,Operator Holding Account,SIA „Kuldigas siltumtikli”,,2005-11-24,closed,Planicas iela 4,LV-3301,Kuldiga,175,171,168,,,,,,,,,,,,,,261,216,,,,Not Reported,,,,,,,,,,,261,216,,,,,,,,,,,,,,
Latvia,Operator Holding Account,SIA „Kuldigas siltumtikli”,,2005-11-24,closed,Planicas iela 4,LV-3301,Kuldiga,842,826,810,,,,,,,,,,,,,,1265,806,,,,Not Reported,,,,,,,,,,,1265,806,,,,,,,,,,,,,,
Latvia,Operator Holding Account,SIA „Kuldigas siltumtikli”,,2005-11-24,closed,Planicas iela 4,LV-3301,Kuldiga,1615,1583,1553,,,,,,,,,,,,,,1029,570,,,,Not Reported,,,,,,,,,,,1029,570,,,,,,,,,,,,,,
Latvia,Operator Holding Account,SIA „Kuldigas siltumtikli”,,2005-11-24,closed,Planicas iela 4,LV-3301,Kuldiga,1291,1266,1242,,,,,,,,,,,,,,544,287,,,,Not Reported,,,,,,,,,,,544,287,,,,,,,,,,,,,,
Latvia,Operator Holding Account,SIA „Kuldigas siltumtikli”,,2005-11-24,closed,Planicas iela 4,LV-3301,Kuldiga,84,83,81,,,,,,,,,,,,,,0,0,,,,Not Reported,,,,,,,,,,,,,,,,,,,,,,,,,,
Latvia,Operator Holding Account,SIA „Kuldigas siltumtikli”,,2005-11-24,closed,Planicas iela 4,LV-3301,Kuldiga,20,20,19,,,,,,,,,,,,,,0,0,,,,Not Reported,,,,,,,,,,,,,,,,,,,,,,,,,,
Latvia,Operator Holding Account,adfd,,2005-12-16,closed,ad,ads,ad,,,,,,,,,,,,,,,,,,,,,,Not Reported,,,,,,,,,,,,,,,,,,,,,,,,,,
Latvia,Operator Holding Account,SIA “Livberzes Energija”,,2007-12-28,closed,Krustbaznicas iela 9a,LV-1006,Riga,,,,492,0,0,0,0,,,,,,,,,68,615,4422,213,0,,,,,,,,,,,,,683,4422,213,,,,,,,,,,,,
Latvia,Operator Holding Account,"A/S ""Grizinkalns""",40003027774,2007-12-21,closed,Narvas iela 2,LV-1009,Riga,,,,10601,10601,10601,10601,0,,,,,,,,,,5418,2830,83,0,0,0,0,,,,,,,,,,5418,2830,83,,,,,,,,,,,,
Latvia,Operator Holding Account,"SIA ""Babites Siltums""",,2006-04-28,closed,Jurmalas iela 13d,LV-2107,Rigas raj.,,,,,,,,,,,,,,,,,1846,1468,1744,0,,Not Reported,,,,,,,,,,,1846,1468,1744,,,,,,,,,,,,,
Latvia,Operator Holding Account,"SIA ""KRONOSPAN Riga""",40003774690,2008-01-18,open,Gubernciema iela 7,LV-1016,Riga,,,,60254,62715,64253,100834,95530,107411,105545,68113,59595,51339,43350,35619,28178,,6106,29596,42994,50407,66706,65681,30568,19969,18283,15829,17558,,,,,,6106,29596,42994,50407,66706,65681,30568,19969,18283,15829,17558,,,,
Latvia,Operator Holding Account,"SIA ""Talsu BIO-energija""",46103004471,2007-12-19,closed,Zvaigþnu iela 1,LV-3200,Talsi,,,,405,405,405,405,405,,,,,,,,,,0,0,0,0,0,0,0,,,,,,,,,,,,,,,,,,,,,,,,
Latvia,Operator Holding Account,"SIA ""Port Milgravis""",40003244418,2007-11-07,closed,Meldru iela 3,LV-1015,Riga,,,,81725,82622,82622,82622,82622,,,,,,,,,,1392,3278,1699,2262,1127,612,472,,,,,,,,,,1392,3278,1699,2262,1127,612,472,,,,,,,,
Latvia,Operator Holding Account,"SIA ""Juglas jauda""",40003659385,2009-02-15,open,Brivibas gatve 401,LV-1024,Riga,,,,20282,36289,36289,36289,36289,10367,9278,8219,7194,6201,5241,4311,3414,,0,28,12803,35911,16857,16989,23429,23762,9049,9179,9171,,,,,,,28,12803,35911,16857,16989,23429,23762,9049,9179,9171,,,,
Latvia,Operator Holding Account,"SIA ""JELD-WEN Latvija""",40003174322,2008-02-08,closed,Rupniecibas iela 13,LV-5101,Aizkraukle,,,,8738,8785,8785,8785,8785,,,,,,,,,,117,368,252,300,394,350,378,0,,,,,,,,,117,368,252,300,394,350,378,,,,,,,,
Latvia,Operator Holding Account,"A/S ""Valmieras Energija"" Rigas iela 25",44103016580,2007-12-28,open,Lacpleða iela 2,LV-4200,Valmiera,,,,17095,17387,17387,17387,17387,10837,9110,8071,7064,6089,5146,4233,3353,,,14256,14696,15596,16858,15273,16102,15387,15168,14491,15710,,,,,,,14256,10948,15596,16858,19021,16102,15387,15168,14491,15710,,,,
Latvia,Operator Holding Account,"A/S ""Valmieras Energija"" Dzelzcela iela 7",44103016580,2007-12-28,open,Lacpleða iela 2,LV-4200,Valmiera,,,,14551,14551,14551,14551,14551,10594,8915,7898,6913,5959,5035,4142,3281,,,11335,10948,12444,13302,12239,12259,11600,10923,9770,9441,,,,,,,11335,14696,12444,13302,8491,12259,11600,10923,9770,9441,,,,
Latvia,Operator Holding Account,"A/S ""Conexus Baltic Grid""",40203041605,2007-11-07,open,Aristida Briana iela 6,LV-1001,Riga,,,,59934,59934,59934,59934,59934,34928,31259,27686,24225,20868,17621,14479,11454,,,26584,40638,24358,42622,47259,48487,46384,41392,33483,25216,,,,,,,26584,40638,24358,42622,47259,48487,46384,41392,33483,25216,,,,
Latvia,Operator Holding Account,"SIA ""Buvmateriali AN""",40003187007,2007-11-15,closed,Plata iela 14B,LV-1016,Riga,,,,113260,180351,180351,180351,180351,,,,,,,,,,,758,2581,266,467,245,246,,,,,,,,,,,758,2581,266,467,245,246,,,,,,,,
Latvia,Operator Holding Account,"SIA ""Fortum Jelgava""",50003549231,2008-08-27,open,"Lidosta ""Riga""",LV-1053,Marupes pagasts,,,,10362,41221,41221,41221,41221,8170,7312,0,0,0,0,0,0,,,,3148,9771,10733,9349,10119,6147,819,316,375,,,,,,,,3148,9771,10733,9349,10119,6147,819,316,375,,,,
Latvia,Operator Holding Account,"SIA ""Jaunpagasts Plus"" Iecavas spirta rupnica",,2008-07-07,closed,Kalna iela 9,LV-3292,Virbu pagasts,,,,3326,3326,0,0,0,,,,,,,,,,,,4284,6937,,,,,,,,,,,,,,,4284,6937,,,,,,,,,,,
Latvia,Operator Holding Account,"SIA ""Rigens""",40003553108,2008-02-29,open,Dzintara iela 60,LV-1016,Riga,,,,4818,4818,4818,4818,4818,1736,1553,1376,1205,1038,877,722,572,,,,3961,2890,1581,939,704,645,562,569,593,,,,,,,,3961,2890,1581,939,704,645,562,569,593,,,,
Latvia,Operator Holding Account,"SIA ""Tennere""",50003568641,2007-11-15,closed,Daugavgrivas 63/65,LV-1007,Riga,,,,0,51802,51802,51802,51802,,,,,,,,,,,,0,163,189,141,170,,,,,,,,,,,,,163,189,141,170,,,,,,,,
Latvia,Operator Holding Account,"SIA ""Jaunpagasts Plus"" Jaunpagasta spirta rupnica",40003356850,2008-11-14,closed,Kalna iela 9,LV-3292,Virbu pagasts,,,,15958,15958,15958,15958,15958,0,0,0,0,0,0,0,0,,,,8952,8052,8335,1167,0,0,,,,,,,,,,,8952,8052,8335,1167,,,,,,,,,
Latvia,Operator Holding Account,"A/S ""Rezeknes Siltumtikli"" Atbrivoðanas aleja 155a",40003215480,2008-11-21,open,Rigas iela 1,LV-4601,Rezekne,,,,5217,24481,24481,24481,24481,11756,9900,8417,7365,6344,5357,4401,3482,,,,4241,13202,12482,10003,10609,9707,10209,12413,13546,,,,,,,,4241,13202,12482,10003,10609,9707,10209,12413,13546,,,,
Latvia,Operator Holding Account,"A/S ""Rezeknes Siltumtikli"" N.Rancana iela 5",40003215480,2008-11-21,open,Rigas iela 1,LV-4601,Rezekne,,,,9989,39739,39739,39739,39739,21888,18656,16524,14457,12455,10516,8641,6836,,,,8412,25444,27571,23199,24041,25777,27720,27217,29918,,,,,,,,8412,25444,27571,23199,24041,25777,27720,27217,29918,,,,
Latvia,Operator Holding Account,"A/S ""Rezeknes Siltumtikli"" Meža iela 1",40003215480,2008-11-21,open,Rigas iela 1,LV-4601,Rezekne,,,,786,3386,3386,3386,3386,2516,2091,1710,1372,1075,868,713,564,,,,1009,1912,1669,1439,1434,1270,1219,1165,1297,,,,,,,,1009,1912,1669,1439,1434,1270,1219,1165,1297,,,,
Latvia,Operator Holding Account,"SIA ""Gamma - A""",40003250857,2008-04-01,open,Traleru iela 30,LV-1030,Riga,,,,7721,7721,7721,7721,7721,6943,6653,6396,6178,5963,5750,5540,5333,,,,6188,3839,4101,4533,5091,4865,4663,3710,2907,,,,,,,,6188,3839,4101,4533,5091,4865,4663,3710,2907,,,,
Latvia,Operator Holding Account,"SIA ""CEMEX""",40003386821,2008-05-06,open,Lielirbes iela 17a/28,LV-1046,Riga,,,,0,748215,993520,819568,1196048,967813,951003,933995,916810,899440,881901,864143,846324,,,,,186853,670134,810331,835255,776397,802062,677823,505899,,,,,,,,,186853,670134,810331,835255,776397,802062,677823,505899,,,,
Latvia,Operator Holding Account,"SIA ""KNAUF""",40003219730,2013-01-01,open,Daugavas iela 4,LV-2118,Saurieši,,,,,,,,,23245,28468,27938,27402,26862,26319,25769,25219,,,,,,,,,21459,21508,19187,19652,,,,,,,,,,,,,21459,21508,19187,19652,,,,
Latvia,Operator Holding Account,"SIA ""Fortum Latvia"" koģenerācijas stacija",40103854352,2013-03-04,open,Rūpniecības iela 73a,LV-3008,Jelgava,,,,,,,,,6314,36930,32716,28636,24683,20859,17158,13590,,,,,,,,,4872,85,104,34,,,,,,,,,,,,,4872,85,104,34,,,,
Latvia,Operator Holding Account,"A/S ""Olainfarm""",40003007246,2013-05-15,open,Rūpnīcu iela 5,LV-2114,Olaine,,,,,,,,,4436,9060,8899,8739,8578,8418,8257,8097,,,,,,,,,5313,11351,10726,11653,,,,,,,,,,,,,5313,11351,10726,11653,,,,
Latvia,Aircraft Operator Account,Primera Air Nordic SIA,40103794602,2015-01-01,open,GUNĀRA ASTRAS iela 1C,LV-1084,Riga,,,,,,,,,,,,,,,,,,,,,,,,,,,48519,45367,,,,,,,,,,,,,,,,93886,,,,
Latvia,Operator Holding Account,SIA Energia Verde,40003645722,2017-09-22,open,"""Strengu Skujas"", Salaspils pag., Salaspils novads",LV-2169,Salaspils pagasts,,,,,,,,,,,,,,,,,,,,,,,,,,,,,,,,,,,,,,,,,,,,,,,,
