Country,Account Type,Account Holder Name,Company Registration No,Permit/Plan Date,Account status,Main Address Line,Postal Code,City,Allowance In Allocation In 2005,Allowance In Allocation In 2006,Allowance In Allocation In 2007,Allowance In Allocation In 2008,Allowance In Allocation In 2009,Allowance In Allocation In 2010,Allowance In Allocation In 2011,Allowance In Allocation In 2012,Allowance In Allocation In 2013,Allowance In Allocation In 2014,Allowance In Allocation In 2015,Allowance In Allocation In 2016,Allowance In Allocation In 2017,Allowance In Allocation In 2018,Allowance In Allocation In 2019,Allowance In Allocation In 2020,Verified Emissions In 2005,Verified Emissions In 2006,Verified Emissions In 2007,Verified Emissions In 2008,Verified Emissions In 2009,Verified Emissions In 2010,Verified Emissions In 2011,Verified Emissions In 2012,Verified Emissions In 2013,Verified Emissions In 2014,Verified Emissions In 2015,Verified Emissions In 2016,Verified Emissions In 2017,Verified Emissions In 2018,Verified Emissions In 2019,Verified Emissions In 2020,Units Surrendered In 2005,Units Surrendered In 2006,Units Surrendered In 2007,Units Surrendered In 2008,Units Surrendered In 2009,Units Surrendered In 2010,Units Surrendered In 2011,Units Surrendered In 2012,Units Surrendered In 2013,Units Surrendered In 2014,Units Surrendered In 2015,Units Surrendered In 2016,Units Surrendered In 2017,Units Surrendered In 2018,Units Surrendered In 2019,Units Surrendered In 2020
Lithuania,Aircraft Operator Account,"UAB ""Small Planet Airlines""",300659612,2010-01-01,open,Smolensko g. 10,LT-03201,Vilnius,,,,,,,,44503,12753,12753,12753,12753,12753,12753,12753,12753,,,,,,,,69007,27619,24555,55493,72695,,,,,,,,,,,,69007,,52174,55493,72695,,,,
Lithuania,Aircraft Operator Account,"UAB ""Aurela""",123264654,2010-01-01,open,Rodunios kelias 32,LT-02187,Vilnius,,,,,,,,11450,,,,,,,,,,,,,,,,3969,,Not Reported,Not Reported,Not Reported,,,,,,,,,,,,3969,,,,,,,,
Lithuania,Operator Holding Account,AB Akmenes cementas,153009143,2005-12-02,open,Dalinkeviciaus g.2  LT-85118 N. Akmene,LT-85118,Naujoji Akmene,1330526,997895,997894,985617,985617,985617,985617,985616,648923,637652,626248,614726,603079,591319,579412,567464,783415,1064344,1092056,902179,585206,594096,662809,815541,955420,806637,843052,741381,,,,,783415,1064344,1092056,902179,585206,594096,662809,815541,955420,806637,843052,741381,,,,
Lithuania,Operator Holding Account,AB Naujasis kalcitas,153085326,2005-12-30,open,"J.Dalinkeviciaus 2K,  Naujoji Akmene",LT-85118,Naujoji Akmene,177582,133186,133186,72938,72938,132506,102722,102721,46969,46153,45328,44494,43651,42800,41938,41073,49289,80211,67811,47275,6763,25164,51564,47151,35178,49527,47229,45637,,,,,49289,80211,67811,47275,6763,25164,51564,47151,35178,49527,47229,45637,,,,
Lithuania,Operator Holding Account,UAB Svencioneliu keramika,278666190,2005-12-02,open,Augustavo k.  LT-18206 svencioneliu sen.  svencioniu r.,LT-18206,Augustavo k.,9857,7393,7393,5339,5339,14263,10601,10601,5579,5482,5383,5285,5185,5084,4981,4879,4567,2625,2683,2205,1759,1693,1706,1390,1280,1177,592,916,,,,,4567,2625,2683,2205,1759,1693,1706,1390,1280,1177,592,916,,,,
Lithuania,Operator Holding Account,UAB Taurages keramika,179331614,2005-12-02,closed,Gaures g. 27  LT-72343 Taurage,LT-72343,Taurage,8126,6094,6094,10908,10908,10907,10907,10907,5461,0,0,0,0,0,0,0,3082,1658,1518,1357,0,0,8,0,0,,,,,,,,3082,1658,1518,1357,,,8,,,,,,,,,
Lithuania,Operator Holding Account,UAB Jasiunu keramika,174977969,2005-12-02,closed,Popierines g. 3 salcininku r.,LT-17250,Jasiunai,391,293,293,,,,,,,,,,,,,,166,252,251,0,,Not Reported,,,,,,,,,,,166,252,251,,,,,,,,,,,,,
Lithuania,Operator Holding Account,UAB Roku keramika,159700872,2005-12-02,open,J.Borutos g. 23  LT-46500 Kaunas,LT-46500,Kaunas,8267,11847,8621,6076,6076,6076,6076,6076,8478,8331,8181,8031,7879,7725,7570,7414,2427,2457,2895,2111,1325,1565,2238,1424,1309,1796,701,1700,,,,,,4884,2895,2111,1325,1565,2238,1424,1309,1796,701,1700,,,,
Lithuania,Operator Holding Account,AB Palemono keramikos gamykla,304178964,2005-12-02,open,Pamario g. 1,LT-52265,Kaunas,8153,6114,6114,7950,7950,7950,7950,7950,8675,8440,8227,8019,7811,7604,7395,7189,9596,7226,9557,4451,976,1565,3786,3934,3430,3124,3737,3097,,,,,9596,7226,9557,8237,976,1565,,3934,3430,3124,3737,3097,,,,
Lithuania,Operator Holding Account,AB Dvarcioniu keramika,112021238,2005-12-02,open,Keramiku g. 2  LT-10233 Vilnius,LT-10233,Vilnius,14953,11215,11215,11226,11226,11225,11225,11225,12267,12053,11839,11619,11399,11178,10953,10727,11292,12605,12795,15045,4631,5440,6204,5542,3420,106,51,77,,,,,11292,12605,12795,15045,4631,5440,6204,5542,3420,106,51,77,,,,
Lithuania,Operator Holding Account,UAB Kauno jiesia,300561837,2005-12-02,closed,Chemijos g. 29,LT-51333,Kaunas,343,257,257,,,,,,,,,,,,,,0,0,0,0,,Not Reported,,,,,,,,,,,,,,,,,,,,,,,,,,
Lithuania,Operator Holding Account,UAB Alytaus Keramika,153643973,2005-12-02,closed,Geistaru k.Miroslavo sen. Alytaus raj.,LT-62193,Alytaus r.,1975,1481,1481,1564,1563,1563,1563,1563,1587,1559,1531,1503,0,0,0,0,515,595,839,684,718,627,851,631,457,291,617,0,,,,,515,595,839,684,718,627,851,631,457,291,617,,,,,
Lithuania,Operator Holding Account,BAB Ekranas,147802225,2005-12-02,closed,Elektronikos g. 1  LT-35116 Panevezys,LT-35116,Panevezys,63120,47340,47340,9451,9451,9450,9450,0,,,,,,,,,35181,9780,0,0,0,0,0,,,,,,,,,,35181,9780,,,,,,,,,,,,,,
Lithuania,Operator Holding Account,UAB Kauno stiklas,300037592,2005-12-02,open,Europos pr. 91  LT-46334 Kaunas,LT-46334,Kaunas,28850,21637,21637,12202,12202,12202,12202,38116,5908,5805,5702,5597,5491,5384,5275,5166,14499,14028,14354,17465,14015,14063,13622,14833,15669,14255,14030,15641,,,,,14499,14028,14354,17465,14015,14063,13622,14833,15669,14255,14030,15641,,,,
Lithuania,Operator Holding Account,AB Panevezio stiklas,147038795,2005-12-02,open,Pramones g. 10  LT-35100 Panevezys,LT-35100,Panevezys,80695,60522,60521,23803,23803,23803,23803,23802,11514,11251,10988,10726,10464,10202,9939,9679,25155,20892,21012,20900,19875,18428,21840,22142,22123,22884,21259,21659,,,,,25155,20892,21012,39328,19875,,21840,22142,22123,22884,21259,21659,,,,
Lithuania,Operator Holding Account,AB ORLEN Lietuva,166451720,2005-12-02,open,Juodeikiai  LT-89467 Mazeikiu r.,LT-89467,Mazeikiai,2649155,1986866,1986866,1990544,2035090,2473984,2320645,2320645,1436056,1410726,1385117,1359259,1333141,1306788,1280122,1253382,1870375,1624066,1201673,2090742,2102763,1967110,1903476,1731630,1812299,1631285,1755789,1830717,,,,,1870375,1624066,1201673,2090742,2102763,1967110,1903476,1731630,1812299,1631285,1755789,1830717,,,,
Lithuania,Operator Holding Account,AB Grigeo Klaipeda,141011268,2005-12-02,open,Nemuno g. 2  LT-91199 Klaipeda,LT-91199,Klaipeda,31780,23835,23835,32313,32313,32313,32312,32312,25108,24672,24231,23785,23335,22879,22419,21956,0,0,0,29321,23181,33111,35036,34955,33578,15076,7078,9104,,,,,,,,97468,23181,,,34955,33578,15076,7078,9104,,,,
Lithuania,Operator Holding Account,AB Grigiskes,110012450,2005-12-02,open,Vilniaus g. 10  LT-27101 Grigiskes   Vilniaus m. sav.,LT-27101,Vilnius,66349,49762,49762,45204,45204,75329,64803,85930,39614,38074,36555,35060,33589,32143,30720,29327,48916,46187,46097,42096,32729,36223,13985,51,254,175,2817,9487,,,,,48916,46187,46097,42096,32729,36223,13985,51,254,175,2817,9487,,,,
Lithuania,Operator Holding Account,AB Simega,164780489,2005-12-02,open,Gedimino g. 85   LT-40135 Kupiskis,LT-40135,Kupiskis,30820,23115,23115,11526,11526,11526,11525,13042,4473,4003,3545,3102,2672,2257,1854,1467,0,0,4216,0,0,0,0,0,0,0,0,0,,,,,,,4216,,,,,,,,,,,,,
Lithuania,Operator Holding Account,AB Achema,156667399,2005-12-02,open,Jonalaukio k.  Ruklos sen.  LT-55550 Jonavos raj.,LT-55550,Jonavos raj.,242582,181937,181936,212558,212558,212557,212557,425479,2095783,2056943,2017759,1978283,1938496,1898435,1857991,1817507,125537,166878,61810,27074,97939,86177,112079,212377,2387162,2716077,2755145,2440359,,,,,125537,166878,61810,27074,97939,86177,83869,240587,2387162,2716077,2755145,2440359,,,,
Lithuania,Operator Holding Account,Vilnos BAB Drobe,132084452,2005-12-02,closed,Jonavos g. 60  LT-44192 Kaunas,LT-44192,Kaunas,8267,6200,6200,5396,0,0,0,0,,,,,,,,,5966,5691,5340,3187,0,0,0,,,,,,,,,,5966,5691,5340,3187,,,,,,,,,,,,
Lithuania,Operator Holding Account,AB Nordic Sugar Kedainiai,161111219,2005-12-02,open,Pramones g. 6  LT-57500 Kedainiai,LT-57500,Kedainiai,42544,31908,31908,25741,25741,55600,55599,55599,30054,29533,29004,28471,27931,27387,26835,26282,21286,18915,22273,20544,29977,30753,30844,30554,33837,30196,26015,27140,,,,,21286,18915,22273,20544,29977,30753,30844,30554,33837,30196,26015,27140,,,,
Lithuania,Operator Holding Account,AB Gliukoze,144123639,2005-12-02,closed,V.Bielskio g. 13,LT-76176,Siauliai,6854,5141,5141,,,,,,,,,,,,,,897,885,820,0,,Not Reported,,,,,,,,,,,897,885,820,,,,,,,,,,,,,
Lithuania,Operator Holding Account,AB Anyksciu vynas,254111650,2005-12-02,closed,Dariaus ir Girenio 8  LT-29131 Anyksciai,LT-29131,Anyksciai,12404,9303,9303,2987,2987,2987,2987,2986,,,,,,,,,3500,3388,3132,2237,1172,1665,2685,2648,1896,439,,,,,,,3500,3388,3132,2237,1172,1665,2685,2648,1896,439,,,,,,
Lithuania,Operator Holding Account,AB Lifosa,161110455,2005-12-02,open,Juodkiskio g. 50  LT-57502  Kedainiai,LT-57502,Kedainiai,23118,17338,17337,99940,99939,99939,99939,99939,179954,175295,170688,166138,161642,157199,152808,148474,7782,1112,612,838,0,965,645,848,840,326,784,266,,,,,7782,1112,612,838,,965,645,848,840,326,784,266,,,,
Lithuania,Operator Holding Account,UAB Lino apdaila,301733421,2005-12-02,closed,S.Kerbedzio g. 23  LT35114  Panevezys,LT35114,Panevezys,17724,13293,13293,10607,10607,10607,10607,10607,,,,,,,,,11357,10156,9827,6595,4035,4737,4188,0,,,,,,,,,11357,10156,9827,6595,4035,4737,4188,,,,,,,,,
Lithuania,Operator Holding Account,AB Nordic Sugar Kedainiai,161111219,2005-12-02,closed,Pramones g. 6  LT-57500 Kedainiai,LT-57500,Kedainiai,33066,24800,24800,29860,29860,0,0,0,,,,,,,,,19556,18613,19838,443,236,0,0,,,,,,,,,,19556,18613,19838,679,,,,,,,,,,,,
Lithuania,Operator Holding Account,AB Nordic Sugar Kedainiai,161111219,2005-12-02,closed,Pramones g. 6  LT-57500 Kedainiai,LT-57500,Kedainiai,35579,26685,26684,,,,,,,,,,,,,,335,86,0,0,,Not Reported,,,,,,,,,,,335,86,,,,,,,,,,,,,,
Lithuania,Operator Holding Account,AB Klaipedos nafta,110648893,2005-12-02,open,Buriu 19  a.d. 81  LT-91003 Klaipeda,LT-91003,Klaipeda,34750,26063,26063,19692,19692,19691,19691,19691,21368,19123,16939,14820,12766,10780,8858,7007,14740,16389,28702,29241,25619,28329,27814,23851,18239,16582,15787,17526,,,,,14740,16389,28702,29241,25619,28329,27814,23851,18239,16582,15787,17526,,,,
Lithuania,Operator Holding Account,AB Naujasis kalcitas,153085326,2005-12-02,closed,"J.Dalinkeviciaus 2K,  Naujoji Akmene",LT-85118,Naujoji Akmene,8620,6466,6466,,,,,,,,,,,,,,5392,6810,4534,0,,Not Reported,,,,,,,,,,,5392,6810,4534,,,,,,,,,,,,,
Lithuania,Operator Holding Account,ZUB Dembavos siltnamiai,168558895,2005-12-02,closed,Akaciju 3 Dembava  LT-38191 Panevezio r.,LT-38191,Panevezio r.,7321,5491,5491,4879,4879,4879,4879,4879,2666,0,0,0,0,0,0,0,5817,5184,2816,3081,1160,148,171,158,0,,,,,,,,5817,5184,2816,3081,1160,148,171,158,,,,,,,,
Lithuania,Operator Holding Account,UAB Lietuvos cukrus,151004254,2005-12-02,open,P. Armino 65  LT-68127  Marijampole,LT-68127,Marijampole,29916,22438,22438,17153,17153,17153,17153,17153,13327,13095,12861,12624,12385,12143,11899,11654,14751,10566,13407,5563,11261,16574,16274,16233,20847,18443,7275,14686,,,,,14751,10566,13407,5563,11261,16574,16274,16233,20847,18443,7275,14686,,,,
Lithuania,Operator Holding Account,AB imoniu grupe ALITA,302444238,2005-12-02,closed,Miskininku 17  LT-62200 Alytus,LT-62200,Alytus,7791,5844,5843,3963,3962,3962,9439,7457,1207,1080,956,0,0,0,0,0,4104,4508,3842,2053,1910,1995,1538,1373,1513,1394,1026,Excluded,,,,,4104,4508,3842,2053,1910,1995,1538,1373,1513,1394,1026,,,,,
Lithuania,Operator Holding Account,UAB Idavang Pasodėlė,301469530,2005-12-02,open,"Pasodėlės k., Krekenavos sen.",LT-38300,Panevėžio r. sav.,11354,8516,8515,4664,4664,4664,4663,4663,2099,1879,1664,1457,1255,1059,870,688,6587,4067,3706,1272,0,0,0,0,0,0,0,0,,,,,6587,4067,3706,1272,,,,,,,,,,,,
Lithuania,Operator Holding Account,AB Klaipedos mediena,240616710,2005-12-02,open,Liepu 68  LT-92100 Klaipeda,LT-92100,Klaipeda,27202,20402,20401,24390,24390,24390,24390,28551,15324,15057,14788,14516,14242,13964,13683,13400,17640,9192,7792,5459,4463,5977,13393,13774,4635,4554,2308,71,,,,,47604,,,5459,4463,5977,13393,13774,4635,4554,2308,71,,,,
Lithuania,Operator Holding Account,"""UAB ""Aliejus""""",121905677,2005-12-02,closed,Paneriu g. 62/1,LT-03202,Vilnius,,,,,,,,,,,,,,,,,0,0,0,0,,Not Reported,,,,,,,,,,,,,,,,,,,,,,,,,,
Lithuania,Operator Holding Account,UAB Matuizu plytine,184589363,2005-12-02,open,Vilniaus g. 11  LT-65487 Senoji Varena,LT-65487,Senoji Varena,10080,7560,7559,13962,14912,14912,14911,14911,6912,6539,6173,5817,5467,5126,4793,4469,2138,763,3299,757,0,0,0,0,0,0,0,0,,,,,2138,763,3299,757,,,,,,,,,,,,
Lithuania,Operator Holding Account,AB Jonavos silumos tinklai,156737189,2005-12-02,open,Klaipedos 8  LT55169 Jonava,LT-55169,Jonava,41250,30938,30937,28262,28262,28262,28261,28261,25493,22814,20207,17680,15230,12861,10567,8360,32048,30039,32330,34642,35090,35301,30824,30385,17179,7898,5447,6856,,,,,32048,30039,32330,34642,35090,35301,30824,30385,17179,7898,5447,6856,,,,
Lithuania,Operator Holding Account,AB Jonavos silumos tinklai,156737189,2005-12-02,open,Klaipedos 8  LT55169 Jonava,LT-55169,Jonava,11505,8629,8629,8533,8533,8533,8532,8532,6223,5362,4749,4155,3580,3022,2483,1965,8300,9743,4532,235,261,559,199,0,574,63,80,0,,,,,8300,9743,4532,235,261,559,199,,574,63,80,,,,,
Lithuania,Operator Holding Account,UAB Mazeikiu silumos tinklai,166901968,2005-12-02,open,Montuotoju g. 10  LT-89101,LT-89101,Mazeikiai,70791,53409,53228,43068,43068,43068,43068,43068,27110,24261,21489,18802,16197,13676,11237,8890,30203,27317,20891,14184,12497,16790,7131,5739,4528,1075,277,359,,,,,30203,27317,20891,14184,12497,16790,7131,5739,4528,1075,277,359,,,,
Lithuania,Operator Holding Account,UAB Raseiniu silumos tinklai,172412113,2005-12-02,open,Pienines g. 2  LT-60133 Raseiniai,LT-60133,Raseiniai,14541,10905,10905,8818,8818,8817,8817,8817,7427,6129,5289,4627,3985,3366,2765,2188,13307,12885,10246,2424,1568,3694,1682,1673,5572,1732,263,2903,,,,,13307,12885,10246,2424,1568,3694,1682,1673,5572,1732,263,2903,,,,
Lithuania,Operator Holding Account,UAB Ukmerges siluma,182714850,2005-12-02,closed,"Sviesos g. 17, LT-20177 Ukmerge",LT-20177,Ukmerge,17690,13268,13267,5942,5942,5941,5941,5941,,,,,,,,,6441,6468,6300,6290,6065,3734,5738,5568,,,,,,,,,6441,6468,6300,6290,6065,3734,5738,5568,,,,,,,,
Lithuania,Operator Holding Account,UAB Miesto energija,183204042,2005-12-02,closed,sviesos g.17  LT-20177 Ukmerge,LT-20177,Ukmerge,40200,30150,30150,,,,0,,,,,,,,,,31643,32884,33245,0,0,0,0,,,,,,,,,,31643,32884,33245,,,,,,,,,,,,,
Lithuania,Operator Holding Account,UAB Moletu siluma,167610175,2005-12-02,open,Mechanizatoriu g. 7  LT-33114 Moletai,LT-33114,Moletai,10732,8050,8049,6963,6963,8323,7643,7643,4732,4234,3751,3282,2827,2387,1961,1551,147,181,141,5,72,9,74,0,0,40,40,27,,,,,147,181,141,5,72,9,74,,,40,40,27,,,,
Lithuania,Operator Holding Account,UAB Silutes silumos tinklai,177217875,2005-12-02,open,Klaipedosg 6A   LT-99116 silute,LT-99116,silute,27747,20811,20811,18727,18727,18726,18726,18726,13006,11640,10310,9020,7770,6561,5391,4265,17520,18300,13426,5782,5581,7319,2415,3308,2020,14,486,1527,,,,,17520,18300,13426,5782,5581,7319,2415,3308,2020,14,486,1527,,,,
Lithuania,Operator Holding Account,UAB Vilniaus energija,11176831,2005-12-02,open,Jocioniu g. 13   LT-02300 Vilnius,LT-02300,Vilnius,460551,345414,345413,412234,412234,412233,507560,461733,318904,285388,252824,221290,190746,161193,132594,105023,259894,425274,395362,365815,339899,326494,305033,362067,328795,257041,196650,317515,,,,,259894,425274,395362,365815,339899,326494,305033,362067,328795,257041,196650,317515,,,,
Lithuania,Operator Holding Account,UAB Vilniaus energija,11176831,2005-12-02,open,Jocioniu g. 13   LT-02300 Vilnius,LT-02300,Vilnius,1425904,1069428,1069428,599579,599578,599578,599578,599578,208780,173281,153195,134087,115580,97672,80343,63637,701461,393917,406025,378883,412733,487109,368613,297312,294442,207438,193319,2562,,,,,701461,393917,406025,378883,412733,487109,368613,297312,294442,207438,193319,2562,,,,
Lithuania,Operator Holding Account,UAB Vilniaus silumos tinklai,124135580,2005-12-02,open,Jočionių g. 13,LT-02300,Vilnius,29280,21960,21960,18898,18898,18898,18897,26017,15015,13438,11902,10414,8971,7575,6224,4924,19924,20582,19725,18327,18543,19510,13001,4567,4792,5820,4358,4917,,,,,19924,20582,19725,18327,18543,19510,4018,13550,4792,5820,4358,4917,,,,
Lithuania,Operator Holding Account,UAB Vilniaus energija,11176831,2005-12-02,closed,Jocioniu g. 13   LT-02300 Vilnius,LT-02300,Vilnius,9000,6750,6750,,,,,,,,,,,,,,6029,0,0,0,,Not Reported,,,,,,,,,,,6029,,,,,,,,,,,,,,,
Lithuania,Operator Holding Account,AB Vilniaus silumos tinklai,124135580,2005-12-02,open,Jočionių g. 13,LT-02300,Vilnius,63000,47250,47250,17944,17944,17944,17944,17944,1155,1021,904,791,682,576,473,374,4077,3053,27,4,2,3,6,4322,847,4312,863,4901,,,,,4077,3053,27,4,2,3,6,4322,847,4312,863,4901,,,,
Lithuania,Operator Holding Account,UAB Sirvintu siluma,278312850,2005-12-02,open,Vilniaus 49-2  LT-19118 sirvintos,LT-19118,sirvintos,10014,7510,7510,7843,7843,7843,7843,9846,5133,4594,4069,3560,3066,2589,2128,1683,2411,458,528,119,221,612,312,22,6,42,0,0,,,,,2411,458,528,119,221,612,312,22,6,42,,,,,,
Lithuania,Operator Holding Account,AB Siauliu energija,245358580,2005-12-02,open,Pramones g. 10  LT-78502 siauliai,LT-78502,Siauliai,164700,123525,123525,117320,117320,117319,117319,144617,85613,76615,67873,59407,51207,43273,35597,28195,110881,113795,108643,97323,100775,105589,90073,65655,38912,34238,10010,14555,,,,,110881,,222438,97323,100775,105589,90073,65655,38912,34238,10010,14555,,,,
Lithuania,Operator Holding Account,AB Siauliu energija,245358580,2005-12-02,closed,Pramones g. 10  LT-78502 siauliai,LT-78502,Siauliai,3069,2302,2302,,,,,,,,,,,,,,2144,2149,1387,0,,Not Reported,,,,,,,,,,,2144,2149,1387,,,,,,,,,,,,,
Lithuania,Operator Holding Account,AB Siauliu energija,245358580,2005-12-02,closed,Pramones g. 10  LT-78502 siauliai,LT-78502,Siauliai,5730,4298,4297,,,,,,,,,,,,,,4153,3959,3620,0,,Not Reported,,,,,,,,,,,4153,3959,3620,,,,,,,,,,,,,
Lithuania,Operator Holding Account,AB Siauliu energija,245358580,2005-12-02,closed,Pramones g. 10  LT-78502 siauliai,LT-78502,Siauliai,3750,2813,2812,,,,,,,,,,,,,,2859,2060,0,0,,Not Reported,,,,,,,,,,,2859,2060,,,,,,,,,,,,,,
Lithuania,Operator Holding Account,AB Klaipedos energija,140249252,2005-12-02,closed,Danes g. 8  LT-92109 Klaipeda,LT-92109,Klaipeda,8913,6685,6685,8467,8467,8466,8466,8466,7740,0,0,0,0,0,0,0,10080,9511,9402,8595,8937,9841,8632,8139,7792,,,,,,,,10080,9511,9402,8595,8937,9841,8632,8139,7792,,,,,,,
Lithuania,Operator Holding Account,AB Klaipedos energija,140249252,2005-12-02,open,Danes g. 8  LT-92109 Klaipeda,LT-92109,Klaipeda,125177,93883,93883,92021,92021,92021,92021,92021,65996,59060,52321,45795,39474,33358,27440,21735,91377,101256,92099,83896,74765,78129,61693,61430,39719,26749,16586,16913,,,,,91377,101256,92099,162025,74765,,61693,61430,39719,26749,16586,16913,,,,
Lithuania,Operator Holding Account,UAB Radviliskio siluma,171444859,2005-12-02,open,zironu g.3  LT-82143 Radviliskis,LT-82143,Radviliskis,20400,15300,15300,12329,12329,12329,12328,12328,10635,9517,8430,7376,6354,5365,4408,3487,13736,13624,13130,11859,11892,2975,1152,1330,1158,1197,464,318,,,,,13736,13624,13130,11859,11892,5950,,,1158,1197,464,318,,,,
Lithuania,Operator Holding Account,UAB Utenos silumos tinklai,183843314,2005-12-02,open,Pramones g. 11  LT-28216 Utena,LT-28216,Utena,54000,40500,40500,38267,38267,38267,38266,39985,30589,27957,25397,22913,20505,18169,15905,13720,20129,17766,18947,17936,20300,20465,15395,8878,3238,3605,1282,1320,,,,,20129,17766,18947,17936,20300,20465,15395,8878,3238,3605,1282,1320,,,,
Lithuania,Operator Holding Account,UAB Taurages silumos tinklai,179478621,2005-12-02,open,"Paberžių g. 16, LT- 72324 Tauragė",LT-72324,Taurage,32196,24148,24148,18742,20149,20149,20149,20149,10347,9260,8202,7176,6182,5220,4290,3393,13821,4695,2668,1100,1628,1901,1144,1291,789,482,207,406,,,,,13821,4695,2668,1100,1628,1901,1144,1291,789,482,207,406,,,,
Lithuania,Operator Holding Account,AB Mazeikiu elektrine,110871088,2005-12-02,closed,Juodeikiu gyv. Mazeikiu r.,LT-89467,Mazeikiai,1060408,795306,795306,,,,,,,,,,,,,,272826,355137,422771,0,,Not Reported,,,,,,,,,,,272826,355137,422771,,,,,,,,,,,,,
Lithuania,Operator Holding Account,UAB salcininku silumos tiklai,174976486,2005-12-02,open,Pramones g.2A  LT-17102  salcininkai,LT-17102,Salcininkai,10638,7979,7978,6013,6013,6013,6013,6013,4475,3945,3494,3058,2634,2224,1827,1446,6669,6372,5842,5562,5452,5948,5318,5557,5293,3277,1,224,,,,,6669,6372,5842,5562,5452,5948,5318,5557,5293,3277,1,224,,,,
Lithuania,Operator Holding Account,Pravieniskiu pataisos namai-atviroji kolonija,302560890,2005-12-02,open,Pravieniskiu II k.  LT-56552 Kaisiadoriu r.  sav.,LT-56552,Pravieniskes II  Kaisiadoriu r.,7394,5546,5545,4967,4967,4966,4966,4966,3303,2956,2618,2291,1974,1667,1370,1083,4510,4430,4250,4016,3894,4178,3834,4162,4027,3904,3815,2574,,,,,2884,6056,4250,4016,3894,4178,3834,4162,4027,3904,3815,2574,,,,
Lithuania,Operator Holding Account,UAB Varenos siluma,184827583,2005-12-02,open,J. Basanaviciaus g. 56  LT-65210 Varena,LT-65210,Varena,24234,18176,18175,19409,19409,19409,19409,19408,8752,7832,6938,6070,5229,4415,3628,2870,10300,5676,1749,3726,1203,1207,824,910,55,0,0,0,,,,,10300,5676,1749,3726,1203,1207,824,910,55,,,,,,,
Lithuania,Operator Holding Account,AB Panevezio energija,147248313,2005-12-02,open,Senamiescio g. 113  LT-35114 Panevezys,LT-35114,Panevezys,79050,59288,59287,58223,58223,58223,58222,58222,36631,32779,29034,25403,21883,18478,15182,12011,61891,53836,53519,31970,21299,25230,16223,21484,25145,10633,17076,21203,,,,,61891,53836,53519,31970,21299,25230,16223,21484,25145,10633,17076,21203,,,,
Lithuania,Operator Holding Account,AB Panevezio energija,147248313,2005-12-02,open,Senamiescio g. 113  LT-35114 Panevezys,LT-35114,Panevezys,40390,30293,30292,31807,31807,31807,31806,31806,20504,18575,16696,14872,13104,11390,9729,8129,12252,11598,9478,2442,2047,3749,2327,3243,3354,2280,175,23,,,,,12252,11598,9478,2442,2047,3749,2327,3243,3354,2280,175,23,,,,
Lithuania,Operator Holding Account,AB Panevezio energija,147248313,2005-12-02,open,Senamiescio g. 113  LT-35114 Panevezys,LT-35114,Panevezys,95804,71853,71852,63049,63049,63048,63048,63048,41057,36675,32490,28438,24512,20714,17040,13496,61317,60698,49618,42070,38909,42949,33943,28929,22995,29391,10171,4518,,,,,61317,60698,49618,42070,38909,42949,33943,28929,22995,29391,10171,4518,,,,
Lithuania,Operator Holding Account,AB Panevezio energija,147248313,2005-12-02,open,Senamiescio g. 113  LT-35114 Panevezys,LT-35114,Panevezys,11620,8715,8715,7361,7361,7361,7361,7360,6141,5495,4867,4259,3668,3098,2545,2014,8120,8243,7955,7686,7793,7736,5239,5868,4069,891,510,664,,,,,8120,8243,7955,7686,7793,7736,5239,5868,4069,891,510,664,,,,
Lithuania,Operator Holding Account,AB Panevezio energija,147248313,2005-12-02,open,Senamiescio g. 113  LT-35114 Panevezys,LT-35114,Panevezys,13690,10268,10267,8159,8159,8159,8158,8158,5640,5048,4471,3912,3370,2845,2338,1850,2234,5077,4696,4471,4056,6975,3600,1280,851,275,77,0,,,,,2234,5077,4696,4471,4056,6975,3600,1280,851,275,77,,,,,
Lithuania,Operator Holding Account,UAB GEOTERMA,123540818,2005-12-02,open,Lypkiu g. 17  LT-94100 Klaipeda,LT-94100,Klaipeda,69990,52493,52492,44553,44553,44553,44553,44552,24306,21752,19267,16858,14522,12262,10076,7971,46393,23790,5115,1688,28628,19646,15362,15216,7034,8074,4966,5215,,,,,46393,23790,5115,1688,28628,19646,15362,15216,7034,8074,4966,5215,,,,
Lithuania,Operator Holding Account,AB Kauno energija,235014830,2005-12-02,open,Raudondvario pl. 84  LT-47179  Kaunas,LT-47179,Kaunas,86162,64622,64622,21391,21391,21391,21390,21390,6098,5457,4835,4232,3648,3082,2535,2008,6340,5951,8245,8032,5160,5215,3392,3320,6773,10810,8,1855,,,,,6340,5951,8245,8032,5160,5215,3392,3320,6773,10810,8,1855,,,,
Lithuania,Operator Holding Account,AB Kauno energija,235014830,2005-12-02,open,Raudondvario pl. 84  LT-47179  Kaunas,LT-47179,Kaunas,6300,4725,4725,5688,5687,5687,5687,5687,1344,1183,1048,917,790,667,548,434,957,2969,2478,1102,1728,1180,1908,2627,14806,10285,537,417,,,,,957,2969,2478,1102,1728,1180,1908,2627,14806,10285,537,417,,,,
Lithuania,Operator Holding Account,AB Kauno energija,235014830,2005-12-02,open,Raudondvario pl. 84  LT-47179  Kaunas,LT-47179,Kaunas,6600,4950,4950,2966,2966,2966,2965,2965,2578,2308,2044,1789,1540,1301,1069,846,2127,2220,2592,2090,5802,1051,1552,9608,3693,3297,1,668,,,,,2127,2220,2592,2090,5802,1051,1552,9608,3693,3297,1,668,,,,
Lithuania,Operator Holding Account,AB Kauno energija,235014830,2005-12-02,open,Raudondvario pl. 84  LT-47179  Kaunas,LT-47179,Kaunas,10248,7686,7686,9976,9976,9976,9976,9976,4810,4305,3814,3338,2877,2431,2000,1584,5192,6445,5513,5550,4471,4639,3757,3327,2690,953,1093,762,,,,,5192,6445,5513,5550,6944,2166,3757,3327,2690,953,1093,762,,,,
Lithuania,Operator Holding Account,AB Kauno energija,235014830,2005-12-02,open,Raudondvario pl. 84  LT-47179  Kaunas,LT-47179,Kaunas,13626,10220,10220,7265,7265,7264,7264,7264,5788,4899,4340,3797,3271,2762,2269,1796,8010,8129,7485,6970,6944,7296,5943,1953,333,299,582,185,,,,,8010,8129,7485,6970,6944,7296,5943,1953,333,299,582,185,,,,
Lithuania,Operator Holding Account,AB Kauno energija,235014830,2005-12-02,open,Raudondvario pl. 84  LT-47179  Kaunas,LT-47179,Kaunas,15950,11961,11960,9055,9054,9054,9054,9054,9760,8035,6497,5531,4764,4023,3306,2615,13700,13500,13309,9489,9545,9543,8186,8220,7747,7067,6386,4593,,,,,13700,13500,13309,9489,9545,9543,8186,8220,7747,7067,6386,4593,,,,
Lithuania,Operator Holding Account,UAB Ignalinos silumos tinklai,155634880,2005-12-02,closed,Vasario 16-osios 41  Ignalina,LT-30112,Ignalina,11459,8595,8594,8320,8320,9679,8999,8999,,,,,,,,,1,20,2,5,1,20,1,0,0,,,,,,,,1,20,2,5,1,20,1,,,,,,,,,
Lithuania,Operator Holding Account,UAB Plunges silumos tinklai,170535455,2005-12-02,open,V. Macernio g.19  LT-90142 Plunge,LT-90142,Plunge,2502,1876,1876,19132,19131,19131,19131,19131,10178,9108,8069,7062,6088,5145,4232,3352,6938,3433,2343,1214,530,872,514,532,404,414,393,338,,,,,6938,3433,2343,1214,530,872,514,532,404,414,393,676,,,,
Lithuania,Operator Holding Account,UAB Birstono siluma,152840633,2005-12-02,open,B.Sruogos g. 23  LT-59209 Birstonas,LT-59209,Birstonas,6600,4950,4950,5015,5014,5014,5014,5014,3832,3429,3038,2658,2289,1933,1588,1256,2007,2029,1510,878,1036,1607,1212,904,1351,826,644,837,,,,,2007,2029,1510,878,1036,1607,1212,904,1351,826,644,837,,,,
Lithuania,Operator Holding Account,UAB Litesko,110818317,2005-12-02,open,Jocioniu g. 13   LT-02300 Vilnius,LT-02300,Vilnius,38384,28962,28863,28451,28451,40812,40450,40450,22902,20495,18156,15892,13698,11576,9522,7542,30209,31382,30925,30227,30655,31304,26186,26713,22631,10291,5733,1321,,,,,30209,31382,30925,30227,30655,31304,26186,26713,22631,10291,5733,1321,,,,
Lithuania,Operator Holding Account,UAB Litesko,110818317,2005-12-02,open,Jocioniu g. 13   LT-02300 Vilnius,LT-02300,Vilnius,10832,8125,8124,10320,10320,10320,10320,10896,2298,2056,1821,1594,1373,1160,953,753,3321,3443,2688,2411,2075,2044,772,879,369,1229,478,266,,,,,3321,3443,2688,2411,2075,2044,772,879,369,1229,478,266,,,,
Lithuania,Operator Holding Account,UAB Litesko,110818317,2005-12-02,open,Jocioniu g. 13   LT-02300 Vilnius,LT-02300,Vilnius,12034,9026,9026,8028,8028,8027,8027,8027,6035,5402,4785,4186,3606,3045,2502,1979,4728,4910,4489,4758,4538,4955,4287,3953,3749,3277,2082,405,,,,,4728,4910,4489,4758,4538,4955,4287,3953,3749,3277,2082,405,,,,
Lithuania,Operator Holding Account,UAB Litesko,110818317,2005-12-02,open,Jocioniu g. 13   LT-02300 Vilnius,LT-02300,Vilnius,22250,16688,16688,14835,14835,14835,14835,14834,9448,8456,7489,6553,5645,4767,3917,3098,9055,8430,8162,6609,7191,7941,6304,6634,5584,5061,918,255,,,,,9055,8430,8162,6609,7191,7941,6304,6634,5584,5061,918,255,,,,
Lithuania,Operator Holding Account,UAB Litesko,110818317,2005-12-02,open,Jocioniu g. 13   LT-02300 Vilnius,LT-02300,Vilnius,9126,6845,6845,5695,5695,5695,5695,5694,4331,3876,3434,3004,2588,2185,1795,1420,1145,993,1258,442,679,934,1016,763,639,454,857,150,,,,,1145,993,1258,1062,59,934,1016,763,639,454,857,150,,,,
Lithuania,Operator Holding Account,UAB Palangos silumos tinklai,152697886,2005-12-02,open,Klaipėdos pl. 63,LT-00148,Palanga,27272,20454,20453,19053,19053,19052,19052,19052,14824,13266,11751,10282,8857,7479,6145,4861,11536,11276,11191,9080,8119,9212,6765,6830,5867,5658,4330,4302,,,,,11536,11276,11191,9080,8119,9212,6765,6830,5867,5658,4330,4302,,,,
Lithuania,Operator Holding Account,UAB Litesko,110818317,2005-12-02,open,Jocioniu g. 13   LT-02300 Vilnius,LT-02300,Vilnius,6364,4773,4772,5422,5422,5422,5422,5422,3586,3209,2843,0,0,0,0,0,2225,2571,2813,2701,1508,1442,749,860,555,613,0,Excluded,,,,,2225,2571,2813,2701,1508,1442,749,860,555,613,,,,,,
Lithuania,Operator Holding Account,UAB Litesko,110818317,2005-12-02,open,Jocioniu g. 13   LT-02300 Vilnius,LT-02300,Vilnius,61607,35843,41764,37161,37160,37160,37160,37160,31224,27942,24754,21667,18676,15782,12983,10283,36170,33760,26740,22306,22408,23952,17545,17430,15856,15818,8996,7069,,,,,36170,33760,26740,22306,22408,23952,17545,17430,15856,15818,8996,7069,,,,
Lithuania,Operator Holding Account,UAB Litesko,110818317,2005-12-02,open,Jocioniu g. 13   LT-02300 Vilnius,LT-02300,Vilnius,124780,93586,93585,83306,95309,95308,95308,110422,54283,48578,43035,37667,32468,27438,22570,17877,74624,76864,59824,54614,64093,66361,60608,39987,24077,9995,5252,9288,,,,,74624,76864,59824,54614,64093,66361,60608,39987,24077,9995,5252,9288,,,,
Lithuania,Operator Holding Account,AB Lietuvos energijos gamyba,302648707,2005-12-02,open,Elektrinės 21,LT-26108,Elektrėnai,2957825,2218369,2218369,546506,546506,546506,546506,635895,31148,27874,24694,21614,18630,15744,12950,10258,715073,638523,624616,600126,628765,1144210,682723,919143,574801,400596,454806,200670,,,,,715073,638523,624616,600126,628765,1144210,682723,919143,574801,400596,454806,200670,,,,
Lithuania,Operator Holding Account,UAB Kauno termofikacijos elektrine,110884491,2005-12-02,open,Taikos pr. 147  LT-51142 Kaunas,LT-51142,Kaunas,782325,1043100,782325,562251,562251,562251,562250,562250,286505,256394,227139,198808,171368,144816,119124,94353,566503,554341,554198,528834,512227,496369,431604,395603,303843,199758,127681,61614,,,,,566503,554341,554198,528834,512227,496369,431604,395603,303843,199758,127681,61614,,,,
Lithuania,Operator Holding Account,UAB Kaisiadoriu siluma,158996646,2005-12-02,open,J.Basanaviciaus g.42,LT-56135,Kaisiadorys,12000,9000,9000,8585,8585,8585,8585,8585,7101,6355,5629,4924,4242,3582,2944,2329,9404,9816,9252,5934,4301,4727,2497,2275,1505,55,2,0,,,,,9404,9816,9252,5934,4301,4727,2497,2275,1505,55,2,,,,,
Lithuania,Operator Holding Account,UAB Kretingos silumos tinklai,164294882,2005-12-02,open,zalioji g. 3  LT-97145 Kretinga,LT-97145,Kretinga,10075,7557,7556,9133,9133,9133,9133,9914,6575,5883,5211,4560,3928,3317,2725,2156,767,1460,871,74,0,0,0,0,0,0,0,0,,,,,767,1460,871,74,,,,,,,,,,,,
Lithuania,Operator Holding Account,AB Klaipedos energija,140249252,2005-12-02,open,Danes g. 8  LT-92109 Klaipeda,LT-92109,Klaipeda,105900,79425,79425,75097,75097,75097,75096,75096,59049,51693,45787,40061,34510,29140,23944,18942,66490,83696,87107,80954,50822,46088,51295,44847,35997,17047,2976,14121,,,,,66490,83696,87107,80954,50822,46088,51295,44847,35997,17047,2976,14121,,,,
Lithuania,Operator Holding Account,AB Klaipedos energija,140249252,2005-12-02,open,Danes g. 8  LT-92109 Klaipeda,LT-92109,Klaipeda,20400,15300,15300,16256,21436,21436,21436,21436,33024,29554,26177,22904,19730,16660,13689,10829,12246,11517,23640,29328,34006,53052,32247,38976,18638,11518,9511,7901,,,,,12246,11517,23640,29328,34006,53052,32247,38976,18638,11518,9511,7901,,,,
Lithuania,Operator Holding Account,AB Klaipedos energija,140249252,2005-12-02,closed,Danes g. 8  LT-92109 Klaipeda,LT-92109,Klaipeda,5305,3979,3979,2211,2210,2210,2210,2210,81,0,0,0,0,0,0,0,144,704,72,82,17,35,17,283,0,,,,,,,,144,704,72,82,17,35,17,283,,,,,,,,
Lithuania,Operator Holding Account,AB Pagiriu siltnamiai,110068730,2005-12-02,open,Pagiriai  Vilniaus rajonas,LT14113,Vilnius,,,,26327,26327,26326,26326,26326,14906,13340,11816,10338,8906,7520,6179,4889,0,30012,28461,12934,213,0,2,2,6,0,7,31,,,,,,30012,28461,12934,213,,2,2,6,,7,31,,,,
Lithuania,Operator Holding Account,AB Prienu silumos tinklai,170759250,2005-12-02,closed,Statybininku 6  LT-59131 Prienai,LT-59131,Prienai,,,,200,200,200,200,200,,,,,,,,,0,0,0,0,0,0,0,0,0,Not Reported,,,,,,,,,,,,,,,,,,,,,,
Lithuania,Operator Holding Account,UAB Pramones energija,300073802,2005-12-02,open,Jogailos g.4  LT-01116 Vilnius,LT-01116,Vilnius,,,,55194,55194,55194,55194,55193,16469,14739,13055,11423,9840,8309,6827,5401,0,0,0,0,0,0,0,0,0,0,0,0,,,,,,,,,,,,,,,,,,,,
Lithuania,Operator Holding Account,Vi Ignalinos atomine elektrine,255450080,2005-12-02,open,Druksiniu k. LT-31500 Visaginas,31500,Visagino m.,,,,85027,85027,85027,85027,85027,6975,6243,5530,4838,4168,3519,2891,2288,0,10088,8932,6736,4523,104247,83806,5913,5340,5017,5157,4585,,,,,,10088,8932,6736,4523,104247,83806,5913,5340,5017,5157,4585,,,,
Lithuania,Operator Holding Account,UAB Traku energija,170795677,2005-12-02,closed,Maironio g. 7-2,LT-21112,Trakai,,,,4436,4436,4436,0,0,,,,,,,,,0,1751,4267,4164,4249,3969,0,,,,,,,,,,,1751,4267,4164,4249,3969,,,,,,,,,,
Lithuania,Operator Holding Account,UAB Traku energija,170795677,2005-12-02,open,Maironio g. 7-2,LT-21112,Trakai,,,,3237,3237,3236,3236,3236,2569,2299,2036,1782,1535,1296,1065,843,0,1105,2026,1975,2086,2043,1834,1625,1528,214,0,0,,,,,,1105,2026,1975,2086,2043,1834,1625,1528,214,,,,,,
Lithuania,Operator Holding Account,UAB Gargzdu plytu gamykla,110698387,2005-12-02,open,Gamyklos g. 25  LT-96155 Gargzdai,LT-96155,Gargzdai,,,,3437,3437,3437,3436,3436,2443,2400,2357,2314,2270,2226,2181,2136,0,0,0,0,0,0,0,0,0,0,0,0,,,,,,,,,,,,,,,,,,,,
Lithuania,Operator Holding Account,UAB Akmenes energija,153251171,2005-12-02,open,Nepriklausomybes al.1a  LT-85126 Naujoji Akmene,LT-85126,Naujoji Akmene,,,,13521,13521,13521,13521,16294,6279,5619,4977,4355,3752,3168,2603,2059,0,671,7132,6281,6273,6846,4210,2583,1867,1446,847,1508,,,,,,671,7132,6281,6273,6846,4210,2583,1867,1446,847,1508,,,,
Lithuania,Operator Holding Account,AB Panevezio energija,147248313,2005-12-02,open,Senamiescio g. 113  LT-35114 Panevezys,LT-35114,Panevezys,,,,100300,100300,100300,100300,100300,31974,28614,25349,22187,19125,16162,13294,10530,0,0,1522,65123,100350,89899,100402,50104,35335,35991,48240,43778,,,,,,,1522,65123,100350,89899,100402,50104,35335,35991,48240,43778,,,,
Lithuania,Operator Holding Account,UAB IKEA Industry Lietuva,165746963,2005-12-02,open,Gedimino g.1  LT-69401  Kazlu Ruda,LT-69401,Kazlu Ruda,,,,67436,67436,67436,67436,67436,41259,40520,39773,39019,38258,37491,36716,35939,0,0,27907,33158,32894,33896,28174,17237,17358,10484,17885,18486,,,,,,,27907,61332,32894,33896,,17237,17358,10484,17885,18486,,,,
Lithuania,Operator Holding Account,AB Grigiskes,110012450,2008-07-08,closed,Vilniaus g. 10  LT-27101 Grigiskes   Vilniaus m. sav.,LT-27101,Vilnius,,,,8152,8152,8152,8151,8151,,,,,,,,,,,,3877,627,0,0,0,,,,,,,,,,,,3877,627,,,,,,,,,,,
Lithuania,Operator Holding Account,UAB NEO Group,126142011,2008-07-08,open,"Industrijos g. 2, Dovilų sen.",LT-95346,Rimkai,,,,59231,59231,59231,59231,59231,35827,35205,34575,33939,33296,32647,31989,31330,,,,32219,30223,41194,36265,38495,40100,39122,15896,12398,,,,,,,,32219,30223,41194,36265,38495,40100,39122,15896,12398,,,,
Lithuania,Operator Holding Account,AB Panevezio energija,147248313,2008-07-08,open,Senamiescio g. 113  LT-35114 Panevezys,LT-35114,Panevezys,,,,20964,20964,20963,20963,20963,119,107,95,83,71,60,50,39,,,,208,121,185,135,669,247,428,135,222,,,,,,,,208,121,185,135,669,247,428,135,222,,,,
Lithuania,Operator Holding Account,UAB Paroc,110711742,2008-07-08,open,Savanoriu pr. 124  LT-03153 Vilnius,LT-03153,Vilnius,,,,70149,70149,70149,70149,70148,35374,34759,34138,33510,32875,32234,31585,30933,,,,54213,30172,44799,55478,61250,68585,56553,53021,59369,,,,,,,,54213,30172,44799,55478,61250,68585,56553,53021,59369,,,,
Lithuania,Operator Holding Account,AB Vilniaus silumos tinklai,124135580,2008-04-16,open,Jočionių g. 13,LT-02300,Vilnius,,,,1368,1368,1368,1368,1367,1,1,1,1,1,0,0,0,,,,0,0,2,0,0,1,61,4,0,,,,,,,,,,2,,,1,61,4,,,,,
Lithuania,Operator Holding Account,AB Vilniaus GKG-3,120090255,2008-08-13,open,saltupio g. 3  LT-02300 Vilnius,LT-02300,Vilnius,,,,551,551,551,550,550,1156,1034,916,801,690,583,479,379,,,,1230,407,327,329,332,287,334,348,363,,,,,,,,1230,407,327,329,332,287,334,348,363,,,,
Lithuania,Operator Holding Account,AB Vilniaus paukstynas,186107463,2008-09-23,closed,Rudamina,LT-13251,Vilniaus raj.,,,,4208,4208,0,0,0,,,,,,,,,,,,5399,3464,0,0,,,,,,,,,,,,,5399,3464,,,,,,,,,,,
Lithuania,Operator Holding Account,AB Zemaitijos pienas,180240752,2008-11-07,closed,Sedos g. 35,LT-87101,Telsiai,,,,,,,0,,,,,,,,,,,,,0,0,0,0,,,,,,,,,,,,,,,,,,,,,,,,,
Lithuania,Operator Holding Account,UAB Agro Neveronys,134146066,2008-12-30,open,Neveroniu km.  LT-54477Neveronys  Kauno raj.,LT-54477,Neveronys,,,,34192,34192,34192,34192,34192,6145,5499,4870,4262,3671,3099,2547,2015,,,,5723,5239,5321,4887,0,0,0,0,0,,,,,,,,5723,5239,5321,4887,,,,,,,,,
Lithuania,Operator Holding Account,UAB Orion Global pet,111800069,2008-02-03,closed,Metalo g. 16  LT-94102 Klaipeda,LT-94102,Klaipeda,,,,20637,20637,20637,20637,0,,,,,,,,,,,,21445,23120,22446,13205,Not Reported,,,,,,,,,,,,21445,23120,22446,13205,,,,,,,,,
Lithuania,Operator Holding Account,UAB Pramones energija,300073802,2009-05-12,open,Jogailos g.4  LT-01116 Vilnius,LT-01116,Vilnius,,,,0,0,38792,23275,23275,16004,15726,15444,15160,14873,14583,14289,13995,,,,,337,672,75,728,1745,356,0,0,,,,,,,,,337,672,75,728,1745,356,,,,,,
Lithuania,Operator Holding Account,Vi Visagino energija,110087517,2006-08-04,open,Taikos pr. 26A  LT-31111 Visaginas,LT-31111,Visaginas,,,,,,,,,74561,66727,59103,51712,44547,37615,30907,24450,,,,,,,0,74057,47950,35565,26608,28847,,,,,,,,,,,,74057,47950,35565,26608,28847,,,,
Lithuania,Aircraft Operator Account,UAB Avion Express,300087830,2010-01-01,open,Lvovo g. 25,LT-09230,Vilnius,,,,,,,,,,,,,,,,,,,,,,,,27322,72984,Excluded,Excluded,Not Reported,,,,,,,,,,,,27322,,72984,,,,,,
Lithuania,Aircraft Operator Account,UAB Grand Cru Airlines,302944752,2013-01-01,open,Dariaus ir Girėno g. 81-1,LT-02189,Vilnius,,,,,,,,,,,,,,,,,,,,,,,,,Excluded,Excluded,Excluded,Not Reported,,,,,,,,,,,,,,,,,,,,
Lithuania,Operator Holding Account,AB Amilina,147031669,2013-06-26,open,J. Janonio g. 12,LT-35101,Panevėžys,,,,,,,,,16862,28554,28049,27543,27037,26532,26026,25520,,,,,,,,,15241,6741,2188,2126,,,,,,,,,,,,,15241,6741,2188,2126,,,,
Lithuania,Operator Holding Account,UAB Lignoterma,302610852,2013-08-02,open,J. Janonio g. 12,LT-35101,Panevėžys,,,,,,,,,79,673,661,649,637,625,613,602,,,,,,,,,85,15,61,0,,,,,,,,,,,,,85,15,61,,,,,
Lithuania,Operator Holding Account,"AB ""Amber Grid""",303090867,2014-11-17,open,Savanorių pr. 28,LT-03116,Vilnius,,,,,,,,,,,,,,,,,,,,,,,,,,580,156,582,,,,,,,,,,,,,,580,156,582,,,,
Lithuania,Operator Holding Account,UAB Hoegh LNG Klaipeda,302719517,2014-10-03,open,"Lvovo g. 25, Vilnius",LT-09320,Klaipeda,,,,,,,,,,6032,47571,41638,35891,30330,24949,19761,,,,,,,,,,11191,68709,51340,,,,,,,,,,,,,,11191,68709,51340,,,,
Lithuania,Aircraft Operator Account,UAB Air Lituanica,302792426,2013-01-01,open,Rodūnios kelias 34,LT-02187,Vilnius,,,,,,,,,,,,,,,,,,,,,,,,,,25849,Not Reported,Not Reported,,,,,,,,,,,,,,25849,,,,,,
Lithuania,Operator Holding Account,UAB Fortum Klaipėda,301276531,2016-10-12,open,Kretainio 3,LT-94100,Klaipėda,,,,,,,,,,,,,,,,,,,,,,,,,,,,29957,,,,,,,,,,,,,,,,29957,,,,
