Country,Account Type,Account Holder Name,Company Registration No,Permit/Plan Date,Account status,Main Address Line,Postal Code,City,Allowance In Allocation In 2005,Allowance In Allocation In 2006,Allowance In Allocation In 2007,Allowance In Allocation In 2008,Allowance In Allocation In 2009,Allowance In Allocation In 2010,Allowance In Allocation In 2011,Allowance In Allocation In 2012,Allowance In Allocation In 2013,Allowance In Allocation In 2014,Allowance In Allocation In 2015,Allowance In Allocation In 2016,Allowance In Allocation In 2017,Allowance In Allocation In 2018,Allowance In Allocation In 2019,Allowance In Allocation In 2020,Verified Emissions In 2005,Verified Emissions In 2006,Verified Emissions In 2007,Verified Emissions In 2008,Verified Emissions In 2009,Verified Emissions In 2010,Verified Emissions In 2011,Verified Emissions In 2012,Verified Emissions In 2013,Verified Emissions In 2014,Verified Emissions In 2015,Verified Emissions In 2016,Verified Emissions In 2017,Verified Emissions In 2018,Verified Emissions In 2019,Verified Emissions In 2020,Units Surrendered In 2005,Units Surrendered In 2006,Units Surrendered In 2007,Units Surrendered In 2008,Units Surrendered In 2009,Units Surrendered In 2010,Units Surrendered In 2011,Units Surrendered In 2012,Units Surrendered In 2013,Units Surrendered In 2014,Units Surrendered In 2015,Units Surrendered In 2016,Units Surrendered In 2017,Units Surrendered In 2018,Units Surrendered In 2019,Units Surrendered In 2020
Luxembourg,Operator Holding Account,Cegyco S.A.,B 58432,2006-06-08,open,Avenue Gordon Smith,7750,Colmar Berg,67356,67356,67356,66999,66999,66999,66999,66999,45226,44439,43652,42865,42078,41291,40504,39717,62428,65258,66589,64327,44988,53430,59052,51228,42118,36669,36882,39683,,,,,62428,65258,66589,64327,44988,53430,59052,51228,42118,36669,36882,39683,,,,
Luxembourg,Operator Holding Account,Dupont de Nemours Luxembourg,B 9529,2006-06-08,open,Rue General Patton,2984,Luxembourg,79588,79588,79588,70485,70485,70485,70485,70485,71885,70021,68161,66314,64473,62645,60822,59020,56226,51371,58352,56414,51255,49560,42203,44369,79354,71144,63742,63372,,,,,56226,51371,58352,56414,51255,49560,42203,44369,79354,71144,63742,63372,,,,
Luxembourg,Operator Holding Account,Ceduco S.A.,B 47147,2006-06-08,closed,Rue General Patton,2984,Contern,74423,74423,74423,68931,68931,68931,68931,68931,,,,,,,,,58358,62764,28743,41050,22762,38290,36846,34042,,,,,,,,,58358,62764,28743,41050,22762,38290,36846,34042,,,,,,,,
Luxembourg,Operator Holding Account,Guardian Luxguard I,1980 2200059,2006-06-08,open,Route de Luxembourg,4940,Bascharage,128035,128035,128035,112618,112618,112618,112618,112618,93104,91487,89851,88198,86527,84839,83131,81417,108456,107855,108008,110790,109984,110294,115636,114012,112479,110480,110182,107608,,,,,108456,107855,108008,110790,109984,110294,115636,114012,112479,110480,110182,107608,,,,
Luxembourg,Operator Holding Account,Guardian Luxguard II,B 27249,2006-06-08,open,Z.I. Wolser,3452,Dudelange,130300,130300,130300,122224,122224,122224,122224,122224,95244,46795,91916,90225,88515,86789,85042,83288,113305,111429,121224,120756,116775,118922,120376,115151,55117,110022,111548,116521,,,,,113305,111429,121224,120756,116775,118922,120376,115151,55117,110022,110548,117521,,,,
Luxembourg,Operator Holding Account,Cimalux S.A.,B 7466,2006-06-08,open,BP 146,4149,Esch/Alzette,846079,846079,846079,746132,746132,746132,746132,746132,593160,582858,572434,561901,551255,540506,529622,518701,732271,696782,678223,641079,619940,623802,640357,595040,599535,585892,548004,590961,,,,,732271,696782,678223,641079,619940,623802,640357,595040,599535,585892,548004,590961,,,,
Luxembourg,Operator Holding Account,Kronospan Luxembourg S.A.,B 46483,2006-06-08,open,Z.I. Gadderscheier,4902,Sanem,95411,95411,95411,72505,72505,72505,72505,72505,46825,46012,29693,25981,22381,18898,15528,12284,55195,61130,49452,33488,36034,30764,28418,28152,29140,23192,15778,18550,,,,,55195,61130,49452,33488,36034,30764,28418,28152,29140,23192,15778,18550,,,,
Luxembourg,Operator Holding Account,Luxénergie S.A.,B 34538,2006-06-08,open,"23, avenue J.F. Kennedy",1855,Luxembourg-Kirchberg,31883,31883,31883,46705,46705,46705,46705,46705,23914,21333,18840,16439,14125,11898,9755,7703,31829,37471,36303,41130,40789,44628,40805,43647,46046,40838,44392,45794,,,,,31829,37471,36303,41130,40789,44628,40805,43647,46046,40838,44392,45794,,,,
Luxembourg,Operator Holding Account,Luxénergie S.A.,B 34538,2006-06-08,open,"23, avenue J.F. Kennedy",1855,Luxembourg-Kirchberg,15090,15090,15090,19780,19780,19780,19780,19780,5445,4856,4288,3739,3213,2706,2217,1750,11369,11178,9821,10804,11453,13135,12117,12540,12820,13444,14214,14795,,,,,11369,11178,9821,10804,11453,13135,12117,12540,12820,13444,14214,14795,,,,
Luxembourg,Operator Holding Account,Luxlait Association Agricole,H4,2006-06-08,open,"27, boulevard Marcel Cahen",1311,Luxembourg,8021,8021,8021,3883,3883,4087,3883,0,,,,,,,,,5892,5768,6036,6777,6838,Not Reported,Not Reported,Not Reported,Not Reported,Not Reported,Not Reported,Not Reported,,,,,5892,6449,5355,6777,6838,,,,,,,,,,,
Luxembourg,Operator Holding Account,ArcelorMittal Rodange et Schifflange- Site de Schifflange,B 10643,2006-06-08,open,"11, Boulevard Aloyse Meyer",4221,Esch/Alzette,70996,70996,70996,81073,81073,81073,81073,81073,,,,,,,,,44856,72306,81276,68791,64250,64696,47502,151,Not Reported,Not Reported,Not Reported,Not Reported,,,,,44856,72306,81276,68791,64250,64696,47502,151,,,,,,,,
Luxembourg,Operator Holding Account,ArcelorMittal Belval et Differdange,B 41983,2006-06-08,open,Site d'Esch-Belval,4008,Esch/Alzette,254415,254415,254415,145620,145620,145620,145620,145620,150972,148350,145696,143016,140306,137571,134800,132020,188622,203597,175836,104504,83338,113123,106035,113121,177070,195614,201131,196349,,,,,188622,203597,175836,104504,83338,113123,106035,113121,177070,186028,201131,205935,,,,
Luxembourg,Operator Holding Account,ArcelorMittal Belval et Differdange,B 41983,2006-06-08,open,Site d'Esch-Belval,4008,Esch/Alzette,228018,228018,228018,73118,73118,73118,73118,73118,153174,150514,147821,145102,142354,139578,136766,133947,126113,164930,178515,49725,39208,45284,59967,66267,185176,196275,183931,185696,,,,,126113,164930,178515,49725,39208,45284,59967,66267,185176,191828,183931,190143,,,,
Luxembourg,Operator Holding Account,Primorec S.A.,B 82849,2006-06-08,closed,BP70,4501,Differdange,95706,95706,95706,,,,,,,,,,,,,,39994,45847,49573,Not Reported,Not Reported,Not Reported,Not Reported,Not Reported,,,,,,,,,39994,45847,49573,,,,,,,,,,,,,
Luxembourg,Operator Holding Account,Twinerg S.A.,B 64224,2006-06-08,open,route d'Ehlerange 201,4108,Esch sur Alzette,1104000,1104000,1104000,858156,858156,858156,858156,858156,,,,,,,,,968435,1015286,919280,749260,934080,946734,742897,771817,405628,440440,223823,8103,,,,,968435,1015286,919280,749260,934080,946734,742897,771817,405628,440440,223823,8103,,,,
Luxembourg,Aircraft Operator Account,LUXAIR,B4109,2012-01-01,open,Aeroport de Luxembourg,L-2987,LUXEMBOURG,,,,,,,,76209,54151,54151,54151,54151,54151,54151,54151,54151,,,,,,,,153096,127815,143222,163617,174508,,,,,,,,,,,,153096,,271037,163617,174508,,,,
Luxembourg,Aircraft Operator Account,Cargolux Airlines International S.A.,RC B 8916,2012-01-01,open,Luxembourg Airport,L-2990,Luxembourg,,,,,,,,2228589,29832,29832,29832,29832,29832,29832,29832,29832,,,,,,,,1416202,48518,54840,52385,52486,,,,,,,,,,,,1416203,,103358,52385,52486,,,,
Luxembourg,Aircraft Operator Account,"eBay, Inc.",C2110301,2012-01-01,open,2145 Hamilton Ave,95125,San Jose,,,,,,,,2,1,1,1,1,1,1,1,1,,,,,,,,42,Excluded,Excluded,Excluded,Excluded,,,,,,,,,,,,42,,,,,,,,
Luxembourg,Aircraft Operator Account,Smart Cargo S.A.,B 83004,2010-01-01,open,"312, route de Treves",2633,Senningerberg,,,,,,,,5948,5499,5499,5499,5499,5499,5499,5499,5499,,,,,,,,41518,20962,Excluded,Excluded,Excluded,,,,,,,,,,,,37101,,20962,,4417,,,,
Luxembourg,Aircraft Operator Account,Global Jet Luxembourg,B 62747,2012-01-01,open,33 rue de Gasperich,L-5826,Hesperange,,,,,,,,433,269,269,269,269,269,269,269,269,,,,,,,,15909,11063,12456,16349,14407,,,,,,,,,,,,15909,,23519,16349,14407,,,,
Luxembourg,Operator Holding Account,wasilewski,,2013-01-01,open,3 rue hélène boucher,57155,marly,,,,,,,,,22233,21847,21456,21061,20662,20260,19852,19442,,,,,,,,,28644,28580,28300,29487,,,,,,,,,,,,,28644,28580,28300,29487,,,,
Luxembourg,Operator Holding Account,Eurofoil Luxembourg SA,19822200519,2013-01-01,open,ZI Riedgen,3401,Dudelange,,,,,,,,,17762,17453,17141,16826,16507,16185,15859,15532,,,,,,,,,19453,19040,20719,20356,,,,,,,,,,,,,19453,19040,20719,20356,,,,
Luxembourg,Operator Holding Account,C. KARP-KNEIP Matériaux S.A.,B25352,2013-01-01,open,"14, rue Michel Flammang",1524,Luxembourg,,,,,,,,,2459,2200,1949,1705,1469,1240,1019,806,,,,,,,,,3247,4080,3228,3800,,,,,,,,,,,,,3247,4080,3228,3800,,,,
Luxembourg,Operator Holding Account,JULIEN-CAJOT,B 7784,2013-01-01,open,"1,Z.I. GRASBUSCH",L-3370,LEUDELANGE,,,,,,,,,3351,3000,2657,2325,2003,1691,1390,1099,,,,,,,,,8396,10268,8924,9551,,,,,,,,,,,,,6351,12313,8924,9551,,,,
Luxembourg,Operator Holding Account,ArcelorMittal Belval et Differdange,B 41983,2013-01-01,open,Site d'Esch-Belval,4008,Esch/Alzette,,,,,,,,,27321,26846,26366,25881,25391,24896,24395,23891,,,,,,,,,18951,20490,19758,19699,,,,,,,,,,,,,18951,20490,19758,19699,,,,
Luxembourg,Operator Holding Account,Cimalux S.A.,B 7466,2013-01-01,open,BP 146,4149,Esch/Alzette,,,,,,,,,,,,,,,,,,,,,,,,,3502,4410,6924,10092,,,,,,,,,,,,,3502,4410,6942,10074,,,,
Luxembourg,Operator Holding Account,HYDRO ALUMINIUM CLERVAUX,19952215054,2013-01-01,open,16 Op der Sang,9779,Eselborn,,,,,,,,,20589,20231,19873,19514,19156,18798,18440,18081,,,,,,,,,20441,20441,18088,20898,,,,,,,,,,,,,20441,20441,18088,20898,,,,
Luxembourg,Operator Holding Account,Thimmesch,,2014-09-01,open,ZI Um Monkeler,4149,Schifflange,,,,,,,,,,,,1230,671,567,467,370,,,,,,,,,,117,1039,1880,,,,,,,,,,,,,,117,1039,1880,,,,
Luxembourg,Aircraft Operator Account,Luxaviation,RC B 139535,2013-01-01,open,"4a, rue Albert Borschette",L-1246,Luxembourg,,,,,,,,,,,,,,,,,,,,,,,,,4792,6654,6428,Excluded,,,,,,,,,,,,,,11446,,6428,,,,
Luxembourg,Operator Holding Account,Kiowatt S.A.,B 143047,2014-09-01,open,Z.A.C Klengbousbierg,7795,Bissen,,,,,,,,,,6831,6085,5326,4591,3880,3191,2528,,,,,,,,,,58,225,130,,,,,,,,,,,,,,58,225,130,,,,
Luxembourg,Aircraft Operator Account,Yangtze River Express,310000400308200,2011-01-01,open,No.198 Linhang Road,200200,Shanghai,,,,,,,,,6995,3398,3398,3398,3398,3398,3398,3398,,,,,,,,4801,2565,5198,7819,7778,,,,,,,,,,,,,,,20383,7778,,,,
