Country,Account Type,Account Holder Name,Company Registration No,Permit/Plan Date,Account status,Main Address Line,Postal Code,City,Allowance In Allocation In 2005,Allowance In Allocation In 2006,Allowance In Allocation In 2007,Allowance In Allocation In 2008,Allowance In Allocation In 2009,Allowance In Allocation In 2010,Allowance In Allocation In 2011,Allowance In Allocation In 2012,Allowance In Allocation In 2013,Allowance In Allocation In 2014,Allowance In Allocation In 2015,Allowance In Allocation In 2016,Allowance In Allocation In 2017,Allowance In Allocation In 2018,Allowance In Allocation In 2019,Allowance In Allocation In 2020,Verified Emissions In 2005,Verified Emissions In 2006,Verified Emissions In 2007,Verified Emissions In 2008,Verified Emissions In 2009,Verified Emissions In 2010,Verified Emissions In 2011,Verified Emissions In 2012,Verified Emissions In 2013,Verified Emissions In 2014,Verified Emissions In 2015,Verified Emissions In 2016,Verified Emissions In 2017,Verified Emissions In 2018,Verified Emissions In 2019,Verified Emissions In 2020,Units Surrendered In 2005,Units Surrendered In 2006,Units Surrendered In 2007,Units Surrendered In 2008,Units Surrendered In 2009,Units Surrendered In 2010,Units Surrendered In 2011,Units Surrendered In 2012,Units Surrendered In 2013,Units Surrendered In 2014,Units Surrendered In 2015,Units Surrendered In 2016,Units Surrendered In 2017,Units Surrendered In 2018,Units Surrendered In 2019,Units Surrendered In 2020
Netherlands,Aircraft Operator Account,K.O.M. Activity I B.V.,24181812,2010-01-01,open,Straatweg 199,3054 AE,Rotterdam,,,,,,,,10,,,,,9,9,9,9,,,,,,,,86,Excluded,Excluded,Excluded,Excluded,,,,,,,,,,,,86,,,,,,,,
Netherlands,Aircraft Operator Account,Nippon Cargo Airlines,T0933740,2010-01-01,open,Nishi-Shinbashi 3-23-5,105-0003,Tokyo,,,,,,,,275921,6521,6521,6521,6521,6521,6521,6521,6521,,,,,,,,203267,9580,10386,10809,12458,,,,,,,,,,,,203267,,19966,10809,12458,,,,
Netherlands,Aircraft Operator Account,Shell Aircraft Limited,24293574,2010-01-01,open,Fornebubaan 25,3045 AV,Rotterdam,,,,,,,,153,26,26,26,26,26,26,26,26,,,,,,,,1813,1780,1867,1858,1648,,,,,,,,,,,,1813,,3647,1858,1648,,,,
Netherlands,Aircraft Operator Account,Koninklijke Luchtvaart Maatschappij N.V.,33014286,2010-01-01,open,Amsterdamseweg 55,1182GP,Amstelveen,,,,,,,,7897037,768364,768364,768364,768364,768364,768364,768364,768364,,,,,,,,1891413,1493362,1551342,1569239,1649880,,,,,,,,,,,,1891413,,3044704,1569239,1649880,,,,
Netherlands,Aircraft Operator Account,Martinair Holland N.V.,34029668,2010-01-01,open,Piet Guilonardweg 17,1117 EE,Schiphol,,,,,,,,1548398,3408,3408,3408,3408,3408,3408,3408,3408,,,,,,,,843973,3405,3242,3285,2558,,,,,,,,,,,,843973,,6647,3285,2558,,,,
Netherlands,Aircraft Operator Account,Oshkosh Corporation,1O01160,2010-01-01,open,2307 Oregon Street,54902,Oshkosh,,,,,,,,,,,,,,,,,,,,,,,,112,Excluded,Excluded,Excluded,Excluded,,,,,,,,,,,,,112,,,,,,,
Netherlands,Aircraft Operator Account,"LBN, LLC c/o Central Missouri Aviation, Inc.",FL0844616,2012-01-01,open,11200 S. Airport Rd.,65201,Columbia,,,,,,,,10,,,,,,,,,,,,,,,,19,Excluded,Excluded,Excluded,Excluded,,,,,,,,,,,,19,,,,,,,,
Netherlands,Aircraft Operator Account,Amsterdam Airlines BV,34279605,2010-01-01,closed,Postbus 1031,1000 BA,Amsterdam,,,,,,,,15151,,,,,,,,,,,,,,,,Not Reported,Excluded,Excluded,Excluded,,,,,,,,,,,,,,,,,,,,,
Netherlands,Operator Holding Account,Koole Tankstorage Pernis B.V.,24250858,2008-01-01,open,Sluispolderweg 67,1505 HJ,ZAANDAM,,,,8822,8822,8822,8822,8822,11134,9965,8826,7722,6652,5617,4615,3651,,,,505,33,184,6041,14599,15285,15811,15941,16083,,,,,,,,505,33,184,6041,14599,15285,15811,15941,16083,,,,
Netherlands,Operator Holding Account,Bergpeppers V.O.F.,27273364,2008-01-01,closed,Roelof Kromkampweg 8,2651 KG,LANSINGERLAND,,,,0,42075,23210,23210,23210,,,,,,,,,,,,18167,19477,21989,23782,13475,,,,,,,,,,,,18167,19477,21989,23782,13475,,,,,,,,
Netherlands,Operator Holding Account,Kwekerij de Hoge Akkers B.V.,17104187,2008-01-01,closed,Meijelseweg 19,5725 BA,HEUSDEN GEM ASTEN,,,,9954,9954,9953,9953,0,,,,,,,,,,,,9710,8254,10433,3006,Not Reported,,,,,,,,,,,,9710,8254,10433,3006,,,,,,,,,
Netherlands,Operator Holding Account,Kwekerij de Kabel B.V.,27304173,2008-01-01,closed,Zijtwende 21,2678 NL,DE LIER,,,,14757,29987,22372,22371,22371,8522,7627,6756,0,0,0,0,0,,,,19067,16416,19248,17214,17712,17972,15692,12595,,,,,,,,,19067,16416,19248,17214,17712,17972,15692,12595,,,,,
Netherlands,Operator Holding Account,Landbouwbedrijf Van Gog B.V.,17086693,2008-01-01,closed,Griendtsveenseweg 4,5754 AB,DEURNE,,,,13248,13248,13248,13248,13248,0,0,0,0,0,0,0,0,,,,14030,13901,15333,13372,13321,,,,,,,,,,,,14030,13901,15333,13372,13321,,,,,,,,
Netherlands,Operator Holding Account,Kwekerij De Wieringermeer C.V.,27280080,2008-01-01,open,Oostlanderweg 17,1775 TH,MIDDENMEER,,,,0,105489,59356,59356,59356,27872,24942,22096,9671,8336,7045,5795,4590,,,,44580,53260,62468,52712,52144,52540,32438,26568,31651,,,,,,,,44580,53260,62468,52712,52144,52540,32438,26568,31651,,,,
Netherlands,Operator Holding Account,A.J.M. Dukker Holding B.V.,24280765,2008-01-01,closed,Ruigendijk 11,3234 LC,TINTE,,,,0,24259,12535,12535,12535,,,,,,,,,,,,11382,9525,11612,10740,3675,,,,,,,,,,,,11382,9525,11612,10740,3675,,,,,,,,
Netherlands,Operator Holding Account,A.J.M. Dukker Holding B.V.,24280765,2009-08-22,closed,Ruigendijk 11,3234 LC,TINTE,,,,0,0,24966,12483,0,,,,,,,,,,,,,9827,11144,4514,Not Reported,,,,,,,,,,,,,9827,11144,4514,,,,,,,,,
Netherlands,Operator Holding Account,Kwekerij G.J. van der Wel Zijdijk B.V.,27297758,2008-01-01,closed,Maasdijk 201,2691 PE,'S-GRAVENZANDE,,,,0,0,0,0,0,,,,,,,,,,,,0,Not Reported,Not Reported,,,,,,,,,,,,,,,,,,,,,,,,,,
Netherlands,Operator Holding Account,Kwekerij Helderman B.V.,62147137,2008-01-01,closed,Wagenpad 4,1775 RJ,MIDDENMEER,,,,0,55485,34502,34502,34502,15034,6899,6111,0,0,0,0,0,,,,17184,27564,32048,30338,30394,21034,11429,9529,,,,,,,,,17184,27564,32048,30338,30394,21034,11429,9529,,,,,
Netherlands,Operator Holding Account,H.W.J. van den Berg Beheer B.V.,24361499,2008-01-01,open,Jan Hendrikspad 4,2761 KE,Zevenhuizen,,,,0,31874,15937,15937,15937,7230,6470,5732,5018,4324,0,0,0,,,,16917,13312,15499,14910,14295,13259,12523,12146,11653,,,,,,,,16917,13312,15499,14910,14295,13259,12523,12146,11653,,,,
Netherlands,Operator Holding Account,Peter Hoogerbrugge Holding B.V.,27184908,2008-01-01,closed,Kreekrug 1,2678 PR,DE LIER,,,,7830,7829,7829,7829,7829,,,,,,,,,,,,6786,6686,9511,7452,1996,,,,,,,,,,,,6786,6686,9511,7452,1996,,,,,,,,
Netherlands,Operator Holding Account,Hoge Zuidplas Roses B.V.,29036635,2008-01-01,closed,Bredeweg 86b,2761 KA,ZEVENHUIZEN ZH,,,,13329,13328,13328,13328,13328,,,,,,,,,,,,13487,14586,15513,15036,3884,,,,,,,,,,,,13487,14586,15513,15036,3884,,,,,,,,
Netherlands,Operator Holding Account,R.P.L. Schenkeveld Holding B.V.,27268099,2008-01-01,closed,Woudseweg 146,2636 AV,SCHIPLUIDEN,,,,12722,12721,12721,12721,12721,,,,,,,,,,,,12939,10448,13256,10340,2488,,,,,,,,,,,,12939,10448,13256,10340,2488,,,,,,,,
Netherlands,Operator Holding Account,Schenkeveld Beheer B.V.,27217628,2009-12-17,closed,Woudseweg 146,2636 AV,SCHIPLUIDEN,,,,0,0,19586,16262,16262,,,,,,,,,,,,,1003,12883,11155,2547,,,,,,,,,,,,,1003,12883,11155,2547,,,,,,,,
Netherlands,Operator Holding Account,Kwekerij L.W. van der Houwen B.V.,24275343,2008-01-01,closed,Zoekweg 6a,4651 PS,STEENBERGEN NB,,,,20508,20508,20508,20508,20508,,,,,,,,,,,,19680,19612,17927,16197,8674,,,,,,,,,,,,19680,19612,17927,16197,8674,,,,,,,,
Netherlands,Operator Holding Account,Lamb-Weston/Meijer V.O.F.,22036226,2008-01-01,open,Stationsweg 18 A,4416 PJ,KRUININGEN,,,,21967,21967,21967,21966,21966,18938,23262,22845,22425,22000,21571,21137,20701,,,,22332,22411,22128,22487,23668,21863,22689,23812,28831,,,,,,,,22332,22411,22128,22487,23668,21863,22689,23812,28831,,,,
Netherlands,Operator Holding Account,Lamb-Weston/Meijer V.O.F.,22036226,2008-01-01,closed,Stationsweg 18 A,4416 PJ,KRUININGEN,,,,21687,21687,0,0,0,,,,,,,,,,,,24951,14214,,,,,,,,,,,,,,,24951,14214,,,,,,,,,,,
Netherlands,Operator Holding Account,Marjoland B.V.,27190670,2008-01-01,closed,Bredeweg 1A,2742 KS,WADDINXVEEN,,,,29628,29628,44519,39555,39555,,,,,,,,,,,,29777,28725,37165,37496,10690,,,,,,,,,,,,29777,28776,37114,37496,10690,,,,,,,,
Netherlands,Operator Holding Account,Mars Food Europe C.V.,23051922,2008-01-01,open,Benjamin Franklinstraat 19,3261LW,OUD-BEIJERLAND,,,,8708,8708,8708,8707,8707,7598,6800,6023,5270,4540,3833,3150,2492,,,,9034,8691,7812,7809,7117,7537,6747,6519,6286,,,,,,,,9034,8691,7812,7809,7117,7537,6747,6519,6286,,,,
Netherlands,Operator Holding Account,Mars Nederland B.V.,16021492,2008-01-01,open,Taylorweg 5,5466 AE,Veghel,,,,11805,11804,11804,11804,11804,10250,9173,8125,7109,6124,5171,4248,3362,,,,12919,12455,12005,13504,12899,14072,13385,12106,11694,,,,,,,,12919,12455,12005,13504,12899,14072,13385,12106,11694,,,,
Netherlands,Operator Holding Account,Ministerie van Defensie,27370985,2008-01-01,open,Plein 4,2511 CR,Den Haag,,,,14474,14474,14474,14474,14474,10098,9037,8005,7004,6033,5094,4186,3312,,,,16209,16292,19044,18860,15360,14227,11103,11692,11613,,,,,,,,16209,16292,19044,18860,15360,14227,11103,11692,11613,,,,
Netherlands,Operator Holding Account,Harry Wubben Flowers,65422155,2008-01-01,closed,Langelandseweg 57,2631 PS,NOOTDORP,,,,6258,6257,6257,6257,6257,,,,,,,,,,,,6682,5930,7247,6526,2385,,,,,,,,,,,,6682,5930,7247,6526,2385,,,,,,,,
Netherlands,Operator Holding Account,Tomatenkwekerij Jan van Marrewijk,27366938,2008-01-01,closed,Zuideindseweg 23d,2645 BD,DELFGAUW,,,,11893,11893,11893,11893,0,,,,,,,,,,,,10912,11009,11342,4826,Not Reported,,,,,,,,,,,,10912,11009,11342,4826,,,,,,,,,
Netherlands,Operator Holding Account,VDL Nedcar B.V.,14027374,2008-01-01,open,Dr Hub van Doorneweg 1,6121 RD,Born,,,,9427,9427,9426,9426,9426,8524,5050,13759,13506,13250,12991,12730,12467,,,,6744,6702,8868,6256,6731,8385,13316,16460,21802,,,,,,,,6744,6702,8868,6256,6731,8385,13316,16460,21802,,,,
Netherlands,Operator Holding Account,Gouda Refractories B.V.,29011939,2008-01-01,open,Goudkade 16,2802 AA,GOUDA,,,,8616,8616,8615,8615,8615,8325,8181,8034,7886,7737,7586,7433,7280,,,,7603,4246,5596,7686,8045,8278,5924,10151,7855,,,,,,,,7603,4246,5596,7686,8045,8278,5924,10151,7855,,,,
Netherlands,Operator Holding Account,Stichting Vergunning Moleneind,54040361,2008-01-01,open,Kloosterstraat 6,5349 AB,Oss,,,,28390,28390,28390,28390,28390,28300,27808,27311,26808,18385,18026,17664,17300,,,,30235,29565,32126,27442,27604,27881,24638,23980,19935,,,,,,,,30235,29565,32126,27442,27604,27881,24638,23980,19935,,,,
Netherlands,Operator Holding Account,NXP Semiconductors Netherlands B.V.,17070621,2008-01-01,open,High Tech Campus 60,5656 AG,EINDHOVEN,,,,13813,15231,14522,14521,14521,13428,13195,12959,12720,12479,12236,11990,11742,,,,13945,13874,14343,10963,11106,11624,8034,7812,8205,,,,,,,,13945,13874,14343,10963,11106,11624,8034,7812,8205,,,,
Netherlands,Operator Holding Account,Nyrstar Budel B.V.,17256263,2008-01-01,open,Hoofdstraat 1,6024 AA,BUDEL-DORPLEIN,,,,9006,9005,9005,9005,9005,130890,128617,126317,123992,121643,119271,116870,114460,,,,8538,10104,7005,6636,7737,46071,38568,42428,27948,,,,,,,,8538,10104,7005,6636,7737,46071,38568,42428,27948,,,,
Netherlands,Operator Holding Account,Hogg B.V.,20118200,2008-01-01,closed,Zoekweg 76,4664 RA,LEPELSTRAAT,,,,14855,25677,20266,27095,25039,11108,9941,0,0,0,0,0,0,,,,21119,18368,24793,22923,21017,18366,6885,,,,,,,,,,21119,18368,24793,22923,21017,18366,6885,,,,,,
Netherlands,Operator Holding Account,Peka Kroef B.V.,16067892,2008-01-01,closed,Beukenlaan 61,5409 SX,ODILIAPEEL,,,,0,39280,21393,22472,23730,15717,14065,12460,10906,0,0,0,0,,,,23660,20833,22516,20708,22525,20567,20072,17325,8855,,,,,,,,23660,20833,22516,20708,22525,20567,20072,17325,8855,,,,
Netherlands,Operator Holding Account,Philip Morris Holland B.V.,20123097,2008-01-01,closed,Marconilaan 20,4622 RD,BERGEN OP ZOOM,,,,7417,7417,7417,7417,7416,21267,19032,16857,0,0,0,0,0,,,,23958,24206,24971,22312,20592,21977,16802,12612,,,,,,,,,23958,24206,24971,22312,20592,21977,16802,12612,,,,,
Netherlands,Operator Holding Account,Flowerpoint B.V.,33261517,2008-01-01,closed,Postbus 214,1420 AE,UITHOORN,,,,10675,10675,10675,10675,10675,,,,,,,,,,,,7649,8405,10081,8667,2340,,,,,,,,,,,,7649,8405,10081,8667,2340,,,,,,,,
Netherlands,Operator Holding Account,John Ammerlaan Holding B.V.,29040873,2008-01-01,closed,Irisweg 36,2665 MK,BLEISWIJK,,,,9898,25329,20342,20342,20342,,,,,,,,,,,,14080,16925,17926,15942,9113,,,,,,,,,,,,14080,16925,17926,15942,9113,,,,,,,,
Netherlands,Operator Holding Account,Plantenkwekerij P. van Geest Maasland B.V.,27181975,2008-01-01,closed,Herenlaan 21,3155 DC,MAASLAND,,,,4803,12713,8757,8757,0,,,,,,,,,,,,9186,9044,9797,2328,Not Reported,,,,,,,,,,,,9186,9044,9797,2328,,,,,,,,,
Netherlands,Operator Holding Account,Plantenkwekerij Van der Lugt V.O.F.,24321457,2008-01-01,closed,Irisweg 1,2665 MS,BLEISWIJK,,,,9785,9785,9784,9784,0,,,,,,,,,,,,9984,9940,9947,5065,Not Reported,,,,,,,,,,,,9984,9940,9947,5065,,,,,,,,,
Netherlands,Operator Holding Account,Polman B.V.,04073262,2008-01-01,closed,Tuinderslaan 31,7887 VB,ERICA,,,,12699,12699,12699,12699,12698,,,,,,,,,,,,13006,11346,13901,12996,3037,,,,,,,,,,,,13006,11346,13901,12996,3037,,,,,,,,
Netherlands,Operator Holding Account,Prominent Holding B.V.,27242494,2008-01-01,closed,Scheeweg 9,2678 NT,DE LIER,,,,13268,13267,13267,13267,0,,,,,,,,,,,,16384,12439,14548,7033,0,,,,,,,,,,,,16384,12439,14548,7033,,,,,,,,,
Netherlands,Operator Holding Account,Givaudan Nederland B.V.,32043950,2008-01-01,closed,Postbus 2,1400 CA,BUSSUM,,,,9551,9551,9550,9550,9550,,,,,,,,,,,,8882,8918,8884,7733,4657,,,,,,,,,,,,8882,8918,8884,7733,4657,,,,,,,,
Netherlands,Operator Holding Account,Kaaij Brothers B.V.,24186434,2008-01-01,closed,Poortcamp 10,2678 PT,DE LIER,,,,8636,17795,15360,15360,15360,,,,,,,,,,,,8207,14407,13940,12718,4088,,,,,,,,,,,,8207,14407,13940,12718,4088,,,,,,,,
Netherlands,Operator Holding Account,Rixona B.V.,02020914,2009-02-04,open,Witte Vennenweg 6,5807 EJ,Oostrum,,,,26118,26118,26118,26118,26117,24519,30116,29578,29033,28483,27928,27366,26801,,,,22629,22091,22980,23638,23642,32065,34428,35148,35327,,,,,,,,22629,22091,22980,23638,23642,32065,34428,35148,35327,,,,
Netherlands,Operator Holding Account,PowerGrow Holding B.V.,27287643,2008-01-01,closed,Broekpolderlaan 92,2675 LK,HONSELERSDIJK,,,,0,46500,27996,25623,25623,,,,,,,,,,,,18938,15244,19910,19808,10971,,,,,,,,,,,,18938,15244,19910,19808,10971,,,,,,,,
Netherlands,Operator Holding Account,Rozenkwekerij De Trompet V.O.F.,04075360,2008-01-01,closed,Gantel 26,7891 XA,KLAZIENAVEEN,,,,8378,8377,0,0,0,,,,,,,,,,,,8377,0,0,,,,,,,,,,,,,,8377,,,,,,,,,,,,
Netherlands,Operator Holding Account,Schiphol Nederland B.V.,34166584,2008-01-01,open,Evert van de Beekstraat 202,1118 CP,SCHIPHOL,,,,28525,28525,28524,28524,28524,15898,14228,12602,11026,9498,8020,6590,5213,,,,28536,26461,28185,23476,22253,18910,17272,19435,17333,,,,,,,,28536,26461,28185,23307,22253,19079,17272,19435,17333,,,,
Netherlands,Operator Holding Account,Epsilon Paprika B.V.,22058082,2008-01-01,open,Kreekweg 2,4421 RV,Kapelle,,,,19807,19807,19807,19807,19806,9336,8355,7401,6478,5584,4719,3882,3075,,,,15180,12616,15703,14444,16697,15550,11774,12777,12080,,,,,,,,15180,12616,15703,14444,16697,15550,11774,12777,12080,,,,
Netherlands,Operator Holding Account,SHELL Nederland Chemie B.V.,24082750,2008-01-01,open,Chemieweg 25,4782 SJ,Moerdijk,,,,1941390,1941389,1941389,1941389,1941389,1084289,1065456,1046401,1027148,1007687,988038,968143,948179,,,,2004520,1943188,2122031,2077435,1995502,1003983,884490,540168,1178260,,,,,,,,2004520,1943188,2122031,2077435,1995502,1003983,884490,540168,1178260,,,,
Netherlands,Operator Holding Account,Solidus Solutions Board B.V.,02031366,2008-01-01,open,Hoofdstraat 34,9693 AH,Bad Nieuweschans,,,,25003,25003,25002,25002,25002,27002,26533,26059,25579,25095,24605,24110,23613,,,,25159,22183,27107,19901,17437,17313,16613,17160,16287,,,,,,,,25159,22183,27107,19901,17437,17313,16613,17160,16287,,,,
Netherlands,Operator Holding Account,Solidpack B.V.,02313313,2008-01-01,open,Voorsterweg 38,7371 GC,LOENEN,,,,11635,11635,11635,11635,11634,14576,14323,14067,13808,13547,13282,13015,12747,,,,12221,12516,13142,12936,12758,13203,12205,12598,13326,,,,,,,,12221,12516,13142,12936,12758,13203,12205,12598,13326,,,,
Netherlands,Operator Holding Account,Abbott Healthcare Products B.V.,32039508,2008-01-01,open,C J van Houtenlaan 36,1381 CP,WEESP,,,,18840,18840,18840,18839,18839,17320,17019,16714,16407,16096,15782,15464,15146,,,,18370,17159,17857,15666,14552,14230,13366,13485,12830,,,,,,,,18370,17159,17857,15666,14552,14230,13366,13485,12830,,,,
Netherlands,Operator Holding Account,Steenfabriek Gebr. Klinkers B.V.,14621297,2008-01-01,open,Brusselseweg 700,6219 NP,MAASTRICHT,,,,9623,9623,9623,9623,9623,4924,4838,4752,4664,4576,4487,4396,4306,,,,8377,6865,7168,7785,6748,7588,7912,8652,8756,,,,,,,,8377,6865,7168,7785,6748,7588,7912,8652,8756,,,,
Netherlands,Operator Holding Account,Eurobrick B.V.,14067911,2008-01-01,open,Drievogelstraat 80,6466 GN,KERKRADE,,,,4252,4252,4251,4251,4251,3880,3813,3745,3676,3606,3536,3465,3393,,,,4084,3444,2298,2609,2712,2317,2113,2455,2328,,,,,,,,4084,3444,2298,2609,2712,2317,2113,2455,2328,,,,
Netherlands,Operator Holding Account,Steenindustrie Strating B.V.,02322990,2008-01-01,open,Gelmswijk 4,9665 RR,OUDE PEKELA,,,,6928,6928,6927,6927,6927,4114,4043,3970,3897,3823,3749,3673,3598,,,,6128,6385,6291,6107,6839,4206,4786,4414,4321,,,,,,,,6128,6385,6291,6107,6839,4206,4786,4414,4321,,,,
Netherlands,Operator Holding Account,Stichting Beheer Cluster Bergschenhoek,24308465,2008-01-01,closed,Anthony Lionweg 22,2661 DX,BERGSCHENHOEK,,,,10715,10715,10715,10715,10715,,,,,,,,,,,,8152,9309,9134,7831,2982,,,,,,,,,,,,8152,9309,9134,7831,2982,,,,,,,,
Netherlands,Operator Holding Account,Noordam Plants B.V.,27234978,2008-01-01,closed,Bagijneland 1,2691 NC,'S-GRAVENZANDE,,,,0,26246,13123,13123,13123,6741,6032,0,0,0,0,0,0,,,,11841,10890,12803,11481,11990,13588,11052,,,,,,,,,,11841,10890,12803,11481,11990,13588,11052,,,,,,
Netherlands,Operator Holding Account,Technische Universiteit Delft,27364265,2008-01-01,open,"Stevinweg 1, 5e etage",2628 CN,DELFT,,,,15188,15187,15187,15187,15187,11004,9848,8723,7632,6574,5551,4561,3608,,,,13454,13849,15858,11380,13269,18294,14659,16453,15334,,,,,,,,13454,13849,15858,11380,13269,18294,14659,16453,15334,,,,
Netherlands,Operator Holding Account,Universitair Medisch Centrum Utrecht,30244197,2008-01-01,open,Heidelberglaan 100,3584 CX,UTRECHT,,,,21943,21943,21943,21942,21942,9882,8844,7833,6853,5904,4985,4096,3241,,,,23296,24666,26960,25172,25734,25421,23685,24108,25304,,,,,,,,23296,24666,26960,25172,25734,25421,23685,24108,25304,,,,
Netherlands,Operator Holding Account,Unilever Nederland Foods Factories B.V.,32043472,2008-01-01,open,Nassaukade 5,3071 JL,Rotterdam,,,,15874,15874,15874,15874,15874,12602,11278,9989,8740,7529,6358,5224,4133,,,,16849,16180,16449,14486,13569,13557,11899,12018,11211,,,,,,,,16849,16180,16449,14486,13569,13557,11899,12018,11211,,,,
Netherlands,Operator Holding Account,Driemaster B.V.,27176332,2008-01-01,closed,Steegstraat 20,5712 AL,SOMEREN,,,,8837,8837,8837,8837,0,,,,,,,,,,,,8359,8083,9089,2125,Not Reported,,,,,,,,,,,,8359,8083,9089,2125,,,,,,,,,
Netherlands,Operator Holding Account,Oussoren Trostomaten B.V.,65105605,2008-01-01,closed,Jan Hendrikspad 6,2761 KE,ZEVENHUIZEN ZH,,,,13275,13275,13275,13275,13275,,,,,,,,,,,,14971,12586,13498,13491,2982,,,,,,,,,,,,14971,12586,13498,13491,2982,,,,,,,,
Netherlands,Operator Holding Account,Van Dijk Vastgoed Holding B.V.,30056775,2008-01-01,closed,Heldamweg 1,3481 GX,HARMELEN,,,,13016,13016,13016,13016,13016,,,,,,,,,,,,3397,2856,4169,1357,1367,,,,,,,,,,,,3397,2856,4169,1357,1367,,,,,,,,
Netherlands,Operator Holding Account,Hans Vereijken Holding B.V.,17097743,2009-12-17,closed,Pater Eustachiuslaan 17,5735 SK,AARLE-RIXTEL,,,,0,24319,12629,12629,12629,,,,,,,,,,,,10670,10385,10561,9242,3576,,,,,,,,,,,,10670,10670,10561,9242,3291,,,,,,,,
Netherlands,Operator Holding Account,Vopak Terminal Botlek B.V.,24110168,2008-01-01,open,Westerlaan 10,3016 CK,Rotterdam,,,,14803,14803,14802,14802,14802,8450,7562,6698,5860,5048,4263,3502,2771,,,,11217,9199,9284,7038,6067,7374,6379,7362,7470,,,,,,,,11217,9199,9284,7038,6067,7374,6379,7362,7470,,,,
Netherlands,Operator Holding Account,Vopak Terminal Vlaardingen B.V.,24065756,2008-01-01,open,Westerlaan 10,3016 CK,Rotterdam,,,,26427,26427,26426,26426,26426,13000,11634,10304,9016,7767,6558,5389,4263,,,,19356,16007,12981,13613,12809,13953,12412,13966,15619,,,,,,,,19356,16007,12981,13613,12809,13953,12412,13966,15619,,,,
Netherlands,Operator Holding Account,Apollo Vredestein B.V.,34223268,2008-01-01,open,Ir. Schiffstraat 370,7547 RD,ENSCHEDE,,,,17758,17758,17758,17758,17758,17966,17654,17339,17020,16697,16372,16042,15711,,,,16303,16592,18258,17315,17245,17322,17086,16889,16561,,,,,,,,16303,16592,18258,17315,17245,17322,17086,16889,16561,,,,
Netherlands,Operator Holding Account,W.A. Sanders Coldenhove Holding B.V.,08021541,2008-01-01,open,D.W. van Vreeswijklaan 9,6961 LG,EERBEEK,,,,13743,13742,13742,13742,13742,8385,8239,8092,7943,7792,7640,7486,7332,,,,15157,14000,15081,8792,9959,9811,9394,10061,9723,,,,,,,,15157,14000,15081,8792,9959,9811,9394,10061,9723,,,,
Netherlands,Operator Holding Account,Wijnen Paprika's B.V.,12053573,2008-01-01,closed,Molenheg 8,5987 AP,EGCHEL,,,,14530,27298,20914,20913,20913,,,,,,,,,,,,24619,23124,18864,18038,18962,,,,,,,,,,,,24619,23124,18864,18038,18962,,,,,,,,
Netherlands,Operator Holding Account,Wormdal Vastgoed B.V.,14020830,2008-01-01,open,Wolfsweg 75,6471 CP,Eygelshoven,,,,5445,5445,5445,18747,14644,6850,385,378,372,364,357,350,343,,,,6024,5064,9902,2640,3493,202,177,71,73,,,,,,,,6024,5064,9902,2640,3493,202,177,71,73,,,,
Netherlands,Operator Holding Account,N.V. Nederlandse Gasunie,02029700,2008-01-01,open,Concourslaan 17,9727 KC,GRONINGEN,,,,1376,1376,1375,1375,1375,1009,903,800,700,603,509,418,331,,,,1348,876,512,654,306,21474,27436,9115,13112,,,,,,,,1348,876,512,654,306,21474,27436,9115,13112,,,,
Netherlands,Operator Holding Account,DOW Benelux B.V.,24104547,2008-01-01,open,Herbert H. Dowweg 5,4542 NM,Hoek,,,,2352826,2630536,2491681,2491681,2491681,639033,627934,616704,605357,593888,582307,570582,558816,,,,2532219,2348211,2515098,2259682,2566897,768465,883437,877274,873185,,,,,,,,2532219,2348211,2515098,2259682,2566897,768465,883437,877274,873185,,,,
Netherlands,Operator Holding Account,Vopak Terminal Europoort B.V.,24086473,2008-12-04,open,Frankrijkweg 4,4455 TR,Nieuwdorp,,,,14561,14561,14561,14560,14560,7137,6387,5658,4950,4264,3601,2959,2340,,,,15236,16377,22212,21425,21532,21111,17013,20323,19153,,,,,,,,15236,16377,22212,21425,21532,21111,17705,19631,19153,,,,
Netherlands,Operator Holding Account,N.V. Nuon Energy,33292246,2008-12-04,closed,Postbus 41920,1009 DC,AMSTERDAM,,,,12125,12125,12125,12125,12124,,,,,,,,,,,,13027,14068,14234,14098,13428,,,,,,,,,,,,13027,14068,14234,14098,13428,,,,,,,,
Netherlands,Operator Holding Account,Jansen Paprika,27272245,2008-12-18,closed,Nieuwe Dijk 12,1619 PK,ANDIJK,,,,0,17797,14108,14108,14108,,,,,,,,,,,,3691,13443,15771,15308,3222,,,,,,,,,,,,3691,13443,15771,15308,3222,,,,,,,,
Netherlands,Operator Holding Account,BIOPETROL ROTTERDAM B.V.,24393738,2008-08-08,open,Welplaatweg 108,3197 KS,BOTLEK ROTTERDAM,,,,0,0,0,0,60629,40034,38171,36347,34566,32826,31128,29470,27854,,,,0,6013,18004,25210,34943,38097,39193,37405,34816,,,,,,,,,6013,18004,25210,34943,38097,39193,37405,34816,,,,
Netherlands,Operator Holding Account,Hoogweg Luttelgeest B.V.,27138860,2009-01-01,closed,Nieuwlandseweg 9,8315 NA,Luttelgeest,,,,0,0,36192,18096,18096,7498,6710,5945,5203,0,0,0,0,,,,0,13180,16070,16531,18105,15414,7048,9506,2005,,,,,,,,,13180,16070,16531,18105,15414,7048,9506,2005,,,,
Netherlands,Operator Holding Account,T.W. van Noord Tomaten B.V.,24398612,2008-01-01,closed,Oudelandsedijk 2b,3255 LN,OUDE-TONGE,,,,0,29996,14998,14998,14998,,,,,,,,,,,,14769,12013,12648,11746,4956,,,,,,,,,,,,14769,12013,12648,12648,4054,,,,,,,,
Netherlands,Operator Holding Account,MG GRAND Beheer B.V.,68419465,2008-08-15,closed,De Poel 29,2681 MB,MONSTER,,,,0,20620,14237,14237,14237,,,,,,,,,,,,5316,11377,12720,11783,3212,,,,,,,,,,,,5316,11377,12720,11783,3212,,,,,,,,
Netherlands,Operator Holding Account,Van den Berg Roses,27215657,2008-12-04,closed,Noordeindseweg,2645 BC,DELFGAUW,,,,0,24850,13843,13843,13843,,,,,,,,,,,,3990,10559,11303,11019,4494,,,,,,,,,,,,3990,10559,11303,11019,4494,,,,,,,,
Netherlands,Operator Holding Account,Sloe Centrale B.V.,22063828,2008-12-11,open,Albaniëweg 10,4389 PR,RITTHEM,,,,0,0,2715348,2368621,2192157,,,,,,,,,,,,0,519149,1971161,1479636,1155240,1119570,1337670,902185,1418460,,,,,,,,,558753,1931557,1479636,1155240,1119570,1337670,902185,1418460,,,,
Netherlands,Operator Holding Account,Sweet Point Holding B.V.,27259599,2009-01-22,closed,Vijverberglaan 2B,2675 LC,HONSELERSDIJK,,,,0,0,33834,17892,17892,,,,,,,,,,,,0,14323,18426,16998,4390,,,,,,,,,,,,,14323,18426,16998,4390,,,,,,,,
Netherlands,Operator Holding Account,L.M. Verkade Beheer B.V.,20118422,2009-02-04,closed,Piet Stoffelenstraat 2,4652 AP,STEENBERGEN NB,,,,0,35056,17528,17528,17528,,,,,,,,,,,,17530,16765,18091,17585,7053,,,,,,,,,,,,17530,16765,18091,17585,7053,,,,,,,,
Netherlands,Operator Holding Account,Sonac Vuren B.V.,59079266,2008-01-01,open,Zeiving 35,4214 KT,VUREN,,,,0,30924,15462,15462,15462,25069,24282,23658,22916,22182,21455,20733,20022,,,,2078,2250,13128,17629,18119,28236,14905,14673,13924,,,,,,,,,4328,13128,17629,18119,28236,14905,14673,13924,,,,
Netherlands,Operator Holding Account,Kisuma Chemicals B.V.,02061424,2009-05-23,open,Billitonweg 7,9641 KZ,VEENDAM,,,,0,23224,13972,14515,16422,10225,10047,9867,9686,9502,9317,9130,8941,,,,10475,5862,11021,10341,7928,13188,12764,11680,12672,,,,,,,,10475,5862,11021,10341,7928,13188,12764,11680,12672,,,,
Netherlands,Operator Holding Account,Het Kraaiennest Holding B.V.,27197799,2009-02-04,closed,Nieuwe Dijk 15,1619 PK,ANDIJK,,,,0,0,59684,29842,29842,11698,0,0,0,0,0,0,0,,,,0,21130,26374,20866,17478,3626,,,,,,,,,,,,21130,26374,20866,17478,3626,,,,,,,
Netherlands,Operator Holding Account,Peter Aarts V.O.F.,17114321,2009-04-11,closed,Bleekerweg 5,5725 BE,HEUSDEN GEM ASTEN,,,,0,19096,13470,13470,0,,,,,,,,,,,,5635,10218,13433,4784,Not Reported,,,,,,,,,,,,5635,10218,13433,4784,,,,,,,,,
Netherlands,Operator Holding Account,Pieter Wijnen Egchel B.V.,12035445,2009-05-23,closed,Molenheg 8,5987 AP,EGCHEL,,,,0,0,27753,21577,21577,18361,0,0,0,0,0,0,0,,,,Not Reported,6321,20161,20576,18155,3493,,,,,,,,,,,,6321,20161,20576,18155,3493,,,,,,,
Netherlands,Operator Holding Account,J.S.E. B.V.,17201731,2009-05-23,closed,Balisboom 38,5715 BZ,LIEROP,,,,0,0,27069,20731,20731,,,,,,,,,,,,,6123,18112,18715,21074,15341,,,,,,,,,,,,6123,18112,18715,21074,15341,,,,,,,
Netherlands,Operator Holding Account,Nieuwe Tuinen B.V.,27274751,2009-05-09,closed,Scheeweg 17,2678 NT,DE LIER,,,,0,0,25395,19227,19227,,,,,,,,,,,,,5451,12943,12688,3868,,,,,,,,,,,,,5451,12943,12688,3868,,,,,,,,
Netherlands,Operator Holding Account,Tas Paprika C.V.,60832223,2009-10-22,closed,Nieuwlandseweg 5,8315 NA,Luttelgeest,,,,0,0,30248,24757,24757,9374,8389,7432,0,0,0,0,0,,,,,4068,21911,20181,19887,19534,17168,13191,,,,,,,,,,4068,21911,20181,19887,19534,17168,13191,,,,,
Netherlands,Operator Holding Account,Red Harvest B.V.,27320114,2009-10-22,open,Burgerdijkseweg 5B,2678 LP,DE LIER,,,,0,0,34151,42539,39973,17944,16058,14226,12451,10733,9070,7461,5909,,,,,4512,34431,40839,38594,38673,40654,42560,41716,,,,,,,,,4512,34431,40839,38594,38673,40654,42560,41716,,,,
Netherlands,Operator Holding Account,Kwekerij Rimato,27262059,2009-10-22,closed,Zwethlaan 5,2675 LB,HONSELERSDIJK,,,,0,0,25113,22820,22820,,,,,,,,,,,,,2230,19771,17597,8806,,,,,,,,,,,,,2230,19771,17597,8806,,,,,,,,
Netherlands,Operator Holding Account,Gipmans Groep B.V.,12046740,2009-10-15,open,Bultenvenweg 30,5916 RW,VENLO,,,,0,0,27777,19025,19025,8590,7687,6809,5961,5138,4341,3572,2829,,,,,5014,14345,12735,12307,13119,9886,11658,11914,,,,,,,,,5014,14345,12735,12307,13119,9886,11658,11914,,,,
Netherlands,Operator Holding Account,Hoogweg Luttelgeest B.V.,27138860,2009-01-22,open,Nieuwlandseweg 9,8315 NA,Luttelgeest,,,,0,0,107794,66983,66983,29446,26351,23344,20433,17612,14884,12243,9697,,,,,32119,60673,57118,54854,52882,46415,40738,42415,,,,,,,,,32119,60673,57118,54854,52882,46415,40738,42415,,,,
Netherlands,Operator Holding Account,C. Zwinkels,51195941,2009-12-17,closed,Veenakkers 22A,1693 NR,WERVERSHOOF,,,,0,0,21751,17718,17718,,,,,,,,,,,,,2527,16110,15813,3743,,,,,,,,,,,,,2527,16110,15813,3743,,,,,,,,
Netherlands,Operator Holding Account,Kwekerij Robert Mooijman B.V.,64789454,2009-12-17,open,Veenakkers 34,1693 NR,WERVERSHOOF,,,,0,0,23756,19385,19385,11674,10447,9254,8101,0,0,0,0,,,,,2991,18059,17620,16450,16740,12791,13263,2868,,,,,,,,,2991,18059,17620,16450,16740,12791,13263,2868,,,,
Netherlands,Operator Holding Account,Grootscholte Projekten B.V.,27235312,2009-12-17,closed,Bagijneland 33,2691 NC,'S-GRAVENZANDE,,,,0,0,19124,17104,17104,,,,,,,,,,,,,576,16420,14642,3910,,,,,,,,,,,,,576,16420,14642,3910,,,,,,,,
Netherlands,Operator Holding Account,Alco Energy Rotterdam B.V.,66377021,2010-08-22,open,Merwedeweg 10,3198 LH,Europoort Rotterdam,,,,0,0,0,250188,182156,301411,296166,290922,285677,233046,228688,224330,219972,,,,,,96882,285105,270984,257125,355586,319475,197463,,,,,,,,,,96559,285105,271307,257125,355586,319475,197463,,,,
Netherlands,Operator Holding Account,Vereijken Beek en Donk B.V.,17187155,2010-12-16,closed,Pater Eustachiuslaan 17,5735 SK,AARLE-RIXTEL,,,,0,0,0,27072,18723,,,,,,,,,,,,,,15199,11723,6792,,,,,,,,,,,,,,15199,11723,6792,,,,,,,,
Netherlands,Operator Holding Account,Energystock B.V.,02092814,2011-03-13,open,Concourslaan 17,9727 KC,GRONINGEN,,,,0,0,0,0,0,6682,5980,5297,2941,3992,3371,2769,2191,,,,,,,5745,6115,5273,3919,2777,3573,,,,,,,,,,,5745,6115,5273,3919,2777,3573,,,,
Netherlands,Operator Holding Account,Simadan Holding B.V.,34054994,2011-03-13,closed,Raasdorperweg 177,1175 KV,LIJNDEN,,,,0,0,0,0,0,,,,,,,,,,,,,,,648,485,,,,,,,,,,,,,,,648,485,,,,,,,,
Netherlands,Operator Holding Account,PGI Nonwovens B.V.,16020978,2012-02-22,open,Lange Oijen 16,5433 NG,Katwijk NB,,,,0,0,0,0,0,8366,8220,8073,7925,7775,7623,7470,7316,,,,,,,,8190,9243,9794,10300,10233,,,,,,,,,,,,8190,9243,9794,10300,10233,,,,
Netherlands,Operator Holding Account,Enecogen V.O.F.,24396477,2011-02-04,open,Markweg 194,3198 NB,EUROPOORT ROTTERDAM,,,,0,0,0,0,0,,,,,,,,,,,,,,,422920,439010,400218,893375,907946,1309359,,,,,,,,,,,422920,439010,400218,893375,907946,1309359,,,,
Netherlands,Operator Holding Account,AKZO Nobel Chemicals B.V.,31038214,2005-01-01,closed,Stationsstraat 77,3811 MH,AMERSFOORT,33911,33911,33912,29886,29886,29886,29886,29885,,,,,,,,,28818,26430,25317,24243,25410,25185,8619,0,,,,,,,,,28818,26430,25317,24243,25410,25185,8619,,,,,,,,,
Netherlands,Operator Holding Account,Ennatuurlijk B.V.,58955720,2005-01-01,open,De Maas 8,5684 PL,Best,2801,2801,2801,3218,3218,3218,3217,3217,1298,0,0,0,0,0,0,0,1226,3618,3932,6920,5596,10836,169,1437,534,77,51,16,,,,,1226,3618,3932,6920,5596,10836,169,1437,534,77,51,16,,,,
Netherlands,Operator Holding Account,RWE Generation NL B.V.,66390575,2005-01-01,closed,Amerweg 1,4931 NC,Geertruidenberg,21214,21214,21213,54411,54411,54411,54410,54410,,,,,,,,,261,213,290,196,293,170,16,198,,,,,,,,,261,213,290,196,293,170,16,198,,,,,,,,
Netherlands,Operator Holding Account,Ennatuurlijk B.V.,58955720,2005-01-01,open,De Maas 8,5684 PL,Best,1429,1429,1430,7325,7324,7324,7324,7324,3888,3131,646,1062,1829,1545,1269,1004,5722,4588,3315,6758,2310,5212,6479,3827,3739,600,0,0,,,,,5722,4588,3315,6758,2310,5212,6479,3827,3739,600,,,,,,
Netherlands,Operator Holding Account,Ennatuurlijk B.V.,58955720,2005-01-01,open,De Maas 8,5684 PL,Best,0,0,0,1271,1271,1270,1270,1270,765,685,607,0,0,0,0,0,1248,1102,499,897,994,2257,1185,1005,1038,631,66,207,,,,,1248,1102,499,897,994,2257,1185,1005,1038,631,66,207,,,,
Netherlands,Operator Holding Account,RWE Generation NL B.V.,66390575,2005-01-01,open,Amerweg 1,4931 NC,Geertruidenberg,88415,88415,88415,76936,76936,76936,76935,76935,,,,,,,,,71248,22202,20615,18327,35719,38507,18584,0,2,3,3,0,,,,,71248,22202,20615,18327,35719,38507,18584,,2,3,3,,,,,
Netherlands,Operator Holding Account,RWE Generation NL B.V.,66390575,2005-01-01,open,Amerweg 1,4931 NC,Geertruidenberg,90855,90855,90854,78945,78945,78945,78944,78944,,,,,,,,,76861,71949,19561,18586,47733,72121,57032,6142,0,0,0,0,,,,,76861,71949,19561,18586,47733,72121,57032,6142,,,,,,,,
Netherlands,Operator Holding Account,Ennatuurlijk B.V.,58955720,2005-01-01,open,De Maas 8,5684 PL,Best,97012,97012,97012,76710,76710,76710,76709,76709,21250,19017,16848,14746,6355,5371,4418,3499,73460,66485,78188,76139,98500,101558,86732,42514,22667,16519,16192,6849,,,,,73460,66485,78188,76139,98500,101558,86732,42514,22667,16519,16192,6849,,,,
Netherlands,Operator Holding Account,Ennatuurlijk B.V.,58955720,2005-01-01,open,De Maas 8,5684 PL,Best,141353,141353,141353,134114,134113,134113,134113,134113,7475,6689,0,0,0,0,0,0,119421,109459,93376,110308,144539,156242,105102,30369,22706,432,569,82,,,,,119421,109459,93376,110308,144539,156242,105102,30369,22706,432,569,82,,,,
Netherlands,Operator Holding Account,RWE Generation NL B.V.,66390575,2005-01-01,open,Amerweg 1,4931 NC,Geertruidenberg,100540,100540,100539,92921,92920,92920,92920,92920,,,,,,,,,40295,54884,62218,58561,78942,41056,68676,7829,0,0,0,0,,,,,40295,54884,62218,58561,78942,41056,68676,7829,,,,,,,,
Netherlands,Operator Holding Account,Ennatuurlijk B.V.,58955720,2005-01-01,open,De Maas 8,5684 PL,Best,108355,108355,108354,101547,101547,101546,101546,101546,25322,22661,20075,17571,15146,12799,10529,8339,98779,103230,105669,99390,126853,124830,80000,65234,64583,51199,54322,58729,,,,,98779,103230,105669,99390,126853,124830,80000,65234,64583,51199,54322,58729,,,,
Netherlands,Operator Holding Account,RWE Generation NL B.V.,66390575,2005-01-01,closed,Amerweg 1,4931 NC,Geertruidenberg,9564,9564,9564,6448,6448,6448,0,0,,,,,,,,,3064,2642,1934,0,0,,Not Reported,,,,,,,,,,3064,2642,1934,,,,,,,,,,,,,
Netherlands,Operator Holding Account,RWE Generation NL B.V.,66390575,2005-01-01,open,Amerweg 1,4931 NC,Geertruidenberg,99297,99297,99296,89597,89597,89597,89596,89596,,,,,,,,,41907,44110,55217,55115,80645,59112,64353,126,0,0,0,0,,,,,41907,44110,55217,55115,80645,59112,64353,126,,,,,,,,
Netherlands,Operator Holding Account,RWE Generation NL B.V.,66390575,2005-01-01,open,Amerweg 1,4931 NC,Geertruidenberg,598115,598115,598115,577930,577930,577930,577930,577930,,,,,,,,,647830,525388,590360,666234,564408,685320,655343,588904,586857,430506,627884,729983,,,,,647830,525388,590360,666234,564408,685320,655343,588904,586857,430506,627884,729983,,,,
Netherlands,Operator Holding Account,RWE Generation NL B.V.,66390575,2005-01-01,open,Amerweg 1,4931 NC,Geertruidenberg,6941204,6941204,6941203,4999240,5018592,5008916,5008916,5008916,254167,216780,182589,152255,131239,110906,91229,72259,5828901,5398314,5193887,4348652,5760411,5284701,3839941,5750603,5881587,6389014,5669492,3520986,,,,,5828901,5398314,5193887,4348652,5760411,5284701,3839941,5750603,5881587,6389014,5669492,3520986,,,,
Netherlands,Operator Holding Account,RWE Generation NL B.V.,66390575,2005-01-01,open,Amerweg 1,4931 NC,Geertruidenberg,980550,980550,980550,1035837,1035837,1035837,1035836,1035836,,,,,,,,,1261844,1434684,1715051,1727215,988065,568134,514054,618433,713739,229082,13,14,,,,,1261844,1434684,1715051,1727215,988065,568134,514054,618433,713739,229082,13,14,,,,
Netherlands,Operator Holding Account,RWE Generation NL B.V.,66390575,2005-01-01,closed,Amerweg 1,4931 NC,Geertruidenberg,76086,76086,76087,72259,72258,72258,72258,72258,,,,,,,,,85749,96953,126222,92028,111364,31660,0,0,,,,,,,,,85749,96953,126222,92028,111364,31660,,,,,,,,,,
Netherlands,Operator Holding Account,Ennatuurlijk B.V.,58955720,2005-01-01,open,De Maas 8,5684 PL,Best,1153,1153,1154,4706,4706,4705,4705,4705,1684,1355,0,956,824,695,572,452,2609,1715,1855,3794,503,2474,4021,1188,1508,205,97,0,,,,,2609,1715,1855,3794,503,2474,4021,1188,1508,205,97,,,,,
Netherlands,Operator Holding Account,Rijnmond Energie C.V.,24328513,2005-01-01,open,Beursplein 37,3011 AA,Rotterdam,1991998,1991998,1991997,1574063,1574062,1574062,1574062,1574062,20001,4913,0,0,0,0,0,0,1945059,1914436,1892337,1561225,1881450,1775912,1838484,954208,208067,391437,24418,0,,,,,1945059,1914436,1892337,1561225,1881450,1775912,1838484,954208,208067,391437,24418,,,,,
Netherlands,Operator Holding Account,MaasStroom Energie C.V.,24421354,2009-08-22,open,Beursplein 37,3011 AA,ROTTERDAM,,,,0,0,0,1494241,966002,,,,,,,,,,,,,84,639568,598030,269729,241515,190721,157574,61088,,,,,,,,,84,639568,598030,269729,241515,190721,157574,61088,,,,
Netherlands,Operator Holding Account,Odfjell Terminals (Rotterdam) B.V.,24298282,2005-01-01,open,Oude Maasweg 6,3197 KJ,Botlek Rotterdam,29502,29502,29503,16542,16542,16542,16542,16541,11180,10005,4431,7753,6680,5640,4635,3666,29401,30289,26783,16912,12689,13052,12725,10926,9337,7466,10407,16680,,,,,29401,30289,26783,16912,12689,13052,12725,10926,9337,7466,10407,16680,,,,
Netherlands,Operator Holding Account,ENCI B.V.,14602233,2008-12-04,open,Lage Kanaaldijk 115,6212 NA,MAASTRICHT,31782,31782,31781,29222,29222,29221,29221,29221,14524,14271,14016,13758,13498,13234,12968,12700,23174,21070,22233,24444,15351,12042,10712,8606,8859,8473,11439,15258,,,,,23174,42140,1163,24444,15351,24084,,7276,8859,8473,11439,15258,,,,
Netherlands,Operator Holding Account,ENCI B.V.,14602233,2008-12-18,open,Lage Kanaaldijk 115,6212 NA,MAASTRICHT,781469,781469,781470,715918,715918,715918,715918,715918,598225,587834,577321,566699,555962,545121,534144,523130,621084,563023,614684,615743,601070,527892,513492,468180,419461,443696,402875,383333,,,,,621084,563023,614684,615743,601070,527892,513492,468180,419461,443696,402875,383333,,,,
Netherlands,Operator Holding Account,ENGIE Energie Nederland N.V.,05043978,2005-01-01,closed,Grote Voort 291,8041 BL,Zwolle,181319,181319,181319,192696,192695,192695,192695,192695,,,,,,,,,377046,372617,399786,444431,393320,302214,60847,1658,2047,761,971,99,,,,,377046,372617,399786,444431,393320,302214,60847,1658,2047,761,971,99,,,,
Netherlands,Operator Holding Account,ENGIE Energie Nederland N.V.,05043978,2005-01-01,open,Grote Voort 291,8041 BL,Zwolle,643757,643757,643757,601303,601303,601303,601303,601302,,,,,,,,,1020491,488772,812642,867573,970729,585221,76281,8354,2062,3624,2342,5607,,,,,1020491,488772,812642,867573,970729,585221,76281,8354,2062,3624,2342,5607,,,,
Netherlands,Operator Holding Account,ENGIE Energie Nederland N.V.,05043978,2005-01-01,closed,Grote Voort 291,8041 BL,Zwolle,2246370,2246370,2246371,2022227,2022226,2022226,2022226,2022226,,,,,,,,,2331263,3399099,3128599,3258714,2381845,2223750,2076834,2318936,2722750,2792385,2885312,624,,,,,2331263,3399099,3128599,3258714,2381845,2223750,2076834,2318936,2722750,2792385,2885312,624,,,,
Netherlands,Operator Holding Account,ENGIE Energie Nederland N.V.,05043978,2005-01-01,open,Grote Voort 291,8041 BL,Zwolle,4315141,4315141,4315140,3300670,3300669,3300669,3300669,3300669,,,,,,,,,4009481,4528617,4462507,4323307,5335129,4763424,3288867,1409289,1623948,1928255,1583206,2208214,,,,,4009481,4528617,4462507,4323307,5335129,4763424,3288867,1409289,1623948,1928255,1583206,2208214,,,,
Netherlands,Operator Holding Account,ENGIE Energie Nederland N.V.,05043978,2005-01-01,open,Grote Voort 291,8041 BL,Zwolle,0,24245,24245,19195,19195,19194,2658855,1881072,,,,,,,,,35370,36951,32420,39200,62091,1052853,1906613,1726551,1418476,1376803,1233567,1346260,,,,,35370,36951,32420,39200,62091,748596,2210870,1726551,1418476,1376803,1233567,1346260,,,,
Netherlands,Operator Holding Account,Nuon Power Generation B.V.,30084656,2005-01-01,open,Hoekenrode 8,1102 BR,Amsterdam,338765,338765,338764,311109,311109,311109,311108,311108,135253,7599,6732,11784,10158,8584,7061,5593,356754,366503,327128,346654,375104,364134,294175,114755,45242,9733,11175,12564,,,,,356754,366503,327128,346654,375104,364134,294175,114755,45242,9733,11175,12564,,,,
Netherlands,Operator Holding Account,Nuon Power Generation B.V.,30084656,2005-01-01,open,Hoekenrode 8,1102 BR,Amsterdam,0,0,0,911,911,83244,81515,81515,3738,836,0,0,1117,943,775,613,88,3,1612,287,3994,6191,4259,9116,1082,421,570,1375,,,,,88,3,1612,287,3994,6191,4259,9116,1082,421,570,1375,,,,
Netherlands,Operator Holding Account,Total E&p Deep Offshore Borneo B.V.,27157042,2005-01-01,closed,Postbus 93280,2509 AG,'S-GRAVENHAGE,58675,58675,58675,,,,,,,,,,,,,,57348,51543,56758,,Not Reported,Not Reported,,,,,,,,,,,57348,51543,56758,,,,,,,,,,,,,
Netherlands,Operator Holding Account,Total E&p Deep Offshore Borneo B.V.,27157042,2005-01-01,closed,Postbus 93280,2509 AG,'S-GRAVENHAGE,21231,21231,21232,,,,,,,,,,,,,,22969,19702,22525,,Not Reported,Not Reported,,,,,,,,,,,22969,19702,22525,,,,,,,,,,,,,
Netherlands,Operator Holding Account,Total E&p Deep Offshore Borneo B.V.,27157042,2005-01-01,closed,Postbus 93280,2509 AG,'S-GRAVENHAGE,133171,133171,133170,,,,,,,,,,,,,,85043,98013,97578,,Not Reported,Not Reported,,,,,,,,,,,85043,98013,97578,,,,,,,,,,,,,
Netherlands,Operator Holding Account,Total E&p Deep Offshore Borneo B.V.,27157042,2005-01-01,closed,Postbus 93280,2509 AG,'S-GRAVENHAGE,51245,51245,51245,,,,,,,,,,,,,,41689,51766,52470,,Not Reported,Not Reported,,,,,,,,,,,41689,51766,52470,,,,,,,,,,,,,
Netherlands,Operator Holding Account,FrieslandCampina Nederland B.V.,01070163,2009-04-11,open,Stationsplein 4,3818 LE,AMERSFOORT,58602,58602,58601,45593,45593,45593,45593,45592,41127,40563,26729,24607,22541,20534,18582,16694,54872,53176,54015,44933,44247,45595,44084,43167,48559,54149,53045,47986,,,,,54872,53176,54015,44933,44247,45595,44084,43167,48559,54149,53045,47986,,,,
Netherlands,Operator Holding Account,FrieslandCampina Nederland B.V.,01070163,2009-05-23,open,Stationsplein 4,3818 LE,AMERSFOORT,98370,98370,98369,83230,83230,83230,83230,83229,51194,55801,54804,53795,52776,51747,50704,49659,59335,62499,67240,57954,47650,38428,43751,57614,58401,56198,57815,59544,,,,,59335,62499,67240,57954,47650,38428,43751,57614,58401,56198,57815,59544,,,,
Netherlands,Operator Holding Account,FrieslandCampina Nederland B.V.,01070163,2009-08-22,open,Stationsplein 4,3818 LE,AMERSFOORT,34378,34378,34377,22564,22564,22564,22564,22563,38999,37871,36751,35641,34540,33449,32367,31298,38918,36804,35471,24461,25446,24964,25038,24513,42572,41914,42084,44415,,,,,38918,36804,35471,24461,25446,24964,25038,24513,42572,41914,42084,44415,,,,
Netherlands,Operator Holding Account,FrieslandCampina Nederland B.V.,01070163,2009-08-22,open,Stationsplein 4,3818 LE,AMERSFOORT,19195,19195,19194,17419,17419,17419,17418,17418,18080,19744,18754,17784,16835,15906,14996,14111,20824,23204,22588,20312,19026,18301,21209,20850,27401,29309,33879,38342,,,,,20824,23204,22588,20312,19026,18301,21209,20850,27401,29309,33879,38342,,,,
Netherlands,Operator Holding Account,FrieslandCampina Nederland B.V.,01070163,2009-05-23,open,Stationsplein 4,3818 LE,AMERSFOORT,77904,77904,77903,67952,67952,67952,67952,67952,44283,41382,38553,35803,33128,30529,28002,25554,64061,63891,62064,68603,70997,69804,71331,58033,56028,64371,53519,63818,,,,,64061,63891,62064,68603,70997,69804,71331,58033,56028,64371,53519,63818,,,,
Netherlands,Operator Holding Account,Coöperatie AVEBE U.A.,02300804,2005-01-01,open,Prins Hendrikplein 20,9641 GK,VEENDAM,105085,105085,105086,90868,90868,90868,90868,90867,63549,62443,53108,52149,51192,50235,49278,48321,101654,94231,77250,72354,79269,82579,75738,79058,75164,72620,71855,78802,,,,,101654,94231,77250,72354,79269,82579,75738,79058,75164,72620,71855,78802,,,,
Netherlands,Operator Holding Account,Coöperatie AVEBE U.A.,02300804,2005-01-01,closed,Prins Hendrikplein 20,9641 GK,VEENDAM,19274,19274,19275,14828,14828,0,0,0,,,,,,,,,5087,4516,5074,4599,448,Not Reported,Not Reported,,,,,,,,,,5087,4516,5074,4599,448,,,,,,,,,,,
Netherlands,Operator Holding Account,Coöperatie AVEBE U.A.,02300804,2005-01-01,open,Prins Hendrikplein 20,9641 GK,VEENDAM,66019,66019,66019,57107,57107,57106,57106,57106,29436,28336,27256,26199,25162,24145,23149,22175,72067,53701,32360,42286,43293,41377,25493,24302,29225,25560,23402,17279,,,,,72067,53701,32360,42286,43293,41377,25493,24302,29225,25560,23402,17279,,,,
Netherlands,Operator Holding Account,Coöperatie AVEBE U.A.,02300804,2005-01-01,open,Prins Hendrikplein 20,9641 GK,VEENDAM,181028,181028,181028,175020,175020,175020,175019,175019,94409,92766,91124,89481,87838,86195,84553,82910,172039,172118,148446,150831,135703,139667,118428,108567,117382,116471,115800,119805,,,,,172039,172118,148446,150831,135703,139667,118428,108567,117382,116471,115800,119805,,,,
Netherlands,Operator Holding Account,Sonac Burgum B.V.,59078561,2005-01-01,open,Damsingel 27,9262 NB,Sumar,44553,44553,44554,35308,35308,35307,35307,35307,32414,29891,28441,26234,24087,22000,19968,18004,14269,11102,5213,13801,8666,37396,49407,41072,41412,10671,13525,23162,,,,,14269,11102,5213,13801,8666,37396,49407,41072,41412,10671,13525,23162,,,,
Netherlands,Operator Holding Account,Rendac Son B.V.,17066640,2005-01-01,open,Kanaaldijk Noord 20,5691 NM,SON EN BREUGEL,37646,37646,37645,37691,37690,37690,37690,37690,29738,27204,25327,23037,20813,18652,16554,14529,12509,8828,9691,17193,12760,26752,40867,37736,35948,13869,24653,33887,,,,,12509,8828,9691,17193,12760,26752,40867,37736,35948,13869,24653,33887,,,,
Netherlands,Operator Holding Account,Drogerij Fribecoh B.V.,01084276,2005-01-01,closed,Oude Dalfserweg 6,8141 PL,HEINO,12955,12955,12955,,,,,,,,,,,,,,8,0,0,,Not Reported,Not Reported,,,,,,,,,,,8,,,,,,,,,,,,,,,
Netherlands,Operator Holding Account,Coöperatie Koninklijke Cosun U.A.,20028699,2005-01-01,open,Van de Reijtstraat 15,4814 NE,BREDA,106728,106728,106727,146970,146970,183736,183736,183736,102080,100307,98513,96700,94868,93018,91145,89266,98262,88936,90557,110843,130336,121993,137837,106675,102020,136101,119820,108558,,,,,98262,88936,90557,110843,130336,121993,137837,106675,102020,136101,119820,108558,,,,
Netherlands,Operator Holding Account,Coöperatie Koninklijke Cosun U.A.,20028699,2005-01-01,closed,Van de Reijtstraat 15,4814 NE,BREDA,63939,63939,63939,3106,3106,0,0,0,,,,,,,,,4090,3101,2786,1947,0,Not Reported,Not Reported,,,,,,,,,,4090,3101,2786,1947,,,,,,,,,,,,
Netherlands,Operator Holding Account,Coöperatie Koninklijke Cosun U.A.,20028699,2005-01-01,open,Van de Reijtstraat 15,4814 NE,BREDA,106142,106142,106143,129158,129157,164100,164100,164100,108573,106687,104779,102852,100903,98935,96943,94944,120629,109310,105526,128078,133387,130308,139508,118126,130735,135877,122872,101613,,,,,120629,109310,105526,128078,133387,130308,139508,118126,130735,135877,122872,101613,,,,
Netherlands,Operator Holding Account,Coöperatie Koninklijke Cosun U.A.,20028699,2005-01-01,closed,Van de Reijtstraat 15,4814 NE,BREDA,89060,89060,89061,108834,108834,0,0,0,,,,,,,,,98086,87219,76071,1338,2599,,,,,,,,,,,,98086,87219,76071,1338,2599,,,,,,,,,,,
Netherlands,Operator Holding Account,Coöperatie Koninklijke Cosun U.A.,20028699,2005-01-01,closed,Van de Reijtstraat 15,4814 NE,BREDA,72207,72207,72207,1160,1160,0,0,0,,,,,,,,,1313,681,667,713,723,Not Reported,Not Reported,,,,,,,,,,1313,681,667,713,723,,,,,,,,,,,
Netherlands,Operator Holding Account,Bavaria N.V.,17007387,2005-01-01,open,de Stater 1,5737 RV,LIESHOUT,59827,59827,59826,55076,55076,55076,55075,55075,36579,34347,32169,30051,27988,25982,24031,22138,55994,52653,54060,52938,51139,51287,49788,52705,51740,50453,50029,48779,,,,,55994,52653,54060,52938,51139,51287,49788,52705,51740,50453,50029,48779,,,,
Netherlands,Operator Holding Account,Heineken Nederland B.V.,33127977,2005-01-01,open,Burgemeester Smeetsweg 1,2382 PH,ZOETERWOUDE,18698,18698,18698,15017,15016,15016,15016,15016,21322,19082,16901,14787,12740,10757,8838,6992,11657,13939,23472,22200,17541,13215,13033,19420,18484,17748,18466,18288,,,,,11657,13939,23472,22160,17581,13215,13033,19420,18484,17748,18466,18288,,,,
Netherlands,Operator Holding Account,Heineken Nederland B.V.,33127977,2005-01-01,open,Burgemeester Smeetsweg 1,2382 PH,ZOETERWOUDE,85449,85449,85449,73534,73534,73533,73533,73533,33611,30078,26643,23310,20081,16956,13932,11022,64856,66791,65802,67614,60803,51762,48523,47267,47285,46091,45873,39259,,,,,64856,66791,65802,68367,60803,51762,48523,46514,47285,46091,45873,39259,,,,
Netherlands,Operator Holding Account,Verdinck Holding B.V.,20002639,2005-01-01,closed,Postbus 3411,4800 MG,BREDA,35612,35612,35611,33855,33855,33854,0,0,,,,,,,,,36042,36777,35323,31445,17663,4614,,,,,,,,,,,36042,36777,35323,31445,17663,4614,,,,,,,,,,
Netherlands,Operator Holding Account,Vlisco Netherlands B.V.,50751492,2005-01-01,open,Binnen Parallelweg 27,5701 PH,HELMOND,28318,28318,28319,22113,22113,22113,22112,22112,22561,22169,21773,21372,20967,20558,20145,19729,18360,17585,18392,18026,18926,21716,24036,28453,33756,31523,25309,21200,,,,,18360,17585,18392,18026,18926,21716,24036,28453,33756,31523,25309,21200,,,,
Netherlands,Operator Holding Account,Ten Cate Advanced Textiles B.V.,06063994,2005-01-01,open,G van der Muelenweg 2,7443 RE,NIJVERDAL,28169,28169,28170,20356,20356,20356,20356,20355,19195,18861,18524,18183,17839,17491,17139,16785,25716,23322,27951,18526,15157,18045,17703,14330,17821,16310,17210,17542,,,,,25716,23322,27951,18526,15157,18045,17703,14330,17821,16310,17210,17542,,,,
Netherlands,Operator Holding Account,Ten Cate Protect B.V.,06036546,2005-01-01,open,G van der Muelenweg 2,7443 RE,NIJVERDAL,11504,11504,11505,7390,7390,7390,7389,7389,7250,7123,6997,6867,6737,6606,6473,6340,13168,12387,10277,3518,1695,2141,2567,2106,5828,5158,4926,4895,,,,,13168,12387,10277,3518,1695,2141,2567,2106,5828,5828,4256,4895,,,,
Netherlands,Operator Holding Account,Van Twiller B.V.,34301547,2008-12-04,closed,Postbus 23393,1100 DW,AMSTERDAM ZUIDOOST,274426,274426,274425,252244,252244,252244,252244,252243,,,,,,,,,268225,254773,88802,3631,194,1576,1662,0,,,,,,,,,268225,254773,88802,3631,194,1576,1662,,,,,,,,,
Netherlands,Operator Holding Account,Crown Van Gelder B.V.,62250108,2005-01-01,open,Eendrachtsstraat 30,1951 AZ,VELSEN-NOORD,204514,204514,204515,147933,147933,147933,147933,147933,63824,62716,61594,60461,59315,58159,56987,55812,138420,140407,143853,143143,140193,140677,140890,141729,141965,145924,142671,141760,,,,,138420,140407,143853,143143,140193,140677,140890,141729,141965,145924,142671,141760,,,,
Netherlands,Operator Holding Account,WKC De Eendracht B.V.,01134145,2005-01-01,closed,Rooseveltlaan 50-2,1078 NK,AMSTERDAM,115693,115693,115694,76694,76694,76694,76694,76693,0,0,0,0,0,0,0,0,76060,43392,0,0,0,10,20,0,,,,,,,,,76060,43392,,,,10,20,,,,,,,,,
Netherlands,Operator Holding Account,Essity Operations Cuijk B.V.,33137904,2005-01-01,open,Lange Linden 22,5433 NC,KATWIJK NB,22994,22994,22993,19011,19011,19011,19011,19010,19080,18748,18413,18074,17732,17386,17036,16685,18201,18304,17765,19377,18691,19835,19816,20241,20332,18140,19546,19890,,,,,18201,18304,17765,19377,18691,19835,19816,20241,20332,18140,19546,19890,,,,
Netherlands,Operator Holding Account,Solidus Solutions Board B.V.,02031366,2009-01-01,open,Hoofdstraat 34,9693 AH,Bad Nieuweschans,27842,27842,27842,24516,24515,24515,24515,24515,17014,16719,16420,16118,15812,15504,15192,14878,24802,25513,26127,23434,19937,24159,23661,22920,18176,23607,24299,24702,,,,,24802,25513,26127,23434,19937,24159,23661,22920,18176,23607,24299,24702,,,,
Netherlands,Operator Holding Account,Smurfit Kappa Solid Board,02300918,2009-01-22,closed,Postbus 5,9693 ZG,BAD NIEUWESCHANS,15321,15321,15320,14406,14406,14406,0,0,,,,,,,,,15169,13045,1460,170,93,,,,,,,,,,,,15169,13045,1460,170,93,,,,,,,,,,,
Netherlands,Operator Holding Account,Eska B.V.,02037748,2005-01-01,open,Noorderstraat 394,9611 AW,SAPPEMEER,38662,38662,38661,34893,34893,34893,34892,34892,39415,38731,38038,37338,36631,35916,35193,34467,35414,31484,37819,37366,29822,30608,31481,28193,29477,30309,32845,32173,,,,,35414,31484,37819,37366,29822,30608,31481,28193,29477,30309,32845,32173,,,,
Netherlands,Operator Holding Account,Eska B.V.,02037748,2005-01-01,open,Noorderstraat 394,9611 AW,SAPPEMEER,81060,81060,81060,74342,74342,74341,74341,74341,50431,49555,48669,47773,46868,45954,45029,44100,78176,71157,67986,66126,59862,63420,61111,61615,62948,59459,59566,59802,,,,,78176,,139143,66126,59862,63420,61111,61615,62948,59459,59566,59802,,,,
Netherlands,Operator Holding Account,Smurfit Kappa Roermond Papier B.V.,13027128,2005-01-01,open,Mijnheerkensweg 18,6041 TA,ROERMOND,167214,167214,167214,158825,158825,158825,158825,158824,143756,141145,138509,135850,133169,130466,127736,125000,157222,155265,154198,152546,149975,161839,157890,160265,162738,161698,162672,152862,,,,,157222,155265,154198,152546,149975,161839,157890,160265,162738,161698,162672,152862,,,,
Netherlands,Operator Holding Account,Solidus Solutions Board B.V.,02031366,2009-01-22,open,Hoofdstraat 34,9693 AH,Bad Nieuweschans,27685,27685,27686,23195,23195,23195,23195,23194,16416,16130,15842,15551,15256,14958,14657,14355,25090,23195,24393,22959,23577,24905,20305,19225,16187,20060,21942,20345,,,,,25090,23195,24393,22959,23577,24905,20305,19225,16187,20060,21942,20345,,,,
Netherlands,Operator Holding Account,Solidus Solutions Board B.V.,02031366,2005-01-01,open,Hoofdstraat 34,9693 AH,Bad Nieuweschans,44812,44812,44812,38090,38090,38090,38089,38089,33290,32712,32127,31536,30938,30335,29724,29111,38398,34220,39697,31985,29258,40287,38987,36372,35450,34600,37398,40862,,,,,38398,34220,39697,31985,29258,40287,38987,36372,35450,34600,37398,40862,,,,
Netherlands,Operator Holding Account,Mayr-Melnhof Eerbeek B.V.,08038270,2005-01-01,open,Coldenhovenseweg 12,6961 ED,EERBEEK,78060,78060,78061,70733,70733,70733,70732,70732,35278,34665,34045,33418,32785,32146,31499,30849,54627,45990,56838,53134,51312,65152,58615,59675,65855,64203,67645,67986,,,,,54627,45990,56838,53134,51312,65152,58615,59675,65855,64203,67645,67986,,,,
Netherlands,Operator Holding Account,Marsna Paper B.V.,63085100,2005-01-01,open,Weert 78,6231 SB,Meerssen,20120,20120,20121,17681,17680,17680,17680,17680,4850,4766,4681,2298,2254,2210,2166,2121,15312,12686,10572,3349,3368,5021,4267,4656,4560,4679,2692,3370,,,,,15312,12686,10572,3349,3368,5021,4267,4656,4560,4679,2692,3370,,,,
Netherlands,Operator Holding Account,Favini Apeldoorn B.V.,08001398,2005-01-01,closed,Postbus 1750,6201 BT,MAASTRICHT,30899,30899,30899,19775,19775,0,0,0,,,,,,,,,26347,24369,23823,205,0,Not Reported,Not Reported,,,,,,,,,,26347,24369,23823,205,,,,,,,,,,,,
Netherlands,Operator Holding Account,Papierfabriek Doetinchem B.V.,09014978,2008-12-11,open,Terborgseweg 52,7005 BB,DOETINCHEM,33908,33908,33909,31776,31776,31776,31775,31775,28449,27954,27454,26949,26439,25923,25401,24877,31513,30632,30685,32338,30073,31173,29490,30861,30743,20729,20150,21320,,,,,31513,30632,30685,32338,30073,31173,29490,30861,30743,20729,20150,21320,,,,
Netherlands,Operator Holding Account,Parenco B.V.,09042723,2005-01-01,open,Veerweg 1,6871 AV,RENKUM,223834,223834,223835,235896,235896,235896,235896,235895,130291,128028,125738,123425,121086,118725,116334,113935,210122,211897,202912,199764,147589,175585,168265,161547,75962,34030,18800,39721,,,,,210122,211897,202912,199764,147589,175585,168265,161547,75962,34030,18800,39721,,,,
Netherlands,Operator Holding Account,Sappi Maastricht B.V.,14631722,2005-01-01,open,Biesenweg 16,6211 AA,MAASTRICHT,291515,291515,291514,254902,254902,254902,254902,254901,83177,81068,78964,76871,74787,72711,70643,68595,236706,245634,241403,248989,187721,208816,187989,193057,158897,147627,151260,152734,,,,,236706,245634,241403,248989,187721,208816,187989,193057,158897,147627,151260,152734,,,,
Netherlands,Operator Holding Account,Stichting Taqa Long Term Incentive Plan,27305268,2005-01-01,closed,Bezuidenhoutseweg,2594 AW,'S-GRAVENHAGE,48105,48105,48106,,,,,,,,,,,,,,43415,41852,26869,,Not Reported,Not Reported,,,,,,,,,,,43415,41852,26869,,,,,,,,,,,,,
Netherlands,Operator Holding Account,Stichting Taqa Long Term Incentive Plan,27305268,2005-01-01,closed,Bezuidenhoutseweg,2594 AW,'S-GRAVENHAGE,98527,98527,98527,,,,,,,,,,,,,,130561,105261,114479,,Not Reported,Not Reported,,,,,,,,,,,130561,105261,114479,,,,,,,,,,,,,
Netherlands,Operator Holding Account,Wintershall Noordzee B.V.,27100034,2005-01-01,closed,Bogaardplein 47,2284 DP,RIJSWIJK ZH,37477,37477,37477,32140,32139,32139,32139,32139,,,,,,,,,21174,25798,22768,18619,8179,7015,7280,3682,,,,,,,,,21174,25798,22768,18619,8179,7015,7280,3682,,,,,,,,
Netherlands,Operator Holding Account,Wintershall Noordzee B.V.,27100034,2005-01-01,closed,Bogaardplein 47,2284 DP,RIJSWIJK ZH,51591,51591,51592,,,,,,,,,,,,,,60060,46450,48488,,Not Reported,Not Reported,,,,,,,,,,,60060,46450,48488,,,,,,,,,,,,,
Netherlands,Operator Holding Account,Wintershall Noordzee B.V.,27100034,2005-01-01,closed,Bogaardplein 47,2284 DP,RIJSWIJK ZH,31300,31300,31300,,,,,,,,,,,,,,24322,26559,32801,,Not Reported,Not Reported,,,,,,,,,,,24322,26559,32801,,,,,,,,,,,,,
Netherlands,Operator Holding Account,Vermilion Oil & Gas Netherlands B.V.,34201179,2005-01-01,closed,Postbus 71,8860 AB,HARLINGEN,47288,47288,47288,,,,,,,,,,,,,,43913,34956,28054,,Not Reported,Not Reported,,,,,,,,,,,43913,34956,28054,,,,,,,,,,,,,
Netherlands,Operator Holding Account,N.V. Nederlandse Gasunie,02029700,2005-01-01,closed,Concourslaan 17,9727 KC,GRONINGEN,49270,49269,49269,,,,,,,,,,,,,,63266,69968,27326,,Not Reported,Not Reported,,,,,,,,,,,63266,69968,27326,,,,,,,,,,,,,
Netherlands,Operator Holding Account,N.V. Nederlandse Gasunie,02029700,2005-01-01,closed,Concourslaan 17,9727 KC,GRONINGEN,91028,91027,91027,,,,,,,,,,,,,,158742,122674,56512,,Not Reported,Not Reported,,,,,,,,,,,158742,122674,56512,,,,,,,,,,,,,
Netherlands,Operator Holding Account,N.V. Nederlandse Gasunie,02029700,2005-01-01,closed,Concourslaan 17,9727 KC,GRONINGEN,32927,32927,32927,,,,,,,,,,,,,,51512,57339,59347,,Not Reported,Not Reported,,,,,,,,,,,51512,57339,59347,,,,,,,,,,,,,
Netherlands,Operator Holding Account,Nederlandse Aardolie Maatschappij B.V.,04008869,2005-01-01,open,Schepersmaat 2,9405 TA,ASSEN,74645,74645,74646,58966,58965,58965,58965,58965,37506,36855,30068,29515,28956,28390,27820,27246,63675,53650,49033,48391,54547,55619,43765,43119,59104,45207,52326,51463,,,,,63675,53650,49033,48391,54547,55619,43765,43119,59104,45207,52326,51463,,,,
Netherlands,Operator Holding Account,ENGIE E&P Nederland B.V.,27113806,2005-01-01,open,Einsteinlaan 10,2719 EP,ZOETERMEER,78535,78535,78536,79842,79842,79842,79842,79841,0,0,0,0,0,0,0,0,86329,77620,65068,66685,54798,53818,53450,60401,56779,55538,52860,53311,,,,,86329,77620,65068,66685,54798,53818,53450,60401,56779,55538,52860,53311,,,,
Netherlands,Operator Holding Account,Nederlandse Aardolie Maatschappij B.V.,04008869,2005-01-01,closed,Schepersmaat 2,9405 TA,ASSEN,44822,44822,44822,,,,,,,,,,,,,,49242,45176,52903,,Not Reported,Not Reported,,,,,,,,,,,49242,45176,52903,,,,,,,,,,,,,
Netherlands,Operator Holding Account,Nederlandse Aardolie Maatschappij B.V.,04008869,2005-01-01,closed,Schepersmaat 2,9405 TA,ASSEN,37114,37114,37113,,,,,,,,,,,,,,32204,44849,64388,,Not Reported,Not Reported,,,,,,,,,,,32204,44849,64388,,,,,,,,,,,,,
Netherlands,Operator Holding Account,Nederlandse Aardolie Maatschappij B.V.,04008869,2005-01-01,closed,Schepersmaat 2,9405 TA,ASSEN,34612,34612,34613,,,,,,,,,,,,,,18450,16756,15111,,Not Reported,Not Reported,,,,,,,,,,,18450,16756,15111,,,,,,,,,,,,,
Netherlands,Operator Holding Account,Nederlandse Aardolie Maatschappij B.V.,04008869,2005-01-01,closed,Schepersmaat 2,9405 TA,ASSEN,14910,14910,14911,,,,,,,,,,,,,,14522,16414,13916,,Not Reported,Not Reported,,,,,,,,,,,14522,16414,13916,,,,,,,,,,,,,
Netherlands,Operator Holding Account,Nederlandse Aardolie Maatschappij B.V.,04008869,2005-01-01,closed,Schepersmaat 2,9405 TA,ASSEN,125249,125249,125248,,,,,,,,,,,,,,129880,125847,113111,,Not Reported,Not Reported,,,,,,,,,,,129880,125847,113111,,,,,,,,,,,,,
Netherlands,Operator Holding Account,Nederlandse Aardolie Maatschappij B.V.,04008869,2010-01-01,open,Schepersmaat 2,9405 TA,ASSEN,,,,0,0,0,0,0,213502,209787,206072,202357,49661,48732,47803,46874,,,,,,0,59258,154290,177001,232439,117142,45177,,,,,,,,,,,59258,154290,177001,232439,117142,45177,,,,
Netherlands,Operator Holding Account,Centrica Production Nederland B.V.,34081068,2005-01-01,closed,Polarisavenue 39 Transpolis,2132 JH,HOOFDDORP,109984,109984,109983,,,,,,,,,,,,,,91969,89528,113513,,Not Reported,Not Reported,,,,,,,,,,,91969,89528,113513,,,,,,,,,,,,,
Netherlands,Operator Holding Account,SCA Hygiene Products Tilburg B.V.,18013540,2005-01-01,closed,Arnhemse Bovenweg 120,3708 AH,ZEIST,12270,12270,12269,,,,,,,,,,,,,,9662,2534,0,,Not Reported,Not Reported,,,,,,,,,,,9662,2534,,,,,,,,,,,,,,
Netherlands,Operator Holding Account,DS Smith Packaging Netherlands B.V.,08046917,2005-01-01,open,Coldenhovenseweg 130,6961EH,EERBEEK,259160,259160,259160,238913,238913,238913,238912,238912,94612,92635,90650,88659,86663,84664,82655,80653,248033,228757,212818,226731,209171,226782,202265,203172,216334,213682,216497,187578,,,,,248033,228757,212818,226731,209171,226782,202265,203172,216334,213682,216497,187578,,,,
Netherlands,Operator Holding Account,WEPA Nederland B.V.,13029403,2005-01-01,open,Boutestraat 125,6071 JR,SWALMEN,26786,26786,26786,24951,24951,24951,24950,24950,14870,14611,14350,14086,13819,13550,13277,13003,24461,24185,23215,23474,24114,24221,24154,24304,24312,24362,23446,24446,,,,,24461,24185,23215,23474,24114,24221,24154,24304,24312,24362,23446,24446,,,,
Netherlands,Operator Holding Account,Esso Nederland B.V.,27004771,2005-01-01,open,Graaf Engelbertlaan 75,4837 DS,Breda,2493052,2493052,2493052,2322404,2322404,2322403,2322403,2322403,2166663,2129030,2090954,2052482,2013595,1974330,1934575,1894682,2246172,2118828,1972065,2312246,2348518,2199782,2376927,2288316,2022826,2236010,2330591,2105790,,,,,2246172,2118828,1972065,2312246,2348518,2199782,2376927,2288316,2022826,2236010,2330591,2105790,,,,
Netherlands,Operator Holding Account,ExxonMobil Chemical Holland B.V.,24231768,2005-01-01,open,"Botlekweg 121, HAVENNR 4060",3197 KA,BOTLEK ROTTERDAM,125397,125397,125396,31249,31249,31248,31248,31248,66483,65328,64160,62979,61786,60581,59361,58137,58440,55945,52209,27646,25256,27173,25652,31198,59024,53022,51551,59802,,,,,58440,55945,52209,27646,25256,27173,25652,31198,59024,53022,51551,59802,,,,
Netherlands,Operator Holding Account,Gunvor Petroleum Rotterdam B.V.,24137800,2005-01-01,open,Moezelweg 255,3198 LS,Europoort Rotterdam,600663,600663,600662,523569,523569,523568,523568,523568,455758,447842,439832,431740,423560,415301,406938,398547,528081,520084,563295,518294,526735,531079,551950,511089,427554,537602,554670,420366,,,,,528081,520084,563295,518294,526735,531079,551950,511089,427554,537602,554670,420366,,,,
Netherlands,Operator Holding Account,BP Raffinaderij Rotterdam B.V.,24178415,2005-01-01,open,d'Arcyweg 76,3198 NA,EUROPOORT ROTTERDAM,2174783,2174783,2174783,1956227,1956227,1956226,1956226,1956226,1646715,1618113,1589175,1559935,1530380,1500537,1470323,1440003,1978056,2048257,1998751,2130368,2025190,2245441,2145612,2112452,1994474,2313661,2337784,2292349,,,,,1978056,2048257,1998751,2130368,2025190,2245441,2145612,2112452,1944366,2363520,2338033,2292349,,,,
Netherlands,Operator Holding Account,SHELL Nederland Raffinaderij B.V.,24094988,2005-01-01,open,Vondelingenweg 601,3196 KK,VONDELINGENPLAAT RT,6627535,6627535,6627534,5176643,5176642,5176642,5176642,5176642,3357482,3297890,3237656,3176855,3115459,3053525,2990879,2928069,5767819,5162072,5413446,5151891,4463005,4134663,4113299,4094936,4388557,4264890,4262006,4253935,,,,,5767819,5162072,5413446,5151891,4463005,4134663,4113299,4094936,4334421,4225226,4262006,4347735,,,,
Netherlands,Operator Holding Account,Zeeland Refinery N.V.,22020666,2005-01-01,open,Luxemburgweg 1,4455 TM,NIEUWDORP ZLD,1643340,1643340,1643340,1501264,1846861,1674135,1683483,1674634,1334911,1311724,1288266,1264562,1240603,1216412,1191918,1167340,1534049,1527214,1381648,1664534,1377716,1482721,1590073,1479859,1542691,1326768,1543182,1552162,,,,,1534049,1527214,1381648,1664534,1377716,1482721,1590073,1479859,1542691,1326768,1543182,1552162,,,,
Netherlands,Operator Holding Account,VPR Energy B.V.,33298434,2005-01-01,open,K.P. van der Mandelelaan 130,3062 MB,Rotterdam,105495,105495,105496,97263,97263,97263,97263,97263,103608,101808,99988,98148,96288,94411,92510,90602,64498,93545,99087,95076,96720,104011,106580,118310,90314,72936,116083,74240,,,,,64498,93545,99087,95076,96720,104011,106580,118310,90314,72936,116083,74240,,,,
Netherlands,Operator Holding Account,Frisia Zout B.V.,01089417,2005-01-01,open,Lange Lijnbaan 15,8861 NW,HARLINGEN,154070,154070,154071,128250,128250,128249,128249,128249,0,0,0,0,0,0,0,0,128842,140205,130337,130593,106166,124246,39293,1677,508,7909,14991,2018,,,,,128842,140205,130337,130593,106166,124246,39293,1677,508,7909,14991,2018,,,,
Netherlands,Operator Holding Account,Air Products Nederland B.V.,29048443,2005-01-01,open,Boyneweg 10,3197 LK,Botlek Rotterdam,380932,380932,380933,366840,366840,366839,366839,366839,61747,60675,59590,58493,57385,56266,55133,53996,360714,331872,357603,342826,344593,384962,309548,298164,292381,282120,278414,276201,,,,,360714,331872,357603,342826,344593,384962,309548,298164,291270,282120,279525,276201,,,,
Netherlands,Operator Holding Account,Indorama Ventures Europe B.V.,58697802,2005-01-01,open,Markweg 201,3198 NB,EUROPOORT ROTTERDAM,136891,136891,136891,107861,107860,107860,107860,107860,88223,86690,85140,83573,81990,80391,78773,77148,109208,115759,111987,102492,116784,115644,117123,111548,156667,131988,120589,125023,,,,,109208,115759,111987,102492,116784,115644,117123,111548,157310,132167,120589,125023,,,,
Netherlands,Operator Holding Account,AKZO Nobel Chemicals B.V.,31038214,2005-01-01,open,Stationsstraat 77,3811 MH,AMERSFOORT,205801,205801,205802,184791,184791,184791,184790,184790,96001,94334,92647,90942,89219,87479,85718,83950,165072,166701,169386,176400,161776,169786,163799,171076,170036,130358,152201,132857,,,,,165072,166701,169386,176400,161776,169786,163799,171076,169802,130112,152681,132857,,,,
Netherlands,Operator Holding Account,AKZO Nobel Chemicals B.V.,31038214,2005-01-01,open,Stationsstraat 77,3811 MH,AMERSFOORT,457483,457483,457484,418634,418634,418634,418634,418634,258146,253654,249163,244671,240179,235687,231196,226704,426610,431505,400931,408592,400289,440133,336061,264189,267279,264257,258911,291176,,,,,426610,431505,400931,408592,400289,440133,336061,264189,267279,264257,258911,291176,,,,
Netherlands,Operator Holding Account,Chemelot Site Permit B.V.,14083045,2005-01-01,open,Koestraat 1,6167 RA,GELEEN,3475499,3475499,3475499,3246446,3956256,3559598,3559598,3517844,823629,809324,794850,780225,765443,750516,735404,720240,2829325,3064631,2979748,2557303,2966647,3174699,2816336,2928323,746865,769296,756853,730813,,,,,2829325,3064631,2979748,2557303,2966647,3174699,2816336,2928323,784865,769296,756853,730813,,,,
Netherlands,Operator Holding Account,DSM Delft Permit B.V.,51395169,2005-01-01,open,Alexander Fleminglaan 1,2613 AX,DELFT,152124,152124,152125,132516,132516,132515,132515,132515,36789,34007,31291,28650,26080,23585,21160,18817,75906,67127,65314,56944,47294,47171,50026,49967,49434,51694,52225,56886,,,,,75906,67127,65314,56944,47294,47171,50026,49967,49434,51694,52225,56886,,,,
Netherlands,Operator Holding Account,"Emerald Kalama Chemical, B.V.",34304785,2005-01-01,open,Montrealweg 15 harbour 4322,3197 KH,Botlek Rotterdam,238074,238074,238075,99390,99389,99389,99389,99389,120434,118342,116225,114087,111925,109743,107533,105316,158160,121061,108788,88315,75834,78365,70629,71854,89272,81673,65320,64767,,,,,158160,121061,108788,88315,75834,78365,70629,71854,89272,81673,65320,64767,,,,
Netherlands,Operator Holding Account,Sonneborn Refined Products B.V.,54991439,2005-01-01,open,Mainhavenweg 6,1043 AL,Amsterdam,22037,22037,22036,21161,21161,21161,21161,21160,10714,10528,10340,10149,9957,9763,9566,9369,25048,22718,23453,21334,19265,22693,22932,23802,19852,15719,19195,16184,,,,,25048,22718,24344,21334,19265,22693,22932,23802,19852,15719,19195,16184,,,,
Netherlands,Operator Holding Account,Chemours Netherlands B.V.,54013445,2005-01-01,open,Baanhoekweg 22,3313 LA,DORDRECHT,227544,227544,227543,211037,211037,211037,211036,211036,92908,91294,89662,88012,86344,84661,82956,81245,196698,199367,190990,153716,124844,145783,146952,134241,167718,129054,98311,114782,,,,,196698,199367,190990,153716,124844,145783,146952,134241,184390,141014,98311,86150,,,,
Netherlands,Operator Holding Account,Eastman Chemical Middelburg B.V.,22047104,2005-01-01,open,Herculesweg 35,4338 PL,MIDDELBURG,55833,55833,55832,22463,22463,22463,22462,22462,45993,45195,44386,43570,42744,41911,41067,40220,46732,47764,44985,25141,21021,27050,28181,24040,61051,59089,59488,68344,,,,,46732,47764,44985,25141,21021,27050,28181,24040,60793,59347,59488,68344,,,,
Netherlands,Operator Holding Account,PQ Silicas B.V.,33214819,2005-01-01,open,De Brand 24,3823 LJ,Amersfoort,34561,34561,34561,19686,19685,19685,19685,19685,35665,35046,34419,33786,33145,32499,31845,31188,36286,36282,40385,21833,17976,17848,14148,14267,26681,25707,26551,26718,,,,,36286,36282,40385,21833,17976,17849,14148,14266,26681,25707,26551,26718,,,,
Netherlands,Operator Holding Account,Lyondell Chemie Nederland B.V.,24314683,2005-01-01,closed,Delftseplein 27-E,3013 AA,Rotterdam,122001,122001,122000,,,,,,,,,,,,,,112932,98252,115271,,Not Reported,Not Reported,,,,,,,,,,,112932,98252,115271,,,,,,,,,,,,,
Netherlands,Operator Holding Account,BioMethanol Chemie Nederland B.V.,61046086,2005-01-01,closed,Oosterhorn 10,9936 HD,Farmsum,631027,631027,631026,,,,,,,,,,,,,,485300,159980,230250,,Not Reported,Not Reported,,,,,,,,,,,485300,159980,230250,,,,,,,,,,,,,
Netherlands,Operator Holding Account,NEDMAG Holding B.V.,02322491,2005-01-01,closed,Billitonweg 1,9641 KZ,VEENDAM,110195,110195,110195,,,,,,,,,,,,,,93625,95792,101793,,Not Reported,Not Reported,,,,,,,,,,,93625,95792,101793,,,,,,,,,,,,,
Netherlands,Operator Holding Account,INEOS Styrenics Netherlands B.V.,20049639,2005-01-01,closed,Postbus 3355,4800 DJ,BREDA,8289,8289,8289,,,,,,,,,,,,,,8820,9102,9517,,Not Reported,Not Reported,,,,,,,,,,,8820,9102,9517,,,,,,,,,,,,,
Netherlands,Operator Holding Account,Purac Biochem B.V.,23036930,2005-01-01,open,Arkelsedijk 46,4206 AC,Gorinchem,43098,43098,43098,40217,40216,40216,40216,40216,29966,29446,28919,28387,27849,27306,26756,26205,44945,29767,28742,23243,11957,15524,14721,15091,15556,17858,18294,18488,,,,,44945,28817,28742,24193,11957,15524,14721,15091,15556,17858,18294,18488,,,,
Netherlands,Operator Holding Account,Hexion B.V.,24294676,2005-01-01,closed,Seattleweg 17 building 4,3195 ND,Pernis Rotterdam,24210,24210,24211,,,,,,,,,,,,,,24838,26334,25208,,Not Reported,Not Reported,,,,,,,,,,,27884,26334,25208,,,,,,,,,,,,,
Netherlands,Operator Holding Account,Shin-Etsu PVC B.V.,34123402,2005-01-01,closed,Noorderweg 68-1,1221 AB,Hilversum,111023,111023,111023,,,,,,,,,,,,,,83450,79125,84578,,Not Reported,Not Reported,,,,,,,,,,,83450,79125,84578,,,,,,,,,,,,,
Netherlands,Operator Holding Account,Croda Nederland B.V.,24324849,2009-02-04,open,Buurtje 1,2802 BE,GOUDA,57460,57460,57461,51515,51515,51515,51515,51515,42924,42178,41424,40662,39892,39114,38326,37536,51295,52043,52367,47935,52032,52384,47939,50503,42582,37846,37011,35735,,,,,51295,52043,52367,47935,52032,52384,47939,50503,42582,37846,37011,35735,,,,
Netherlands,Operator Holding Account,Almatis B.V.,24253371,2005-01-01,closed,Theemsweg 30,3197 KM,BOTLEK ROTTERDAM,24027,24027,24026,,,,,,,,,,,,,,23333,24041,23302,,Not Reported,Not Reported,,,,,,,,,,,23333,24041,23302,,,,,,,,,,,,,
Netherlands,Operator Holding Account,Albemarle Catalysts Company B.V.,32073705,2005-01-01,open,Nieuwendammerkade 1- 3,1022 AB,AMSTERDAM,89735,89735,89734,13371,13371,13371,13371,13371,71323,70085,68831,67565,66285,64992,63683,62370,77807,87484,72280,13195,11736,14410,13025,14302,66057,67603,64877,61369,,,,,77807,87484,72280,13195,11736,14410,13025,14302,66057,67603,64877,61369,,,,
Netherlands,Operator Holding Account,FUJIFILM Manufacturing Europe B.V.,18025280,2005-01-01,open,Oudenstaart 1,5047 TK,TILBURG,53726,53726,53725,49697,49697,49697,49697,49697,34719,34116,33505,32889,32266,31637,31000,30360,49259,45719,48080,45554,38502,44180,50852,53047,37944,30929,35313,33141,,,,,49259,45719,48080,45554,38502,44180,50852,53047,37944,30929,35313,33141,,,,
Netherlands,Operator Holding Account,Yara Sluiskil B.V.,21001824,2005-01-01,open,Industrieweg 10,4541 HJ,SLUISKIL,1514163,1514163,1514163,212256,1584330,817582,817581,736871,626586,615703,604692,593566,582320,570965,559468,547931,1269863,1228791,1201029,550034,499421,399180,394033,431268,698597,713142,772982,730962,,,,,1269863,1228791,1201029,550034,499421,399180,394033,431268,698597,713142,772982,730962,,,,
Netherlands,Operator Holding Account,PPG Industries Chemicals B.V.,02329711,2005-01-01,closed,Postbus 181,9930 AD,DELFZIJL,68547,68547,68546,,,,,,,,,,,,,,37754,39175,38514,,Not Reported,Not Reported,,,,,,,,,,,37754,39175,38514,,,,,,,,,,,,,
Netherlands,Operator Holding Account,Diolen Industrial Fibers B.V.,09109424,2005-01-01,closed,Postbus 300,9400 AH,ASSEN,20693,20693,20694,,,,,,,,,,,,,,21952,22191,20214,,Not Reported,Not Reported,,,,,,,,,,,21952,22191,20214,,,,,,,,,,,,,
Netherlands,Operator Holding Account,O-I Manufacturing Netherlands B.V.,24202107,2005-01-01,open,Buitenhavenweg 114,3113 BE,SCHIEDAM,121009,121009,121008,107161,107160,107160,107160,107160,117137,115102,113044,110964,108862,106739,104589,102433,116088,116401,120660,121071,110878,101875,111381,99935,107068,113733,117830,112948,,,,,116088,116401,120660,121071,110878,101875,111381,99935,107068,113733,117830,112948,,,,
Netherlands,Operator Holding Account,O-I Manufacturing Netherlands B.V.,24202107,2005-01-01,open,Buitenhavenweg 114,3113 BE,SCHIEDAM,111487,111487,111488,104500,104500,104500,104499,104499,86714,85208,83684,82145,80588,79017,77426,75829,98032,96443,100206,83308,88706,90908,87612,83901,84644,88049,95135,99515,,,,,98032,96443,100206,83308,88706,90908,87612,83901,84644,88049,95135,99515,,,,
Netherlands,Operator Holding Account,O-I Manufacturing Netherlands B.V.,24202107,2005-01-01,open,Buitenhavenweg 114,3113 BE,SCHIEDAM,62736,62736,62735,64054,64054,64054,64054,64054,58617,57599,56569,55528,54476,53414,52339,51259,67619,65734,67266,63907,57867,62085,62554,61605,63209,62162,64527,64087,,,,,67619,65734,67266,63907,57867,62085,62554,61605,63209,62162,64527,64087,,,,
Netherlands,Operator Holding Account,AGC Flat Glass Nederland B.V.,11007861,2005-01-01,closed,Panovenweg 21,4004JE,TIEL,100802,100802,100802,101775,101775,101775,101775,101775,39615,0,0,0,0,0,0,0,111878,121014,122932,130417,112744,119744,118722,56568,2156,277,81,,,,,,111878,121014,122932,130417,112744,119744,118722,56568,2156,277,81,,,,,
Netherlands,Operator Holding Account,Ardagh Glass Moerdijk B.V.,33178991,2005-01-01,open,Eindsestraat 133,5105 NA,Dongen,29374,29374,29375,28811,28811,64981,60740,61299,54679,53729,52768,51797,50816,49825,48822,47815,32559,33421,35080,35957,45191,59268,65686,68054,59333,58871,59227,59512,,,,,32559,33421,35080,35957,45191,59268,65686,68054,59333,58871,59227,59512,,,,
Netherlands,Operator Holding Account,Ardagh Glass Dongen B.V.,18110358,2005-01-01,open,Eindsestraat 133,5105 NA,Dongen,94642,94642,94642,75364,75364,75363,75363,75363,92231,90629,89008,87371,85715,84044,82352,80653,89489,86296,88612,92683,92977,73266,73036,95243,93129,95437,96021,92872,,,,,89489,86296,88612,92683,92977,73266,73036,95243,93129,95437,96021,92872,,,,
Netherlands,Operator Holding Account,Minnewit B.V.,34237795,2009-05-23,closed,Postbus 23393,1100 DW,AMSTERDAM ZUIDOOST,88540,88540,88539,92547,92546,92546,92546,92546,,,,,,,,,53492,65500,23688,51111,120404,125802,82513,342,,,,,,,,,53492,65500,23688,51111,119106,125802,83811,342,,,,,,,,
Netherlands,Operator Holding Account,N.V. Nuon Energy Sourcing,09066021,2008-12-04,closed,Postbus 41920-PAC AA3113,1009 DC,AMSTERDAM,852082,852082,852081,644299,644299,644298,644298,644298,,,,,,,,,950135,1095416,1211920,1217500,1278501,1006829,895862,783106,290920,,,,,,,,950135,1095416,1211920,1217500,1278501,1006829,895862,783106,290920,,,,,,,
Netherlands,Operator Holding Account,N.V. Nuon Energy Sourcing,09066021,2005-01-01,closed,Postbus 41920-PAC AA3113,1009 DC,AMSTERDAM,130569,130569,130569,,,,,,,,,,,,,,24047,0,0,,Not Reported,Not Reported,,,,,,,,,,,24047,,,,,,,,,,,,,,,
Netherlands,Operator Holding Account,Nuon Power Generation B.V.,30084656,2005-01-01,open,Hoekenrode 8,1102 BR,Amsterdam,622348,622348,622348,505809,505809,505809,505809,505809,87222,78055,69149,60524,52170,44087,36266,28724,518615,574631,571441,612148,613819,668278,520924,651328,1043709,1061649,944331,983910,,,,,518615,574631,573705,614611,613819,668278,520924,648865,1043709,1061649,944331,983910,,,,
Netherlands,Operator Holding Account,Nuon Power Generation B.V.,30084656,2005-01-01,open,Hoekenrode 8,1102 BR,Amsterdam,3928748,3928748,3928749,3225743,3225743,3225743,3225743,3225743,,,,,,,,,3736445,2969486,4414744,3250218,3708312,2367013,2792315,3574605,4177886,2656850,4195699,3996099,,,,,3736445,2969486,4414744,3250218,3708312,2367013,2792315,3574605,4177886,2656850,4195699,3996099,,,,
Netherlands,Operator Holding Account,Nuon Power Generation B.V.,30084656,2005-01-01,open,Hoekenrode 8,1102 BR,Amsterdam,496060,496059,496059,418335,418335,418335,418335,418334,,,,,,,,,2185157,1680226,2439160,1989662,91931,2209458,1787100,1867643,2014494,2115650,1984210,2149598,,,,,2185157,1680226,2439160,1989662,91931,2209458,1787100,1867643,2014494,2115650,1984210,2149598,,,,
Netherlands,Operator Holding Account,Nuon Power Generation B.V.,30084656,2009-01-22,closed,Hoekenrode 8,1102 BR,Amsterdam,173972,173972,173972,159691,159690,159690,159690,159690,54201,48504,0,0,0,0,0,0,148623,138992,105573,149629,120260,127906,121862,114543,107826,45206,,,,,,,148623,138992,105573,149629,120260,127906,121862,114543,107826,45206,,,,,,
Netherlands,Operator Holding Account,Eneco Warmteproductie Utrecht B.V.,62289268,2005-01-01,open,Keulsekade 181,3534 AC,Utrecht,1349869,1349869,1349869,544280,544280,544279,544279,544279,109091,97626,43244,37850,65251,55142,45359,35926,1106063,960725,1076294,391369,576529,499871,325826,288725,335280,145594,173637,231009,,,,,1106063,960725,1076294,391369,576529,499871,325826,288725,335280,145594,173637,231009,,,,
Netherlands,Operator Holding Account,Nuon Power Generation B.V.,30084656,2005-01-01,open,Hoekenrode 8,1102 BR,Amsterdam,1555512,1555512,1555511,1388349,1388348,1388348,1388348,1388348,,,,,,,,,4385439,3601780,4339506,4288479,4633490,3977741,4618543,4507735,3851617,3984095,4053148,3633608,,,,,4385439,3601780,4339506,4288479,4633490,3977741,4618543,4507735,3851617,3984095,4053148,3633608,,,,
Netherlands,Operator Holding Account,Nuon Power Generation B.V.,30084656,2011-10-12,open,Hoekenrode 8,1102 BR,Amsterdam,,,,0,0,0,0,0,,,,,,,,,,,,,,,0,1062,734257,610042,585059,1262111,,,,,,,,,,,,1062,734257,610042,585059,1262111,,,,
Netherlands,Operator Holding Account,"Electric Glass Fiber NL, B.V.",02316271,2005-01-01,open,Energieweg 3,9608 PZ,Westerbroek,58193,58193,58193,47176,47176,47176,47175,47175,40802,40093,39376,38652,37919,37180,36431,35680,46737,45060,46137,42274,25611,44277,41702,39359,38785,40810,39908,42477,,,,,46737,45060,46137,42274,25611,44277,41702,39359,38785,40810,39908,42477,,,,
Netherlands,Operator Holding Account,Veolia Industriediensten B.V.,30052862,2005-01-01,open,Postbus 2010,3430 CB,Nieuwegein,147016,147016,147015,123088,123088,123088,123088,123088,43580,41626,39712,37842,36014,34229,32484,30784,129376,124398,110865,113579,114364,141224,133240,93326,101824,64277,38722,25380,,,,,129376,124398,110865,113579,114364,141224,133240,93326,101824,64277,38722,25380,,,,
Netherlands,Operator Holding Account,Emmtec Services B.V.,04056193,2005-01-01,open,Eerste Bokslootweg 17,7821 AT,EMMEN,401573,401573,401572,283308,319976,316324,316324,335383,157483,154743,152003,149262,146522,143782,141042,138302,293247,279668,264228,244153,151480,177722,178663,169559,164964,171181,174319,167679,,,,,293247,279668,264228,244153,151480,177722,178663,169559,164964,171181,174319,167679,,,,
Netherlands,Operator Holding Account,"Elsta B.V. & Co, C.V.",22035687,2005-01-01,open,Poelendaelesingel 10,4335 JA,MIDDELBURG,2013489,2013489,2013488,1542006,1542006,1542006,1542006,1542006,,,,,,,,,1729398,1678741,1694545,1709716,1660157,1693609,1660774,1503285,1391541,1250465,1101118,1232167,,,,,1729398,1678741,1694545,1709716,1660157,1693609,1660774,1503285,1391541,1250465,1101118,1232167,,,,
Netherlands,Operator Holding Account,Delesto B.V.,02324488,2005-01-01,open,Oosterhorn 4,9936 HD,FARMSUM,2104199,2104199,2104198,1641566,1641566,1641566,1641566,1641566,154936,152240,299088,293697,288305,282913,277521,272130,1896762,1709365,1823053,1969524,1792602,1730523,1651637,863103,665494,540259,540026,585394,,,,,1896762,1709365,1823053,1969524,1792602,1730523,1651637,863103,665494,540259,540026,585394,,,,
Netherlands,Operator Holding Account,Air Liquide Nederland B.V.,17076906,2005-01-01,open,De Witbogt 1,5652 AG,EINDHOVEN,254076,254075,254075,221901,221900,221900,221900,221900,,,,,,,,,238206,228253,232043,222422,234471,205958,189806,100048,37209,8829,35335,140897,,,,,238206,228253,232043,222422,234471,205958,189806,100048,37209,8829,35335,140897,,,,
Netherlands,Operator Holding Account,Eurogen C.V.,24234864,2005-01-01,open,Vorstlaan 280,1160,BRUSSEL,572691,572690,572690,461351,461350,461350,461350,461350,42452,41713,40975,40236,39497,38759,38020,37281,490178,450853,467312,459935,405671,468348,425004,466164,520812,506907,481494,289541,,,,,490178,450853,467312,459935,405671,468348,425004,466164,520812,506907,481494,289541,,,,
Netherlands,Operator Holding Account,Eurogen C.V.,24234864,2005-01-01,closed,Vorstlaan 280,1160,BRUSSEL,61616,61615,61615,,,,,,,,,,,,,,42812,45736,46536,,Not Reported,Not Reported,,,,,,,,,,,42812,45736,46536,,,,,,,,,,,,,
Netherlands,Operator Holding Account,Eurogen C.V.,24234864,2005-01-01,closed,Vorstlaan 280,1160,BRUSSEL,0,88836,88836,,,,,,,,,,,,,,53540,60204,57272,,Not Reported,Not Reported,,,,,,,,,,,53540,60204,57272,,,,,,,,,,,,,
Netherlands,Operator Holding Account,Service Terminal Rotterdam (S.T.R.) V.O.F.,24350028,2005-01-01,closed,Torontostraat 20,3197 KN,BOTLEK ROTTERDAM,2522,2522,2521,,,,,,,,,,,,,,3504,999,0,,Not Reported,Not Reported,,,,,,,,,,,3504,999,,,,,,,,,,,,,,
Netherlands,Operator Holding Account,Universiteit Utrecht,30275924,2005-01-01,open,Heidelberglaan 8,3584 CS,UTRECHT,49242,49241,49241,58603,58603,58603,58602,58602,22468,20107,17813,15590,13439,11357,9342,7400,37795,53689,49658,53727,53947,49489,42391,40640,37285,31113,34085,35385,,,,,37795,53689,49658,53727,53947,49489,42391,40640,37285,31113,34085,35385,,,,
Netherlands,Operator Holding Account,Academisch Ziekenhuis Groningen,01169570,2005-01-01,open,Hanzeplein 1,9713 GZ,GRONINGEN,25851,25850,25850,23909,23909,23908,23908,23908,13884,12426,11006,9630,8295,7005,5755,4553,24203,23909,23805,26116,27392,28422,25194,26063,24781,20646,20939,20688,,,,,24203,23909,23805,26116,27392,28422,25194,26063,24781,20646,20939,20688,,,,
Netherlands,Operator Holding Account,Academisch Medisch Centrum,34362777,2005-01-01,open,Meibergdreef 9,1105 AZ,AMSTERDAM,52660,52660,52659,48230,48230,48229,48229,48229,20089,17979,15924,13932,12002,10135,8327,6588,51208,51253,45770,38449,38658,37930,19530,22200,41633,36620,37052,38047,,,,,51208,51253,55518,38449,38658,37930,19530,22200,41633,36620,37052,38047,,,,
Netherlands,Operator Holding Account,Stichting Katholieke Universiteit,41055629,2009-10-22,open,Geert Grooteplein-Noord 9,6525 EZ,NIJMEGEN,44962,44962,44962,32568,32568,32568,32568,32568,21472,19216,17020,14891,12829,10832,8901,7041,31461,30777,24730,25981,26898,29480,24267,24984,25137,20532,20800,20358,,,,,31461,30777,24730,25981,26898,29480,24267,24984,25137,20532,20800,20358,,,,
Netherlands,Operator Holding Account,Stichting VU,53815211,2005-01-01,open,De Boelelaan 1105,1081 HV,AMSTERDAM,33671,33670,33670,39750,39750,39750,39750,39749,15626,13983,12387,10843,9346,7898,6497,5146,45334,43138,47122,48423,49516,50337,47901,45742,39200,35175,33462,35209,,,,,45334,43138,47122,48423,49516,50337,47901,45742,39200,35175,33462,35209,,,,
Netherlands,Operator Holding Account,Saint-Gobain Construction Products Nederland B.V.,20022420,2005-01-01,open,Parallelweg 20,4878 AH,ETTEN-LEUR,49573,49573,49573,51337,51337,51337,51337,51336,46069,37832,44459,43641,42814,41979,41134,40286,58760,62350,64136,60940,50424,43309,47892,44163,42023,43848,49799,54266,,,,,58760,62350,64136,60940,50424,43309,47892,44163,42023,43848,49799,54266,,,,
Netherlands,Operator Holding Account,Rockwool B.V.,13014428,2005-01-01,open,Industrieweg 15,6045 JG,ROERMOND,154602,154602,154602,141221,175718,163929,163929,163928,140582,138141,135670,133174,130651,128103,125524,122935,154500,162744,191988,192175,150091,147109,150461,139188,120662,125766,125405,134151,,,,,154500,162744,191988,192175,150091,147109,150461,139188,120662,125766,125405,134151,,,,
Netherlands,Operator Holding Account,Steenfabriek De Rijswaard B.V.,11014483,2005-01-01,open,De Rijswaard 2,5308 LV,AALST GLD,26343,26343,26343,28648,28648,28647,28647,28647,21871,21491,21107,20719,20326,19930,19528,19126,25761,24288,25362,26264,25209,22668,26396,24816,25600,30341,27738,33864,,,,,25761,24288,25362,26264,25209,22668,26396,24816,25600,30341,27738,33864,,,,
Netherlands,Operator Holding Account,VDS Kleiwaren Beheer B.V.,13032188,2005-01-01,open,Spijksedijk 24,6917 AB,SPIJK (GLD),30982,30982,30982,31576,31576,31576,31576,31576,31812,31260,30701,30136,29565,28988,28404,27819,31431,30962,32643,35843,36649,35560,31049,32438,31028,31808,32958,34056,,,,,31431,30962,32643,35843,36649,35560,31049,32438,31028,31808,32958,34056,,,,
Netherlands,Operator Holding Account,Tata Steel IJmuiden B.V.,34040331,2005-01-01,open,Wenckebachstraat 1,1951JZ,VELSEN-NOORD,10346404,10346404,10346404,10626954,10736308,11557631,11665630,11665630,10675128,10489711,10302113,10112559,9920964,9727505,9531634,9335083,6437427,6231589,6442211,6447676,5587863,6227169,6219430,5978494,5907619,5845568,6205821,6212449,,,,,6437427,6231589,6442211,6447676,5587863,6227169,6219430,5978494,5907619,5845568,6205821,6212449,,,,
Netherlands,Operator Holding Account,Ruigenhil Vastgoed B.V.,23093134,2005-01-01,closed,Rapenburg 1,2952 AP,ALBLASSERDAM,51577,51577,51577,47388,70487,58903,58880,58857,22526,22135,21739,21339,0,0,0,0,49906,52991,53119,51505,24881,44951,52210,46639,25409,23634,21304,19269,,,,,49906,53388,52722,51505,24881,44951,52210,46639,25409,23634,21304,19269,,,,
Netherlands,Operator Holding Account,E-Max Aluminium Profielen N.V.,14094876,2005-01-01,closed,Minervastraat 1,6468 ET,KERKRADE,15743,15743,15744,,,,,,,,,,,,,,24235,18564,18209,,Not Reported,Not Reported,,,,,,,,,,,24235,18564,18209,,,,,,,,,,,,,
Netherlands,Operator Holding Account,Klesch Aluminium Delfzijl B.V.,61776637,2005-01-01,closed,Oosterhorn 20,9936 HD,Farmsum,25162,25162,25163,,,,,,,,,,,,,,24178,24960,25914,,Not Reported,Not Reported,,,,,,,,,,,24178,24960,25914,,,,,,,,,,,,,
Netherlands,Operator Holding Account,Zeeland Aluminium Company N.V.,22017302,2005-01-01,closed,Postbus 49,4380 AA,VLISSINGEN,99238,99237,99237,,,,,,,,,,,,,,78000,74000,77713,,Not Reported,Not Reported,,,,,,,,,,,78000,74000,77713,,,,,,,,,,,,,
Netherlands,Operator Holding Account,Philips Lighting B.V.,17061150,2005-01-01,closed,Mathildelaan 1,5611 BD,EINDHOVEN,24376,24376,24375,23464,23464,0,0,0,,,,,,,,,24450,25488,21946,21831,17631,3529,,,,,,,,,,,24450,25488,21946,21831,17631,3529,,,,,,,,,,
Netherlands,Operator Holding Account,Decontamination Services B.V.,14046338,2005-01-01,open,Voorstraat 67,2964 AJ,Groot-Ammers,30394,30394,30395,29514,29514,29514,29514,29513,13211,11823,10472,9163,7893,0,0,0,31963,22436,24494,21092,19584,23331,19201,20463,17306,14498,11372,6414,,,,,31963,22436,24494,21092,19584,23331,19201,20463,17165,14639,11372,6414,,,,
Netherlands,Operator Holding Account,Lamb-Weston/Meijer V.O.F.,22036226,2005-01-01,open,Stationsweg 18 A,4416 PJ,KRUININGEN,94053,94053,94052,84395,84395,84395,84395,84394,50991,62630,61521,60412,59303,58194,57085,55976,84207,83008,84532,81452,78423,79486,83310,80974,79596,83413,87503,66050,,,,,84207,83008,84532,81452,78423,79486,83310,80974,79596,83413,87503,66050,,,,
Netherlands,Operator Holding Account,"Eneco Solar, Bio & Hydro B.V.",24495269,2005-01-01,open,Marten Meesweg 5,3068 AV,ROTTERDAM,3,3,4,34995,34994,34994,34994,34994,16730,14971,13263,11609,10006,8456,6956,5510,0,17096,31562,36585,29197,38019,34586,39208,40656,35341,36575,34761,,,,,,17096,31562,36585,29197,38019,34586,39208,40656,35341,36575,34761,,,,
Netherlands,Operator Holding Account,Uniper Benelux N.V.,27028140,2005-01-01,open,Capelseweg 400,3068 AX,ROTTERDAM,131404,131404,131404,115838,115838,115838,115838,115838,46892,41964,37176,32539,28048,23702,19497,15443,116678,130933,123972,169023,150913,177944,167965,147278,147029,134422,110255,132735,,,,,116678,130933,123972,169023,150913,177944,167965,147278,147029,134422,110255,132735,,,,
Netherlands,Operator Holding Account,Uniper Benelux N.V.,27028140,2005-01-01,open,Capelseweg 400,3068 AX,ROTTERDAM,135511,135511,135510,137765,137764,137764,137764,137764,53836,48178,42681,37358,32201,27212,22384,17730,119000,126196,54039,164488,164803,184514,186256,192119,157991,145102,166509,168369,,,,,119000,126196,54039,164488,164803,184514,186256,192119,157991,145102,166509,168369,,,,
Netherlands,Operator Holding Account,Uniper Benelux N.V.,27028140,2005-01-01,open,Capelseweg 400,3068 AX,ROTTERDAM,744953,744953,744953,681053,681053,681053,681053,681052,215357,192723,170733,149438,64406,54427,44771,35462,675927,679407,660029,680570,715212,671331,607456,443383,469077,462343,316057,304729,,,,,675927,679407,660029,680570,715212,671331,607456,443383,469077,462343,316057,304729,,,,
Netherlands,Operator Holding Account,Uniper Benelux N.V.,27028140,2005-01-01,open,Capelseweg 400,3068 AX,ROTTERDAM,520204,520204,520203,449753,449753,449753,449752,449752,154889,138610,61398,463,399,337,277,219,506120,443254,339349,478838,479826,482200,427452,420213,406988,105091,2034,2439,,,,,506120,443254,339349,478838,479826,482200,427452,420213,406988,105091,2034,2439,,,,
Netherlands,Operator Holding Account,Uniper Benelux N.V.,27028140,2005-01-01,open,Capelseweg 400,3068 AX,ROTTERDAM,6166456,6166456,6166456,4868248,4868248,4868248,4868248,4868248,21068,20701,20335,19968,19602,19235,18869,18502,6324962,6189119,6108992,6694824,5907182,6680535,6486461,6651138,6677210,6089869,5895070,5950127,,,,,6324962,6189119,6108992,6694824,5907182,6680535,6486461,6651138,6677210,6089869,5895070,5950127,,,,
Netherlands,Operator Holding Account,N.V. Elektriciteits Produktiemaatschappij Zuid-Nederland EPZ,17059425,2005-01-01,closed,Zeedijk 32,4454 PM,BORSSELE,2025376,2025376,2025375,1681912,1681912,1681912,1681912,1681912,30844,0,0,0,0,0,0,0,1469051,1205182,1529596,1794362,1726873,2107372,2089834,2051070,2177074,2083960,2054544,,,,,,1469051,1205182,1529596,1794362,1726873,2107372,2089834,2051070,2177074,2083960,2054544,,,,,
Netherlands,Operator Holding Account,Dana Petroleum Netherlands B.V.,27120679,2005-01-01,open,Binckhorstlaan 410,2516 BL,'S-GRAVENHAGE,45211,45211,45210,34943,34942,34942,34942,34942,8580,4216,3106,6094,5980,5862,5744,5626,39901,32369,34525,32094,37066,37809,39846,41304,38726,43550,48208,37933,,,,,39901,32369,34525,32094,37066,37809,39846,41304,38726,43550,48208,37933,,,,
Netherlands,Operator Holding Account,ENGIE E&P Nederland B.V.,27113806,2005-01-01,closed,Einsteinlaan 10,2719 EP,ZOETERMEER,35447,35447,35447,,,,,,,,,,,,,,21039,16225,18102,,Not Reported,Not Reported,,,,,,,,,,,21039,16225,18102,,,,,,,,,,,,,
Netherlands,Operator Holding Account,ENGIE E&P Nederland B.V.,27113806,2005-01-01,open,Einsteinlaan 10,2719 EP,ZOETERMEER,39469,39469,39470,10803,10803,10803,10803,10803,31766,31214,30656,30092,29522,28946,28363,27778,30268,28921,29741,14825,15719,14392,14063,15117,33438,39985,42973,33236,,,,,30268,28921,29741,14825,15719,14392,14063,15117,33438,39985,42973,33236,,,,
Netherlands,Operator Holding Account,ENGIE E&P Nederland B.V.,27113806,2005-01-01,closed,Einsteinlaan 10,2719 EP,ZOETERMEER,90424,90424,90425,,,,,,,,,,,,,,65224,77341,85305,,Not Reported,Not Reported,,,,,,,,,,,65224,77341,85305,,,,,,,,,,,,,
Netherlands,Operator Holding Account,Coöperatieve Grasdrogerij Ruinerwold en Omstreken B.A.,04006722,2005-01-01,closed,Dokter Larijweg 81a,7961 NP,RUINERWOLD,42852,42852,42851,,,,,,,,,,,,,,41448,36775,52121,,Not Reported,Not Reported,,,,,,,,,,,41448,36775,52121,,,,,,,,,,,,,
Netherlands,Operator Holding Account,InnovioPapers,10041104,2005-01-01,closed,Ambachtsweg 2,6541 DB,NIJMEGEN,95030,95030,95029,90690,90689,90689,90689,90689,64164,63050,61922,0,0,0,0,0,86168,88437,85288,80812,72549,74205,73158,64348,68726,61407,27091,,,,,,86168,88437,85288,80812,72549,74205,73158,64348,68726,61407,27091,,,,,
Netherlands,Operator Holding Account,SABIC Innovative Plastics B.V.,20079272,2005-01-01,open,Plasticslaan 1,4612 PX,BERGEN OP ZOOM,573010,395337,484173,425433,425433,425433,425432,425432,160075,157295,154482,151639,148766,145865,142928,139981,442692,428519,394130,385369,275763,344243,310594,330795,345822,337011,254469,242452,,,,,442692,428519,394130,385369,275763,344243,310594,330795,345822,337011,254469,242452,,,,
Netherlands,Operator Holding Account,WKC Swentibold V.O.F.,14063303,2005-01-01,closed,Postbus 603,6160 MH,GELEEN,827372,827372,827372,0,0,0,0,0,,,,,,,,,784041,736411,705803,480675,Not Reported,Not Reported,,,,,,,,,,,784041,736411,705803,480675,,,,,,,,,,,,
Netherlands,Operator Holding Account,Petrogas E&P Netherlands B.V.,27114238,2005-01-01,closed,Laan van Zuid Hoorn 14,2289 DE,Rijswijk,39507,39507,39508,,,,,,,,,,,,,,39805,38591,36759,,Not Reported,Not Reported,,,,,,,,,,,39805,38591,36759,,,,,,,,,,,,,
Netherlands,Operator Holding Account,Petrogas E&P Netherlands B.V.,27114238,2005-01-01,closed,Laan van Zuid Hoorn 14,2289 DE,Rijswijk,29833,29833,29834,15510,15510,15509,15509,15509,16412,0,0,0,0,0,0,0,23495,11803,27503,11751,12625,11777,11426,11537,13236,,,,,,,,23495,11803,27503,11751,12625,11777,11426,11537,13236,,,,,,,
Netherlands,Operator Holding Account,C.G. Zuurbier & Co Rozenkwekerijen B.V.,37039120,2005-01-01,closed,Jan Glijnisweg 12,1703 RL,HEERHUGOWAARD,28524,28524,28524,18020,18019,32879,28508,28508,,,,,,,,,17729,17948,19691,20158,18692,23392,22469,4412,,,,,,,,,17729,17948,19691,20158,18692,23392,22469,4412,,,,,,,,
Netherlands,Operator Holding Account,Gebr. Gresnigt Holding B.V.,22058008,2005-01-01,open,Kreekweg 2,4421 RV,KAPELLE,46839,46839,46840,42066,42066,42066,42066,42065,25714,23012,20386,17843,15380,12997,10692,8468,43817,41268,41241,40381,36052,42020,40476,42205,36802,30260,29888,30188,,,,,43817,41268,41241,40381,36052,42020,40476,42205,36802,30260,29888,30188,,,,
Netherlands,Operator Holding Account,Archer Daniels Midland Europoort B.V.,24160592,2005-01-01,open,Elbeweg 125,3198 LC,EUROPOORT ROTTERDAM,341960,341960,341961,278007,278007,278007,278006,278006,125236,122162,123343,121119,118896,116672,114449,112225,297826,186474,188112,200232,223205,203618,197140,187683,175286,168287,156023,151672,,,,,297826,186474,188112,200232,223205,203618,197140,187683,175286,168287,156023,151672,,,,
Netherlands,Operator Holding Account,OLAM Cocoa B.V.,35002995,2005-01-01,open,Stationsstraat 76,1541 LJ,KOOG AAN DE ZAAN,60987,60987,60988,37695,37695,37694,37694,37694,21610,21235,20855,20471,20083,19692,19295,18897,29467,26834,28181,21630,20868,22016,19692,21376,24838,27442,26938,26591,,,,,29467,26834,28181,21630,20868,22016,19692,21376,24838,27442,26938,26591,,,,
Netherlands,Operator Holding Account,Cargill B.V.,33119622,2005-01-01,open,Evert van de Beekstraat 378,1118 CZ,SCHIPHOL,35267,35267,35266,32392,32392,32392,32391,32391,21857,21161,21963,21559,21150,20738,20320,19901,29658,30239,28065,31220,30564,30606,27738,23548,29380,28845,31700,29540,,,,,29658,30239,28065,31220,30564,30606,27738,23548,29380,28845,31700,29540,,,,
Netherlands,Operator Holding Account,Bunge Netherlands B.V.,66808006,2005-01-01,open,Coenhavenweg 3,1013 BK,Amsterdam,74467,74467,74467,70794,70793,70793,70793,70793,56374,55086,55429,54409,53378,52337,51284,50226,67388,70480,70642,70050,66609,69446,63312,48982,63723,56562,64984,62043,,,,,67388,70480,70642,70050,66609,69446,63312,48982,63723,56562,64984,62043,,,,
Netherlands,Operator Holding Account,Loders Croklaan B.V.,35011263,2005-01-01,open,Hogeweg 1,1521 AZ,Wormerveer,35790,35790,35790,30086,30086,30086,30086,30085,15570,13934,18782,18437,18088,17735,17378,17019,33378,32161,21322,22136,20580,21431,20451,20333,19359,18582,18572,18148,,,,,33378,32161,21322,22136,20580,21431,20451,20333,19359,18582,18572,18148,,,,
Netherlands,Operator Holding Account,IOI-Loders Croklaan Oils B.V.,34204984,2010-01-20,open,Hogeweg 1,1521 AZ,Wormerveer,,,,0,0,0,18414,10974,8342,7465,10063,9878,9691,9502,9310,9118,,,,,,8498,14891,15721,15642,14398,14407,14117,,,,,,,,,,7127,14891,17092,15642,14398,14407,14117,,,,
Netherlands,Operator Holding Account,Sime Darby Unimills B.V.,24328835,2005-01-01,open,Lindtsedijk 8,3336 LE,ZWIJNDRECHT,60397,60397,60398,51445,51445,51444,51444,51444,35302,31592,42591,41824,41056,40288,39520,38752,56725,49902,50759,52090,53050,54640,51827,53013,53378,51730,51263,50924,,,,,56725,49902,50759,52090,53050,54640,51827,53013,53378,51730,51263,50924,,,,
Netherlands,Operator Holding Account,FrieslandCampina DMV B.V.,11057386,2009-05-09,open,N.C.B.-laan 80,5462 GE,VEGHEL,158925,158925,158925,134797,134797,134797,134797,134796,84204,87041,84285,81558,78859,76190,73547,70945,136184,126214,131648,106830,108198,106169,104229,103292,125166,111283,104613,116265,,,,,136184,126214,131648,106830,108198,106169,104229,103292,125166,111283,104613,116265,,,,
Netherlands,Operator Holding Account,DOC Kaas B.V.,59262729,2005-01-01,open,Buitenvaart 4001,7905 TC,HOOGEVEEN,35612,35612,35611,31762,31761,31761,31761,31761,18959,17764,16594,15455,14344,13261,12206,11184,32100,35797,37059,35004,35298,38614,38682,41312,47139,46608,49880,45431,,,,,32100,35797,37059,35004,35298,38614,38682,41312,47139,46608,49880,45431,,,,
Netherlands,Operator Holding Account,DOC Kaas B.V.,59262729,2005-01-01,closed,Buitenvaart 4001,7905 TC,HOOGEVEEN,21812,21812,21811,,,,,,,,,,,,,,17314,18483,17272,,Not Reported,Not Reported,,,,,,,,,,,17314,18483,17272,,,,,,,,,,,,,
Netherlands,Operator Holding Account,FrieslandCampina DMV B.V.,11057386,2005-01-01,closed,N.C.B.-laan 80,5462 GE,VEGHEL,3816,3816,3815,,,,,,,,,,,,,,4873,1495,0,,Not Reported,Not Reported,,,,,,,,,,,4873,1495,,,,,,,,,,,,,,
Netherlands,Operator Holding Account,Promelca B.V.,08131136,2005-01-01,open,Timorstraat 22,4202 MA,GORINCHEM,25705,25705,25706,17792,17792,17792,17791,17791,28519,28024,27523,27016,26504,25988,25464,24939,23043,26362,26829,21773,21278,22161,22264,22904,32477,33658,38730,46529,,,,,23043,26362,26829,21773,21278,22161,22264,22904,32477,33658,38730,46529,,,,
Netherlands,Operator Holding Account,Tate & Lyle Netherlands B.V.,35014624,2005-01-01,open,Lagendijk 5,1541 KA,KOOG AAN DE ZAAN,89942,89942,89942,73040,73040,73040,73040,73040,53366,52437,51509,50580,49652,48723,47795,46866,75226,75622,79585,76276,74080,72615,72503,72981,77679,73067,71379,74075,,,,,75226,151244,3963,76276,74080,72615,72503,72981,77679,73067,71379,74075,,,,
Netherlands,Operator Holding Account,Aviko B.V.,08027672,2005-01-01,open,Dr. Alfons Ariënsstraat 28,7221 CD,Steenderen,78430,78430,78429,66155,66155,66155,66154,66154,38277,42094,39974,37904,35883,33914,31990,30119,72031,64504,63110,61320,63692,62356,62502,63673,58619,60071,64385,63569,,,,,72031,64504,63110,61320,63692,62356,62502,63673,58619,60071,64385,63569,,,,
Netherlands,Operator Holding Account,Cargill B.V.,33119622,2005-01-01,open,Evert van de Beekstraat 378,1118 CZ,SCHIPHOL,228071,228071,228070,201286,201286,201285,201285,201285,157311,154574,151837,149099,146362,143625,140888,138151,203419,216092,210093,206599,190943,179977,173818,193773,200881,184177,195185,190930,,,,,203419,216092,210093,206599,190943,179977,173818,193773,200881,184177,195185,190930,,,,
Netherlands,Operator Holding Account,Cargill B.V.,33119622,2005-01-01,open,Evert van de Beekstraat 378,1118 CZ,SCHIPHOL,72428,72428,72428,61653,61653,61653,61652,61652,59643,58607,57559,56500,55430,54349,53254,52156,62574,68232,74125,51661,50831,49254,56604,57225,5707,9348,11519,42410,,,,,62574,68232,74125,51661,50831,49254,56604,57225,5707,9348,11519,42410,,,,
Netherlands,Operator Holding Account,Farm Frites B.V.,24222801,2005-01-01,open,Molendijk 108,3227 CD,OUDENHOORN,45459,45459,45459,41727,41727,41727,41726,41726,20725,25456,25001,24541,24076,23606,23131,22654,46634,24261,21374,24832,25327,25696,25621,26650,25915,25063,26245,31985,,,,,46634,24261,21374,24832,25327,25696,25621,26650,25915,25063,26245,31985,,,,
Netherlands,Operator Holding Account,Sensus B.V.,20169318,2005-01-01,open,Borchwerf 3,4704 RG,ROOSENDAAL,22558,22558,22559,18066,18066,18066,18065,18065,18880,18552,18220,17885,17546,17204,16858,16510,20149,13845,8588,12466,16697,16877,15948,13106,13680,14109,14782,15015,,,,,20149,13845,8588,12466,16697,16877,15948,13106,13680,14109,14782,15015,,,,
Netherlands,Operator Holding Account,B.V. Oldambt,02322173,2005-01-01,closed,Langeweg 5,9682 XR,OOSTWOLD GEM OLDAMBT,46627,46627,46627,,,,,,,,,,,,,,48838,38537,31233,,Not Reported,Not Reported,,,,,,,,,,,48838,38537,31233,,,,,,,,,,,,,
Netherlands,Operator Holding Account,J.G. Timmerman Groenvoederdrogerij B.V.,22018968,2005-01-01,closed,Kortgeenseweg 3,4484 NM,KORTGENE,38447,38447,38446,,,,,,,,,,,,,,39436,33817,35014,,Not Reported,Not Reported,,,,,,,,,,,39436,33817,35014,,,,,,,,,,,,,
Netherlands,Operator Holding Account,Helpdesk Organisatie Testhandel,27377700,2005-03-21,closed,Willem Witsenplein 6,2500 GX,DEN HAAG,,,,,,,,,,,,,,,,,0,,,,Not Reported,Not Reported,,,,,,,,,,,,,,,,,,,,,,,,,,
Netherlands,Operator Holding Account,OCI Terminal Europoort B.V.,24330420,2006-01-19,closed,Wolgaweg 31-Havennr.5623,3198 LR,EUROPOORT ROTTERDAM,,,,,,,,,,,,,,,,,0,0,0,,Not Reported,Not Reported,,,,,,,,,,,,,,,,,,,,,,,,,,
Netherlands,Operator Holding Account,Cargill B.V.,33119622,2006-02-18,open,Evert van de Beekstraat 378,1118 CZ,SCHIPHOL,,,,29969,29968,29968,29968,29968,20580,18417,24825,24368,23907,23441,22969,22495,0,23378,26967,26065,26330,25762,24055,25030,26732,25225,25438,25259,,,,,,23378,26967,26065,26330,25762,24055,25030,26732,25225,25438,25259,,,,
Netherlands,Operator Holding Account,Dana Petroleum Netherlands B.V.,27120679,2007-03-03,open,Binckhorstlaan 410,2516 BL,'S-GRAVENHAGE,,,,65913,65913,65913,65913,65913,23765,12082,6331,6214,6097,5978,5858,5736,,5864,29383,33073,28887,28313,29394,36741,37122,31724,27926,24741,,,,,,5864,29383,33073,28887,28313,29394,36741,37122,31724,27926,24741,,,,
Netherlands,Operator Holding Account,Harting Holland B.V.,27183760,2007-04-07,open,Zijtwende 28,2678 LJ,DE LIER,,,,32025,56259,44142,44142,44141,20458,18308,16218,14196,12237,10341,8506,6738,,28251,28072,40574,32697,40172,37294,36273,24168,21159,8167,8791,,,,,,28251,28072,40574,32697,40172,37294,36273,24168,21159,8167,8791,,,,
Netherlands,Operator Holding Account,Royal Pride Holland B.V.,18082234,2007-12-08,open,Wagenpad 12,1775 RJ,MIDDENMEER,,,,40418,106638,76508,76508,76507,31213,27932,24745,21659,18669,15777,12978,10279,,,33319,64596,63496,73206,65361,66734,74262,59957,59723,67237,,,,,,,33319,64596,63496,73206,65361,66734,74262,59957,59723,67237,,,,
Netherlands,Operator Holding Account,Pergen V.O.F.,24365735,2007-11-07,open,Weena 312,3012 NJ,ROTTERDAM,,,,0,2234520,1622263,1622263,1622263,11525,10539,9581,8651,7748,6873,6026,5207,,,0,580765,1312118,1374820,1315921,1270288,1292130,1194646,1231672,1228840,,,,,,,,580765,1312118,1374820,1315921,1270288,1292130,1194646,1231672,1228840,,,,
Netherlands,Operator Holding Account,Lans Zeeland B.V.,27257269,2008-01-01,closed,Maasambacht 2-B,2676 CW,MAASDIJK,,,,20597,20597,20596,20596,20596,,,,,,,,,,,,21640,21874,23803,21465,21465,,,,,,,,,,,,21640,21874,23803,21465,21465,,,,,,,,
Netherlands,Operator Holding Account,C.J.W. van der Lans Beheer B.V.,27231494,2008-01-01,closed,Maasambacht 2-B,2676 CW,MAASDIJK,,,,19478,19478,19478,19477,19477,,,,,,,,,,,,17898,17575,20360,18249,17174,,,,,,,,,,,,17898,17575,20360,18249,17174,,,,,,,,
Netherlands,Operator Holding Account,C.J.W. van der Lans Beheer B.V.,27231494,2008-01-01,closed,Maasambacht 2-B,2676 CW,MAASDIJK,,,,13223,13222,13222,13222,13222,,,,,,,,,,,,12949,12547,14261,13543,12198,,,,,,,,,,,,12949,12547,14261,13543,12198,,,,,,,,
Netherlands,Operator Holding Account,C.J.W. van der Lans Beheer B.V.,27231494,2008-01-01,closed,Maasambacht 2-B,2676 CW,MAASDIJK,,,,0,30742,15371,15371,15371,,,,,,,,,,,,15267,13843,15298,12945,13283,,,,,,,,,,,,15267,13843,15298,12945,13283,,,,,,,,
Netherlands,Operator Holding Account,Kleiwarenfabriek Facade B.V.,14038144,2008-01-01,open,Stationstraat 106,6191 BG,Beek,,,,7955,7955,7955,7955,7954,7082,6959,6834,6709,6581,6453,6323,6193,,,,8560,7224,7611,7730,7314,7139,7029,7890,8477,,,,,,,,8560,7224,7611,7730,7314,7139,7029,7890,8477,,,,
Netherlands,Operator Holding Account,VDS Kleiwaren Beheer B.V.,13032188,2008-01-01,closed,Spijksedijk 24,6917 AB,SPIJK (GLD),,,,9738,9738,9738,9738,9737,3872,0,0,0,0,0,0,0,,,,6072,5895,4902,4670,4593,4417,,,,,,,,,,,6072,5895,4902,4670,4593,4417,,,,,,,
Netherlands,Operator Holding Account,E.ON Benelux Holding B.V.,27195689,2008-01-01,closed,Capelseweg 400,3068 AX,ROTTERDAM,,,,11598,11598,11598,11598,0,,,,,,,,,,,,8735,7426,1700,959,Not Reported,,,,,,,,,,,,8735,7426,1700,959,,,,,,,,,
Netherlands,Operator Holding Account,Uniper Benelux N.V.,27028140,2008-01-01,open,Capelseweg 400,3068 AX,ROTTERDAM,,,,18968,18968,18968,18968,18967,19458,17413,3856,3374,2906,2454,2017,1595,,,,21031,25644,21260,12610,11827,19673,6359,3051,4620,,,,,,,,21031,25644,21260,12610,11827,19673,6359,3051,4620,,,,
Netherlands,Operator Holding Account,Uniper Benelux N.V.,27028140,2008-01-01,open,Capelseweg 400,3068 AX,ROTTERDAM,,,,37,37,37,37,36,42,38,34,29,0,0,0,0,,,,187,349,124,42,42,151,647,319,0,,,,,,,,187,349,124,42,42,151,647,319,,,,,
Netherlands,Operator Holding Account,Uniper Benelux N.V.,27028140,2008-01-01,open,Capelseweg 400,3068 AX,ROTTERDAM,,,,3859,3859,3858,3858,3858,5352,4789,4242,3711,1599,1350,1109,878,,,,5630,9023,4794,5156,13910,4922,9500,6311,2434,,,,,,,,5630,9023,4794,5156,13910,9844,9500,6311,,,,,
Netherlands,Operator Holding Account,Uniper Benelux N.V.,27028140,2008-01-01,open,Capelseweg 400,3068 AX,ROTTERDAM,,,,4291,4291,4291,4291,4290,4663,4172,924,0,0,0,0,0,,,,3711,5079,7108,5312,4807,5971,1249,626,128,,,,,,,,3711,5079,7108,5312,4807,5971,1249,626,128,,,,
Netherlands,Operator Holding Account,Uniper Benelux N.V.,27028140,2008-01-01,open,Capelseweg 400,3068 AX,ROTTERDAM,,,,4144,4143,4143,4143,4143,2101,1880,1666,1457,1255,1060,871,689,,,,2075,3162,528,2455,1032,3780,1724,4550,1958,,,,,,,,2075,3162,528,2455,1032,3780,1724,4550,1958,,,,
Netherlands,Operator Holding Account,Uniper Benelux N.V.,27028140,2011-12-29,closed,Capelseweg 400,3068 AX,ROTTERDAM,,,,0,0,0,0,0,,,,,,,,,,,,,,,0,93,255714,372585,2976984,4665108,,,,,,,,,,,,93,255714,372585,2976984,4665108,,,,
Netherlands,Operator Holding Account,"Eneco Solar, Bio & Hydro B.V.",24495269,2008-01-01,open,Marten Meesweg 5,3068 AV,ROTTERDAM,,,,18760,18759,18759,18759,18759,9184,8219,7280,6369,5487,4633,3807,3011,,,,8189,11704,11075,9447,8764,10448,8169,9166,10439,,,,,,,,8189,11704,11075,9447,8764,10448,8169,9166,10439,,,,
Netherlands,Operator Holding Account,"Eneco Solar, Bio & Hydro B.V.",24495269,2008-01-01,open,Marten Meesweg 5,3068 AV,ROTTERDAM,,,,6219,6218,6218,6218,6218,3618,3238,2869,2511,2164,1829,1505,1192,,,,5404,6388,7170,6277,6130,6093,5898,6369,6122,,,,,,,,5404,6388,7170,6277,6130,6093,5898,6369,6122,,,,
Netherlands,Operator Holding Account,"Eneco Solar, Bio & Hydro B.V.",24495269,2008-01-01,open,Marten Meesweg 5,3068 AV,ROTTERDAM,,,,10444,10444,10443,10443,10443,6690,5987,5304,4642,4002,3382,2782,2203,,,,12398,13926,15546,14980,16426,17070,14618,15604,14582,,,,,,,,12398,13926,15546,14980,16426,17070,14618,15604,14582,,,,
Netherlands,Operator Holding Account,"Eneco Solar, Bio & Hydro B.V.",24495269,2008-01-01,open,Marten Meesweg 5,3068 AV,ROTTERDAM,,,,11157,11157,11156,11156,11156,5780,5172,4583,4011,3457,2922,2403,1904,,,,11119,11034,12319,10931,11506,11957,10215,10786,10820,,,,,,,,11119,11034,12319,10931,11506,11957,10215,10786,10820,,,,
Netherlands,Operator Holding Account,"Eneco Solar, Bio & Hydro B.V.",24495269,2008-01-01,open,Marten Meesweg 5,3068 AV,ROTTERDAM,,,,9673,9673,9673,9672,9672,4618,4132,3661,3205,2762,2334,1920,1521,,,,6233,7189,9591,8776,9520,9790,8857,9589,9557,,,,,,,,6233,7189,9591,8776,9520,9790,8857,9589,9557,,,,
Netherlands,Operator Holding Account,"Eneco Solar, Bio & Hydro B.V.",24495269,2008-01-01,open,Marten Meesweg 5,3068 AV,ROTTERDAM,,,,8351,8351,8350,8350,8350,4457,3988,3534,3093,2666,2252,1853,1467,,,,8238,8453,9462,8958,9689,9910,8265,9043,8796,,,,,,,,8238,8453,9462,8958,9689,9910,8265,9043,8796,,,,
Netherlands,Operator Holding Account,Firma P.C.M. Van Vliet en Zn.,27219548,2008-01-01,open,Oranjepolderweg 15,2676 CL,MAASDIJK,,,,16892,47076,31983,31983,31983,16113,14420,12774,11181,9638,8144,6699,5306,,,,34093,31535,34919,33374,33974,32099,29107,30554,31670,,,,,,,,34093,31535,34919,33374,33974,32099,29107,30554,31670,,,,
Netherlands,Operator Holding Account,Firma P.C.M. Van Vliet en Zn.,27219548,2008-01-01,open,Oranjepolderweg 15,2676 CL,MAASDIJK,,,,23582,23582,23582,23582,23581,12649,11320,10027,8778,7566,6394,5259,4165,,,,25939,25596,29216,26061,27383,26018,23597,26543,24086,,,,,,,,25939,25596,29216,26061,27383,26018,23597,26543,24086,,,,
Netherlands,Operator Holding Account,FrieslandCampina Nederland B.V.,01070163,2009-10-22,closed,Stationsplein 4,3818 LE,AMERSFOORT,,,,9822,9821,9821,9821,0,,,,,,,,,,,,11758,11238,11116,6096,Not Reported,,,,,,,,,,,,11758,11238,11116,6096,,,,,,,,,
Netherlands,Operator Holding Account,FrieslandCampina Nederland B.V.,01070163,2009-12-17,closed,Stationsplein 4,3818 LE,AMERSFOORT,,,,14580,14580,14580,0,0,,,,,,,,,,,,18447,19890,21204,,,,,,,,,,,,,,18447,19890,21204,,,,,,,,,,
Netherlands,Operator Holding Account,FrieslandCampina Nederland B.V.,01070163,2009-12-17,open,Stationsplein 4,3818 LE,AMERSFOORT,,,,15225,15225,15225,15225,15224,18775,18393,17403,10873,15488,14563,13659,12780,,,,17132,18883,19766,18894,18183,23452,25571,24407,26704,,,,,,,,17132,18883,19766,18894,18183,23452,25571,24407,26704,,,,
Netherlands,Operator Holding Account,Kwekerij Graafse Bos,18055939,2008-01-01,closed,Graafsebosweg 58a,5963 NG,HEGELSOM,,,,0,35380,17690,17690,17690,0,0,0,0,0,0,0,0,,,,16901,17374,18544,14487,15968,,,,,,,,,,,,16901,17374,18544,14487,15968,,,,,,,,
Netherlands,Operator Holding Account,Kwekerij Varenschut B.V.,17102771,2008-01-01,closed,Veldbeemd 20,5705 DC,HELMOND,,,,0,16718,8359,8359,8359,0,0,0,0,0,0,0,0,,,,8726,9933,13045,11404,11385,,,,,,,,,,,,8726,9933,13045,11404,11385,,,,,,,,
Netherlands,Operator Holding Account,McCain Foods Holland B.V.,22000299,2008-01-01,open,Oranjeplaatweg 4A,4458 NM,'s-Heer Arendskerke,,,,6999,6999,6999,6999,6999,13558,16653,16355,16054,15750,15443,15132,14820,,,,11134,9772,10291,11237,21185,22559,22750,24934,26425,,,,,,,,11134,9772,10291,11237,21185,22559,22750,24934,26425,,,,
Netherlands,Operator Holding Account,McCain Foods Holland B.V.,22000299,2008-01-01,open,Oranjeplaatweg 4A,4458 NM,'s-Heer Arendskerke,,,,12129,12129,12129,12129,12128,10014,12299,12079,11857,11632,11405,11176,10945,,,,14454,14753,15780,17074,16775,17525,16854,18147,16878,,,,,,,,14454,14753,15780,17074,16775,17525,16854,18147,16878,,,,
Netherlands,Operator Holding Account,Eneco Warmteproductie Utrecht B.V.,62289268,2008-01-01,open,Keulsekade 181,3534 AC,Utrecht,,,,552484,552484,552483,552483,552483,113849,101884,90259,79001,68097,57546,47336,37493,,,,647878,616891,584098,624722,500971,494759,424705,492509,638304,,,,,,,,647878,616891,584098,624722,500971,494759,424705,492509,638304,,,,
Netherlands,Operator Holding Account,Eneco Warmteproductie Utrecht B.V.,62289268,2008-01-01,open,Keulsekade 181,3534 AC,Utrecht,,,,574,574,574,573,573,384,344,152,67,0,0,0,0,,,,111,23,1359,131,5922,401,279,166,29,,,,,,,,111,23,1359,131,5922,401,279,166,29,,,,
Netherlands,Operator Holding Account,Eneco Warmteproductie Utrecht B.V.,62289268,2008-01-01,open,Keulsekade 181,3534 AC,Utrecht,,,,846,846,846,845,845,1421,1272,1127,1971,1698,1434,1178,932,,,,630,1714,6079,511,1369,930,3081,3022,4598,,,,,,,,630,1714,6079,511,1369,930,3081,3022,4598,,,,
Netherlands,Operator Holding Account,Eneco Warmteproductie Utrecht B.V.,62289268,2009-10-22,open,Keulsekade 181,3534 AC,Utrecht,,,,2319,2319,2319,2319,2319,1853,1658,734,1285,1107,935,769,608,,,,2132,2678,2890,2008,28234,3255,1067,1701,2217,,,,,,,,2132,2678,2890,2008,28234,3255,1067,1701,2217,,,,
Netherlands,Operator Holding Account,Eneco Warmteproductie Utrecht B.V.,62289268,2008-01-01,open,Keulsekade 181,3534 AC,Utrecht,,,,514,514,514,514,514,205,733,650,568,490,413,339,269,,,,122,452,1826,235,225,1126,1768,5628,25216,,,,,,,,122,452,1826,235,225,1126,1768,5628,25216,,,,
Netherlands,Operator Holding Account,SVP Productie B.V.,59966491,2008-01-01,open,Nieuwe Gouw 20,1442 LE,Purmerend,,,,6306,6306,6305,6305,6305,14000,12530,11098,9710,8364,7063,5804,4591,,,,6059,12201,24499,8052,15077,29789,26441,27531,21387,,,,,,,,6059,12201,24499,8052,15077,29789,26441,27531,21387,,,,
Netherlands,Operator Holding Account,Nuon Power Generation B.V.,30084656,2008-01-01,open,Hoekenrode 8,1102 BR,Amsterdam,,,,686,686,686,686,686,0,444,393,0,296,250,205,162,,,,192,57,1224,654,41,515,946,10,504,,,,,,,,192,57,1224,654,41,515,946,10,504,,,,
Netherlands,Operator Holding Account,Nuon Power Generation B.V.,30084656,2008-01-01,open,Hoekenrode 8,1102 BR,Amsterdam,,,,315,315,315,315,315,0,361,320,280,241,204,168,133,,,,321,48,522,1417,25,3477,2773,1811,475,,,,,,,,321,48,522,1417,25,3477,2773,1811,475,,,,
Netherlands,Operator Holding Account,N.V. Nuon Warmte,09117658,2008-01-01,open,Hoekenrode 8,1102 BR,AMSTERDAM,,,,534,534,533,533,533,896,755,632,277,239,202,166,131,,,,1083,326,1192,323,517,1389,1406,433,290,,,,,,,,1083,326,1192,323,517,1389,1406,433,290,,,,
Netherlands,Operator Holding Account,N.V. Nuon Warmte,09117658,2009-01-22,open,Hoekenrode 8,1102 BR,AMSTERDAM,,,,0,0,0,0,0,145,66,58,101,87,73,61,48,,,,0,0,66,72,4,61,417,270,165,,,,,,,,,,66,72,4,61,417,270,165,,,,
Netherlands,Operator Holding Account,N.V. Nuon Warmte,09117658,2010-08-22,open,Hoekenrode 8,1102 BR,AMSTERDAM,,,,0,0,0,0,7811,2263,2026,1794,785,1352,1142,939,742,,,,,,3606,2241,1727,2973,1503,1187,2275,,,,,,,,,,3606,2241,1727,2973,1503,1187,2275,,,,
Netherlands,Operator Holding Account,Rodruza B.V.,10030798,2008-01-01,open,St. Canisiussingel 20,6511 TJ,NIJMEGEN,,,,15309,15309,15308,15308,15308,12429,6107,11995,11774,11551,11326,11097,10869,,,,16265,13619,13003,10388,10100,7834,12005,15563,16715,,,,,,,,16265,13619,13003,10388,10100,7834,12005,15563,16715,,,,
Netherlands,Operator Holding Account,Rodruza B.V.,10030798,2008-01-01,open,St. Canisiussingel 20,6511 TJ,NIJMEGEN,,,,26795,26795,26795,26794,26794,16334,16050,15763,15473,15180,14884,14584,14283,,,,18363,14624,10409,13917,13378,10218,11476,13483,13611,,,,,,,,18363,14624,10409,13917,13378,10218,11476,13483,13611,,,,
Netherlands,Operator Holding Account,Steenfabriek 'De Nijverheid' B.V.,09031225,2008-01-01,open,Terborgseweg 30,7045 AL,AZEWIJN,,,,19233,19233,19233,19233,19233,13192,12962,12731,12496,12260,12021,11778,11536,,,,21160,20308,17993,14911,16260,13319,15318,20172,20723,,,,,,,,21160,20308,17993,14911,16260,13319,15318,20172,20723,,,,
Netherlands,Operator Holding Account,Steenfabriek De Vlijt B.V.,09037761,2008-01-01,open,Terborgseweg 30,7045 AL,Azewijn,,,,9489,9488,9488,9488,9488,6537,6423,6308,6192,6075,5957,5837,5716,,,,8317,8559,9121,9327,8955,8560,9241,9051,8886,,,,,,,,8317,8559,9121,9327,8955,8560,9241,9051,8886,,,,
Netherlands,Operator Holding Account,Steenfabriek Engels Helden B.V.,12000934,2008-01-01,open,Steenstraat 8B,5981 AE,PANNINGEN,,,,15467,15467,15467,15466,15466,14516,14264,14009,13751,13491,13227,12961,12694,,,,16772,13270,12056,14042,12347,10661,13779,16854,18001,,,,,,,,16772,13270,12056,14042,12347,10661,13779,16854,18001,,,,
Netherlands,Operator Holding Account,Steenfabriek Engels Oeffelt B.V.,16050054,2008-01-01,open,Kruispunt 26,5441 PB,OEFFELT,,,,8233,8233,8233,8233,8232,11766,11562,11355,11146,10935,10722,10506,10289,,,,15649,10526,10814,11789,9620,10958,13626,13532,14149,,,,,,,,15649,10526,10814,11789,9620,10958,13626,13532,14149,,,,
Netherlands,Operator Holding Account,B.V. Steenfabriek Hedikhuizen,16074468,2008-01-01,open,Bokhovenseweg 8,5256 TC,HEUSDEN GEM HEUSDEN,,,,7821,35544,21682,21682,21682,9652,9484,9314,9143,8970,8795,8618,8440,,,,12169,11289,9415,14898,13527,12017,14511,15382,14980,,,,,,,,12169,11289,9415,14898,13527,12017,14511,15382,14980,,,,
Netherlands,Operator Holding Account,B.V. Steenfabriek Huissenswaard,09151313,2008-01-01,open,Scherpekamp 15,6687 LP,Angeren,,,,20780,20779,20779,20779,20779,17215,16916,16614,16308,15999,15687,15371,15054,,,,21258,21562,15939,14984,16251,16832,20948,21788,21585,,,,,,,,21258,21562,15939,14984,16251,16832,20948,21788,21585,,,,
Netherlands,Operator Holding Account,B.V. Steenfabriek Spijk,10145486,2008-01-01,open,Spijksedijk 25,6917 AD,Spijk,,,,31063,31063,31063,31063,31063,25277,24838,24394,23945,23491,23033,22570,22104,,,,30845,31833,32301,33143,25706,25851,24732,24782,28453,,,,,,,,30845,31833,32301,33143,25706,25851,24732,24782,28453,,,,
Netherlands,Operator Holding Account,AgroCare Ontwikkeling II B.V.,27281610,2008-01-01,closed,Honderdland 433,2676 LV,Maasdijk,,,,14248,14248,14248,14248,14248,,,,,,,,,,,,15666,13526,15495,14392,6105,,,,,,,,,,,,15666,13526,15495,14392,6105,,,,,,,,
Netherlands,Operator Holding Account,AgroCare Ontwikkeling II B.V.,27281610,2008-01-01,closed,Honderdland 433,2676 LV,Maasdijk,,,,0,87983,50156,50156,50156,20874,18680,16549,0,0,0,0,0,,,,28975,42476,49160,47210,45019,47309,50521,43429,,,,,,,,,28975,42476,49160,47210,45019,47309,50521,43429,,,,,
Netherlands,Operator Holding Account,Wienerberger B.V.,17078258,2008-01-01,open,Hogeweg 95,5301 LK,ZALTBOMMEL,,,,9001,9001,9001,9001,9000,4278,4204,4129,4053,3976,3898,3820,3741,,,,8252,7442,7377,7695,5467,4659,4868,5909,5438,,,,,,,,8252,7442,7377,7695,5467,4659,4868,5909,5438,,,,
Netherlands,Operator Holding Account,Wienerberger B.V.,17078258,2008-01-01,closed,Hogeweg 95,5301 LK,ZALTBOMMEL,,,,8477,8477,0,0,0,,,,,,,,,,,,7905,2492,,,,,,,,,,,,,,,7905,2492,,,,,,,,,,,
Netherlands,Operator Holding Account,Wienerberger B.V.,17078258,2008-01-01,closed,Hogeweg 95,5301 LK,ZALTBOMMEL,,,,9432,25931,0,0,0,,,,,,,,,,,,8111,1642,,,,,,,,,,,,,,,8111,1642,,,,,,,,,,,
Netherlands,Operator Holding Account,Wienerberger B.V.,17078258,2008-01-01,closed,Hogeweg 95,5301 LK,ZALTBOMMEL,,,,13036,13035,13035,13035,13035,,,,,,,,,,,,12203,5969,6661,1,4,,,,,,,,,,,,12203,5969,6661,1,4,,,,,,,,
Netherlands,Operator Holding Account,Wienerberger B.V.,17078258,2008-01-01,open,Hogeweg 95,5301 LK,ZALTBOMMEL,,,,16798,16798,16798,16798,16797,12119,11908,11695,11480,11263,11043,10821,10597,,,,16546,14083,13648,13848,10552,11003,16263,15666,14797,,,,,,,,16546,14083,13648,13848,10552,11003,16263,15666,14797,,,,
Netherlands,Operator Holding Account,Wienerberger B.V.,17078258,2008-01-01,closed,Hogeweg 95,5301 LK,ZALTBOMMEL,,,,6153,6153,0,0,0,,,,,,,,,,,,3630,Not Reported,Not Reported,,,,,,,,,,,,,,3630,,,,,,,,,,,,
Netherlands,Operator Holding Account,Wienerberger B.V.,17078258,2008-01-01,open,Hogeweg 95,5301 LK,ZALTBOMMEL,,,,18073,18073,18073,18072,18072,15548,15278,15005,14729,14450,14168,13883,13597,,,,16470,13019,16694,14979,10232,12586,16996,14597,11477,,,,,,,,16470,13019,16694,14979,10232,12586,16996,14597,11477,,,,
Netherlands,Operator Holding Account,Wienerberger B.V.,17078258,2008-01-01,open,Hogeweg 95,5301 LK,ZALTBOMMEL,,,,9944,9943,9943,9943,9943,8169,8027,7883,7738,7592,7444,7294,7143,,,,9283,9026,9242,9460,7427,7995,7826,9030,8174,,,,,,,,9283,9026,9242,9460,7427,7995,7826,9030,8174,,,,
Netherlands,Operator Holding Account,Wienerberger B.V.,17078258,2008-01-01,open,Hogeweg 95,5301 LK,ZALTBOMMEL,,,,14551,14551,14551,14550,14550,14769,14512,14253,13990,13725,13458,13187,12915,,,,15873,15067,12759,12321,9092,8851,9102,12211,11990,,,,,,,,15873,15067,12759,12321,9092,8851,9102,12211,11990,,,,
Netherlands,Operator Holding Account,Wienerberger B.V.,17078258,2008-01-01,open,Hogeweg 95,5301 LK,ZALTBOMMEL,,,,31038,31037,31037,31037,31037,26139,25685,25225,24761,24292,23819,23339,22858,,,,26538,24468,25040,26731,20815,21753,23071,22440,24290,,,,,,,,26538,24468,25040,26731,20815,21753,23071,22440,24290,,,,
Netherlands,Operator Holding Account,Wienerberger B.V.,17078258,2008-01-01,closed,Hogeweg 95,5301 LK,ZALTBOMMEL,,,,3834,3834,0,0,0,,,,,,,,,,,,2392,Not Reported,Not Reported,,,,,,,,,,,,,,2392,,,,,,,,,,,,
Netherlands,Operator Holding Account,Wienerberger B.V.,17078258,2008-01-01,open,Hogeweg 95,5301 LK,ZALTBOMMEL,,,,6679,6679,6679,6678,6678,4041,3970,3899,3828,3755,3682,3608,3533,,,,5692,5144,4849,5858,5308,5409,5861,6204,6317,,,,,,,,5692,5144,4849,5858,5308,5409,5861,6204,6317,,,,
Netherlands,Operator Holding Account,Wienerberger B.V.,17078258,2008-01-01,open,Hogeweg 95,5301 LK,ZALTBOMMEL,,,,22495,22495,22495,22494,22494,27659,15571,26693,26202,25705,25204,24697,24187,,,,30510,26356,28979,30847,19532,15174,16630,17551,14985,,,,,,,,30510,26356,28979,30847,19532,15174,16630,17551,14985,,,,
Netherlands,Operator Holding Account,Wienerberger B.V.,17078258,2008-01-01,open,Hogeweg 95,5301 LK,ZALTBOMMEL,,,,10109,10108,10108,10108,10108,10066,0,4858,4768,4678,4587,4494,4402,,,,10893,7133,7155,6478,6476,433,4643,4857,5148,,,,,,,,10893,7133,7155,6478,6476,433,4643,4857,5148,,,,
Netherlands,Operator Holding Account,Wienerberger B.V.,17078258,2008-01-01,open,Hogeweg 95,5301 LK,ZALTBOMMEL,,,,12295,15993,14144,14143,14143,8559,8410,8260,8108,7954,7799,7642,7485,,,,10190,9282,8661,8774,6358,6841,7730,9770,11145,,,,,,,,10190,9282,8661,8774,6358,6841,7730,9770,11145,,,,
Netherlands,Operator Holding Account,Wienerberger B.V.,17078258,2008-01-01,closed,Hogeweg 95,5301 LK,ZALTBOMMEL,,,,12989,12989,0,0,0,,,,,,,,,,,,10188,5140,,,,,,,,,,,,,,,10188,5140,,,,,,,,,,,
Netherlands,Operator Holding Account,Wienerberger B.V.,17078258,2008-01-01,open,Hogeweg 95,5301 LK,ZALTBOMMEL,,,,16757,25966,21361,21361,21361,7380,14503,14244,13981,13717,13449,13178,12907,,,,20434,13423,11602,11882,7174,9347,8972,14359,14834,,,,,,,,20434,13423,11602,11882,7174,9347,8972,14359,14834,,,,
Netherlands,Operator Holding Account,Wienerberger B.V.,17078258,2008-01-01,open,Hogeweg 95,5301 LK,ZALTBOMMEL,,,,13326,13326,13326,13325,13325,11104,10911,10716,10519,10320,10119,9915,9710,,,,13776,6446,8710,7471,7255,8369,8967,11977,16547,,,,,,,,13776,6446,8710,7471,7255,8369,8967,11977,16547,,,,
Netherlands,Operator Holding Account,4Evergreen B.V.,27235310,2008-01-01,open,Zoekweg 20,4651 PS,STEENBERGEN NB,,,,24346,30368,27357,27357,27356,14456,12937,11461,10032,8646,7307,6010,4761,,,,30691,29563,30670,28027,26763,25820,23322,25418,24154,,,,,,,,30691,29563,30670,28027,26763,25820,23322,25418,24154,,,,
Netherlands,Operator Holding Account,De Bruijn Sales B.V.,27273523,2008-01-01,closed,Dorppolderweg 16,2678 NM,DE LIER,,,,19414,30920,25166,25166,25166,,,,,,,,,,,,25276,19714,23068,21537,12209,,,,,,,,,,,,25276,19714,23068,21537,12209,,,,,,,,
Netherlands,Operator Holding Account,A.C. Hartman B.V.,01071907,2008-01-01,open,Juckemaleane 10,8855 XE,SEXBIERUM,,,,22390,22390,22390,48375,36241,17090,15293,13549,11859,10221,8638,7106,5628,,,,22209,32117,34001,34693,32335,32544,27027,27178,27158,,,,,,,,22209,32117,34001,34693,32335,32544,27027,27178,27158,,,,
Netherlands,Operator Holding Account,Abbott Laboratories B.V.,05018369,2008-01-01,open,Rieteweg 21,8041 AJ,ZWOLLE,,,,8995,10739,10132,10333,10452,13205,11816,15928,15635,15339,15040,14737,14433,,,,11174,11556,12287,11622,10448,14829,14525,15186,15554,,,,,,,,11174,11556,12287,11622,10448,14829,14525,15186,15554,,,,
Netherlands,Operator Holding Account,AKW-Energy B.V.,24328930,2008-01-01,closed,Abr. Kroesweg 28,2742 KX,WADDINXVEEN,,,,16283,16282,24205,18318,18318,,,,,,,,,,,,21081,19761,23526,21347,6657,,,,,,,,,,,,21081,19761,23526,21347,6657,,,,,,,,
Netherlands,Operator Holding Account,Aviko B.V.,08027672,2008-01-01,open,Dr. Alfons Ariënsstraat 28,7221 CD,Steenderen,,,,17461,17461,17461,17460,17460,15364,15396,14176,12990,11836,10716,9626,8574,,,,18292,14653,14735,15365,12527,12893,13599,14637,14186,,,,,,,,18292,14653,14735,15365,12527,12893,13599,14637,14186,,,,
Netherlands,Operator Holding Account,BarGoed Beheer B.V.,27292667,2008-01-01,closed,Wagenpad 7,1775 RJ,MIDDENMEER,,,,0,52584,26292,26292,26292,11813,10572,9365,8197,0,0,0,0,,,,22483,21847,25284,23289,25067,23815,17002,15038,7811,,,,,,,,22483,21847,25284,23289,25067,23815,17002,15038,7811,,,,
Netherlands,Operator Holding Account,BB-Energy B.V.,01106204,2008-01-01,closed,Middenweg 3,8271 RP,IJSSELMUIDEN,,,,18207,18207,18207,18206,18206,,,,,,,,,,,,15641,17961,19457,17392,5672,,,,,,,,,,,,15641,17961,19457,17392,5672,,,,,,,,
Netherlands,Operator Holding Account,Beekenkamp Plants B.V.,27222194,2008-01-01,open,Korte Kruisweg 141,2676 BS,Maasdijk,,,,6427,29081,17754,17753,17753,9382,8396,7438,6510,5612,4742,3901,3090,,,,14851,15587,16520,14883,15542,18443,14404,15414,15944,,,,,,,,14851,15587,16520,14883,15542,18443,14404,15414,15944,,,,
Netherlands,Operator Holding Account,Bergmont B.V.,01084799,2008-01-01,closed,Tuindersweg 22B,8271 PK,IJSSELMUIDEN,,,,14006,14006,14005,14005,14005,,,,,,,,,,,,12135,5877,7125,6276,1132,,,,,,,,,,,,12135,5877,7125,6276,1132,,,,,,,,
Netherlands,Operator Holding Account,Nico Kiep Beheer B.V.,11024645,2008-01-01,closed,Hogeweg 2b,5313 BA,NIEUWAAL,,,,9530,9530,9530,9530,9530,,,,,,,,,,,,8544,7777,8611,8108,2418,,,,,,,,,,,,8544,7777,8611,8108,2418,,,,,,,,
Netherlands,Operator Holding Account,BMC Moerdijk B.V.,17146619,2008-01-01,closed,Postbus 97,4780 AB,MOERDIJK,,,,0,28978,15387,15387,15387,,,,,,,,,,,,9325,3478,1267,2092,1480,,,,,,,,,,,,9325,3478,1267,2092,1480,,,,,,,,
Netherlands,Operator Holding Account,C.G. van Winden B.V.,27224710,2008-01-01,closed,Knibbelweg 9d,2761 JB,ZEVENHUIZEN ZH,,,,12549,19966,16257,16257,16257,,,,,,,,,,,,14838,13971,16319,14590,4390,,,,,,,,,,,,14838,13971,16319,14590,4390,,,,,,,,
Netherlands,Operator Holding Account,Cabot B.V.,24108495,2008-01-01,open,Botlekstraat 2,3197 KA,BOTLEK ROTTERDAM,,,,220899,220899,220899,220898,220898,195634,192236,188798,185324,181813,178267,174678,171076,,,,209077,195371,227514,239006,240770,223075,222218,235829,246654,,,,,,,,209077,195371,227514,239006,240770,223075,222218,235829,246654,,,,
Netherlands,Operator Holding Account,Amsteldijk Beheer B.V.,33080456,2008-01-01,closed,Ondernemingsweg 122-1,1422 DZ,UITHOORN,,,,14215,14214,14214,14214,14214,22277,21891,21499,0,0,0,0,0,,,,14793,14049,17093,14023,13485,22122,10843,4062,,,,,,,,,14793,14049,17093,14023,13485,22122,10843,4062,,,,,
Netherlands,Operator Holding Account,Coöperatie Royal FloraHolland U.A.,34284016,2008-01-01,open,Legmeerdijk 313,1431 GB,AALSMEER,,,,8357,8357,8357,8357,8357,8605,7701,6820,5967,5140,4341,3566,2822,,,,9525,9340,11455,8404,9848,10403,6837,7976,8548,,,,,,,,9525,9340,11455,8404,9848,10403,6837,7976,8548,,,,
Netherlands,Operator Holding Account,DAF Trucks N.V.,17078445,2008-01-01,open,Hugo van der Goeslaan 1,5643 TW,EINDHOVEN,,,,9429,9428,9428,9428,9428,11546,10332,13927,13670,13412,13150,12885,12620,,,,10659,8570,11431,10709,11053,18891,15556,16720,17117,,,,,,,,10659,8570,11431,10709,11053,18891,15556,16720,17117,,,,
Netherlands,Operator Holding Account,De Vries Erica B.V.,04060356,2008-01-01,closed,Tuinderslaan 14,7887 VA,ERICA,,,,0,26606,13303,13303,13303,,,,,,,,,,,,14458,12031,13904,12802,3477,,,,,,,,,,,,14458,12031,13904,12802,3477,,,,,,,,
Netherlands,Operator Holding Account,Dekker Management Beheer B.V.,36030162,2008-01-01,closed,Julianaweg 6a,1711 RP,HENSBROEK,,,,13717,16171,15352,15352,15352,6075,0,0,0,0,0,0,0,,,,12190,11405,11043,9609,10144,6316,,,,,,,,,,,12190,11405,11043,9609,10144,6316,,,,,,,
Netherlands,Operator Holding Account,OCI Agro,14041561,2008-01-01,closed,Postbus 601,6160 AP,GELEEN,,,,9979,413279,187905,187904,164181,,,,,,,,,,,,138387,130199,198,3,3,,,,,,,,,,,,138387,130199,198,3,3,,,,,,,,
Netherlands,Operator Holding Account,Lingezegen Energy B.V.,60719338,2008-01-01,open,Bijsterhuizen 3009,6604 LP,Wijchen,,,,32048,47068,45724,45724,45724,21742,19457,17238,15087,13005,10990,9040,7160,,,,48713,42915,48257,43756,41990,37340,25904,32214,33415,,,,,,,,48713,42915,48257,43756,41990,37340,25904,32214,33415,,,,
Netherlands,Operator Holding Account,Evonik Carbon Black Nederland B.V.,24108497,2008-01-01,closed,Postbus 5150,3197 ZH,BOTLEK ROTTERDAM,,,,142196,142195,142195,142195,142195,,,,,,,,,,,,141670,86466,61343,12266,1170,,,,,,,,,,,,141670,86466,61343,12266,1170,,,,,,,,
Netherlands,Operator Holding Account,Kwekerij Overgaag B.V.,64034992,2008-01-01,closed,Hoefweg 40,2678 KK,De Lier,,,,9470,14478,11974,11974,11974,6975,0,0,0,0,0,0,0,,,,14882,12395,14928,13757,13551,5028,,,,,,,,,,,14882,12395,14928,13757,13551,5028,,,,,,,
Netherlands,Operator Holding Account,Kwekerij Schenkeveld I B.V.,27171144,2008-01-01,closed,Woudseweg 146,2636 AV,SCHIPLUIDEN,,,,8708,19584,14145,14145,0,,,,,,,,,,,,12353,10626,12814,5399,Not Reported,,,,,,,,,,,,12353,10626,12814,5399,,,,,,,,,
Netherlands,Operator Holding Account,Gebr. Zwinkels B.V.,57606447,2008-01-01,closed,Jan Hendrikspad 2,2761 KE,ZEVENHUIZEN ZH,,,,13727,13726,13726,13726,0,,,,,,,,,,,,14272,12348,13472,7003,Not Reported,,,,,,,,,,,,14272,12348,13472,7003,,,,,,,,,
Netherlands,Operator Holding Account,C.V. J.W. Knoppert & Zn.,51108380,2008-01-01,closed,Lange Stukken 5,2691 JB,'S-GRAVENZANDE,,,,6611,17366,13075,13075,13075,,,,,,,,,,,,9845,9686,12282,11890,2707,,,,,,,,,,,,9845,9686,12282,11890,5414,,,,,,,,
Netherlands,Operator Holding Account,Trespa International B.V.,24270677,2008-01-01,open,Wetering 20,6002 SM,WEERT,,,,22070,22069,22069,22069,22069,19595,17538,15533,13591,11708,9886,8123,6426,,,,22162,19928,24297,22263,21231,27963,26665,26808,27455,,,,,,,,22162,19928,24297,22263,21231,27963,26665,26808,27455,,,,
Netherlands,Operator Holding Account,Ferro (Holland) B.V.,24032957,2008-01-01,closed,Postbus 6088,3002 AB,ROTTERDAM,,,,7480,7480,0,0,0,,,,,,,,,,,,3813,Not Reported,Not Reported,,,,,,,,,,,,,,3813,,,,,,,,,,,,
Netherlands,Operator Holding Account,A.J.C.M. van Vliet Beheer B.V.,27227250,2008-01-01,closed,Lange Wateringkade 35,2295 RP,KWINTSHEUL,,,,7115,18228,12917,12917,12917,,,,,,,,,,,,13914,12444,13940,13127,2975,,,,,,,,,,,,13914,12444,13940,13127,2975,,,,,,,,
Netherlands,Operator Holding Account,Firma G.J.A. van Adrichem en Zonen,27220298,2008-01-01,closed,Westlandse Langeweg 8a,4651 PD,STEENBERGEN NB,,,,12697,31795,22246,22245,22245,,,,,,,,,,,,21241,18359,20696,18289,5999,,,,,,,,,,,,21241,18359,20696,18289,5999,,,,,,,,
Netherlands,Operator Holding Account,Firma H. van der Kaaij en Zonen,27168864,2008-01-01,closed,Butenpole 6,9041 VM,BERLTSUM,,,,0,19916,9958,9958,9958,,,,,,,,,,,,9426,8965,10452,10431,2393,,,,,,,,,,,,9426,8965,10452,10431,2393,,,,,,,,
Netherlands,Operator Holding Account,J.M.M. Zwinkels Holding B.V.,27249429,2008-01-01,closed,Herenwerf 26,3155 DK,MAASLAND,,,,14427,21577,21577,21577,0,,,,,,,,,,,,15283,18805,19854,7318,Not Reported,,,,,,,,,,,,15283,18805,19854,7318,,,,,,,,,
Netherlands,Operator Holding Account,Coöperatie Royal FloraHolland U.A.,34284016,2008-01-01,open,Legmeerdijk 313,1431 GB,AALSMEER,,,,6935,6935,6935,6935,6935,5864,5248,4648,4067,3504,2959,2431,1923,,,,9199,9122,9528,7484,8675,9263,7790,6756,6958,,,,,,,,9199,9122,9528,7484,8675,9263,7790,6756,6958,,,,
Netherlands,Operator Holding Account,Forbo Flooring B.V.,35000233,2008-01-01,open,Industrieweg 12,1566 JP,ASSENDELFT,,,,10107,10107,10107,10107,10107,14199,13953,9005,7878,6787,5731,4709,3724,,,,11594,11875,12554,11571,11330,14597,12967,13055,13351,,,,,,,,11594,11875,12554,11571,11330,14597,12967,13055,13351,,,,
Netherlands,Operator Holding Account,G.J.M. van Ruijven Tuinbouw B.V.,24489779,2008-01-01,closed,Ruigendijk 6c,3234 LC,TINTE,,,,9238,9237,9237,9237,9237,,,,,,,,,,,,8024,7219,8234,7973,2391,,,,,,,,,,,,8024,7219,8234,7973,2391,,,,,,,,
Netherlands,Operator Holding Account,Vrijenban Investments B.V.,27227342,2008-01-01,closed,Overgauwseweg 46a,2641 NG,PIJNACKER,,,,13033,20150,18731,18731,18731,8781,0,0,0,0,0,0,0,,,,15166,15840,17221,15124,9043,1686,205,,,,,,,,,,15166,15840,17221,15124,9043,1686,205,,,,,,
Netherlands,Operator Holding Account,Gebr. Van der Voort V.O.F.,27233536,2008-01-01,closed,Van Rijckevorsellaan 4-A,2691 NK,'S-GRAVENZANDE,,,,8559,16701,13084,13084,0,,,,,,,,,,,,14032,11124,13708,5356,Not Reported,,,,,,,,,,,,14032,11124,13708,5356,,,,,,,,,
Netherlands,Operator Holding Account,Gebr. van Duijn Beheer B.V.,27227076,2008-01-01,closed,Zoekweg 10,4651 PS,STEENBERGEN NB,,,,0,21824,10912,10912,0,,,,,,,,,,,,12593,10012,10339,6455,Not Reported,,,,,,,,,,,,12593,10012,10339,6455,,,,,,,,,
Netherlands,Operator Holding Account,Gebr. L. en J. Voskamp B.V.,27215630,2008-01-01,open,Coldenhovelaan 2e,2678 PS,DE LIER,,,,22441,22440,22440,22440,22440,12687,11354,10058,8804,7588,6413,5275,4178,,,,25036,23597,28595,21069,17941,19200,13944,15170,17545,,,,,,,,25036,23597,28595,21069,17941,19200,13944,15170,17545,,,,
Netherlands,Operator Holding Account,Arco van der Kaaij Holding B.V.,27282114,2008-01-01,closed,Poelkade 2,2691 MD,'S-GRAVENZANDE,,,,7493,11265,11085,11085,11084,,,,,,,,,,,,4624,6176,8120,6138,2417,,,,,,,,,,,,4624,6176,8120,6138,2417,,,,,,,,
Netherlands,Operator Holding Account,Grolsche Bierbrouwerij Nederland B.V.,06060381,2008-01-01,open,Brouwerslaan 1,7548 XA,ENSCHEDE,,,,15622,15621,15621,15621,15621,8031,7187,6366,5570,4798,4051,3329,2633,,,,9149,8079,7635,7236,7375,7130,6106,6544,7176,,,,,,,,9149,8079,7635,7236,7375,7130,6106,6544,7176,,,,
Netherlands,Operator Holding Account,Hasselt Energy B.V.,24308111,2008-01-01,closed,Van Hasseltweg 32,2751 GZ,MOERKAPELLE,,,,20988,20988,20988,20987,20987,,,,,,,,,,,,17925,12658,12342,11895,4699,,,,,,,,,,,,17925,12658,12342,11895,4699,,,,,,,,
Netherlands,Operator Holding Account,HB-Energy B.V.,01111457,2008-01-01,open,Hooghe Beer 3,2675 LG,HONSELERSDIJK,,,,0,74224,37112,37112,37112,15673,14026,12425,10875,9375,7922,6516,5161,,,,34156,33060,34453,31380,29844,32432,29179,26178,25370,,,,,,,,34156,33060,34453,31380,29844,32432,29179,26178,25370,,,,
Netherlands,Operator Holding Account,Ashland Industries Nederland B.V.,27022150,2009-10-15,open,Noordweg 9,3336 LH,ZWJNDRECHT,,,,21081,21081,21081,21081,21081,19846,19501,19153,18800,18444,18084,17720,17355,,,,19966,19443,20649,20483,19754,19654,19066,18987,19643,,,,,,,,19966,19443,20649,20483,19754,19654,19066,18987,19643,,,,
Netherlands,Operator Holding Account,Hollandplant B.V.,24312764,2008-01-01,closed,Warmoeziersweg 50,2661 EH,BERGSCHENHOEK,,,,5026,5026,5026,5025,5025,479,215,0,0,0,0,0,0,,,,287,379,791,855,557,263,34,737,,,,,,,,,287,379,791,855,557,263,34,737,,,,,
Netherlands,Operator Holding Account,Huhtamaki Nederland B.V.,01051894,2008-01-01,open,Zuidelijke Industrieweg 3,8801JB,FRANEKER,,,,15359,15359,15359,15359,15359,11772,10634,9528,8454,7413,6403,5427,4485,,,,14392,13406,13123,12838,13050,12792,13359,12915,13906,,,,,,,,14392,13406,13123,12838,13050,12792,13359,12915,13906,,,,
Netherlands,Operator Holding Account,J.A.M. Groenewegen B.V.,24196847,2008-01-01,closed,Scheeweg 17,2678 NT,DE LIER,,,,14213,14213,0,0,0,,,,,,,,,,,,12940,Not Reported,Not Reported,,,,,,,,,,,,,,12940,,,,,,,,,,,,
Netherlands,Operator Holding Account,Van Marrewijk Beheer B.V.,27228301,2008-01-01,closed,Tuindersweg 17,3237 MB,VIERPOLDERS,,,,15211,15211,15211,15211,15211,,,,,,,,,,,,14093,10126,13197,13025,4174,,,,,,,,,,,,14093,10126,13197,13025,4174,,,,,,,,
Netherlands,Operator Holding Account,Jansen Hoeven B.V.,20110240,2008-01-01,closed,Oude Antwerpsepostbaan 82,4741 TL,HOEVEN,,,,10032,10031,10031,10031,10031,,,,,,,,,,,,11364,9137,10935,11015,Not Reported,,,,,,,,,,,,11364,9137,10935,11015,,,,,,,,,
Netherlands,Operator Holding Account,Johnson Matthey Advanced Glass Technologies B.V.,64454827,2008-01-01,open,Fregatweg 38,6222 NZ,MAASTRICHT,,,,3320,3319,3319,3319,3319,3970,3901,3831,3761,3689,3617,3545,3471,,,,4366,3838,4612,4012,3885,4115,3628,3659,3620,,,,,,,,4366,3838,4612,4012,3885,4115,3628,3659,3620,,,,
Netherlands,Operator Holding Account,KBB Holland B.V.,20088776,2008-01-01,closed,Stierenweg 13,4651 PT,STEENBERGEN NB,,,,8442,36647,28381,28381,28381,10865,9723,8613,0,0,0,0,0,,,,15180,21115,24054,22294,20056,18714,16005,18350,,,,,,,,,15180,21115,24054,22294,20056,18714,16005,18350,,,,,
Netherlands,Operator Holding Account,AgroCare WP11 Exploitatie B.V.,27238425,2009-12-17,open,Wagenpad 11,1775 RJ,MIDDENMEER,,,,0,77312,45087,45087,45087,17809,15937,14119,12357,10652,9001,7405,5865,,,,26409,35829,41518,40360,39462,42660,48240,48992,47666,,,,,,,,26409,35829,41518,40360,39462,42660,48240,48992,47666,,,,
Netherlands,Operator Holding Account,VDS Kleiwaren Beheer B.V.,13032188,2008-01-01,closed,Spijksedijk 24,6917 AB,SPIJK (GLD),,,,5483,5483,5483,5483,5482,4954,0,0,0,0,0,0,0,,,,5618,6112,6090,6046,5636,4891,,,,,,,,,,,5618,6112,6090,6046,5636,4891,,,,,,,
Netherlands,Operator Holding Account,Kleiwarenfabriek De Waalwaard,34015208,2008-01-01,closed,Waalbandijk 69,6669 MC,DODEWAARD,,,,9051,9051,9051,0,0,,,,,,,,,,,,7755,6094,,,,,,,,,,,,,,,7755,6094,,,,,,,,,,,
Netherlands,Operator Holding Account,VDS Kleiwaren Beheer B.V.,13032188,2008-01-01,open,Spijksedijk 24,6917 AB,SPIJK (GLD),,,,11297,11297,11297,11296,11296,11808,11603,11395,11185,10973,10759,10543,10325,,,,13130,10142,6892,5974,6639,6920,7449,7245,7001,,,,,,,,13130,10142,6892,5974,6639,6920,7449,7245,7001,,,,
Netherlands,Operator Holding Account,VDS Kleiwaren Beheer B.V.,13032188,2008-01-01,closed,Spijksedijk 24,6917 AB,SPIJK (GLD),,,,7556,7556,7556,7556,7555,8511,0,0,0,0,0,0,0,,,,9039,7761,8290,7615,7588,7489,,,,,,,,,,,9039,7761,8290,7615,7588,7489,,,,,,,
Netherlands,Operator Holding Account,Koninklijke Luchtvaart Maatschappij N.V.,33014286,2008-01-01,open,Amsterdamseweg 55,1182GP,Amstelveen,,,,12305,12304,12304,12304,12304,12233,10948,9697,8484,7309,6171,5071,4011,,,,10422,10543,11908,10432,10325,17383,13101,13469,13866,,,,,,,,10422,10543,11908,10432,10325,17383,13101,13469,13866,,,,
Netherlands,Operator Holding Account,ESD-SIC B.V.,02320474,2008-01-01,open,Kloosterlaan 11,9936 TE,FARMSUM,,,,106682,106682,106681,106681,106681,102218,100443,98647,96832,94997,93145,91269,89387,,,,126322,50340,102406,100239,84872,132620,129035,126437,115634,,,,,,,,126322,50340,102406,100239,84872,132620,129035,126437,115634,,,,
Netherlands,Operator Holding Account,JACOBS DOUWE EGBERTS NL B.V.,30042333,2008-01-01,open,Vleutensevaart 35,3532 AD,Utrecht,,,,8352,8352,8352,8352,8352,15429,13807,12230,10700,9219,7784,6396,5059,,,,10327,10403,11059,10175,11740,12866,10686,9387,8596,,,,,,,,10327,10403,11059,10175,11740,12866,10686,9387,8596,,,,
Netherlands,Operator Holding Account,Koninklijke Machinefabriek Stork B.V.,06019278,2008-01-01,closed,Postbus 38,7550 AA,HENGELO OV,,,,5426,5426,0,0,0,,,,,,,,,,,,3696,0,Not Reported,Not Reported,,,,,,,,,,,,,3696,,,,,,,,,,,,
Netherlands,Operator Holding Account,Koninklijke Mosa B.V.,14600086,2008-01-01,open,Meerssenerweg 358,6224 AL,MAASTRICHT,,,,17131,30741,23936,23936,23935,21040,20674,20304,19931,19553,19172,18786,18399,,,,23104,23725,22954,22621,20921,20500,19619,18536,19601,,,,,,,,23104,23725,22954,22621,20921,20500,19619,18536,19601,,,,
Netherlands,Aircraft Operator Account,Transavia Airlines B.V.,34035297,2010-01-01,open,Piet Guilonardweg 15,1117 EE,Schiphol,,,,,,,,748173,409215,409215,409215,409215,409215,409215,409215,409215,,,,,,,,851757,583713,619878,616600,762960,,,,,,,,,,,,851757,,1203591,616600,762960,,,,
Netherlands,Aircraft Operator Account,China Airlines Ltd.,11145904,2010-01-01,open,"No. 1, Hangzhan S. Rd., Dayuan Township",33758,Taiwan,,,,,,,,834169,7157,7157,7157,7157,7157,7157,7157,7157,,,,,,,,4107,3451,3326,3670,3260,,,,,,,,,,,,4107,,6777,3670,3260,,,,
Netherlands,Aircraft Operator Account,"Dynamic Aviation Group, Inc.",n/a,2010-01-01,open,1402 Airport Road,VA 22812,Bridgewater,,,,,,,,,,,,,,,,,,,,,,,,157,Excluded,Excluded,Excluded,Excluded,,,,,,,,,,,,157,,,,,,,,
Netherlands,Aircraft Operator Account,El Al Israel Airlines Ltd,520017146,2010-01-01,open,Ben-Gurion Airport,7015001,Lod,,,,,,,,595737,1206,1206,1206,1206,1206,1206,1206,1206,,,,,,,,3388,2889,1312,1538,1189,,,,,,,,,,,,3388,,4201,1538,1189,,,,
Netherlands,Aircraft Operator Account,TUI Airlines Nederland B.V.,27098512,2010-01-01,open,Beechavenue 43,1119 RA,Schiphol-Rijk,,,,,,,,303254,35820,35820,35820,35820,35820,35820,35820,35820,,,,,,,,199705,54403,55867,65708,97483,,,,,,,,,,,,199705,,110270,65708,97483,,,,
Netherlands,Aircraft Operator Account,Emerson Climate Technologies,-,2010-01-01,open,Hangar Dr. Hangar 7 3545,45377,Vandalia,,,,,,,,,,,,,,,,,,,,,,,,14,Excluded,Excluded,Excluded,Excluded,,,,,,,,,,,,14,,,,,,,,
Netherlands,Aircraft Operator Account,Eastman Chemical Company,2345566,2010-01-01,open,200 South Wilcox Drive,37660,"Kingsport, Tennessee",,,,,,,,12,,,,,1,1,1,1,,,,,,,,150,Excluded,Excluded,Excluded,Excluded,,,,,,,,,,,,150,,,,,,,,
Netherlands,Aircraft Operator Account,Heerema Vliegbedrijf B.V.,28036770,2010-01-01,open,Vondellaan 47,2332 AA,Leiden,,,,,,,,,,,,,,,,,,,,,,,,436,Excluded,Excluded,Excluded,Excluded,,,,,,,,,,,,436,,,,,,,,
Netherlands,Aircraft Operator Account,Liberty Global INC,3911770,2010-01-01,open,12300 Liberty Boulevard,80112,Englewood,,,,,,,,25,,,,,2,2,2,2,,,,,,,,54,Excluded,Excluded,Excluded,Excluded,,,,,,,,,,,,,54,,,,,,,
Netherlands,Aircraft Operator Account,"Sextant Holdings, LLC",,2010-01-01,closed,"The Prudential Tower, 800 Boylston Street",02199,Boston,,,,,,,,,,,,,,,,,,,,,,,,,,,,,,,,,,,,,,,,,,,,,,,,
Netherlands,Aircraft Operator Account,"Sextant Holdings, LLC",000907326,2010-01-01,open,"The Prudential Tower, 800 Boylston Street",02199,Boston,,,,,,,,21,,,,,,,,,,,,,,,,5,Excluded,Excluded,Excluded,Excluded,,,,,,,,,,,,5,,,,,,,,
Netherlands,Aircraft Operator Account,Coventry First LLC,1234,2010-01-01,open,7111 Valley Green Road,19034,Fort Washington,,,,,,,,7,,,,,,,,,,,,,,,,0,Excluded,Excluded,Excluded,Excluded,,,,,,,,,,,,,,,,,,,,
Netherlands,Aircraft Operator Account,Turistik Hava Tasimacilik Anonim Sirketi,537941,2010-01-01,open,Sahrayi Cedit Mah. Ataturk Cad.,BLK.N. 59/5,Kadikoy,,,,,,,,150916,662,662,662,662,662,662,662,662,,,,,,,,146367,2606,3484,3631,5636,,,,,,,,,,,,146367,,6090,3631,5636,,,,
Netherlands,Operator Holding Account,ENGIE Energie Nederland N.V.,05043978,2011-09-27,open,Grote Voort 291,8041 BL,Zwolle,,,,,,,,,,,,,,,,,,,,,,,,95,183009,2153254,2791963,3192374,,,,,,,,,,,,95,183009,2153254,2791963,3192374,,,,
Netherlands,Operator Holding Account,Air Products Nederland B.V.,29048443,2013-03-07,open,Boyneweg 10,3197 LK,Botlek Rotterdam,,,,,,,,,756130,742996,729709,716282,702711,689009,675135,661213,,,,,,,,,545896,616137,605999,631293,,,,,,,,,,,,,545896,616137,605999,631293,,,,
Netherlands,Operator Holding Account,Asfaltcentrale Stedendriehoek B.V.,38019939,2013-01-01,open,Dordrechtweg 8,7418 CH,Deventer,,,,,,,,,2536,2270,2010,1758,1515,1279,1051,832,,,,,,,,,3071,2469,2366,3623,,,,,,,,,,,,,3071,2469,2366,3623,,,,
Netherlands,Operator Holding Account,Asfaltproductie De Eem B.V.,31047938,2013-01-01,open,Eemweg 82,3755 LD,EEMNES,,,,,,,,,3037,2719,2408,2107,1815,1533,1259,996,,,,,,,,,5304,4305,4752,4289,,,,,,,,,,,,,5304,4305,4752,4289,,,,
Netherlands,Operator Holding Account,Asfalt Produktie Nijmegen (A.P.N.) B.V.,10043841,2013-01-01,open,Energieweg 28,6541 CX,Nijmegen,,,,,,,,,1744,1561,1382,1209,1042,880,723,572,,,,,,,,,1972,2090,2470,3075,,,,,,,,,,,,,1972,2090,2470,3075,,,,
Netherlands,Operator Holding Account,Holland Malt B.V.,30122973,2013-01-01,open,de Stater 1,5737 RV,LIESHOUT,,,,,,,,,17015,16720,16421,16118,15813,15505,15193,14879,,,,,,,,,17625,17541,17969,16749,,,,,,,,,,,,,17625,17541,17969,16749,,,,
Netherlands,Operator Holding Account,DOC Kaas B.V.,59262729,2013-01-01,closed,Buitenvaart 4001,7905 TC,HOOGEVEEN,,,,,,,,,8699,9036,8479,0,0,0,0,0,,,,,,,,,18721,15206,9931,,,,,,,,,,,,,,18721,15206,9931,,,,,
Netherlands,Operator Holding Account,Heijmans Wegen B.V.,18124067,2013-01-01,open,Graafsebaan 67,5248 JT,Rosmalen,,,,,,,,,4723,4227,3744,3276,2822,2383,1958,1549,,,,,,,,,5080,3352,3976,4136,,,,,,,,,,,,,5080,3352,3976,4136,,,,
Netherlands,Operator Holding Account,Heijmans Wegen B.V.,18124067,2013-01-01,open,Graafsebaan 67,5248 JT,Rosmalen,,,,,,,,,2864,2562,2270,1986,1711,1445,1187,939,,,,,,,,,2611,2777,2730,3556,,,,,,,,,,,,,2611,2777,2730,3556,,,,
Netherlands,Operator Holding Account,Heijmans Wegen B.V.,18124067,2013-01-01,closed,Graafsebaan 67,5248 JT,Rosmalen,,,,,,,,,2791,2498,1107,0,0,0,0,0,,,,,,,,,2645,1743,183,,,,,,,,,,,,,,2645,1743,183,,,,,
Netherlands,Operator Holding Account,Heijmans Wegen B.V.,18124067,2013-01-01,open,Graafsebaan 67,5248 JT,Rosmalen,,,,,,,,,2532,2267,2008,1757,1513,1277,1050,830,,,,,,,,,3676,3504,3103,2789,,,,,,,,,,,,,3676,3504,3103,2789,,,,
Netherlands,Aircraft Operator Account,Stichting Nationaal Lucht- en Ruimtevaartlaboratorium,41150373,2010-01-01,open,Anthony Fokkerweg 2,1059 CM,Amsterdam,,,,,,,,,,,,,,,,,,,,,,,,102,Excluded,Excluded,Excluded,Excluded,,,,,,,,,,,,102,,,,,,,,
Netherlands,Aircraft Operator Account,Liberty Global Europe Management B.V.,34169719,2010-01-01,open,Boeingavenue 53,1119 PE,Schiphol-Rijk,,,,,,,,32,26,26,26,26,26,26,26,26,,,,,,,,1490,1148,651,Excluded,Excluded,,,,,,,,,,,,1490,,1799,,,,,,
Netherlands,Aircraft Operator Account,Corendon Dutch Airlines B.V.,51027445,2011-01-01,open,Singaporestraat 82,1175 RA,Lijnden,,,,,,,,,,,,,74796,74796,74796,74796,,,,,,,,18949,26290,37910,46544,50133,,,,,,,,,,,,18949,,64200,46544,50133,,,,
Netherlands,Aircraft Operator Account,"Global Aircraft Services, Inc.",-,2010-01-01,open,320 Andover Park East,98188,Seattle,,,,,,,,,,,,,,,,,,,,,,,,295,Excluded,Excluded,Excluded,188,,,,,,,,,,,,295,,,,188,,,,
Netherlands,Aircraft Operator Account,Wilmington Trust Co Trustee,23316,2010-01-01,open,1100 N Market Street,19890,Wilmington,,,,,,,,27,,,,,1,1,1,1,,,,,,,,98,Excluded,Excluded,Excluded,Excluded,,,,,,,,,,,,98,,,,,,,,
Netherlands,Aircraft Operator Account,JAY Aviation II LLC,4487862,2010-01-01,open,2250 Northeast 25th Avenue,97124,Hilsboro,,,,,,,,,,,,,,,,,,,,,,,,40,Excluded,Excluded,Excluded,Excluded,,,,,,,,,,,,40,,,,,,,,
Netherlands,Operator Holding Account,Steinzeug-Keramo B.V.,12016368,2013-01-02,closed,Stationstraat 9,5951 AW,Belfeld,,,,,,,,,4577,4497,0,0,0,0,0,0,,,,,,,,,4693,2505,,,,,,,,,,,,,,,4693,2505,,,,,,
Netherlands,Operator Holding Account,Fa. Gebr. Van der Lee,23045407,2013-01-01,open,Lekdijk 28,4124 KC,Hagestein,,,,,,,,,5813,5202,4608,4031,3474,2933,2410,1906,,,,,,,,,8567,12194,5409,6238,,,,,,,,,,,,,8567,12134,5469,6238,,,,
Netherlands,Aircraft Operator Account,Oxbow Carbon LLC,3913191,2010-01-01,open,1512 Perimeter Road,33406,West Palm Beach,,,,,,,,,,,,,,,,,,,,,,,,14,Excluded,Excluded,Excluded,Excluded,,,,,,,,,,,,,14,,,,,,,
Netherlands,Operator Holding Account,Noordelijke Asfalt ProduKtie (NOAP) B.V.,02328827,2013-01-01,open,Pondweg 1,2153 PK,Nieuw-Vennep,,,,,,,,,2456,2197,1947,1703,1468,0,0,0,,,,,,,,,1893,2527,3047,2588,,,,,,,,,,,,,1893,2527,3047,2588,,,,
Netherlands,Operator Holding Account,Ooms Producten B.V.,36003612,2013-01-01,open,Scharwoude 9,1634 EA,Scharwoude,,,,,,,,,2755,2465,2183,1910,1645,1389,1141,904,,,,,,,,,3312,3220,3465,3905,,,,,,,,,,,,,3312,3220,3465,3905,,,,
Netherlands,Aircraft Operator Account,"Universal Health Management, LLC",38-3277700,2012-01-01,open,408 Shore Club Drive,48080,St Clair Shores,,,,,,,,,,,,,,,,,,,,,,,,7,Excluded,Excluded,Excluded,Excluded,,,,,,,,,,,,,7,,,,,,,
Netherlands,Operator Holding Account,ACH Exploitatie B.V.,08141405,2013-01-01,open,Havenstraat 1,7553 GG,HENGELO OV,,,,,,,,,2661,2382,2110,1846,1590,1343,1104,873,,,,,,,,,2904,2311,2508,2667,,,,,,,,,,,,,2904,2311,2508,2667,,,,
Netherlands,Operator Holding Account,Air Liquide Nederland B.V.,17076906,2013-01-02,open,De Witbogt 1,5652 AG,EINDHOVEN,,,,,,,,,711761,699399,686891,674252,661478,648579,635519,622414,,,,,,,,,544997,709431,587786,413152,,,,,,,,,,,,,544997,709431,587786,413152,,,,
Netherlands,Operator Holding Account,J.G. Timmerman Groenvoederdrogerij B.V.,22018968,2013-01-22,open,Kortgeenseweg 3,4484 NM,KORTGENE,,,,,,,,,15647,14003,12403,10852,9348,7894,6486,5131,,,,,,,,,18032,20283,22000,22858,,,,,,,,,,,,,18032,20283,22000,22858,,,,
Netherlands,Operator Holding Account,B.V. Oldambt,02322173,2013-01-01,open,Langeweg 5,9682 XR,OOSTWOLD GEM OLDAMBT,,,,,,,,,15854,14188,12567,10995,9472,7998,6571,5199,,,,,,,,,17792,20980,20998,24519,,,,,,,,,,,,,17792,20980,20998,24519,,,,
Netherlands,Operator Holding Account,Coöperatieve Grasdrogerij Ruinerwold en Omstreken B.A.,04006722,2013-02-19,open,Dokter Larijweg 81a,7961 NP,RUINERWOLD,,,,,,,,,18067,16168,14321,12530,10795,9114,7489,5925,,,,,,,,,20362,29083,20490,22843,,,,,,,,,,,,,20362,29083,20490,22843,,,,
Netherlands,Operator Holding Account,Asfalt Centrale Over Betuwe B.V.,09021915,2013-01-01,open,Looveer 1b,6851 AJ,Huissen,,,,,,,,,1843,1650,1461,1278,1101,929,764,604,,,,,,,,,1934,1944,2290,2489,,,,,,,,,,,,,1934,1944,2290,2489,,,,
Netherlands,Operator Holding Account,Petrogas E&P Netherlands B.V.,27114238,2013-03-07,open,Laan van Zuid Hoorn 14,2289 DE,Rijswijk,,,,,,,,,49086,48233,47370,46499,45618,44728,43828,42924,,,,,,,,,63616,64574,63192,66617,,,,,,,,,,,,,63616,64574,63192,66617,,,,
Netherlands,Operator Holding Account,Asfaltcentrale Hazeleger-van Gelder,08020197,2013-01-01,open,Nijverheidsstraat 42,3861 RJ,NIJKERK GLD,,,,,,,,,3042,2723,2412,2110,1818,1535,1261,998,,,,,,,,,2240,2341,3292,4314,,,,,,,,,,,,,2240,2341,3292,4314,,,,
Netherlands,Operator Holding Account,Wintershall Noordzee B.V.,27100034,2013-02-19,open,Bogaardplein 47,2284 DP,RIJSWIJK ZH,,,,,,,,,41788,41062,40328,39586,38836,38079,37312,36542,,,,,,,,,59598,62581,58855,56159,,,,,,,,,,,,,59598,62581,58855,56159,,,,
Netherlands,Operator Holding Account,Wintershall Noordzee B.V.,27100034,2013-02-19,open,Bogaardplein 47,2284 DP,RIJSWIJK ZH,,,,,,,,,27212,26739,26261,25778,25289,24796,24297,23796,,,,,,,,,39217,40808,37369,38565,,,,,,,,,,,,,39217,40808,37369,38565,,,,
Netherlands,Operator Holding Account,Wintershall Noordzee B.V.,27100034,2013-02-19,open,Bogaardplein 47,2284 DP,RIJSWIJK ZH,,,,,,,,,41590,40868,40137,39398,38652,37898,37135,36369,,,,,,,,,46781,45375,51764,47836,,,,,,,,,,,,,46781,45375,51764,47836,,,,
Netherlands,Operator Holding Account,Koninklijke Mosa B.V.,14600086,2013-01-02,open,Meerssenerweg 358,6224 AL,MAASTRICHT,,,,,,,,,13298,13067,12833,12597,12359,12118,11874,11629,,,,,,,,,14777,13826,11788,11830,,,,,,,,,,,,,14777,13826,11788,11830,,,,
Netherlands,Operator Holding Account,Air Liquide Industrie B.V.,24266306,2013-01-02,open,Weena 312,3012 NJ,Rotterdam,,,,,,,,,225388,221473,217512,213510,209465,205380,201245,197095,,,,,,,,,96169,95386,85179,59083,,,,,,,,,,,,,96169,95386,85179,59083,,,,
Netherlands,Operator Holding Account,KWS Infra B.V.,05062469,2013-01-01,open,Lange Dreef 9,4131 NJ,VIANEN UT,,,,,,,,,2225,1991,1763,1543,1329,1123,923,730,,,,,,,,,2731,2568,2959,2301,,,,,,,,,,,,,2731,2568,2959,2301,,,,
Netherlands,Operator Holding Account,Bruil Infra B.V.,09040821,2013-01-01,open,Pascalstraat 15,6716 AZ,EDE GLD,,,,,,,,,2195,1964,1740,1522,1312,1107,910,720,,,,,,,,,4360,3393,2077,2160,,,,,,,,,,,,,4360,3393,2077,2160,,,,
Netherlands,Operator Holding Account,Asfalt Productie Westerbroek b.v.,04056756,2013-01-01,open,Energieweg 20,9608 PZ,Westerbroek,,,,,,,,,4139,3704,3281,2870,2472,2087,1715,1357,,,,,,,,,3413,4137,2853,2847,,,,,,,,,,,,,3413,4137,2853,2847,,,,
Netherlands,Operator Holding Account,Bruil Infra B.V.,09040821,2013-01-02,closed,Pascalstraat 15,6716 AZ,EDE GLD,,,,,,,,,2775,0,0,0,0,0,0,0,,,,,,,,,4336,,,,,,,,,,,,,,,,2775,1561,,,,,,
Netherlands,Operator Holding Account,Echter Asfaltcentrale B.V.,13020600,2013-01-01,closed,Havenweg 30,6101 AB,Echt,,,,,,,,,1590,1424,1261,0,0,0,0,0,,,,,,,,,1440,1090,1,,,,,,,,,,,,,,1440,1090,1,,,,,
Netherlands,Operator Holding Account,Asfaltcentrale Rotterdam (ACR) B.V.,24349349,2013-01-01,open,Plaatweg 17,3197 KW,Botlek Rotterdam,,,,,,,,,5924,5301,4696,4111,3543,2994,2463,1951,,,,,,,,,7214,4194,5667,5878,,,,,,,,,,,,,7214,4194,5667,5878,,,,
Netherlands,Operator Holding Account,Gebr. Van Kessel Wegenbouw B.V.,11016659,2013-01-01,open,Kornedijk 7A,4116 CE,BUREN GLD,,,,,,,,,5595,5007,4435,3880,3343,2823,2319,1835,,,,,,,,,6039,5825,5327,4360,,,,,,,,,,,,,6039,5825,5327,4360,,,,
Netherlands,Operator Holding Account,KWS Infra B.V.,05062469,2013-01-01,open,Lange Dreef 9,4131 NJ,VIANEN UT,,,,,,,,,1890,1692,1498,1311,1129,954,784,620,,,,,,,,,3800,2638,3195,2951,,,,,,,,,,,,,3800,2638,3195,2951,,,,
Netherlands,Operator Holding Account,Koudasfalt Staphorst B.V.,05024903,2013-01-01,open,Leenders 3,7951 KM,Staphorst,,,,,,,,,3267,2924,2590,2267,1952,1648,1354,1072,,,,,,,,,3802,4045,3177,3316,,,,,,,,,,,,,3802,4045,3177,3316,,,,
Netherlands,Operator Holding Account,ACU B.V.,53046552,2013-01-01,open,Groenewoudsedijk 7,3528 BG,Utrecht,,,,,,,,,3731,3339,2958,2587,2229,1882,1546,1223,,,,,,,,,4199,3422,4410,4860,,,,,,,,,,,,,4199,3422,4410,4860,,,,
Netherlands,Operator Holding Account,Asfaltproductie Regio Amsterdam B.V.,34217572,2013-01-01,open,Aziëhavenweg 20,1046 BK,Amsterdam,,,,,,,,,5875,5258,4657,4075,3510,2964,2435,1927,,,,,,,,,8784,7146,6853,9196,,,,,,,,,,,,,8784,7146,6853,9196,,,,
Netherlands,Operator Holding Account,N.V. Nederlandse Gasunie,02029700,2013-01-02,open,Concourslaan 17,9727 KC,GRONINGEN,,,,,,,,,34822,31164,454,397,343,289,237,188,,,,,,,,,30052,4453,7161,4045,,,,,,,,,,,,,30052,4453,7161,4045,,,,
Netherlands,Operator Holding Account,N.V. Nederlandse Gasunie,02029700,2013-01-02,open,Concourslaan 17,9727 KC,GRONINGEN,,,,,,,,,132,119,68,59,79,66,55,44,,,,,,,,,92,92,84,221,,,,,,,,,,,,,92,92,84,221,,,,
Netherlands,Operator Holding Account,N.V. Nederlandse Gasunie,02029700,2013-01-02,open,Concourslaan 17,9727 KC,GRONINGEN,,,,,,,,,12806,11460,202,177,152,129,106,83,,,,,,,,,8732,1897,328,1121,,,,,,,,,,,,,8732,1897,328,1121,,,,
Netherlands,Operator Holding Account,N.V. Nederlandse Gasunie,02029700,2013-01-02,open,Concourslaan 17,9727 KC,GRONINGEN,,,,,,,,,4501,4029,1797,797,18,15,12,10,,,,,,,,,15898,1857,686,611,,,,,,,,,,,,,15898,1857,686,611,,,,
Netherlands,Operator Holding Account,N.V. Nederlandse Gasunie,02029700,2013-01-02,open,Concourslaan 17,9727 KC,GRONINGEN,,,,,,,,,20028,17924,211,185,159,134,110,87,,,,,,,,,23750,8975,5548,4357,,,,,,,,,,,,,23750,8975,5548,4357,,,,
Netherlands,Operator Holding Account,N.V. Nederlandse Gasunie,02029700,2013-01-02,open,Concourslaan 17,9727 KC,GRONINGEN,,,,,,,,,11371,10177,113,98,85,71,59,46,,,,,,,,,7370,5420,2364,3057,,,,,,,,,,,,,7370,5420,2364,3057,,,,
Netherlands,Operator Holding Account,N.V. Nederlandse Gasunie,02029700,2013-01-02,open,Concourslaan 17,9727 KC,GRONINGEN,,,,,,,,,5148,4608,2146,1878,1618,1366,1122,888,,,,,,,,,8271,2635,2337,2856,,,,,,,,,,,,,8271,2635,2337,2856,,,,
Netherlands,Operator Holding Account,N.V. Nederlandse Gasunie,02029700,2013-01-02,open,Concourslaan 17,9727 KC,GRONINGEN,,,,,,,,,17074,15279,6878,6018,167,142,116,92,,,,,,,,,26843,8152,5053,2342,,,,,,,,,,,,,26843,8152,5053,2342,,,,
Netherlands,Operator Holding Account,Centrica Production Nederland B.V.,34081068,2013-07-25,open,Polarisavenue 39 Transpolis,2132 JH,HOOFDDORP,,,,,,,,,101612,99847,98062,96257,94434,92592,90728,88857,,,,,,,,,152766,127309,107384,113958,,,,,,,,,,,,,152766,127309,107384,113958,,,,
Netherlands,Operator Holding Account,NEDMAG Holding B.V.,02322491,2013-01-01,open,Billitonweg 1,9641 KZ,VEENDAM,,,,,,,,,89923,88361,86781,85185,83571,81941,80291,78635,,,,,,,,,72540,80155,78219,75530,,,,,,,,,,,,,72540,80155,78219,75530,,,,
Netherlands,Operator Holding Account,Wienerberger B.V.,17078258,2013-01-02,open,Hogeweg 95,5301 LK,ZALTBOMMEL,,,,,,,,,16932,16638,16341,16040,15736,15429,15118,14807,,,,,,,,,10823,10071,11634,11478,,,,,,,,,,,,,10823,10071,11634,11478,,,,
Netherlands,Operator Holding Account,Wienerberger B.V.,17078258,2013-01-02,open,Hogeweg 95,5301 LK,ZALTBOMMEL,,,,,,,,,9409,9246,9081,8913,8745,8574,8401,8228,,,,,,,,,6903,8283,9126,8499,,,,,,,,,,,,,6903,8283,9126,8499,,,,
Netherlands,Operator Holding Account,Wienerberger B.V.,17078258,2013-01-02,open,Hogeweg 95,5301 LK,ZALTBOMMEL,,,,,,,,,9458,9294,9128,8960,8790,8619,8445,8271,,,,,,,,,8313,8048,8143,7996,,,,,,,,,,,,,8313,8048,8143,7996,,,,
Netherlands,Operator Holding Account,Agristo B.V.,18076913,2013-03-07,open,Heieinde 1,5047 SX,Tilburg,,,,,,,,,20484,25159,24714,24268,23823,23377,22932,22486,,,,,,,,,20493,23074,28036,29233,,,,,,,,,,,,,20493,23074,28036,29233,,,,
Netherlands,Operator Holding Account,Air Liquide Industrie B.V.,24266306,2013-07-29,open,Weena 312,3012 NJ,Rotterdam,,,,,,,,,69841,68628,67400,66160,64907,63641,62359,61074,,,,,,,,,78899,81871,72884,67935,,,,,,,,,,,,,78899,81871,72884,67935,,,,
Netherlands,Operator Holding Account,ExxonMobil Chemical Holland B.V.,24231768,2013-07-29,open,"Botlekweg 121, HAVENNR 4060",3197 KA,BOTLEK ROTTERDAM,,,,,,,,,453019,445151,437190,429146,421015,412805,404493,396152,,,,,,,,,426593,390109,445335,389773,,,,,,,,,,,,,426593,390109,445335,389773,,,,
Netherlands,Operator Holding Account,ExxonMobil Chemical Holland B.V.,24231768,2013-06-06,open,"Botlekweg 121, HAVENNR 4060",3197 KA,BOTLEK ROTTERDAM,,,,,,,,,67073,65908,64729,63538,62334,61119,59888,58653,,,,,,,,,49509,48869,32170,41632,,,,,,,,,,,,,49509,48869,32170,41632,,,,
Netherlands,Operator Holding Account,Chemelot Site Permit B.V.,14083045,2013-01-01,open,Koestraat 1,6167 RA,GELEEN,,,,,,,,,1017692,1000016,982132,964061,945796,927353,908680,889942,,,,,,,,,1516756,1755497,1694937,1787770,,,,,,,,,,,,,1558756,1755497,1694937,1787770,,,,
Netherlands,Operator Holding Account,Chemelot Site Permit B.V.,14083045,2013-01-01,open,Koestraat 1,6167 RA,GELEEN,,,,,,,,,732093,719377,706512,693512,680373,667106,653673,640194,,,,,,,,,949936,856705,945316,919535,,,,,,,,,,,,,949936,856705,945316,919535,,,,
Netherlands,Operator Holding Account,Chemelot Site Permit B.V.,14083045,2013-01-01,open,Koestraat 1,6167 RA,GELEEN,,,,,,,,,767596,754263,740774,727144,713368,699457,685373,671240,,,,,,,,,925279,920735,706705,825037,,,,,,,,,,,,,925279,920735,706705,825037,,,,
Netherlands,Operator Holding Account,Chemelot Site Permit B.V.,14083045,2013-01-01,open,Koestraat 1,6167 RA,GELEEN,,,,,,,,,73645,72366,71072,69764,68443,67108,65757,64401,,,,,,,,,26089,62410,62652,26195,,,,,,,,,,,,,26089,62410,62652,26195,,,,
Netherlands,Operator Holding Account,Chemelot Site Permit B.V.,14083045,2013-01-01,open,Koestraat 1,6167 RA,GELEEN,,,,,,,,,144616,142104,139563,136995,134400,131779,129125,126463,,,,,,,,,16151,13629,16701,17586,,,,,,,,,,,,,16151,13629,16701,17586,,,,
Netherlands,Operator Holding Account,Chemelot Site Permit B.V.,14083045,2013-01-01,open,Koestraat 1,6167 RA,GELEEN,,,,,,,,,65465,64328,63178,62015,60840,59654,58453,57248,,,,,,,,,34818,55929,75839,1295,,,,,,,,,,,,,34818,55929,75839,1295,,,,
Netherlands,Operator Holding Account,Chemelot Site Permit B.V.,14083045,2013-01-01,open,Koestraat 1,6167 RA,GELEEN,,,,,,,,,44119,43353,42578,41794,41002,40203,39393,38581,,,,,,,,,99016,66485,90491,48485,,,,,,,,,,,,,99016,66485,90491,48485,,,,
Netherlands,Operator Holding Account,Chemelot Site Permit B.V.,14083045,2013-01-01,open,Koestraat 1,6167 RA,GELEEN,,,,,,,,,92043,90444,88826,87192,85540,83872,82183,80489,,,,,,,,,170989,170352,155527,167623,,,,,,,,,,,,,176497,176981,155527,155486,,,,
Netherlands,Operator Holding Account,Chemelot Site Permit B.V.,14083045,2013-01-01,open,Koestraat 1,6167 RA,GELEEN,,,,,,,,,208588,204965,201299,197595,193851,190071,186244,182404,,,,,,,,,92636,72754,84494,73399,,,,,,,,,,,,,92636,72754,84494,73399,,,,
Netherlands,Operator Holding Account,Chemelot Site Permit B.V.,14083045,2013-01-01,open,Koestraat 1,6167 RA,GELEEN,,,,,,,,,133956,131629,129275,126897,124492,122065,119607,117141,,,,,,,,,45070,49479,42849,44211,,,,,,,,,,,,,45070,49479,42849,44211,,,,
Netherlands,Operator Holding Account,Chemelot Site Permit B.V.,14083045,2013-01-01,open,Koestraat 1,6167 RA,GELEEN,,,,,,,,,126048,123858,121643,119405,117143,114858,112546,110225,,,,,,,,,52396,67572,71495,78946,,,,,,,,,,,,,55396,67572,71495,78946,,,,
Netherlands,Operator Holding Account,Chemelot Site Permit B.V.,14083045,2013-01-01,open,Koestraat 1,6167 RA,GELEEN,,,,,,,,,145039,142519,139971,137395,134792,132164,129502,126832,,,,,,,,,42523,5702,4407,4468,,,,,,,,,,,,,42523,5702,4407,4468,,,,
Netherlands,Operator Holding Account,Chemelot Site Permit B.V.,14083045,2013-01-01,open,Koestraat 1,6167 RA,GELEEN,,,,,,,,,26324,25866,25404,24936,24464,23987,23504,23019,,,,,,,,,83402,69457,75619,68970,,,,,,,,,,,,,83402,69457,75619,68970,,,,
Netherlands,Operator Holding Account,DOW Benelux B.V.,24104547,2013-01-01,open,Herbert H. Dowweg 5,4542 NM,Hoek,,,,,,,,,688174,676221,664127,651907,639556,627085,614458,601787,,,,,,,,,747429,745442,719461,696049,,,,,,,,,,,,,747429,745442,719461,696049,,,,
Netherlands,Operator Holding Account,DOW Benelux B.V.,24104547,2013-01-01,open,Herbert H. Dowweg 5,4542 NM,Hoek,,,,,,,,,812295,798186,783912,769488,754909,740188,725284,710328,,,,,,,,,768903,777761,665277,822941,,,,,,,,,,,,,768903,777761,665277,822941,,,,
Netherlands,Operator Holding Account,DOW Benelux B.V.,24104547,2013-01-01,open,Herbert H. Dowweg 5,4542 NM,Hoek,,,,,,,,,180450,177316,174145,170941,167702,164432,161121,157798,,,,,,,,,1771,4643,10,611,,,,,,,,,,,,,1771,4643,10,611,,,,
Netherlands,Operator Holding Account,DOW Benelux B.V.,24104547,2013-01-01,open,Herbert H. Dowweg 5,4542 NM,Hoek,,,,,,,,,77401,76057,74697,73322,71933,70530,69110,67685,,,,,,,,,7327,8487,7101,6448,,,,,,,,,,,,,7327,8487,7101,6448,,,,
Netherlands,Operator Holding Account,DOW Benelux B.V.,24104547,2013-01-01,open,Herbert H. Dowweg 5,4542 NM,Hoek,,,,,,,,,191495,188169,184804,181403,177967,174496,170983,167457,,,,,,,,,98647,94974,89787,100823,,,,,,,,,,,,,98647,94974,89787,100823,,,,
Netherlands,Operator Holding Account,DOW Benelux B.V.,24104547,2013-01-01,open,Herbert H. Dowweg 5,4542 NM,Hoek,,,,,,,,,51223,50333,49433,48523,47604,46676,45736,44793,,,,,,,,,46408,30070,30450,26456,,,,,,,,,,,,,46408,30070,30450,26456,,,,
Netherlands,Operator Holding Account,DOW Benelux B.V.,24104547,2013-01-01,open,Herbert H. Dowweg 5,4542 NM,Hoek,,,,,,,,,73034,71765,70482,69185,67874,66550,65210,63866,,,,,,,,,75525,67307,65315,63120,,,,,,,,,,,,,75525,67307,65315,63120,,,,
Netherlands,Operator Holding Account,DOW Benelux B.V.,24104547,2013-01-01,open,Herbert H. Dowweg 5,4542 NM,Hoek,,,,,,,,,166385,163495,160571,157616,154630,151615,148562,145498,,,,,,,,,93075,157765,168729,151523,,,,,,,,,,,,,93075,157765,168729,151523,,,,
Netherlands,Operator Holding Account,Yara Sluiskil B.V.,21001824,2013-01-01,open,Industrieweg 10,4541 HJ,SLUISKIL,,,,,,,,,934476,918245,901823,885230,868458,851523,834377,817171,,,,,,,,,1185536,1030772,1233816,1239653,,,,,,,,,,,,,1185536,1030772,1233816,1239653,,,,
Netherlands,Operator Holding Account,Yara Sluiskil B.V.,21001824,2013-01-01,open,Industrieweg 10,4541 HJ,SLUISKIL,,,,,,,,,1008573,991055,973331,955423,937321,919043,900538,881968,,,,,,,,,1224587,1213616,1312062,1301474,,,,,,,,,,,,,1224587,1213616,1312062,1301474,,,,
Netherlands,Operator Holding Account,Yara Sluiskil B.V.,21001824,2013-01-01,open,Industrieweg 10,4541 HJ,SLUISKIL,,,,,,,,,169204,166265,163292,160287,157251,154184,151080,147964,,,,,,,,,62839,77750,77725,70074,,,,,,,,,,,,,62839,77750,77725,70074,,,,
Netherlands,Operator Holding Account,Yara Sluiskil B.V.,21001824,2013-01-01,open,Industrieweg 10,4541 HJ,SLUISKIL,,,,,,,,,213925,210210,206450,202652,198812,194935,191010,187071,,,,,,,,,140411,154782,141980,160705,,,,,,,,,,,,,140411,154782,141980,160705,,,,
Netherlands,Operator Holding Account,Yara Sluiskil B.V.,21001824,2013-01-01,open,Industrieweg 10,4541 HJ,SLUISKIL,,,,,,,,,428877,421428,413891,406276,398578,390806,382937,375040,,,,,,,,,228464,223178,223841,225885,,,,,,,,,,,,,228464,223178,223841,225885,,,,
Netherlands,Operator Holding Account,Ruigenhil Vastgoed B.V.,23093134,2013-01-01,open,Rapenburg 1,2952 AP,ALBLASSERDAM,,,,,,,,,24393,23969,23541,23107,22670,22228,21780,21331,,,,,,,,,19732,20081,19038,18983,,,,,,,,,,,,,19732,20081,19038,18983,,,,
Netherlands,Operator Holding Account,Odfjell Terminals (Rotterdam) B.V.,24298282,2013-01-01,open,Oude Maasweg 6,3197 KJ,Botlek Rotterdam,,,,,,,,,15960,7842,7702,15119,14833,14543,14251,13957,,,,,,,,,8272,6162,13577,16706,,,,,,,,,,,,,8272,6162,13577,16706,,,,
Netherlands,Operator Holding Account,PPG Industries Delfzijl B.V.,02329711,2013-01-02,open,Valgenweg 1,9936 HV,Farmsum,,,,,,,,,35030,34421,33806,33184,32555,31920,31277,30632,,,,,,,,,36103,36442,36296,44005,,,,,,,,,,,,,36103,36442,36296,44005,,,,
Netherlands,Operator Holding Account,Tata Steel IJmuiden B.V.,34040331,2013-01-01,open,Wenckebachstraat 1,1951JZ,VELSEN-NOORD,,,,,,,,,68252,67067,65867,64655,63430,62193,60941,59684,,,,,,,,,84924,85122,87637,86000,,,,,,,,,,,,,84924,85122,87637,86000,,,,
Netherlands,Operator Holding Account,BioMethanol Chemie Nederland B.V.,61046086,2013-08-30,open,Oosterhorn 10,9936 HD,Farmsum,,,,,,,,,397347,390445,383462,376407,369276,362074,354784,347467,,,,,,,,,258190,294374,266684,255962,,,,,,,,,,,,,258190,294374,266684,255962,,,,
Netherlands,Operator Holding Account,Caldic Chemie B.V.,24183521,2013-03-07,open,Westerlaan 1,3016 CK,Rotterdam,,,,,,,,,14643,14389,14132,13872,13609,13343,13075,12805,,,,,,,,,14381,14694,13085,14041,,,,,,,,,,,,,14381,14694,13085,14041,,,,
Netherlands,Operator Holding Account,Basell Benelux B.V.,20078583,2013-01-02,open,Vondelingenweg 601,3196 KK,VONDELINGENPLAAT RT,,,,,,,,,28517,28022,27521,27014,26503,25986,25463,24938,,,,,,,,,12894,18529,21478,11270,,,,,,,,,,,,,10788,20635,21478,11270,,,,
Netherlands,Operator Holding Account,ENGIE E&P Nederland B.V.,27113806,2013-07-29,open,Einsteinlaan 10,2719 EP,ZOETERMEER,,,,,,,,,19779,19436,19088,18737,18382,18023,17661,17296,,,,,,,,,26136,22773,16365,25593,,,,,,,,,,,,,26136,22773,16365,25593,,,,
Netherlands,Operator Holding Account,ENGIE E&P Nederland B.V.,27113806,2013-04-25,open,Einsteinlaan 10,2719 EP,ZOETERMEER,,,,,,,,,38214,37550,36879,36200,35514,34822,34121,33417,,,,,,,,,30360,40071,35463,44978,,,,,,,,,,,,,30360,40071,35463,44978,,,,
Netherlands,Operator Holding Account,ENGIE E&P Nederland B.V.,27113806,2013-06-06,open,Einsteinlaan 10,2719 EP,ZOETERMEER,,,,,,,,,73766,72485,71189,69879,68555,67218,65864,64506,,,,,,,,,72440,70738,70479,53297,,,,,,,,,,,,,72440,70738,70479,53297,,,,
Netherlands,Operator Holding Account,SHELL Nederland Chemie B.V.,24082750,2013-01-01,open,Chemieweg 25,4782 SJ,Moerdijk,,,,,,,,,210908,207244,203538,199793,196008,192185,188316,184432,,,,,,,,,145809,157286,164282,140968,,,,,,,,,,,,,145809,157286,164282,140968,,,,
Netherlands,Operator Holding Account,SHELL Nederland Chemie B.V.,24082750,2013-01-01,open,Chemieweg 25,4782 SJ,Moerdijk,,,,,,,,,293449,288352,141598,0,272718,267400,262016,256613,,,,,,,,,205542,78560,858,210552,,,,,,,,,,,,,205542,78560,858,210552,,,,
Netherlands,Operator Holding Account,SHELL Nederland Chemie B.V.,24082750,2013-01-01,open,Chemieweg 25,4782 SJ,Moerdijk,,,,,,,,,128631,126396,124136,121852,119543,117212,114852,112484,,,,,,,,,362691,194316,109389,206038,,,,,,,,,,,,,362691,194316,109389,206038,,,,
Netherlands,Operator Holding Account,SHELL Nederland Chemie B.V.,24082750,2013-01-01,open,Chemieweg 25,4782 SJ,Moerdijk,,,,,,,,,111262,109329,107374,105398,103402,101385,99344,97295,,,,,,,,,90686,66749,78317,95466,,,,,,,,,,,,,90686,66749,78317,95466,,,,
Netherlands,Operator Holding Account,SHELL Nederland Chemie B.V.,24082750,2013-01-01,open,Chemieweg 25,4782 SJ,Moerdijk,,,,,,,,,152890,150234,147547,144833,142088,139318,136512,133697,,,,,,,,,43258,36820,41226,35511,,,,,,,,,,,,,43258,36820,41226,35511,,,,
Netherlands,Operator Holding Account,SHELL Nederland Chemie B.V.,24082750,2013-01-01,open,Chemieweg 25,4782 SJ,Moerdijk,,,,,,,,,166604,163711,81628,2427,154834,151815,148758,145691,,,,,,,,,15861,11448,11140,21373,,,,,,,,,,,,,15861,11448,11140,21373,,,,
Netherlands,Operator Holding Account,SHELL Nederland Chemie B.V.,24082750,2013-01-01,open,Chemieweg 25,4782 SJ,Moerdijk,,,,,,,,,181269,178121,174935,87025,168463,165178,161852,158515,,,,,,,,,504712,487704,369218,664626,,,,,,,,,,,,,504712,487704,369218,664626,,,,
Netherlands,Operator Holding Account,B.V. Asfalt Productie Kootstertille (A.P.K.),01083550,2013-01-01,open,Westkern 7-A,9288 CA,Kootstertille,,,,,,,,,3048,2727,2415,2114,1821,1538,1263,999,,,,,,,,,5143,4833,3269,4572,,,,,,,,,,,,,5143,4833,3269,4572,,,,
Netherlands,Operator Holding Account,Noordgastransport B.V.,27083890,2013-02-09,open,Einsteinlaan 10,2719 EP,Zoetermeer,,,,,,,,,14194,13947,13698,13446,13191,12934,12673,12412,,,,,,,,,14207,12598,12106,10914,,,,,,,,,,,,,14207,12598,12106,10914,,,,
Netherlands,Operator Holding Account,Vopak Terminal Vlissingen B.V.,22034940,2013-04-25,open,Frankrijkweg 4,4455 TR,Nieuwdorp,,,,,,,,,2257,2020,1790,1566,1348,1139,936,740,,,,,,,,,4621,3859,4683,6381,,,,,,,,,,,,,4621,3859,4683,6381,,,,
Netherlands,Operator Holding Account,Monier B.V.,30223100,2013-03-07,open,Heeswijk 155,3417 GP,Montfoort,,,,,,,,,8750,8598,8445,8289,8132,7974,7813,7652,,,,,,,,,10515,10467,10550,11091,,,,,,,,,,,,,10515,10467,10550,11091,,,,
Netherlands,Operator Holding Account,Monier B.V.,30223100,2013-02-19,open,Heeswijk 155,3417 GP,Montfoort,,,,,,,,,13000,12774,12546,12315,12082,11846,11608,11368,,,,,,,,,9895,9495,10850,10359,,,,,,,,,,,,,9895,9495,10850,10359,,,,
Netherlands,Operator Holding Account,Asfalt Produktie Maatschappij (A.P.M.) B.V.,20076210,2013-01-01,open,Van Konijnenburgweg 54,4612 PL,Bergen op Zoom,,,,,,,,,3602,3224,2855,2498,2152,1817,1493,1181,,,,,,,,,4414,5712,4554,4084,,,,,,,,,,,,,4414,5712,4554,4084,,,,
Netherlands,Operator Holding Account,Grasdrogerij Hartog B.V.,37125836,2013-01-02,open,Mijnsherenweg 7,1658 CA,Lambertschaag,,,,,,,,,6150,5504,4875,4265,3674,3103,2550,2016,,,,,,,,,5441,7521,5260,7334,,,,,,,,,,,,,5441,7521,5260,7334,,,,
Netherlands,Operator Holding Account,Asfalt-Centrale BAM B.V.,30208049,2013-01-01,open,Aziehavenweg 19,1046 BK,AMSTERDAM,,,,,,,,,3546,3173,2810,2459,2118,1789,1470,1162,,,,,,,,,3130,4126,4803,3086,,,,,,,,,,,,,3130,4126,4803,3086,,,,
Netherlands,Operator Holding Account,Haagse Asfaltcentrale (HAC) B.V.,27257077,2013-01-01,open,Zonweg 33,2516 AK,'S-GRAVENHAGE,,,,,,,,,3226,2887,2557,2238,1927,1628,1338,1058,,,,,,,,,5146,4712,3446,4145,,,,,,,,,,,,,5146,4712,3446,4145,,,,
Netherlands,Operator Holding Account,Asfalt-Centrale Limburg B.V.,14030480,2013-01-01,open,Heidekampweg 2,6171 DZ,STEIN LB,,,,,,,,,2887,2583,2288,2001,1724,1456,1196,946,,,,,,,,,4153,3952,4460,7046,,,,,,,,,,,,,4153,3952,4460,7046,,,,
Netherlands,Operator Holding Account,Asfalt Centrale Rivierenland v.o.f.,11015389,2013-01-01,open,Zuiderhavenweg 26,4004 JJ,TIEL,,,,,,,,,1901,1701,1507,1318,1135,959,788,623,,,,,,,,,2231,1686,3513,2696,,,,,,,,,,,,,2231,1686,3513,2696,,,,
Netherlands,Operator Holding Account,Sensus B.V.,20169318,2013-01-01,open,Borchwerf 3,4704 RG,ROOSENDAAL,,,,,,,,,10831,10643,10452,10260,10066,9869,9671,9471,,,,,,,,,8557,9946,12492,12605,,,,,,,,,,,,,8557,9946,12492,12605,,,,
Netherlands,Operator Holding Account,Total E&P Nederland B.V.,27075440,2013-02-19,open,Bordewijklaan 18,2591 XR,'S-GRAVENHAGE,,,,,,,,,48472,47630,46778,45917,45048,44169,43280,42387,,,,,,,,,55994,55091,52402,58284,,,,,,,,,,,,,55994,55091,52402,58284,,,,
Netherlands,Operator Holding Account,Shin-Etsu PVC B.V.,34123402,2013-06-06,open,Noorderweg 68-1,1221 AB,Hilversum,,,,,,,,,105543,103710,101855,99981,98087,96174,94238,92295,,,,,,,,,100189,97346,95563,101945,,,,,,,,,,,,,100189,97346,95563,101945,,,,
Netherlands,Operator Holding Account,Total E&P Nederland B.V.,27075440,2013-02-19,open,Bordewijklaan 18,2591 XR,'S-GRAVENHAGE,,,,,,,,,90891,89312,87715,86101,84469,82822,81155,79481,,,,,,,,,107961,101785,119167,119669,,,,,,,,,,,,,107961,101785,119167,119669,,,,
Netherlands,Operator Holding Account,Total E&P Nederland B.V.,27075440,2013-02-19,open,Bordewijklaan 18,2591 XR,'S-GRAVENHAGE,,,,,,,,,50418,49542,48656,47761,46856,45942,45017,44089,,,,,,,,,66935,61872,62737,46660,,,,,,,,,,,,,66935,61872,62737,46660,,,,
Netherlands,Operator Holding Account,Total E&P Nederland B.V.,27075440,2013-02-19,open,Bordewijklaan 18,2591 XR,'S-GRAVENHAGE,,,,,,,,,17573,17268,16959,16647,16332,16013,15691,15367,,,,,,,,,20310,20368,22621,21254,,,,,,,,,,,,,20310,20368,22621,21254,,,,
Netherlands,Operator Holding Account,AKZO Nobel Chemicals B.V.,31038214,2013-01-01,open,Stationsstraat 77,3811 MH,AMERSFOORT,,,,,,,,,316662,311162,305597,299974,294291,288552,282742,276912,,,,,,,,,3189,3329,2593,2578,,,,,,,,,,,,,3189,3329,2593,2578,,,,
Netherlands,Operator Holding Account,Cargill B.V.,33119622,2013-01-01,open,Evert van de Beekstraat 378,1118 CZ,SCHIPHOL,,,,,,,,,1391,1366,1342,1317,1292,1267,1242,1216,,,,,,,,,12981,9475,9619,5461,,,,,,,,,,,,,12981,9475,9619,5461,,,,
Netherlands,Operator Holding Account,Owens Corning Veil Netherlands B.V.,08037383,2013-01-02,open,Laan van Westenenk 5,7336 AZ,Apeldoorn,,,,,,,,,14433,14182,13929,13672,13413,13152,12887,12621,,,,,,,,,17676,17326,19385,18368,,,,,,,,,,,,,17676,17326,19385,18368,,,,
Netherlands,Operator Holding Account,Cabot Norit Nederland B.V.,31020246,2013-10-24,open,Astronaut 34,3824 MJ,Amersfoort,,,,,,,,,128815,126574,124332,122091,119849,117608,115367,113125,,,,,,,,,125468,149477,99394,94831,,,,,,,,,,,,,115295,148632,110412,94831,,,,
Netherlands,Operator Holding Account,Strabag B.V.,27143852,2013-01-01,open,Oude Trambaan 29,6049 GT,Herten,,,,,,,,,3096,2771,2454,2147,1849,1562,1284,1016,,,,,,,,,2568,2644,3557,3111,,,,,,,,,,,,,2568,2644,3557,3111,,,,
Netherlands,Operator Holding Account,SHELL Nederland Chemie B.V.,24082750,2013-04-25,open,Chemieweg 25,4782 SJ,Moerdijk,,,,,,,,,384605,377925,371166,364337,357434,350464,343407,336326,,,,,,,,,39690,32607,27193,26940,,,,,,,,,,,,,39690,32607,27193,26940,,,,
Netherlands,Operator Holding Account,Gate terminal B.V.,24385944,2013-06-06,open,Maasvlakteweg 991,3199 LZ,ROTTERDAM,,,,,,,,,,,,,,,,,,,,,,,,,21,32,41,64,,,,,,,,,,,,,21,32,41,64,,,,
Netherlands,Operator Holding Account,Nederlandse Aardolie Maatschappij B.V.,04008869,2013-01-01,open,Schepersmaat 2,9405 TA,ASSEN,,,,,,,,,50380,49505,48620,47725,46821,45908,44983,44056,,,,,,,,,59915,61742,60215,61644,,,,,,,,,,,,,59915,61742,60215,61644,,,,
Netherlands,Operator Holding Account,Nederlandse Aardolie Maatschappij B.V.,04008869,2013-01-01,open,Schepersmaat 2,9405 TA,ASSEN,,,,,,,,,4979,4892,4805,4716,4627,4537,4445,4354,,,,,,,,,6802,5006,7430,16383,,,,,,,,,,,,,6802,5006,7430,16383,,,,
Netherlands,Operator Holding Account,Nederlandse Aardolie Maatschappij B.V.,04008869,2013-01-01,open,Schepersmaat 2,9405 TA,ASSEN,,,,,,,,,21063,20697,20327,19953,19575,19193,18807,18419,,,,,,,,,22782,22866,20839,19095,,,,,,,,,,,,,22782,22866,20839,19095,,,,
Netherlands,Operator Holding Account,Nederlandse Aardolie Maatschappij B.V.,04008869,2013-01-01,open,Schepersmaat 2,9405 TA,ASSEN,,,,,,,,,7762,7628,7491,7353,7214,7073,6931,6788,,,,,,,,,6691,6539,12760,6952,,,,,,,,,,,,,6691,6539,12760,6952,,,,
Netherlands,Operator Holding Account,Nederlandse Aardolie Maatschappij B.V.,04008869,2013-01-01,open,Schepersmaat 2,9405 TA,ASSEN,,,,,,,,,115912,113899,111862,109804,107723,105623,103496,101362,,,,,,,,,130489,114441,126961,130426,,,,,,,,,,,,,130489,114441,126961,130426,,,,
Netherlands,Operator Holding Account,Nederlandse Aardolie Maatschappij B.V.,04008869,2013-01-01,open,Schepersmaat 2,9405 TA,ASSEN,,,,,,,,,56006,55033,54049,53055,52049,51035,50007,48976,,,,,,,,,54794,62820,64059,55293,,,,,,,,,,,,,54794,62820,64059,55293,,,,
Netherlands,Operator Holding Account,Nederlandse Aardolie Maatschappij B.V.,04008869,2013-01-01,open,Schepersmaat 2,9405 TA,ASSEN,,,,,,,,,8583,8433,8283,8130,7976,7821,7663,7505,,,,,,,,,10954,10667,10260,10304,,,,,,,,,,,,,10954,10667,10260,10304,,,,
Netherlands,Operator Holding Account,Aluminium & Chemie Rotterdam B.V.,24120312,2013-10-24,open,Oude Maasweg 80,3197 KJ,Botlek Rotterdam,,,,,,,,,109066,107172,105255,103319,101361,99385,97383,95375,,,,,,,,,214870,162681,128870,154642,,,,,,,,,,,,,214870,162681,128870,154642,,,,
Netherlands,Operator Holding Account,PepsiCo Nederland B.V.,30098485,2013-01-01,open,Zonnebaan 35,3542 EB,UTRECHT,,,,,,,,,8087,7238,6410,5608,4832,4080,3352,2652,,,,,,,,,12732,13030,12692,11705,,,,,,,,,,,,,12732,13030,12692,11705,,,,
Netherlands,Operator Holding Account,Brabantse Asfalt Centrale B.V.,60515767,2013-01-01,open,Churchill-laan 202,5705 BK,Helmond,,,,,,,,,3525,3154,2794,2445,2106,1778,1461,1156,,,,,,,,,4614,3711,3269,3640,,,,,,,,,,,,,4614,3711,3269,3640,,,,
Netherlands,Operator Holding Account,LyondellBasell Covestro Manufacturing Maasvlakte V.O.F,24313844,2013-01-01,open,Delftseplein 27E,3013 AA,Rotterdam,,,,,,,,,460446,452448,444357,436181,427917,419572,411124,402646,,,,,,,,,10996,11749,11880,12356,,,,,,,,,,,,,10996,11749,11880,12356,,,,
Netherlands,Operator Holding Account,Lyondell Chemie Nederland B.V.,24314683,2013-01-01,open,Delftseplein 27-E,3013 AA,Rotterdam,,,,,,,,,506564,497765,488863,479868,470777,461597,452302,442975,,,,,,,,,127282,116903,152358,291774,,,,,,,,,,,,,127282,116903,152358,291774,,,,
Netherlands,Operator Holding Account,Lyondell Chemie Nederland B.V.,24314683,2013-01-01,open,Delftseplein 27-E,3013 AA,Rotterdam,,,,,,,,,100,98,96,95,93,91,89,87,,,,,,,,,5315,2226,1578,3236,,,,,,,,,,,,,5315,2226,1578,3236,,,,
Netherlands,Operator Holding Account,Siniat B.V.,02320379,2013-01-01,open,Oosterhorn 32,9936 HD,FARMSUM,,,,,,,,,20239,24859,24415,23966,23512,23053,22589,22123,,,,,,,,,43885,41934,41338,41711,,,,,,,,,,,,,43885,41934,41338,41711,,,,
Netherlands,Operator Holding Account,Euro Tank Terminal B.V.,24363713,2013-03-07,open,Moezelweg 151,3198 LS,Europoort Rotterdam,,,,,,,,,,,,,,,,,,,,,,,,,15860,9202,4775,4451,,,,,,,,,,,,,15860,9202,4775,4451,,,,
Netherlands,Operator Holding Account,RWE Eemshaven Holding II B.V.,66363128,2013-01-22,open,Amerweg 1,4931NC,Geertruidenberg,,,,,,,,,,,,,,,,,,,,,,,,,55431,3085211,6293776,8319654,,,,,,,,,,,,,55431,3085211,6293776,8319654,,,,
Netherlands,Operator Holding Account,Rosier Nederland B.V.,21009167,2013-01-01,open,Westkade 38a,4551 BV,Sas van Gent,,,,,,,,,18191,17875,17555,17232,16906,16576,16242,15907,,,,,,,,,19086,17017,17991,14805,,,,,,,,,,,,,19086,17017,17991,14805,,,,
Netherlands,Operator Holding Account,Hexion B.V.,24294676,2013-01-01,open,Seattleweg 17 building 4,3195 ND,Pernis Rotterdam,,,,,,,,,172636,169637,166604,163538,160440,157311,154144,150965,,,,,,,,,36873,35775,34625,32929,,,,,,,,,,,,,36873,35775,34625,32929,,,,
Netherlands,Operator Holding Account,Hexion B.V.,24294676,2013-01-01,open,Seattleweg 17 building 4,3195 ND,Pernis Rotterdam,,,,,,,,,9363,9200,9036,8870,8702,8532,8360,8188,,,,,,,,,4607,4813,4619,5352,,,,,,,,,,,,,4607,4813,4619,5352,,,,
Netherlands,Operator Holding Account,SABIC Innovative Plastics B.V.,20079272,2013-01-01,open,Plasticslaan 1,4612 PX,BERGEN OP ZOOM,,,,,,,,,40877,40167,39449,0,0,0,0,0,,,,,,,,,3680,2042,0,,,,,,,,,,,,,,3680,2042,,,,,,
Netherlands,Operator Holding Account,TAQA Energy B.V.,27149802,2013-02-19,open,Kruseman van Eltenweg 1,1817 BC,ALKMAAR,,,,,,,,,11469,11270,5534,10865,10659,10451,10241,10029,,,,,,,,,7499,4484,18036,14749,,,,,,,,,,,,,7499,4484,18036,14749,,,,
Netherlands,Operator Holding Account,TAQA Energy B.V.,27149802,2013-01-01,open,Kruseman van Eltenweg 1,1817 BC,ALKMAAR,,,,,,,,,33106,32531,31950,1628,1598,1566,1535,1503,,,,,,,,,38252,26014,2209,1024,,,,,,,,,,,,,38252,26014,2209,1024,,,,
Netherlands,Operator Holding Account,TAQA Energy B.V.,27149802,2013-01-01,open,Kruseman van Eltenweg 1,1817 BC,ALKMAAR,,,,,,,,,95697,94034,92353,90653,88936,87202,85446,83684,,,,,,,,,72178,80742,81412,76753,,,,,,,,,,,,,72178,80742,81412,76753,,,,
Netherlands,Operator Holding Account,Global Switch Amsterdam B.V.,27184200,2013-10-15,open,Johan Huizingalaan 759,1066 VH,Amsterdam,,,,,,,,,,,,,,,,,,,,,,,,,821,437,457,524,,,,,,,,,,,,,821,437,457,524,,,,
Netherlands,Operator Holding Account,Asfalt Productie Amsterdam (APA) B.V.,34219737,2013-01-01,open,"Amerikahavenweg 6, Havennr 5468",1045 AC,Amsterdam,,,,,,,,,4898,4383,3883,3397,2926,2471,2030,1607,,,,,,,,,7330,7192,6586,8768,,,,,,,,,,,,,7330,7192,6586,8768,,,,
Netherlands,Operator Holding Account,Asfalt Productie Rotterdam Rijnmond (APRR) B.V.,33266463,2013-01-01,open,"Vondelingenweg 550, Havennr.3265",3196 KK,VONDELINGENPLAAT RT,,,,,,,,,7128,6379,5650,4943,2129,1798,1477,1169,,,,,,,,,9958,9169,7196,4469,,,,,,,,,,,,,9958,9169,7196,4469,,,,
Netherlands,Operator Holding Account,Vopak Terminal Eemshaven B.V.,24445591,2014-01-01,open,Ranselgatweg 2,9979 XE,Eemshaven,,,,,,,,,,,,,,,,,,,,,,,,,4,7,5,4,,,,,,,,,,,,,4,7,5,4,,,,
Netherlands,Operator Holding Account,Vopak Terminal Amsterdam Westpoort B.V.,24406191,2013-01-01,open,Westerlaan 10,3016 CK,Rotterdam,,,,,,,,,,,,,,,,,,,,,,,,,65,411,504,58,,,,,,,,,,,,,65,411,504,58,,,,
Netherlands,Operator Holding Account,"Iams Europe, B.V.",17095607,2013-01-22,open,Vosmatenweg 4,7742 PB,Coevorden,,,,,,,,,8205,7343,6504,5690,4903,4140,3401,2691,,,,,,,,,9699,9407,8329,7968,,,,,,,,,,,,,9699,9407,8329,7968,,,,
Netherlands,Operator Holding Account,Century Aluminum Vlissingen B.V.,55195229,2013-01-01,open,Frankrijkweg 2a,4389 PB,Ritthem,,,,,,,,,0,27315,26873,42969,42180,41391,40602,39814,,,,,,,,,1043,31772,34019,61932,,,,,,,,,,,,,1043,31772,34019,61932,,,,
Netherlands,Operator Holding Account,Zalco B.V.,55525695,2013-01-01,open,Frankrijkweg 2,4389 PB,Ritthem,,,,,,,,,,,22958,12123,11901,11678,11456,11233,,,,,,,,,2767,7949,12881,11832,,,,,,,,,,,,,2767,7949,12881,11832,,,,
Netherlands,Operator Holding Account,Klesch Aluminium Delfzijl B.V.,61776637,2013-01-01,open,Oosterhorn 20,9936 HD,Farmsum,,,,,,,,,193991,190622,30908,30339,105026,102978,100904,98823,,,,,,,,,148342,3756,62399,81015,,,,,,,,,,,,,148342,3756,62399,81015,,,,
Netherlands,Operator Holding Account,BioEnergieCentrale Delfzijl B.V.,51706210,2013-01-01,open,Marten Meesweg 5,3068 AV,Rotterdam,,,,,,,,,,,,,,,,,,,,,,,,,7114,4692,5347,4832,,,,,,,,,,,,,7114,4692,5347,4832,,,,
Netherlands,Operator Holding Account,E-Max Aluminium Profielen N.V.,14094876,2013-01-01,open,Minervastraat 1,6468 ET,KERKRADE,,,,,,,,,20139,19790,19436,19078,18717,18352,17982,17611,,,,,,,,,15729,19110,17027,20177,,,,,,,,,,,,,15729,19110,17027,20177,,,,
Netherlands,Operator Holding Account,Rasenberg Infra B.V.,20032947,2012-12-31,open,Rat Verleghstraat 120,4815PT,Breda,,,,,,,,,3829,3427,3036,1329,1145,967,794,629,,,,,,,,,2971,4895,2216,2149,,,,,,,,,,,,,,7866,2216,2149,,,,
Netherlands,Operator Holding Account,SVP Productie B.V.,59966491,2014-01-01,open,Nieuwe Gouw 20,1442 LE,Purmerend,,,,,,,,,,,,,,,,,,,,,,,,,,1864,7772,4958,,,,,,,,,,,,,,1864,7772,4958,,,,
Netherlands,Operator Holding Account,Bruil Infra B.V.,09040821,2014-03-24,open,Pascalstraat 15,6716 AZ,EDE GLD,,,,,,,,,,981,1423,1246,1074,907,746,591,,,,,,,,,,1738,3210,4674,,,,,,,,,,,,,,1738,3210,4674,,,,
Netherlands,Operator Holding Account,Eneco Warmtenetten B.V.,27185188,2014-08-11,closed,Marten Meesweg 5,3068 AV,Rotterdam,,,,,,,,,,,,,,,,,,,,,,,,,,0,0,,,,,,,,,,,,,,,,,,,,,
Netherlands,Operator Holding Account,Uniper Benelux N.V.,27028140,2014-08-15,open,Capelseweg 400,3068 AX,ROTTERDAM,,,,,,,,,,,,,,,,,,,,,,,,,,0,36,211,,,,,,,,,,,,,,,36,211,,,,
Netherlands,Aircraft Operator Account,Denim Air ACMI B.V.,17135261,2013-01-01,open,Vermogenweg 3,3641 SR,Mijdrecht,,,,,,,,,,,,,,,,,,,,,,,,,13959,Excluded,Excluded,Excluded,,,,,,,,,,,,,,13959,,,,,,
Netherlands,Operator Holding Account,Theo Pouw Secundaire Bouwstoffen B.V.,30188521,2014-01-01,open,Kwelderweg 15,9979 XN,Eemshaven,,,,,,,,,,,57556,40828,35193,29740,24464,19377,,,,,,,,,,20435,92747,92831,,,,,,,,,,,,,,20435,92747,92831,,,,
Netherlands,Operator Holding Account,A-ware Cheese Production B.V.,55368042,2014-11-04,open,Mars 35,8448 CP,Heerenveen,,,,,,,,,,,12723,12223,11667,11123,10593,10074,,,,,,,,,,745,14449,17878,,,,,,,,,,,,,,745,14449,17878,,,,
Netherlands,Aircraft Operator Account,"China Southern Airlines Co., Ltd.",440000400012565,2012-01-01,open,Airport Road 278,510406,Guangzhou,,,,,,,,,6687,3248,3248,3248,3248,3248,3248,3248,,,,,,,,5517,5246,8462,10724,8409,,,,,,,,,,,,,,19225,10724,8409,,,,
Netherlands,Aircraft Operator Account,PT Garuda Indonesia (Persero) Tbk.,NL12345678,2012-01-01,open,Jalan Kebon Sirih 44,10110,Jakarta,,,,,,,,,,,,,,,,,,,,,,,,,,3451,8481,1588,,,,,,,,,,,,,,3451,8481,1588,,,,
Netherlands,Operator Holding Account,N.V. Nuon Warmte,09117658,2015-10-01,open,Hoekenrode 8,1102 BR,AMSTERDAM,,,,,,,,,,,,,,,,,,,,,,,,,,,52,260,,,,,,,,,,,,,,,52,260,,,,
Netherlands,Operator Holding Account,Erasmus MC,24485070,2016-01-01,open,'s-Gravendijkwal 230,3015 CE,Rotterdam,,,,,,,,,,,445,4738,4084,3451,2839,2249,,,,,,,,,,,591,7877,,,,,,,,,,,,,,,591,7877,,,,
Netherlands,Aircraft Operator Account,"Polar Air Cargo Worldwide, Inc.",3407118,2015-01-01,open,2000 Westchester Avenue,10577,Purchase,,,,,,,,,,,,,,,,,,,,,,,,,,,175,Excluded,,,,,,,,,,,,,,,175,,,,,
Netherlands,Operator Holding Account,Koole Tankstorage Minerals B.V.,52804798,2015-11-20,open,Sluispolderweg 67,1505 HJ,Zaandam,,,,,,,,,,,,,,,,,,,,,,,,,,,1679,13079,,,,,,,,,,,,,,,1679,13079,,,,
Netherlands,Aircraft Operator Account,Surinam Airways,33146426,2013-01-01,open,M.Hanenbergstraat 17 III,1068 GT,Amsterdam,,,,,,,,,,,,,,,,,,,,,,,,,1066,781,610,667,,,,,,,,,,,,,,,,3125,,,,
Netherlands,Operator Holding Account,Stichting Beheer Wetenschappelijk Centrum Watergraafsmeer,41203992,2016-11-11,open,Science Park 105,1098XG,Amsterdam,,,,,,,,,,,,,,,,,,,,,,,,,,,,226,,,,,,,,,,,,,,,,226,,,,
Netherlands,Operator Holding Account,Equinix (Netherlands) B.V.,24429748,2016-05-24,open,Luttenbergweg 4,1101 EC,Amsterdam,,,,,,,,,,,,,,,,,,,,,,,,,,,,210,,,,,,,,,,,,,,,,210,,,,
Netherlands,Operator Holding Account,Digital Netherlands 11 B.V.,65416902,2016-04-25,open,Science Park 120,1098 XG,AMSTERDAM,,,,,,,,,,,,,,,,,,,,,,,,,,,,60,,,,,,,,,,,,,,,,60,,,,
Netherlands,Operator Holding Account,Equinix (Netherlands) B.V.,24429748,2016-04-02,open,Luttenbergweg 4,1101 EC,Amsterdam,,,,,,,,,,,,,,,,,,,,,,,,,,,,220,,,,,,,,,,,,,,,,220,,,,
Netherlands,Operator Holding Account,Equinix (Netherlands) B.V.,24429748,2016-05-30,open,Luttenbergweg 4,1101 EC,Amsterdam,,,,,,,,,,,,,,,,,,,,,,,,,,,,43,,,,,,,,,,,,,,,,45,,,,
Netherlands,Operator Holding Account,N.V. Nuon Warmte,09117658,2017-03-02,open,Hoekenrode 8,1102 BR,AMSTERDAM,,,,,,,,,,,,,,,,,,,,,,,,,,,,,,,,,,,,,,,,,,,,,,,,
Netherlands,Operator Holding Account,Equinix (Netherlands) B.V.,24429748,2017-08-16,open,Luttenbergweg 4,1101 EC,Amsterdam,,,,,,,,,,,,,,,,,,,,,,,,,,,,,,,,,,,,,,,,,,,,,,,,
Netherlands,Operator Holding Account,Equinix (Netherlands) B.V.,24429748,2017-08-10,open,Luttenbergweg 4,1101 EC,Amsterdam,,,,,,,,,,,,,,,,,,,,,,,,,,,,,,,,,,,,,,,,,,,,,,,,
Netherlands,Operator Holding Account,Nutricia Cuijk B.V.,16013641,2017-09-06,open,Grotestraat 91,5431 DJ,Cuijk,,,,,,,,,,,,,,,,,,,,,,,,,,,,,,,,,,,,,,,,,,,,,,,,
Netherlands,Operator Holding Account,Philip Morris Holland B.V.,20123097,2017-06-14,open,Marconilaan 20,4622 RD,BERGEN OP ZOOM,,,,,,,,,,,,,,,,,,,,,,,,,,,,,,,,,,,,,,,,,,,,,,,,
