Country,Account Type,Account Holder Name,Company Registration No,Permit/Plan Date,Account status,Main Address Line,Postal Code,City,Allowance In Allocation In 2005,Allowance In Allocation In 2006,Allowance In Allocation In 2007,Allowance In Allocation In 2008,Allowance In Allocation In 2009,Allowance In Allocation In 2010,Allowance In Allocation In 2011,Allowance In Allocation In 2012,Allowance In Allocation In 2013,Allowance In Allocation In 2014,Allowance In Allocation In 2015,Allowance In Allocation In 2016,Allowance In Allocation In 2017,Allowance In Allocation In 2018,Allowance In Allocation In 2019,Allowance In Allocation In 2020,Verified Emissions In 2005,Verified Emissions In 2006,Verified Emissions In 2007,Verified Emissions In 2008,Verified Emissions In 2009,Verified Emissions In 2010,Verified Emissions In 2011,Verified Emissions In 2012,Verified Emissions In 2013,Verified Emissions In 2014,Verified Emissions In 2015,Verified Emissions In 2016,Verified Emissions In 2017,Verified Emissions In 2018,Verified Emissions In 2019,Verified Emissions In 2020,Units Surrendered In 2005,Units Surrendered In 2006,Units Surrendered In 2007,Units Surrendered In 2008,Units Surrendered In 2009,Units Surrendered In 2010,Units Surrendered In 2011,Units Surrendered In 2012,Units Surrendered In 2013,Units Surrendered In 2014,Units Surrendered In 2015,Units Surrendered In 2016,Units Surrendered In 2017,Units Surrendered In 2018,Units Surrendered In 2019,Units Surrendered In 2020
Norway,Aircraft Operator Account,"Duke Energy Business Services, LLC",123456789,2010-01-01,open,4620 First Flight Drive,28208,Charlotte,,,,,,,,10,0,0,0,0,0,0,0,0,,,,,,,,0,Excluded,Excluded,Excluded,Excluded,,,,,,,,,,,,,,,,,,,,
Norway,Aircraft Operator Account,Widerøe's Flyveselskap AS,917330557,2010-01-01,open,Postboks 247,8001,Bodø,,,,,,,,63376,59879,59879,59879,59879,59879,59879,59879,59879,,,,,,,,165885,155652,159858,167041,147180,,,,,,,,,,,,165886,,315510,167041,147180,,,,
Norway,Aircraft Operator Account,Norwegian Air Shuttle ASA,965920358,2010-01-01,open,Postboks 115,1330,Fornebu,,,,,,,,994506,824183,824183,824183,824183,824183,824183,824183,824183,,,,,,,,1696576,1845344,2058681,1996198,1373324,,,,,,,,,,,,1696576,,3904025,1996198,1373324,,,,
Norway,Aircraft Operator Account,Bristow Norway AS,967827363,2010-01-01,open,Postboks 171,4097,Sola,,,,,,,,4191,3959,3959,3959,3959,3959,3959,3959,3959,,,,,,,,52045,50949,52156,44344,38401,,,,,,,,,,,,52045,,103105,44344,38401,,,,
Norway,Aircraft Operator Account,Sundt Air Management AS,989656422,2010-01-01,open,Postboks 31,2061,Gardermoen,,,,,,,,75,23,23,23,23,23,23,23,23,,,,,,,,1093,Excluded,472,Excluded,747,,,,,,,,,,,,1093,,472,,747,,,,
Norway,Operator Holding Account,Agder Energi Varme AS,980921409,2009-04-02,open,Postboks 603 Lundsiden,4606,Kristiansand,,,,154,154,154,154,154,4007,3585,3176,2778,2394,2021,1661,1314,,,,1372,3122,7386,1710,367,462,437,636,205,,,,,,,,1372,3122,7386,1710,367,462,437,636,205,,,,
Norway,Operator Holding Account,BKK Produksjon AS,876944642,2009-04-02,open,Postboks 7050,5020,Bergen,,,,6768,6768,6768,6768,6768,4787,4284,3795,3322,2864,2419,1990,1576,,,,20665,20866,24626,27344,25507,26046,27250,24292,27176,,,,,,,,20665,20866,24626,27344,25507,26046,27250,24292,27176,,,,
Norway,Operator Holding Account,BKK Varme AS,979427697,2009-04-02,open,Postboks 7050,5020,Bergen,,,,9786,9786,9786,9786,9786,17906,16025,14194,12419,10698,9034,7422,5872,,,,16919,16303,22494,10655,9328,8023,5284,6653,8214,,,,,,,,16919,16303,22494,10655,9328,8023,5284,6653,8214,,,,
Norway,Operator Holding Account,Pelagia AS,989094823,2009-04-02,open,Postboks 444,5805,BERGEN,,,,13368,13368,13368,13368,13368,9470,9305,9139,8971,8801,8629,8455,8281,,,,13222,15034,11856,13822,10027,7094,6426,7476,5916,,,,,,,,13222,15034,11856,13822,10027,7094,6426,7476,5916,,,,
Norway,Operator Holding Account,Borregaard AS,895623032,2009-04-02,open,Postboks 162,1721,Sarpsborg,,,,160497,160497,212736,177910,177910,210857,207195,203490,199745,195962,192140,188271,184389,,,,167666,175938,142486,115166,113440,137852,129371,116270,121639,,,,,,,,167666,175938,142486,115166,113440,137852,129371,116270,121639,,,,
Norway,Operator Holding Account,Aker BP ASA,989795848,2009-04-02,open,Oksenøyveien 10,1366 Lysaker,Bærum,,,,0,0,0,0,0,54433,53487,52531,51564,50587,49601,48602,47600,,,,137372,173649,190663,228029,163406,183828,207480,197437,192989,,,,,,,,137372,173649,190663,228029,163406,183828,207480,197437,192989,,,,
Norway,Operator Holding Account,Aker BP ASA,989795848,2009-04-02,open,Oksenøyveien 10,1366 Lysaker,Bærum,,,,0,0,0,0,0,44593,43818,43034,42243,41442,40634,39816,38995,,,,265748,237586,277787,214754,143410,148572,49025,37063,18847,,,,,,,,265748,237586,277787,214754,143410,148572,49025,37063,18847,,,,
Norway,Operator Holding Account,Aker BP ASA,989795848,2010-12-08,open,Oksenøyveien 10,1366 Lysaker,Bærum,,,,0,0,0,0,0,,,,,,,,,,,,,,Not Reported,29271,81829,583907,313193,289243,298302,,,,,,,,,,,29271,81829,583907,313193,289243,298302,,,,
Norway,Operator Holding Account,ConocoPhillips Skandinavia AS,918110127,2009-04-02,open,"Postboks 3, 4064 Stavanger",4056,Tananger,,,,0,0,0,0,0,675796,664058,652182,640183,628054,615807,603407,590964,,,,1002041,1022500,973287,1013519,991192,914508,1024529,1016617,874372,,,,,,,,1002041,1022500,973287,1013519,991192,914508,1024529,1016617,874372,,,,
Norway,Operator Holding Account,Drammen Fjernvarme AS,980042006,2009-04-02,open,Jacob Borchs gate 5,3012,Drammen,,,,3208,3208,3208,3208,3208,8882,7949,7041,6160,5307,4481,3682,2913,,,,515,762,8299,6154,3057,3283,1552,1327,3936,,,,,,,,515,762,8299,6154,3057,3283,1552,1327,3936,,,,
Norway,Operator Holding Account,Dynea AS,912555739,2009-04-02,open,Postboks 160,2000,Lillestrøm,,,,17946,17946,17946,17946,17946,16755,16464,16170,15872,15571,15268,14960,14652,,,,11680,8388,14598,13451,9945,13696,13045,10386,14762,,,,,,,,11680,8388,14598,13451,9945,13696,13045,10386,14762,,,,
Norway,Operator Holding Account,Pelagia AS,989094823,2009-04-02,open,Postboks 444,5805,BERGEN,,,,11268,11268,11268,11268,11268,12887,12663,12437,12208,11977,11743,11507,11269,,,,11519,15828,22614,12614,12667,17143,18346,20792,19035,,,,,,,,11519,15828,22614,12614,12667,17143,18346,20792,19035,,,,
Norway,Operator Holding Account,Esso Norge AS,914803802,2009-04-02,open,Postboks 2001,3103,Tønsberg,,,,333209,333209,333209,333209,333209,356800,350603,344333,337997,331593,325127,318581,312011,,,,356483,349129,329645,327370,296194,336230,332318,329479,259157,,,,,,,,356483,349129,329645,327370,296194,334985,331085,328291,259157,,,,
Norway,Operator Holding Account,Point Resources AS,998852722,2009-04-02,open,Postboks 60,4064,Stavanger,,,,0,0,0,0,0,32579,32013,31440,30862,30277,29687,29089,28489,,,,163047,148107,124560,135274,131945,159665,137027,148542,136766,,,,,,,,163047,148107,124560,135274,131945,159470,137222,148542,136766,,,,
Norway,Operator Holding Account,Point Resources AS,998852722,2009-04-02,open,Postboks 60,4064,Stavanger,,,,0,0,0,0,0,58640,57621,56591,55550,54498,53435,52359,51279,,,,180013,166171,171264,166427,160969,171313,180974,159662,156463,,,,,,,,180013,166171,171264,166427,160969,171313,180974,159662,156463,,,,
Norway,Operator Holding Account,Oslofjord Varme AS,979994265,2009-04-02,open,Brynsveien 2,1338,Sandvika,,,,1641,1641,1641,1641,1641,9984,8936,7914,6925,5966,5037,4139,3274,,,,1891,1686,3056,1033,1550,1104,796,789,1731,,,,,,,,1891,1686,3056,1033,1550,1104,796,789,1731,,,,
Norway,Operator Holding Account,Oslofjord Varme AS,979994265,2009-04-02,open,Brynsveien 2,1338,Sandvika,,,,1538,1538,1538,1538,1538,10899,9754,8639,7559,6511,5498,4518,3574,,,,768,1693,5548,4438,1759,509,210,295,677,,,,,,,,768,1693,5548,4438,1759,509,210,295,677,,,,
Norway,Operator Holding Account,Oslofjord Varme AS,979994265,2009-04-02,open,Brynsveien 2,1338,Sandvika,,,,2869,2869,2869,2869,2869,4011,3590,3180,2782,2397,2024,1662,1316,,,,3032,1373,3592,2482,1106,1283,361,341,217,,,,,,,,3032,1373,3592,2482,1106,1283,361,341,217,,,,
Norway,Operator Holding Account,FREVAR KF,979952171,2009-04-02,open,Postboks 1430,1602,Fredrikstad,,,,274,274,274,274,274,31038,27777,24603,21526,18544,15659,12866,10179,,,,808,794,915,1441,785,49862,49015,48815,46871,,,,,,,,808,794,915,1441,785,49862,49015,48815,46871,,,,
Norway,Operator Holding Account,Celsa Armeringsstål AS,953591421,2009-04-02,open,Postboks 500,8601,Mo i Rana,,,,73118,73118,73118,73118,73118,73186,71914,70628,69329,68015,66688,65346,63998,,,,69959,74619,78194,88863,100635,91921,100149,96656,91511,,,,,,,,69959,74619,78194,88863,100635,91921,100149,96648,91519,,,,
Norway,Operator Holding Account,Gasnor AS,955431685,2009-04-02,open,Postboks 63,4299,Avaldsnes,,,,10042,10042,10042,10042,10042,9803,9632,9459,9286,9110,8932,8752,8572,,,,9603,15101,8214,7766,11619,7873,6921,4625,4478,,,,,,,,9603,15101,8214,7766,11619,7873,6921,4625,4478,,,,
Norway,Operator Holding Account,Gassco AS,983452841,2009-04-02,open,Postboks 93,5501,Haugesund,,,,0,0,0,0,0,,,,,,,,,,,,13904,13339,14537,13819,13871,12438,17243,12813,13096,,,,,,,,13904,13339,14537,13819,13871,12438,17243,12813,13096,,,,
Norway,Operator Holding Account,Gassco AS,983452841,2009-04-02,open,Postboks 93,5501,Haugesund,,,,64650,64650,64650,64650,64650,69330,68126,66908,65677,64433,63177,61904,60627,,,,83480,64164,65655,66469,65643,63030,63729,62325,63068,,,,,,,,83480,64164,65655,66469,65643,63030,63729,62325,63068,,,,
Norway,Operator Holding Account,Gassco AS,983452841,2009-04-02,open,Postboks 93,5501,Haugesund,,,,977088,977088,977088,977088,977088,869550,854447,839166,823725,808120,792361,776406,760396,,,,1200731,1129194,1073963,1046342,1080477,1101492,1191926,1154743,1115941,,,,,,,,1200731,1129194,1073963,1046342,1080477,1101492,1190492,1156242,1115876,,,,
Norway,Operator Holding Account,GE Healthcare AS,914829674,2009-04-02,open,Postboks 4220 Nydalen,0485,Oslo,,,,3489,3489,3489,3489,3489,13408,13175,12940,12702,12461,12218,11972,11725,,,,2761,2021,3123,2653,1862,12953,11415,13311,15905,,,,,,,,2761,2021,3123,2653,1862,12953,11415,13311,15905,,,,
Norway,Operator Holding Account,Glava AS,912008754,2009-04-02,open,Postboks F,1801,Askim,,,,11972,11972,11972,11972,11972,6247,6138,6028,5917,5805,5692,5577,5462,,,,10499,9725,11002,10396,10574,10602,9953,10718,11088,,,,,,,,10499,9725,11002,10396,10574,10602,9953,10718,11088,,,,
Norway,Operator Holding Account,Glava AS,912008754,2009-04-02,open,Postboks F,1801,Askim,,,,4568,4568,4568,4568,4568,2387,2345,2304,2262,2218,2175,2132,2087,,,,4126,4428,4716,4148,4302,4201,3888,4081,4527,,,,,,,,4126,4428,4716,4148,4302,4201,3866,4103,4527,,,,
Norway,Operator Holding Account,Glomma Papp AS,912014177,2009-04-02,closed,Postboks 145,1701,Sarpsborg,,,,8314,8314,8314,8314,8314,,,,,,,,,,,,10013,10697,17299,5504,125,,,,,,,,,,,,10013,10697,17299,5504,125,,,,,,,,
Norway,Operator Holding Account,Eidsiva Bioenergi AS,980258165,2009-04-02,open,Kallerudlia 9,2818,Gjøvik,,,,832,832,832,832,832,9848,8812,7806,6829,5883,4968,4082,3229,,,,1071,2466,4952,2590,764,488,405,495,300,,,,,,,,1071,2466,4952,2590,764,488,405,495,300,,,,
Norway,Operator Holding Account,Hellefoss Paper AS,911655160,2009-04-02,open,Postboks 69,3300,Hokksund,,,,15292,15292,15292,15292,15292,14298,14050,13799,13545,13288,13029,12767,12503,,,,15795,17376,21258,10326,1098,452,318,332,390,,,,,,,,15795,17376,20570,11014,616,452,318,332,390,,,,
Norway,Operator Holding Account,Huhtamaki Norway AS,934873319,2009-04-02,closed,Viul,3514,Hønefoss,,,,400,400,400,400,400,,,,,,,,,,,,706,13,136,15,0,,,,,,,,,,,,706,13,136,15,,,,,,,,,
Norway,Operator Holding Account,Hunsfos Fabrikker AS,912843513,2009-04-02,closed,Hunsøya,4700,Vennesla,,,,52440,52440,52440,52440,52440,,,,,,,,,,,,10677,10239,10216,2184,0,,,,,,,,,,,,10677,10239,10216,,,,,,,,,,
Norway,Operator Holding Account,Huntonit AS,971746041,2009-04-02,open,Postboks 21,4701,Vennesla,,,,11552,11552,11552,11552,11552,15887,15606,15319,15031,14740,14447,14150,13852,,,,14936,9004,5362,18654,10983,10159,5993,8446,3296,,,,,,,,14936,9004,5362,18654,10983,10159,5993,8446,3296,,,,
Norway,Operator Holding Account,Hurum Energigjenvinning AS,980430154,2009-04-02,closed,c/o Daimyo Mølleparken 6,0459,Oslo,,,,21,0,0,0,0,,,,,,,,,,,,91,0,0,0,Not Reported,,,,,,,,,,,,,91,,,,,,,,,,,
Norway,Operator Holding Account,Hurum Paper Mill AS,991669507,2009-04-02,closed,Postboks 115,1325,Lysaker,,,,7688,0,0,0,0,,,,,,,,,,,,57,0,Not Reported,,,,,,,,,,,,,,57,,,,,,,,,,,,
Norway,Operator Holding Account,INEOS Bamble AS,968144405,2009-04-02,open,Asdalstrand 291,3960,Stathelle,,,,45081,45081,45081,45081,45081,17729,17421,17110,16794,16477,16155,15830,15503,,,,28169,15726,16162,15153,14202,13169,12437,12690,12834,,,,,,,,28169,15726,16162,15153,14202,13169,12437,12690,12834,,,,
Norway,Operator Holding Account,INOVYN Norge AS,981701046,2009-04-02,open,Rafnes,3966,Stathelle,,,,79773,79773,79773,79773,79773,81736,80318,78881,77429,75962,74482,72982,71477,,,,80696,64236,77352,76223,79440,94762,88345,101624,84315,,,,,,,,80696,64236,77352,76223,79440,94762,88345,101624,84315,,,,
Norway,Operator Holding Account,Hønefoss Fjernvarme,991117776,2009-04-02,closed,Postboks 3093,3501,Hønefoss,,,,142,142,142,142,142,,,,,,,,,,,,86,181,729,404,112,,,,,,,,,,,,86,181,729,404,112,,,,,,,,
Norway,Operator Holding Account,Pelagia AS,989094823,2009-04-02,open,Postboks 444,5805,BERGEN,,,,14216,14216,14216,14216,14216,13818,13578,13336,13090,12842,12592,12338,12084,,,,11513,15269,19707,11541,8234,7924,13104,16089,13356,,,,,,,,11513,15269,19707,11541,8234,7924,13104,16089,13356,,,,
Norway,Operator Holding Account,Kronos Titan AS,948616491,2009-04-02,open,Postboks 1415,1602,Fredrikstad,,,,42390,42390,42390,42390,42390,30267,29741,29210,28672,28129,27580,27025,26467,,,,24833,26688,44598,46387,29563,33713,27735,27628,30579,,,,,,,,24833,26688,44598,46387,29563,33713,27735,27628,30579,,,,
Norway,Operator Holding Account,Larvik Cell AS,985010072,2009-04-02,closed,Postboks 2090 Stubberød,3255,Larvik,,,,3955,0,0,0,0,,,,,,,,,,,,409,0,Not Reported,0,Not Reported,,,,,,,,,,,,409,,,,,,,,,,,,
Norway,Operator Holding Account,Lyse Neo AS,982929733,2009-04-02,open,Postboks 8124,4069,Stavanger,,,,728,728,728,728,728,1738,1555,1378,1206,1038,877,721,570,,,,1313,1556,3197,2327,2962,792,163,615,1474,,,,,,,,1313,1556,3197,2024,3265,792,163,615,1474,,,,
Norway,Operator Holding Account,Aker BP ASA,989795848,2009-04-02,open,Oksenøyveien 10,1366 Lysaker,Bærum,,,,0,0,0,0,0,57497,44555,55488,54467,53435,52392,51337,50279,,,,343901,193842,158264,180217,190515,176885,192493,202253,214064,,,,,,,,343901,193842,158264,180217,190515,176885,192493,202253,214064,,,,
Norway,Operator Holding Account,Leca Norge AS avd Rælingen,973101943,2009-04-02,open,Årnesvegen 1,2009,Nordby,,,,50918,50918,50918,50918,50918,38317,37651,36978,23429,22985,22537,22084,21628,,,,48073,29945,31085,31530,29691,28200,25833,21988,34712,,,,,,,,48073,29945,31085,31530,29691,28200,25833,21988,34712,,,,
Norway,Operator Holding Account,Mo Fjernvarme AS,881362872,2009-04-02,open,Postboks 500,8601,Mo i Rana,,,,2830,2830,2830,2830,2830,4507,4032,3572,3125,2693,2273,1868,1479,,,,2101,5113,6661,7681,2406,2612,1703,4439,5291,,,,,,,,2101,5113,6661,7681,2406,2612,1703,4439,5235,,,,
Norway,Operator Holding Account,Pelagia AS,989094823,2009-04-02,open,Postboks 444,5805,BERGEN,,,,18389,18389,18389,18389,18389,12840,12617,12391,12163,11933,11700,11464,11228,,,,18029,19303,18077,13433,13489,9439,19229,20413,14294,,,,,,,,18029,19303,18077,13433,13489,9439,19229,20413,14294,,,,
Norway,Operator Holding Account,Naturkraft AS,971073780,2009-04-02,open,"Kårstø, Port 10",5565,Tysværvåg,,,,323468,323468,323468,323468,323468,,,,,,,,,,,,29886,1019696,985202,557999,25789,11239,5651,0,0,,,,,,,,29882,1019700,985202,557999,25789,11239,5651,,,,,,
Norway,Operator Holding Account,Norcem AS,934949145,2009-04-02,open,Postboks 143 Lilleaker,0216,Oslo,,,,916654,916654,916654,916654,916654,739224,726384,713393,700267,687000,673603,660040,646429,,,,812252,824871,770987,761456,762717,794788,778029,744361,742027,,,,,,,,812252,824871,770987,761456,762717,794788,778029,744361,742027,,,,
Norway,Operator Holding Account,Norcem AS,934949145,2009-04-02,open,Postboks 143 Lilleaker,0216,Oslo,,,,395345,395345,395345,395345,395345,355930,349748,343493,337173,330785,324335,317804,311250,,,,403316,409197,356168,349532,329427,295750,313301,266774,288571,,,,,,,,403316,409197,356168,349532,329427,295750,313301,266774,288571,,,,
Norway,Operator Holding Account,Nordic Paper AS,971600896,2009-04-02,open,Postboks 155,1720,Greåker,,,,23407,23407,23407,23407,23407,12634,12415,12193,11969,11742,11513,11281,11048,,,,15094,17284,25770,18685,10967,18495,15803,10756,18247,,,,,,,,15094,17284,25770,18685,10967,18495,15803,10756,18247,,,,
Norway,Operator Holding Account,Noretyl AS,982726387,2009-04-02,open,Rafnes,3966,Stathelle,,,,406782,406782,406782,406782,406782,364356,358027,351624,345155,338616,332013,325327,318619,,,,433909,439317,456426,475422,408449,488859,472696,465755,425982,,,,,,,,433909,439317,456426,475422,408449,488859,472696,465755,425982,,,,
Norway,Operator Holding Account,NorFraKalk AS,987151196,2009-04-02,open,Postboks 53,1309,Rud,,,,198032,198032,198032,198032,198032,180049,176922,173758,170561,167330,164067,160763,157448,,,,90124,89455,210607,174831,186867,182810,190175,193351,178339,,,,,,,,90124,89455,210643,174831,186831,182810,190175,193351,178339,,,,
Norway,Operator Holding Account,Norgips Norge AS,986034757,2009-04-02,open,Postboks 655 Strømsø,3003,Drammen,,,,37112,37112,37112,37112,37112,21512,26423,25951,25473,24990,24503,24010,23515,,,,39964,30018,33938,33148,28436,27820,27114,28295,29898,,,,,,,,39964,30018,33938,33148,28436,27820,27114,28295,29898,,,,
Norway,Operator Holding Account,A/S Norske Shell,914807077,2009-04-02,open,Postboks 40,4098,Tananger,,,,0,0,0,0,0,40930,40219,39500,38773,38038,37297,36546,35792,,,,179963,175982,176857,171275,181354,190638,204222,187964,178914,,,,,,,,179963,175982,176857,171275,181354,190638,207359,184827,179102,,,,
Norway,Operator Holding Account,A/S Norske Shell,914807077,2009-04-02,open,Postboks 40,4098,Tananger,,,,52540,52540,52540,52540,52540,24857,24425,23988,23547,23100,22651,22194,21736,,,,39340,42193,38650,90743,73936,52338,43510,59572,31932,,,,,,,,39340,42193,38650,90743,73936,52338,46957,56125,31932,,,,
Norway,Operator Holding Account,Norske Skog Skogn AS,996732673,2009-04-02,closed,Sjøvegen 108,7620,Skogn,,,,7115,7115,7115,7115,7115,,,,,,,,,,,,877,932,1293,2009,350,,,,,,,,,,,,877,932,1293,2009,350,,,,,,,,
Norway,Operator Holding Account,Norske Skog Saugbrugs AS,996732703,2009-04-02,open,Tistedals gate 9-11,1772,Halden,,,,11289,11289,11289,11289,11289,146538,143992,141417,138815,136185,133530,130841,128143,,,,10817,5482,9224,4887,1353,832,1092,1488,1715,,,,,,,,10817,5482,9224,4887,1353,832,1092,1488,1715,,,,
Norway,Operator Holding Account,Norske Skog Skogn AS,996732673,2009-04-02,open,Sjøvegen 108,7620,Skogn,,,,3470,3470,3470,3470,3470,160597,157807,154985,152133,149251,146341,143394,140437,,,,4725,3919,9672,4890,5206,11177,9422,7303,10129,,,,,,,,4725,3919,9673,4890,5205,11177,9422,7303,10129,,,,
Norway,Operator Holding Account,Oslo kommune Energigjenvinningsetaten (EGE),987701498,2009-04-02,closed,Postboks 54 Mortensrud,1215,Oslo,,,,746,746,746,746,746,,,,,,,,,,,,1231,2447,2672,5442,3573,,,,,,,,,,,,1231,2447,2672,5442,3573,,,,,,,,
Norway,Operator Holding Account,3B-Fibreglass Norway AS,919742356,2009-04-02,open,Postboks 42,4795,Birkeland,,,,13571,13571,13571,13571,13571,14758,14441,14123,13804,13484,13164,12843,12523,,,,15670,14552,14444,16023,15920,18399,19455,22266,22132,,,,,,,,15670,14552,14444,16023,15920,18399,19455,22266,22132,,,,
Norway,Operator Holding Account,Ranheim Paper & Board AS,915725015,2009-04-02,closed,Postboks 8643,7452,Trondheim,,,,74399,74399,74399,74399,74399,,,,,,,,,,,,57133,51549,58048,36761,10172,0,,,,,,,,,,,57133,51549,58048,,,,,,,,,,
Norway,Operator Holding Account,Ranheim Paper & Board AS,915725015,2009-04-02,open,Postboks 8643,7452,Trondheim,,,,30560,30560,30560,30560,30560,28711,28213,27708,27198,26682,26162,25636,25107,,,,32952,25870,27146,18238,10649,4908,5154,3393,2583,,,,,,,,32952,25870,27146,,28887,4908,5154,3393,2583,,,,
Norway,Operator Holding Account,Ruukki Profiler AS,974266636,2009-04-02,closed,Postboks 140 Furuset,1001,Oslo,,,,46654,46654,46654,46654,46654,,,,,,,,,,,,36517,18590,13614,0,,,,,,,,,,,,,36517,18590,13614,,,,,,,,,,
Norway,Operator Holding Account,Rygene-Smith & Thommesen AS,915537227,2009-04-02,open,Sandbergveien 3,4821,Rykene,,,,1252,1252,1252,1252,1252,741,728,715,702,689,675,662,648,,,,260,203,161,86,76,89,70,71,372,,,,,,,,260,203,161,86,76,89,70,71,372,,,,
Norway,Operator Holding Account,Vajda-Papir Scandinavia AS,911770636,2009-04-02,open,Postboks 4188,3005,Drammen,,,,2590,2590,2590,2590,2590,6599,6484,6368,6251,6133,6013,5893,5771,,,,3469,4949,6233,3845,904,3654,55,10,1676,,,,,,,,3469,4949,6233,3845,904,3654,55,10,1676,,,,
Norway,Operator Holding Account,Skretting AS,988044113,2009-04-02,closed,"Postboks 319, Sentrum",4002,Stavanger,,,,3315,3315,3315,3315,3315,,,,,,,,,,,,2973,4068,4538,7938,0,,,,,,,,,,,,2774,4267,4538,7938,,,,,,,,,
Norway,Operator Holding Account,RHI Normag AS,984653581,2009-04-02,open,Postboks 1021,3905,Porsgrunn,,,,172627,172627,172627,172627,172627,6060,5955,5849,5741,5632,5522,5410,5299,,,,17094,12429,2765,5150,13848,117694,154972,137177,84072,,,,,,,,17094,12429,2765,5152,13846,117694,154972,137177,84072,,,,
Norway,Operator Holding Account,SMA Mineral AS,977048931,2009-04-02,open,Postboks 500,8601,Mo i Rana,,,,56652,56652,56652,56652,56652,71458,70216,68961,67692,66411,65115,63804,62489,,,,58225,67511,75034,79808,81163,78510,64957,72321,76662,,,,,,,,58225,67511,75034,79808,81163,78510,64957,72321,76662,,,,
Norway,Operator Holding Account,Statnett SF,962986633,2009-04-02,open,Postboks 4904 Nydalen,0423,Oslo,,,,0,0,0,0,0,,,,,,,,,,,,9559,10841,1051,980,1157,1318,1173,1193,868,,,,,,,,9559,10841,1051,980,911,1564,1173,1193,868,,,,
Norway,Operator Holding Account,Statnett SF,962986633,2009-04-02,open,Postboks 4904 Nydalen,0423,Oslo,,,,0,0,0,0,0,,,,,,,,,,,,21528,3201,931,1841,590,870,549,1175,543,,,,,,,,21528,3201,931,1841,590,870,549,1175,543,,,,
Norway,Operator Holding Account,Wintershall Norge AS,985224323,2009-04-02,open,Jåttåflaten 27,4020,Stavanger,,,,0,0,0,0,0,89014,87468,85903,84323,82725,81112,79479,77840,,,,203070,220883,206086,189455,177752,159538,169438,199018,188703,,,,,,,,203070,220883,206086,189455,177752,159538,169438,199018,188703,,,,
Norway,Operator Holding Account,Statoil ASA,923609016,2009-04-02,open,Forusbeen 50,4035,Stavanger,,,,0,0,0,0,0,96069,94400,92712,91006,89282,87541,85778,84009,,,,167964,173712,159627,134330,130929,135516,133554,132003,145759,,,,,,,,167964,173712,159627,134330,130929,135516,133554,132003,145759,,,,
Norway,Operator Holding Account,Statoil ASA,923609016,2009-04-02,open,Forusbeen 50,4035,Stavanger,,,,0,0,0,0,0,125931,123743,121530,119294,117034,114752,112441,110123,,,,234387,227395,223874,217193,227194,195425,241522,218432,214353,,,,,,,,234387,227395,223874,217193,227194,195425,241522,218432,214895,,,,
Norway,Operator Holding Account,Statoil ASA,923609016,2009-04-02,closed,Forusbeen 50,4035,Stavanger,,,,0,0,0,0,0,13964,13721,0,0,0,0,0,0,,,,81345,62477,41171,43445,57356,12929,3421,,,,,,,,,,81345,62477,41171,43445,57356,12929,3421,,,,,,
Norway,Operator Holding Account,Statoil ASA,923609016,2009-04-02,open,Forusbeen 50,4035,Stavanger,,,,0,0,0,0,0,101195,99437,52286,51322,50351,49369,48374,47378,,,,226494,236172,256679,251730,228448,223077,215051,177792,171376,,,,,,,,226494,236172,256679,251730,217794,203750,195482,177792,220926,,,,
Norway,Operator Holding Account,Statoil ASA,923609016,2009-04-02,open,Forusbeen 50,4035,Stavanger,,,,0,0,0,0,0,96395,47361,46514,91315,89585,87838,86069,84295,,,,197327,170433,163421,142446,129219,106970,108249,161199,93212,,,,,,,,197327,170433,163421,142446,112311,117455,114672,161199,93202,,,,
Norway,Operator Holding Account,Statoil ASA,923609016,2009-04-02,open,Forusbeen 50,4035,Stavanger,,,,0,0,0,0,0,4689,4608,4525,4442,4358,4273,4187,4100,,,,77176,80113,77325,65975,65961,81029,95349,185017,193701,,,,,,,,77176,80113,77325,65975,65961,81029,95349,185017,193701,,,,
Norway,Operator Holding Account,Statoil ASA,923609016,2009-04-02,open,Forusbeen 50,4035,Stavanger,,,,0,0,0,0,0,157742,155002,152230,149429,146598,143739,140845,137941,,,,281731,250746,287317,208221,228666,269556,316119,268411,268970,,,,,,,,281731,250746,287317,208221,228666,269581,316161,268440,268970,,,,
Norway,Operator Holding Account,Statoil ASA,923609016,2009-04-02,closed,Forusbeen 50,4035,Stavanger,,,,0,0,0,0,0,18147,17832,17513,17191,0,0,0,0,,,,176978,145027,137820,115010,104550,123474,128684,76014,59169,,,,,,,,176978,145027,137820,115010,104550,123474,128447,76251,59169,,,,
Norway,Operator Holding Account,Statoil ASA,923609016,2009-04-02,open,Forusbeen 50,4035,Stavanger,,,,0,0,0,0,0,203288,199758,196185,192576,188926,185243,181512,177769,,,,390246,409660,439042,391582,363729,353378,379088,370842,381341,,,,,,,,390246,409660,439042,391582,363729,353378,375758,370842,384671,,,,
Norway,Operator Holding Account,Statoil ASA,923609016,2009-04-02,open,Forusbeen 50,4035,Stavanger,,,,0,0,0,0,0,99528,97799,96050,94283,92496,90693,88867,87034,,,,196728,210453,217992,251942,263399,219302,313126,328702,282698,,,,,,,,196728,210453,217992,251942,245019,237682,313126,328702,282698,,,,
Norway,Operator Holding Account,Statoil ASA,923609016,2009-04-02,open,Forusbeen 50,4035,Stavanger,,,,0,0,0,0,0,126133,123942,121726,119486,117223,114937,112623,110300,,,,235109,284469,285331,296819,312661,286566,369135,373568,344721,,,,,,,,235109,284469,285331,296819,312661,286566,369135,373434,345274,,,,
Norway,Operator Holding Account,Statoil ASA,923609016,2009-04-02,open,Forusbeen 50,4035,Stavanger,,,,0,0,0,0,0,641700,630554,619277,607883,596366,584737,572962,561147,,,,1008090,1041109,950660,971470,1015093,885222,972302,985493,1052674,,,,,,,,1008090,1041109,1011688,1011383,1045139,942517,976923,923285,1052966,,,,
Norway,Operator Holding Account,Statoil ASA,923609016,2009-04-02,open,Forusbeen 50,4035,Stavanger,,,,0,0,0,0,0,110023,108112,106179,104225,102250,100256,98238,96212,,,,502630,584686,456305,486538,494746,471457,498980,506299,499434,,,,,,,,502630,584686,454752,486538,495314,472442,498980,506299,499434,,,,
Norway,Operator Holding Account,Statoil ASA,923609016,2009-04-02,open,Forusbeen 50,4035,Stavanger,,,,0,0,0,0,0,308115,302763,297349,291878,286348,280764,275110,269438,,,,1262769,755473,930729,880219,975081,845656,1006530,1023953,1086596,,,,,,,,1262769,755473,930729,880219,975081,845656,1006530,1023953,1086596,,,,
Norway,Operator Holding Account,Statoil ASA,923609016,2009-04-02,open,Forusbeen 50,4035,Stavanger,,,,0,0,0,0,0,591981,581699,571296,560785,550159,539431,528569,517670,,,,1239287,1143426,1148958,1175544,1184127,1182726,1165316,1203222,1206994,,,,,,,,1239287,1143426,1148958,1175544,1184127,1182726,1165316,1203222,1206994,,,,
Norway,Operator Holding Account,Statoil ASA,923609016,2009-04-02,open,Forusbeen 50,4035,Stavanger,,,,0,0,0,0,0,500409,491717,482924,474038,465057,455988,446806,437593,,,,1059779,978820,794767,749160,881042,992145,976947,949492,892815,,,,,,,,1059779,978820,794767,749160,881042,992145,970854,949492,892815,,,,
Norway,Operator Holding Account,Statoil ASA,923609016,2009-04-02,open,Forusbeen 50,4035,Stavanger,,,,0,0,0,0,0,569792,559895,549882,539765,529538,519212,508757,498266,,,,861250,864904,757271,831284,776188,747885,753138,811911,762387,,,,,,,,861250,864904,757271,831284,776188,747885,753138,811911,762387,,,,
Norway,Operator Holding Account,Statoil ASA,923609016,2009-04-02,open,Forusbeen 50,4035,Stavanger,,,,0,0,0,0,0,581273,571176,560962,550640,540208,529674,519008,508306,,,,967417,575534,655953,680208,726293,782883,830680,864983,835103,,,,,,,,967417,575534,655953,678934,727567,782883,827755,863505,839506,,,,
Norway,Operator Holding Account,Statoil ASA,923609016,2009-04-02,open,Forusbeen 50,4035,Stavanger,,,,0,0,0,0,0,440735,433080,425335,417510,409599,401612,393525,385410,,,,633895,625347,603244,687236,674865,717565,743079,713745,712000,,,,,,,,633895,625347,602749,687731,674865,714141,746434,713814,711893,,,,
Norway,Operator Holding Account,Statoil ASA,923609016,2009-04-02,open,Forusbeen 50,4035,Stavanger,,,,0,0,0,0,0,3174,3119,3063,3007,2950,2892,2834,2776,,,,7256,7065,7755,17322,12611,2945,4096,6124,9655,,,,,,,,7256,7065,7755,17322,12611,2945,4096,6124,8166,,,,
Norway,Operator Holding Account,Statoil ASA,923609016,2009-04-02,open,Forusbeen 50,4035,Stavanger,,,,47748,47748,47748,47748,47748,72608,71346,70071,68781,67478,66162,64830,63493,,,,85752,79729,71098,76519,75006,78096,69787,72148,76511,,,,,,,,85752,79729,71098,76522,75006,78096,69787,72148,76511,,,,
Norway,Operator Holding Account,Statoil ASA,923609016,2009-04-02,open,Forusbeen 50,4035,Stavanger,,,,1558222,1558222,1558222,1558222,1558222,1231724,1210330,1188685,1166814,1144707,1122385,1099785,1077106,,,,1437633,1549059,1502751,1594976,1690518,1672172,1339464,1573971,1442608,,,,,,,,1437633,1549059,1502751,1703069,1690518,1672172,1339442,1573993,1442608,,,,
Norway,Operator Holding Account,Statoil ASA,923609016,2009-01-01,open,Forusbeen 50,4035,Stavanger,,,,0,0,0,476366,476366,,,,,,,,,,,,,3478,373937,599823,610491,582362,569768,556192,511978,,,,,,,,,3478,373937,599823,610491,582362,569768,556192,511978,,,,
Norway,Operator Holding Account,Statoil ASA,923609016,2009-04-02,open,Forusbeen 50,4035,Stavanger,,,,338258,338258,338258,338258,338258,330661,324919,319107,313236,307302,301309,295242,289154,,,,353255,315345,319174,332220,335280,327057,304359,335583,338566,,,,,,,,353255,315345,319174,332220,335281,327057,304359,335583,338566,,,,
Norway,Operator Holding Account,Södra Cell Folla AS,950198168,2009-04-02,closed,Follafoss,7796,Follafoss,,,,1897,1897,1897,1897,1897,,,,,,,,,,,,916,848,2321,1536,939,0,,,,,,,,,,,916,848,2321,1536,939,,,,,,,,
Norway,Operator Holding Account,Södra Cell Tofte AS,981998413,2009-04-02,closed,Østre Strandvei 52,3482,Tofte,,,,58397,58397,58397,58397,58397,32255,0,0,0,0,0,0,0,,,,64716,43755,56113,57317,49303,32483,0,,,,,,,,,,64716,43755,56113,57317,49303,32483,,,,,,,
Norway,Operator Holding Account,Tafjord Kraftvarme AS,977461804,2009-04-02,closed,Postboks 1500,6025,Ålesund,,,,322,322,322,322,322,,,,,,,,,,,,2140,2003,2622,1316,488,,,,,,,,,,,,2140,2003,2622,1316,488,,,,,,,,
Norway,Operator Holding Account,Repsol Norge AS,993787787,2009-04-02,open,Postboks 649 Sentrum,4003,Stavanger,,,,0,0,0,0,0,1564,1537,1509,1482,1453,1425,1396,1368,,,,64552,61920,59369,60147,54374,61100,60709,37425,33301,,,,,,,,64552,61920,59369,60147,54374,61100,60067,38067,33301,,,,
Norway,Operator Holding Account,Repsol Norge AS,993787787,2009-04-02,open,Postboks 649 Sentrum,4003,Stavanger,,,,0,0,0,0,0,14195,13949,13700,13448,13193,12935,12675,12414,,,,76160,88721,73291,70260,76154,76744,72518,74732,30679,,,,,,,,76160,88721,73291,70260,76154,76744,72518,74732,30679,,,,
Norway,Operator Holding Account,Repsol Norge AS,993787787,2010-07-07,open,Postboks 649 Sentrum,4003,Stavanger,,,,0,0,0,0,0,,,,,,,,,,,,,,0,12734,26845,0,2145,2404,0,,,,,,,,,,,12734,26845,,2103,2388,58,,,,
Norway,Operator Holding Account,Statkraft Varme AS,980396002,2009-04-02,open,Postboks 2400,7005,Trondheim,,,,19314,19314,19314,19314,19314,27111,24262,21490,18802,16198,13677,11238,8890,,,,16548,23404,47474,19104,15336,17130,11220,10138,20155,,,,,,,,16548,23404,47474,19104,15336,17130,11220,10138,20155,,,,
Norway,Operator Holding Account,Vadsø Sildeoljefabrikk AS,917048118,2009-04-02,closed,c/o Welcon AS,6718,Deknepoll,,,,3541,3541,3541,3541,3541,,,,,,,,,,,,0,4310,0,0,0,,,,,,,,,,,,,4310,,,,,,,,,,,
Norway,Operator Holding Account,Vedde AS,971722118,2009-04-02,open,Rasmusbakken,6030,Langevåg,,,,14876,14876,14876,14876,14876,9541,9376,9208,9038,8867,8694,8519,8344,,,,14492,14925,12764,10484,8266,7315,9239,12640,11187,,,,,,,,14492,14925,12764,10484,8266,7315,9239,12640,11187,,,,
Norway,Operator Holding Account,Verdalskalk AS,959959625,2009-04-02,open,"Tromsdalen, 7650 Verdal",1309,Rud,,,,49794,49794,49794,49794,49794,51888,50987,50075,49154,48223,47282,46330,45375,,,,60131,52383,65453,62592,55956,56325,59099,46006,53380,,,,,,,,60131,53383,65453,62592,54956,56325,59099,46006,53380,,,,
Norway,Operator Holding Account,Vafos Pulp AS,999256813,2009-04-02,open,Postboks 69,3300,Kragerø,,,,6966,6966,6966,6966,6966,1362,1339,1315,1290,1266,1241,1216,1191,,,,12781,11850,12682,11254,9434,2508,4665,3363,2408,,,,,,,,12781,11850,12682,11254,62,2508,4665,3363,2408,,,,
Norway,Operator Holding Account,Statkraft Varme AS,980396002,2009-04-02,open,Postboks 2400,7005,Trondheim,,,,7241,7241,7241,7241,7241,10662,9541,8451,7394,6370,5378,4419,3496,,,,1418,2197,4406,3758,2615,2080,828,497,2098,,,,,,,,1418,2197,4406,3758,2615,2080,828,497,2098,,,,
Norway,Operator Holding Account,Fortum Oslo Varme AS,977296919,2009-04-02,open,Drammensveien 144,0247,Oslo,,,,50414,50414,50414,50414,50414,90274,80790,71558,62609,53935,45542,37420,29604,,,,28271,48515,116873,59162,27044,12073,8520,3761,3979,,,,,,,,28271,48515,116873,59162,27044,12073,8520,3761,3979,,,,
Norway,Operator Holding Account,Welcon Egersund AS,986541071,2009-04-02,closed,c/o Welcon AS,6718,Deknepollen,,,,20999,20999,20999,0,0,,,,,,,,,,,,15305,0,0,0,0,,,,,,,,,,,,15305,,,,,,,,,,,,
Norway,Operator Holding Account,Welcon Moldtustranda AS,886541082,2009-04-02,closed,c/o Welcon AS,6718,Deknepollen,,,,16096,16096,0,0,0,,,,,,,,,,,,6026,201,0,0,0,,,,,,,,,,,,6026,201,,,,,,,,,,,
Norway,Operator Holding Account,Wienerberger AS,982579252,2009-04-02,closed,Strengenveien 31,3825,Lunde,,,,12839,12839,12839,12839,12839,3672,3608,0,0,0,0,0,0,,,,6861,6547,6397,5586,6329,4962,4556,,,,,,,,,,6861,6547,6397,5586,6329,4962,4556,,,,,,
Norway,Operator Holding Account,Yara Norge AS Glomfjord,974285150,2009-04-02,open,Postboks 190,8161,Glomfjord,,,,142678,285355,285355,285355,285355,96538,94862,93165,91451,89718,87969,86197,84420,,,,118389,129332,128070,87278,39276,41928,49446,56204,53278,,,,,,,,118389,129332,128070,87278,39276,41928,49446,56204,53278,,,,
Norway,Operator Holding Account,Yara Norge AS avd. Porsgrunn,974100169,2009-04-02,open,Postboks 1123,3905,Porsgrunn,,,,332229,628976,628976,628976,628976,1027733,1009402,990878,972183,953308,934273,915025,895728,,,,285255,359000,241661,229455,258125,951710,929869,1188734,1022278,,,,,,,,285255,359000,241661,229455,258125,951710,929869,1188734,1022278,,,,
Norway,Operator Holding Account,Øraveien Industripark AS,975934624,2009-04-02,closed,Øraveien 2,1630,Gamle Fredrikstad,,,,15887,15887,15887,15887,15887,,,,,,,,,,,,0,206,231,0,94,0,0,,,,,,,,,,,412,231,,,,,,,,,,
Norway,Operator Holding Account,Østfold Energi AS,879904412,2009-04-02,closed,Postboks 17,1701,Sarpsborg,,,,456,456,456,456,456,,,,,,,,,,,,380,488,371,386,428,,,,,,,,,,,,380,488,371,386,428,,,,,,,,
Norway,Operator Holding Account,Avinor AS,985198292,2009-04-02,open,Postboks 150,2061,Gardermoen,,,,0,0,0,0,0,623,0,0,0,0,0,0,0,,,,1363,561,740,441,497,354,414,321,543,,,,,,,,1363,561,740,441,497,354,414,321,543,,,,
Norway,Operator Holding Account,Sarpsborg Avfallsenergi AS,913436369,2009-01-01,closed,"Borregaardsveien 70, Rampe 240",1721,Sarpsborg,,,,0,0,0,0,0,,,,,,,,,,,,,1279,1093,638,1175,,,,,,,,,,,,,1279,1093,638,,1175,,,,,,,
Norway,Operator Holding Account,Sarpsborg Avfallsenergi AS,913436369,2010-01-01,open,"Borregaardsveien 70, Rampe 240",1721,Sarpsborg,,,,0,0,0,0,0,,,,,,,,,,,,,,1521,783,1143,43241,43221,44755,42359,,,,,,,,,,1521,783,,44384,43221,44755,42359,,,,
Norway,Operator Holding Account,Engie E&P Norge AS,983426417,2010-02-25,open,Postboks 242 Forus,4066,Stavanger,,,,0,0,0,0,0,63489,62386,61270,60143,59003,57853,56688,55519,,,,,,49371,165815,107666,122466,120699,125838,129626,,,,,,,,,,49371,125808,147673,122466,120699,125838,129626,,,,
Norway,Operator Holding Account,Skangas LNG Production AS,913174240,2010-06-16,open,Kontinentalveien 31,4056,Tananger,,,,0,0,0,0,0,,,,,,,,,,,,,,12599,15956,19167,29634,30352,28177,24630,,,,,,,,,,12599,15956,19167,29634,30352,28177,24630,,,,
Norway,Operator Holding Account,Tine Meieriet Jæren,947942638,2011-01-25,open,Næringsvegen 29,4365,Nærbø,,,,0,0,0,0,0,,,,,,,,,,,,,,,5781,12570,12712,13942,15579,15806,,,,,,,,,,,5781,12570,12712,13942,15579,15806,,,,
Norway,Operator Holding Account,Finnfjord AS,934039254,2013-01-01,open,Ferroveien 1,9308,Finnsnes,,,,,,,,,148529,145949,143339,140703,138037,135345,132619,129885,,,,,,,,,288352,314398,290323,289629,,,,,,,,,,,,,288352,314398,290323,289629,,,,
Norway,Operator Holding Account,Eramet Norway AS,980518647,2013-01-01,open,Postboks 82,3901,Porsgrunn,,,,,,,,,59787,58749,57697,56636,55563,54479,53383,52281,,,,,,,,,121581,118032,111295,131120,,,,,,,,,,,,,121581,118032,111295,131120,,,,
Norway,Operator Holding Account,Eramet Norway AS,980518647,2013-01-01,open,Postboks 82,3901,Porsgrunn,,,,,,,,,213847,209850,205820,201762,197671,193556,189401,185245,,,,,,,,,310845,319450,304118,341958,,,,,,,,,,,,,310845,319450,304118,341958,,,,
Norway,Operator Holding Account,Eramet Norway AS,980518647,2013-01-01,open,Postboks 82,3901,Porsgrunn,,,,,,,,,251283,243665,236109,228629,221218,213888,206622,199466,,,,,,,,,220952,214152,214300,227497,,,,,,,,,,,,,218700,214010,216694,227488,,,,
Norway,Aircraft Operator Account,CHC Helikopter Services AS,974414228,2010-01-01,open,PB522,4055,Stavanger,,,,,,,,6341,5991,5991,5991,5991,5991,5991,5991,5991,,,,,,,,46138,50031,47133,37925,31193,,,,,,,,,,,,46138,,97164,37925,31193,,,,
Norway,Operator Holding Account,Total E&P Norge AS,927066440,2012-02-16,closed,Postbos 168,4001,Stavanger,,,,,,,,,,,,,,,,,,,,,,,,8659,0,,,,,,,,,,,,,,,8659,,,,,,,,
Norway,Aircraft Operator Account,"Chouest Air, Inc.",0000000,2013-01-01,open,142 Gulfstream Drive,70354,"Galliano, Louisiana",,,,,,,,11,0,0,0,0,0,0,0,0,,,,,,,,52,Excluded,Excluded,Excluded,Excluded,,,,,,,,,,,,52,,,,,,,,
Norway,Operator Holding Account,Statoil ASA,923609016,2012-01-01,open,Forusbeen 50,4035,Stavanger,,,,,,,,,,,,,,,,,,,,,,,,7541,19764,32988,21494,23142,,,,,,,,,,,,7541,19764,32988,21494,23142,,,,
Norway,Operator Holding Account,Dong Exploration and Production,931713671,2012-01-01,closed,Postboks 450 Sentrum,4002,Stavanger,,,,,,,,,,,,,,,,,,,,,,,,15424,,,,,,,,,,,,,,,,15424,,,,,,,,
Norway,Operator Holding Account,Repsol Norge AS,993787787,2012-01-01,open,Postboks 649 Sentrum,4003,Stavanger,,,,,,,,,,,,,,,,,,,,,,,,4957,0,0,0,0,,,,,,,,,,,,4957,,,,,,,,
Norway,Operator Holding Account,Skagerak Varme AS,989214888,2012-09-11,open,Floodeløkka 1,3915,Porsgrunn,,,,,,,,,,,,,,,,,,,,,,,,405,661,178,121,59,,,,,,,,,,,,405,661,178,121,59,,,,
Norway,Operator Holding Account,Aker BP ASA,989795848,2012-04-27,closed,Oksenøyveien 10,1366 Lysaker,Bærum,,,,,,,,,,,,,,,,,,,,,,,,24978,,,,,,,,,,,,,,,,24978,,,,,,,,
Norway,Aircraft Operator Account,GPLUSS,0000000000,2012-01-01,open,7777 Perimeter Road South,98108,Seattle,,,,,,,,,,,,,,,,,,,,,,,,8,Excluded,Excluded,Excluded,Excluded,,,,,,,,,,,,8,,,,,,,,
Norway,Aircraft Operator Account,SMC Aviation,00000000000000,2012-01-01,open,"Biggin Hill, Churchill Way",TN16 3BN,Kent,,,,,,,,,,,,,,,,,,,,,,,,458,Excluded,Excluded,Excluded,Excluded,,,,,,,,,,,,458,,,,,,,,
Norway,Aircraft Operator Account,Rely AS,883505972,2012-01-01,open,PB 1840,7440,Trondheim,,,,,,,,,,,,,,,,,,,,,,,,1126,1118,1133,1138,1347,,,,,,,,,,,,1126,,2251,1138,1347,,,,
Norway,Aircraft Operator Account,WC Aviation,00000,2012-01-01,open,0871 Cooley Mesa Road,81637,"Gypsum, Colorado",,,,,,,,,,,,,,,,,,,,,,,,16,Excluded,Excluded,Excluded,Excluded,,,,,,,,,,,,16,,,,,,,,
Norway,Operator Holding Account,Boliden Odda AS,911177870,2013-01-01,open,Eitrheimneset 8,5750,Odda,,,,,,,,,41559,40837,40107,39368,38623,37869,37107,36341,,,,,,,,,17546,15341,13860,14621,,,,,,,,,,,,,17546,15341,13860,14621,,,,
Norway,Operator Holding Account,Brødr. Sunde AS,916416784,2013-01-01,open,Borgundfjordv 137,6022,Ålesund,,,,,,,,,4026,3956,3886,3814,3742,3669,3595,3521,,,,,,,,,0,0,0,0,,,,,,,,,,,,,,,,,,,,
Norway,Operator Holding Account,Alcoa Norway ANS,929514173,2013-01-01,open,Drammensveien 147A,0277,OSLO,,,,,,,,,157006,154279,151521,148732,145914,143069,140188,137298,,,,,,,,,186428,180130,176587,171925,,,,,,,,,,,,,186428,180130,176587,171925,,,,
Norway,Operator Holding Account,BIR Avfallsenergi AS,985285408,2013-01-01,closed,Conrad Mohrs vei 15,5072,Bergen,,,,,,,,,,,,,,,,,,,,,,,,,,,,,,,,,,,,,,,,,,,,,,,,
Norway,Operator Holding Account,Alcoa Norway ANS,929514173,2013-01-01,open,Drammensveien 147A,0277,OSLO,,,,,,,,,376524,369849,363104,356296,349417,342481,335462,328426,,,,,,,,,423555,368609,392190,443121,,,,,,,,,,,,,423222,364907,396225,443121,,,,
Norway,Operator Holding Account,Elkem AS,911382008,2013-01-01,open,P.O Box 334 Skøyen,0213,Oslo,,,,,,,,,207335,203378,199390,195378,191340,187278,183181,179088,,,,,,,,,223406,238082,240604,228081,,,,,,,,,,,,,223406,238082,240604,228081,,,,
Norway,Operator Holding Account,Elkem AS,911382008,2013-01-01,open,P.O Box 334 Skøyen,0213,Oslo,,,,,,,,,182536,176592,170705,164889,159142,153465,147851,142333,,,,,,,,,160608,162661,145373,155503,,,,,,,,,,,,,160608,162661,145373,155503,,,,
Norway,Operator Holding Account,Elkem AS,911382008,2013-01-01,open,P.O Box 334 Skøyen,0213,Oslo,,,,,,,,,189450,185408,181351,177289,173218,169141,165051,160976,,,,,,,,,238297,314001,303781,332256,,,,,,,,,,,,,238297,314001,303781,332202,,,,
Norway,Operator Holding Account,Elkem AS,911382008,2013-01-01,open,P.O Box 334 Skøyen,0213,Oslo,,,,,,,,,218152,214109,210031,205921,201782,197612,193402,189189,,,,,,,,,188766,214070,218919,220737,,,,,,,,,,,,,188766,214070,218919,220737,,,,
Norway,Operator Holding Account,AS Rockwool,923828583,2013-01-01,open,Postboks 4215 Nydalen,0401,OSLO,,,,,,,,,27168,26696,26219,25737,25249,24757,24258,23758,,,,,,,,,35293,34663,34134,33032,,,,,,,,,,,,,35293,34663,34134,33032,,,,
Norway,Operator Holding Account,Wacker Chemicals Norway AS,995541432,2013-01-01,open,Hollaveien 482,7200,Kyrksæterøra,,,,,,,,,191583,188255,184888,181487,178048,174576,171061,167533,,,,,,,,,287131,288239,256415,255926,,,,,,,,,,,,,287131,288239,256441,255900,,,,
Norway,Operator Holding Account,AS Rockwool,923828583,2013-01-01,open,Postboks 4215 Nydalen,0401,OSLO,,,,,,,,,13727,13489,13247,13004,12757,12508,12257,12004,,,,,,,,,17223,15224,15927,16154,,,,,,,,,,,,,17223,15224,15927,16154,,,,
Norway,Operator Holding Account,Hydro Aluminium AS Høyanger aluminiumsverk,973108050,2013-01-01,open,Postboks 114,6991,Høyanger,,,,,,,,,96267,94550,92815,91066,89298,87516,85714,83908,,,,,,,,,105258,105128,104915,105341,,,,,,,,,,,,,105258,105433,104610,105341,,,,
Norway,Operator Holding Account,Elkem Rana AS,995 590 271,2013-01-01,open,Postboks 500,8601,Mo i Rana,,,,,,,,,217397,210419,203505,196675,189921,183249,176644,170153,,,,,,,,,236696,293001,292496,300399,,,,,,,,,,,,,236696,293001,292496,300399,,,,
Norway,Operator Holding Account,Hydro Aluminium AS Karmøy aluminiumsverk,874285072,2013-01-01,open,Hydrovegen 160,4265,Håvik,,,,,,,,,292326,287248,282112,276921,271674,266376,261013,255630,,,,,,,,,325849,317467,313071,329976,,,,,,,,,,,,,325849,317467,313071,329976,,,,
Norway,Operator Holding Account,Finnfjord AS,934 039 254,2013-01-01,closed,Postboks 13,9305,Finnsnes,,,,,,,,,,,,,,,,,,,,,,,,,,,,,,,,,,,,,,,,,,,,,,,,
Norway,Operator Holding Account,Hydro Aluminium AS Sunndal aluminiumsverk,973108069,2013-01-01,open,Postboks 53,6601,Sunndalsøra,,,,,,,,,564673,554632,544483,534239,523897,513464,502913,492333,,,,,,,,,571220,585806,641934,613792,,,,,,,,,,,,,570642,586384,641934,613792,,,,
Norway,Operator Holding Account,Hydro Aluminium AS Årdal metallverk,974825090,2013-01-01,open,Postboks 303,6882,Øvre Årdal,,,,,,,,,297051,291891,286670,281396,276065,270681,265231,259761,,,,,,,,,361713,393000,353973,393342,,,,,,,,,,,,,361713,393000,353973,393342,,,,
Norway,Operator Holding Account,Saint Gobain Ceramic Materials AS avd Lillesand,873147172,2013-01-01,closed,Postboks 113,4791,Lillesand,,,,,,,,,,,,,,,,,,,,,,,,,,,,,,,,,,,,,,,,,,,,,,,,
Norway,Operator Holding Account,Sør-Norge Aluminium AS,971778695,2013-01-01,open,Onarheimsvegen 54,5460,Husnes,,,,,,,,,237429,233305,229133,224917,220656,216353,211997,207625,,,,,,,,,165168,147075,147495,147298,,,,,,,,,,,,,165168,147188,147382,147298,,,,
Norway,Operator Holding Account,Hydro Aluminium AS Årdal Metallverk Karbon,974296586,2013-01-01,open,Postboks 175,6881,Årdalstangen,,,,,,,,,56795,55809,54811,53802,52783,51754,50711,49666,,,,,,,,,88566,82394,91532,101361,,,,,,,,,,,,,88566,82394,91532,101361,,,,
Norway,Operator Holding Account,INOVYN Norge AS,981701046,2013-01-01,open,Rafnes,3966,Stathelle,,,,,,,,,15824,15550,15272,14990,14707,14420,14130,13838,,,,,,,,,1195,988,28,0,,,,,,,,,,,,,1195,988,28,,,,,
Norway,Operator Holding Account,Glencore Manganese Norway AS,957 779 808,2013-01-01,open,Postboks 394,8601,Mo i Rana,,,,,,,,,47959,47126,46283,45432,44571,43702,42822,41939,,,,,,,,,81728,95955,95592,88440,,,,,,,,,,,,,81637,96046,95592,88440,,,,
Norway,Operator Holding Account,Tizir Titanium and Iron AS,934505557,2013-01-01,open,"Naustbakken 1,",5770,Tyssedal,,,,,,,,,335828,329965,324035,318044,311988,305876,299690,293484,,,,,,,,,283718,264240,162781,147597,,,,,,,,,,,,,283718,264240,162781,147597,,,,
Norway,Operator Holding Account,ENI Norge AS,919160675,2013-01-01,open,Postboks 101,4064,Stavanger,,,,,,,,,,,,,,,,,,,,,,,,,20373,36329,52427,210872,,,,,,,,,,,,,20373,36329,52427,210872,,,,
Norway,Operator Holding Account,A/S Norske Shell,914807077,2013-01-01,open,Postboks 40,4098,Tananger,,,,,,,,,,,,,,,,,,,,,,,,,9250,30660,394923,208401,,,,,,,,,,,,,9250,24705,400878,208401,,,,
Norway,Operator Holding Account,Wintershall Norge AS,985224323,2013-01-01,open,Jåttåflaten 27,4020,Stavanger,,,,,,,,,,,,,,,,,,,,,,,,,6146,13126,522,153,,,,,,,,,,,,,6146,12545,1098,157,,,,
Norway,Operator Holding Account,MM Karton FollaCell AS,950 198 168,2013-01-01,open,Follafoss,7796,Follafoss,,,,,,,,,0,25453,24238,23543,22859,22184,21518,20861,,,,,,,,,809,2572,3717,3890,,,,,,,,,,,,,,3381,3717,3890,,,,
Norway,Operator Holding Account,Total E&P Norge AS,927066440,2014-01-01,open,Postbos 168,4001,Stavanger,,,,,,,,,,,,,,,,,,,,,,,,,,6798,28712,48052,,,,,,,,,,,,,,6798,28712,48052,,,,
Norway,Operator Holding Account,Lundin Norway AS,986209409,2014-01-01,open,Postboks 247,N-1326,Lysaker,,,,,,,,,,,,,,,,,,,,,,,,,,12176,2555,0,,,,,,,,,,,,,,12176,2555,,,,,
Norway,Operator Holding Account,Lundin Norway AS,986209409,2014-01-01,open,Postboks 247,N-1326,Lysaker,,,,,,,,,,,,,,,,,,,,,,,,,,5733,69697,227220,,,,,,,,,,,,,,5733,69697,227220,,,,
Norway,Operator Holding Account,Statoil ASA,923609016,2015-06-10,open,Forusbeen 50,4035,Stavanger,,,,,,,,,,,,,,,,,,,,,,,,,,,9057,32703,,,,,,,,,,,,,,,9057,32703,,,,
Norway,Operator Holding Account,Aker BP ASA,989795848,2015-07-01,open,Oksenøyveien 10,1366 Lysaker,Bærum,,,,,,,,,,,,,,,,,,,,,,,,,,,8626,33221,,,,,,,,,,,,,,,8626,33221,,,,
Norway,Operator Holding Account,BE Varme AS,988604607,2016-01-14,open,Postboks 1410,8002,Bodø,,,,,,,,,,,763,4600,3965,3351,2756,2183,,,,,,,,,,,50,803,,,,,,,,,,,,,,,50,801,,,,
Norway,Operator Holding Account,ExxonMobil Exploration and Prod Norway AS,914048990,2015-12-02,closed,Postboks 60,4313,Sandnes,,,,,,,,,,,,,,,,,,,,,,,,,,,,5041,,,,,,,,,,,,,,,,5041,,,,
Norway,Operator Holding Account,Statoil ASA,923609016,2015-11-19,open,Forusbeen 50,4035,Stavanger,,,,,,,,,,,,,,,,,,,,,,,,,,,,27926,,,,,,,,,,,,,,,,27926,,,,
Norway,Operator Holding Account,Nergård Pelagic AS,912789985,2016-01-01,open,Strandgata 9,9008,TROMSØ,,,,,,,,,,,,,,,,,,,,,,,,,,,,2819,,,,,,,,,,,,,,,,2819,,,,
Norway,Operator Holding Account,Wintershall Norge AS,985224323,2017-09-15,open,Jåttåflaten 27,4020,Stavanger,,,,,,,,,,,,,,,,,,,,,,,,,,,,,,,,,,,,,,,,,,,,,,,,
Norway,Operator Holding Account,Noralf AS,917 475 091,2017-10-13,open,Eitrheimsneset 1,5750,Odda,,,,,,,,,,,,,,,,,,,,,,,,,,,,,,,,,,,,,,,,,,,,,,,,
Norway,Operator Holding Account,Statoil ASA,923609016,2017-10-31,open,Forusbeen 50,4035,Stavanger,,,,,,,,,,,,,,,,,,,,,,,,,,,,,,,,,,,,,,,,,,,,,,,,
