Country,Account Type,Account Holder Name,Company Registration No,Permit/Plan Date,Account status,Main Address Line,Postal Code,City,Allowance In Allocation In 2005,Allowance In Allocation In 2006,Allowance In Allocation In 2007,Allowance In Allocation In 2008,Allowance In Allocation In 2009,Allowance In Allocation In 2010,Allowance In Allocation In 2011,Allowance In Allocation In 2012,Allowance In Allocation In 2013,Allowance In Allocation In 2014,Allowance In Allocation In 2015,Allowance In Allocation In 2016,Allowance In Allocation In 2017,Allowance In Allocation In 2018,Allowance In Allocation In 2019,Allowance In Allocation In 2020,Verified Emissions In 2005,Verified Emissions In 2006,Verified Emissions In 2007,Verified Emissions In 2008,Verified Emissions In 2009,Verified Emissions In 2010,Verified Emissions In 2011,Verified Emissions In 2012,Verified Emissions In 2013,Verified Emissions In 2014,Verified Emissions In 2015,Verified Emissions In 2016,Verified Emissions In 2017,Verified Emissions In 2018,Verified Emissions In 2019,Verified Emissions In 2020,Units Surrendered In 2005,Units Surrendered In 2006,Units Surrendered In 2007,Units Surrendered In 2008,Units Surrendered In 2009,Units Surrendered In 2010,Units Surrendered In 2011,Units Surrendered In 2012,Units Surrendered In 2013,Units Surrendered In 2014,Units Surrendered In 2015,Units Surrendered In 2016,Units Surrendered In 2017,Units Surrendered In 2018,Units Surrendered In 2019,Units Surrendered In 2020
Portugal,Aircraft Operator Account,Timothy E Jassak,,2010-01-01,open,3010 Corporate Drive,60087,Waukegan,,,,,,,,,0,0,0,0,0,0,0,0,,,,,,,,57,Excluded,Excluded,Excluded,Excluded,,,,,,,,,,,,,,,,,,,,
Portugal,Aircraft Operator Account,"Transportes Aéreos Portugueses, S.A.",500278725,2012-01-01,open,"Aeroporto de Lisboa, Edifício 25 - 8º",1704-801,Lisboa,,,,,,,,1980886,499254,499254,499254,499254,499254,499254,499254,499254,,,,,,,,1281902,1055775,1108664,1160829,1115287,,,,,,,,,,,,1281902,,2164439,1160829,1115287,,,,
Portugal,Aircraft Operator Account,"White Airways, S.A.",504869213,2012-01-01,open,"Rua Henrique Callado, n.º4, piso 2",2740-303,Porto Salvo,,,,,,,,43359,2067,2067,2067,2067,2067,2067,2067,2067,,,,,,,,0,Excluded,12344,Excluded,Excluded,,,,,,,,,,,,,,12344,,,,,,
Portugal,Operator Holding Account,"SUGAL - Alimentos, S.A.",500277230,2005-11-25,open,"Estrada Nacional nº 3, Apartado 1, Azambuja",2054-909,Azambuja,27982,27982,27982,31714,37171,44084,44084,44585,20098,19520,18946,18378,17813,17253,16698,16151,28520,27409,29416,27409,31540,34373,17669,21667,18927,20899,28907,24628,,,,,28520,27409,29416,27409,31540,34373,17669,21667,18927,20899,28907,24628,,,,
Portugal,Operator Holding Account,"DOW Portugal, Produtos Químicos, SUL",500803862,2005-11-25,open,"Quinta da Indústria, Poente",3860-529,Estarreja,49093,49093,49093,48149,48149,48149,111632,74480,45698,44905,44102,43290,42470,41642,40803,39962,44544,47619,47240,45451,29692,50092,43748,50254,53587,58860,56926,52317,,,,,44544,47619,47240,45451,29692,50092,43748,50254,53587,58860,56926,52317,,,,
Portugal,Operator Holding Account,"SPE-Sociedade de Produção de Electricidade e Calor, S.A.",503208280,2005-11-25,open,"Rua Comendador Manuel Gonçalves, n.º25, S.Cosme da Vila",4770-583,S. Cosme do Vale,55626,55626,55626,46027,46027,46027,46027,46027,5899,0,0,0,0,0,0,0,54078,56516,55721,20925,22495,22133,21182,21158,2388,0,77,293,,,,,54078,56516,55721,20925,22495,22133,21182,21158,2388,,77,293,,,,
Portugal,Operator Holding Account,"António Marques, Lda",500956677,2005-11-25,closed,"Rua da Azenha, n.º 42/254",4536,Paços de Brandão,1632,1632,1632,0,0,0,0,0,,,,,,,,,1778,3328,0,0,Not Reported,Not Reported,0,,,,,,,,,,1778,3328,,,,,,,,,,,,,,
Portugal,Operator Holding Account,"Evertis Energia, S.A.",506748626,2005-11-25,open,Quinta de S. Vicente - Estrada Nacional 246,7300-952,Portalegre,41225,41225,41225,51079,51079,51079,51079,51079,21619,21143,20669,10496,10209,9925,9645,9368,39452,41161,42727,41324,37777,36056,21517,38162,38923,25414,10246,9954,,,,,39452,41161,85454,41324,37777,36056,21517,38162,38923,25414,10246,9954,,,,
Portugal,Operator Holding Account,"M. A. Lopes D'Avó, Lda",500659400,2005-11-25,open,Rua Dr.Carlos Nunes Ferreira,2025,Amiais de Cima,6477,6477,6477,6048,6048,6048,6048,6048,4354,2140,2102,2063,2024,1985,1944,1904,4347,3547,4009,865,1,0,0,0,906,898,134,84,,,,,8356,3547,,865,1,,,,906,898,134,84,,,,
Portugal,Operator Holding Account,"Riopele Têxteis, S.A.",500108064,2005-11-25,closed,"Avenida da Riopele, n.º 946, Pousada de Saramagos",4770-405,Pousada de Saramagos,22015,22015,22015,4781,4781,4781,0,0,,,,,,,,,4695,1253,1196,3121,2756,2919,0,,,,,,,,,,4695,1253,1196,3121,2756,2919,,,,,,,,,,
Portugal,Operator Holding Account,"Cerâmica do Salvadorinho, S.A.",501855378,2005-11-25,closed,Av. António Farinha Pereira  - Alferrarede,2204-906,Abrantes,4480,4480,4480,3485,3485,3485,3485,0,0,0,0,0,0,0,0,0,457,14,45,0,73,55,4,Not Reported,Not Reported,Not Reported,Not Reported,Not Reported,,,,,457,14,45,,73,55,4,,,,,,,,,
Portugal,Operator Holding Account,"Dâmaso-Vidros de Portugal, S.A.",500082243,2005-11-25,closed,Rua Pires de Campos,2431,Vieira de Leiria,15164,15164,15164,0,0,0,0,0,,,,,,,,,8654,0,0,0,0,0,0,,,,,,,,,,8654,,,,,,,,,,,,,,,
Portugal,Operator Holding Account,"Santos Barosa - Vidros, S.A",500241104,2005-11-25,open,"Rua Santos Barosa, Comeira",2430-415,Marinha Grande,140764,140764,140764,154633,154633,154633,154633,154633,112839,110879,108896,106893,104867,102822,100752,98674,113897,119128,122983,124310,120233,115167,112412,131247,132535,136040,148493,140931,,,,,113897,119128,122983,124310,120233,115167,112412,131247,132535,136040,148493,140931,,,,
Portugal,Operator Holding Account,"Emacor II - Indústrias, S.A.",508189314,2005-11-25,closed,"Rua das Olaias - Zona Industrial de Gala, 119",3080-380,Figueira da Foz,9195,9195,9195,,,,,,,,,,,,,,6453,6922,6170,,Not Reported,Not Reported,,,,,,,,,,,6453,6922,6170,,,,,,,,,,,,,
Portugal,Operator Holding Account,"Fábrica do Arco - Recursos Energéticos, S.A.",503498017,2005-11-25,closed,"Rua Comendador António Maria Lopes, n.º 15, Apartado 9",4784-909,Santo Tirso,35871,35871,35871,26643,26643,26643,26643,0,,,,,,,,,22189,21301,22737,12261,11690,11843,12245,Not Reported,,,,,,,,,22189,21301,22737,12261,11690,11843,12245,,,,,,,,,
Portugal,Operator Holding Account,"Fapajal - Fábrica de papel do Tojal, S.A.",500109192,2005-11-25,open,Rua Arquitecto Dias Coelho,2660-394,S. Julião do Tojal,9590,9590,9590,11503,11503,11503,11503,11503,2147,2109,2072,2033,1995,1956,1917,1877,7692,6580,7989,2494,942,3083,2572,2875,3040,2945,3239,3126,,,,,7692,6580,7989,2494,942,3083,2572,2875,3040,2945,3239,3126,,,,
Portugal,Operator Holding Account,"ARCO TEXTEIS, S.A",500096732,2005-11-25,open,"Rua Comendador António Maria Lopes, n.º 15",4780-424,Santo Tirso,8389,8389,8389,7088,7088,7088,7088,7088,6739,6621,6503,6383,6263,6140,6016,5893,5168,4654,5517,5789,5210,5392,4973,5429,6135,14296,Not Reported,Not Reported,,,,,5168,4654,5517,5789,5210,5392,4973,5429,6135,,,,,,,
Portugal,Operator Holding Account,"CTE - Central Termoeléctrica do Estuário, Lda.",504440101,2005-11-25,closed,Lugar do Espido - Via Norte,4470-177,Maia,23716,23716,23716,22905,22905,22905,22905,22905,7903,7073,6265,5484,0,0,0,0,22581,22551,22789,20745,22941,22955,18002,22463,20981,23658,24826,6366,,,,,22581,22551,22789,20745,22941,22955,18002,22463,20981,23658,24826,6366,,,,
Portugal,Operator Holding Account,"EDP - Gestão da Produção de Energia, S.A.",503293695,2005-11-25,open,"Avenida 24 de julho, n.º 12",1249-300,Lisboa,2019570,2019570,2019570,1423103,1423103,1423103,1423103,1423103,,,,,,,,,1825360,2065449,2176170,2698034,2131189,1167341,426648,95502,96209,100451,290989,626115,,,,,1825360,2065449,2176170,2698034,2131189,1167341,426648,95502,96209,100451,290989,626115,,,,
Portugal,Operator Holding Account,"EDP - Gestão da Produção de Energia, S.A.",503293695,2005-11-25,open,"Avenida 24 de julho, n.º 12",1249-300,Lisboa,5000,5000,5000,4537,4537,4537,4537,4537,,,,,,,,,17619,1224,463,220,859,922,192,156,99,0,Not Reported,Not Reported,,,,,17619,1224,463,220,859,922,192,156,99,,,,,,,
Portugal,Operator Holding Account,"EDP - Gestão da Produção de Energia, S.A.",503293695,2005-11-25,closed,"Avenida 24 de julho, n.º 12",1249-300,Lisboa,1088575,1088575,1088575,377234,377234,377234,377234,377234,,,,,,,,,936365,188611,167263,51634,14452,49989,1875,1,,,,,,,,,936365,188611,167263,51634,14452,49989,1875,1,,,,,,,,
Portugal,Operator Holding Account,"EDP - Gestão da Produção de Energia, S.A.",503293695,2005-11-25,closed,"Avenida 24 de julho, n.º 12",1249-300,Lisboa,253048,253048,253048,138977,138977,138977,0,0,,,,,,,,,347958,291651,261690,226001,248219,526,,,,,,,,,,,347958,291651,261690,226001,248219,526,,,,,,,,,,
Portugal,Operator Holding Account,"EDP - Gestão da Produção de Energia, S.A.",503293695,2005-11-25,closed,"Avenida 24 de julho, n.º 12",1249-300,Lisboa,2505210,2505210,2505210,1118999,1118999,1118999,1118999,1118999,,,,,,,,,2730062,973507,764835,555423,166596,29743,9413,17030,1061,Not Reported,Not Reported,,,,,,2730062,973507,764835,555423,166596,29743,9413,17030,1061,,,,,,,
Portugal,Operator Holding Account,"EDP - Gestão da Produção de Energia, S.A.",503293695,2005-11-25,open,"Avenida 24 de julho, n.º 12",1249-300,Lisboa,7837380,7837380,7837380,5833317,5833317,5833317,5833317,5833317,,,,,,,,,8596172,8730335,7180123,6151342,7706253,4438198,6251550,7785589,7184113,7398654,8683899,7316936,,,,,8596172,8730335,7180123,6151342,7706253,4438198,6251550,7785589,7184113,7398654,8683899,7316936,,,,
Portugal,Operator Holding Account,"EDP - Gestão da Produção de Energia, S.A.",503293695,2009-10-12,open,"Avenida 24 de julho, n.º 12",1249-300,Lisboa,,,,0,0,1055962,731072,731072,,,,,,,,,,,,,365407,794955,1164919,521816,234180,124676,719354,759888,,,,,,,,,365407,794955,1164919,521816,234180,124676,719354,759888,,,,
Portugal,Operator Holding Account,"Companhia Térmica do Serrado, ACE",504300105,2005-11-25,closed,Lugar da Azenha,4536-906,Paços de Brandão,18276,18276,18276,17712,17712,17712,17712,17712,1439,1288,1141,0,0,0,0,0,15483,18218,15945,17171,14623,14026,13392,14118,15531,2198,919,Not Reported,,,,,15483,18218,15945,17171,14623,14026,13392,14118,15531,2198,919,,,,,
Portugal,Operator Holding Account,"Companhia Térmica Oliveira Ferreira, ACE",504652354,2005-11-25,closed,"Lugar da Avenida - Av. Narciso Ferreira, n.º 614",4765-202,Riba de Ave,12181,12181,12181,11421,11421,11421,0,0,,,,,,,,,10651,10291,7655,9968,9493,6201,,,,,,,,,,,10651,10291,7655,9968,9493,6201,,,,,,,,,,
Portugal,Operator Holding Account,"Companhia Térmica Mundo Textil, ACE",503366838,2005-11-25,closed,"Rua da Saudade, Lugar dos Enxertos, n.º 280/400, Apartado 23, Caldas de S. João",4815-413,S. João - Vizela,24184,24184,24184,20938,20938,20938,20938,20938,4397,4320,0,0,0,0,0,0,22082,24337,24084,24157,24292,19813,23100,18837,4092,1171,Not Reported,,,,,,22082,24337,24084,24157,24292,19813,23100,18837,4092,1171,,,,,,
Portugal,Operator Holding Account,"Companhia Térmica Tagol, Unipessoal, Lda",504674234,2005-11-25,open,"Rua General Ferreira Martins, n.º 6 - 8º, Algés",1495-137,Lisboa,42752,42752,42752,41603,41603,41603,41603,41603,,,,,,,,,42500,36503,46939,41981,35183,46462,48317,44723,50344,51495,53678,53206,,,,,42500,36503,46939,41981,35183,46462,48317,44723,50344,51495,53678,53206,,,,
Portugal,Operator Holding Account,"NAVIGATOR PULP SETÚBAL, S.A.",508933560,2005-11-25,open,Apartado 55,2901-861,Setúbal,33995,33995,33995,35646,35646,35646,35646,35646,0,0,0,0,0,0,0,0,34732,31215,31814,31732,41082,48184,38545,31421,39695,44627,51578,51499,,,,,34732,31215,63628,31732,41082,48184,38545,31421,39695,44627,51578,51499,,,,
Portugal,Operator Holding Account,"Portucel - Empresa Produtora de Pasta e Papel, S.A",503025798,2005-11-25,closed,"Apartado 55, Mitrena",2901-861,Setúbal,6249,6249,6249,,,,,,,,,,,,,,1894,4125,3475,,Not Reported,Not Reported,,,,,,,,,,,1894,4125,6950,,,,,,,,,,,,,
Portugal,Operator Holding Account,"NAVIGATOR PULP CACIA, S.A.",508933471,2005-11-25,open,"Instalações da Portucel, Rua Bombeiros da Celulose",3800-536,CACIA - Aveiro,31237,31237,31237,32608,32608,32608,32608,32608,30273,29747,29215,28677,28134,27585,27030,26473,26470,35948,37827,21716,23736,21083,20786,34010,31409,37225,48697,51767,,,,,26470,35948,37827,21716,23736,21083,20786,34010,31409,37225,48697,51767,,,,
Portugal,Operator Holding Account,"ENERPULP - Cogeração Energética de Pasta, S.A.",504650963,2005-11-25,closed,"Pólo Industrial da Portucel, Mitrena",2901-861,Setúbal,34248,34248,34248,65832,65832,65832,65832,65832,,,,,,,,,18381,18703,17249,15563,17892,4786,4150,2418,,,,,,,,,18381,18703,34498,15563,17892,4786,4150,2418,,,,,,,,
Portugal,Operator Holding Account,"ENERPULP - Cogeração Energética de Pasta, S.A.",504650963,2005-11-25,closed,"Pólo Industrial da Portucel, Mitrena",2901-861,Setúbal,103047,103047,103047,85807,85807,85807,85807,85807,,,,,,,,,24655,19921,26755,30713,24876,43305,32651,17863,,,,,,,,,24655,19921,53510,30713,24876,43305,32651,17863,,,,,,,,
Portugal,Operator Holding Account,"ENERPULP - Cogeração Energética de Pasta, S.A.",504650963,2005-11-25,closed,"Pólo Industrial da Portucel, Mitrena",2901-861,Setúbal,135468,135468,135468,98590,98590,98590,98590,98590,,,,,,,,,42881,33063,20957,33604,33767,23676,15175,10238,,,,,,,,,42881,33063,41914,33604,33767,23676,15175,10238,,,,,,,,
Portugal,Operator Holding Account,"PortucelSoporcel Cogeração de Energia, S.A.",508101174,2005-11-25,open,"Pólo Industrial da Portucel, Mitrena",2901-861,Setúbal,166000,166000,166000,156099,156099,156099,156099,156099,,,,,,,,,104708,81288,79812,64524,53146,39386,22021,25473,3358,5451,5974,3449,,,,,104708,81288,159624,64524,53146,39386,22021,25473,3358,5451,5974,3449,,,,
Portugal,Operator Holding Account,RAR-Cogeração Unipessoal Lda,504013033,2005-11-25,open,"Rua Manuel Pinto de Azevedo, n.º 272",4100-320,Porto,51117,51117,51117,50577,50577,50577,50577,50577,25205,24766,24328,23889,23451,23012,22574,22135,39533,41008,43643,43282,42873,39243,37954,35244,38551,26597,39678,54359,,,,,39533,41008,43643,43282,42873,39243,37954,35244,38551,26597,39678,54359,,,,
Portugal,Operator Holding Account,TMG - Acabamentos Têxteis,500189773,2005-11-25,open,Lugar de Oleiros - Ronfe,4801-909,Guimarães,27259,27259,27259,17197,17197,17197,17197,17197,6009,11360,11156,10951,10744,10534,10322,10110,15662,16160,12962,10838,8583,8214,7610,5417,7138,9744,8343,10345,,,,,15662,16160,12962,10916,8583,8214,7610,5417,7138,9744,8343,10345,,,,
Portugal,Operator Holding Account,"CPK - Companhia Produtora de Papel Kraftsack, S.A.",504606433,2005-11-25,closed,Rua Bombeiros da Celulose,3800,Cacia,0,0,0,0,0,0,0,0,,,,,,,,,0,0,0,0,Not Reported,,Not Reported,,,,,,,,,,,,,,,,,,,,,,,,,
Portugal,Operator Holding Account,Cerâmica Torreense,500331014,2005-11-25,open,"Rua da Fábrica - Outeiro da Cabeça, n.º  1",2565-601,Outeiro da Cabeça,13891,13891,13891,13367,13367,13367,13367,13367,7638,7506,7371,7236,5054,4956,4856,4756,5418,4849,6179,4588,2341,3299,2676,1789,5636,4358,4552,1872,,,,,5418,4849,6179,4588,2341,3299,2676,1789,5636,4358,4552,1872,,,,
Portugal,Operator Holding Account,Cerâmica Torreense,500331014,2005-11-25,closed,"Rua da Fábrica - Outeiro da Cabeça, n.º  1",2565-601,Outeiro da Cabeça,2421,2421,2421,,,,,,,,,,,,,,2831,2647,2841,,Not Reported,Not Reported,,,,,,,,,,,2831,2647,2841,,,,,,,,,,,,,
Portugal,Operator Holding Account,Cerâmica Torreense,500331014,2005-11-25,open,"Rua da Fábrica - Outeiro da Cabeça, n.º  1",2565-601,Outeiro da Cabeça,7576,7576,7576,9771,10721,11339,11339,11339,14827,14569,14309,14046,13779,13511,13239,12965,7248,6616,1071,7790,7689,6666,6675,4136,11369,6059,5465,6328,,,,,7248,6616,1071,7790,7689,6666,6675,4136,11369,6059,5465,6328,,,,
Portugal,Operator Holding Account,"AP - AMONÍACO DE PORTUGAL, SA",506738744,2005-11-25,closed,Parque Empresarial da Quimiparque,2836,Lavradio,116854,116854,116854,120846,0,0,0,0,,,,,,,,,105860,83512,118096,88967,18,0,,,,,,,,,,,105860,83512,118096,88967,18,,,,,,,,,,,
Portugal,Operator Holding Account,"SOLCER - Empresa Cerâmica, SA",500679770,2005-11-25,closed,"Vila Verde, Apartado 20",3770,Oliveira do BAirro,9695,9695,9695,,,,,,,,,,,,,,8146,9765,10438,,Not Reported,Not Reported,,,,,,,,,,,8146,9765,10438,,,,,,,,,,,,,
Portugal,Operator Holding Account,"Cerâmica da Floresta, Lda",500330948,2005-11-25,closed,Quinta da Floresta - Outeiro da Cabeça - Pêro Moniz,2550-479,Pêro Moniz - Cadaval,6194,6194,6194,5924,5924,5924,5924,5924,6112,0,0,0,0,0,0,0,3922,4573,5344,5113,3643,2587,3839,2360,1417,0,Not Reported,,,,,,3922,4573,5344,5113,3643,2587,3839,2360,1417,,,,,,,
Portugal,Operator Holding Account,"Recer - Indústria de Revestimentos Ceramicos, S. A",500707472,2005-11-25,closed,"Vila Verde, Apartado 20",3770,Oliveira do Bairro,29821,29821,29821,,,,,,,,,,,,,,29717,25964,24602,,Not Reported,Not Reported,,,,,,,,,,,29717,25964,24602,,,,,,,,,,,,,
Portugal,Operator Holding Account,"Pronicol, Produtos Lácteos, S. A.",512035377,2005-11-25,open,"Quinta de S. Luís, n.º 44, S. Bento",9700-224,Angra do Heroísmo,15830,15830,15830,24930,24930,24930,24930,24930,8949,8931,8459,7999,7547,7105,6673,6253,11045,13346,13008,13299,13647,13428,12573,13223,13123,12761,12428,10734,,,,,11045,13346,13008,13299,13647,13428,12573,13223,13123,12761,12428,10734,,,,
Portugal,Operator Holding Account,"Soladrilho, SA",501139435,2005-11-25,open,"Estrada da Barroca, Apartado 54",2334-909,Entroncamento,6601,6601,6601,13052,13052,13052,13052,13052,7229,9839,9663,9485,6718,6588,6455,6322,5347,6747,10223,10679,9318,8885,10021,8762,10269,11744,11456,9652,,,,,5347,6747,10223,10679,9318,8885,10021,8762,10269,11744,11456,9652,,,,
Portugal,Operator Holding Account,"Barbosa Coimbra, S.A",500041601,2005-11-25,closed,Estrela d'Alva,3360,São Paio de Mondego,4225,4225,4225,0,0,0,0,0,,,,,,,,,3795,3642,3855,0,0,0,0,,,,,,,,,,3795,3642,3855,,,,,,,,,,,,,
Portugal,Operator Holding Account,"Turbogás - Produtora Energética, S.A",503310026,2005-11-25,open,"Central de Ciclo Combinado da Tapada do Outeiro, Broalhos",4515-430,Medas,2600858,2600858,2600858,1198020,1198020,1198020,1198020,1198020,,,,,,,,,2365882,1544540,1685962,1934702,1805909,1886309,1735044,1007887,250434,368045,792808,1004750,,,,,2365882,1544540,1685962,1934702,1805909,1886309,1735044,1007887,250434,368045,792808,1004750,,,,
Portugal,Operator Holding Account,"Cerâmica Moderna do Olival, Lda",500061920,2005-11-25,open,"Rua de S. Domingos, n.º 5, Apartado 4",2436-907,Olival VNO,1752,1752,1752,1424,1424,1424,1424,1424,3310,3252,3194,3136,3076,3016,2956,2894,612,74,0,0,186,388,386,Not Reported,Not Reported,Not Reported,Not Reported,Not Reported,,,,,612,74,,,186,388,,,,,,,,,,
Portugal,Operator Holding Account,"Tijolar - Cerâmica do Olival, S.A",500061980,2005-11-25,open,"Rua da Paz, n.º 20, Olival",2435-424,Olival VNO,6161,6161,6161,4276,4276,4276,4276,4276,5305,0,0,0,0,0,0,0,57,0,31,0,0,6,0,0,1664,Not Reported,Not Reported,Not Reported,,,,,57,,31,,,6,,,1664,,,,,,,
Portugal,Operator Holding Account,"Certomar - Cerâmicas, Lda",507783778,2005-11-25,closed,Portela - S.Pedro - Tomar,2300-182,Tomar,3365,3365,3365,,,,,,,,,,,,,,1,4,0,,Not Reported,Not Reported,,,,,,,,,,,1,4,1,,,,,,,,,,,,,
Portugal,Operator Holding Account,"Cerâmica Avelar, S.A.",500941262,2005-11-25,open,"Estrada Nacional, n.º 8",2565-646,Ramalhal,12796,12796,12796,15671,15671,15671,15671,15671,0,0,0,0,0,0,0,0,14884,13659,19827,15524,10828,9039,5609,0,Not Reported,Not Reported,Not Reported,Not Reported,,,,,14884,13659,19827,15524,10828,9039,5609,,,,,,,,,
Portugal,Operator Holding Account,"Prélis Cerâmica, Lda",500145938,2005-11-25,open,Alcogulhe de Cima,2405,Alcogulhe de Cima,8093,8093,8093,7793,7793,7793,7793,7793,12432,12216,11997,11777,11554,11328,11100,10871,6312,6012,6119,5092,1113,4,1,0,4739,4187,3956,4063,,,,,6312,6012,9155,5092,1113,4,1,1,4739,4187,3956,4063,,,,
Portugal,Operator Holding Account,"LUSOCERAM - Empreendimentos Cerâmicos, S.A.",500171262,2005-11-25,closed,Zona Industrial de Bustos,3770,Bustos,4345,4345,4345,,,,,,,,,,,,,,2767,3244,4405,,Not Reported,Not Reported,,,,,,,,,,,2767,3244,4405,,,,,,,,,,,,,
Portugal,Operator Holding Account,Nergal - Nova Cerâmica Algarvia Lda.,500201250,2005-11-25,closed,Morgado da Tôr,8100-394,Loulé,6144,6144,6144,5116,5116,5116,5116,5116,0,0,0,0,0,0,0,0,2759,2495,0,1,0,1,1,0,0,Not Reported,Not Reported,Not Reported,,,,,2759,2495,,1,,1,1,,,,,,,,,
Portugal,Operator Holding Account,"Soporcel - Sociedade Portuguesa de Papel, SA",500636630,2005-11-25,open,Apartado 5,3081-851,Figueira da Foz,53742,53742,53742,56467,56467,56467,56467,56467,250323,245975,241576,237131,232638,228102,223509,218900,48906,44063,45904,44772,46396,40955,19476,1736,1787,1764,1738,89210,,,,,48906,44063,45904,44772,46396,40955,19476,1736,1787,1764,1738,89210,,,,
Portugal,Operator Holding Account,Caima - Indústria de Celulose,506149960,2005-11-25,open,Rua do Tejo,2250-058,Constância,0,0,0,0,0,0,0,0,0,0,0,0,0,0,0,0,0,0,0,0,0,0,0,0,33,30,5,0,,,,,,,,,,,,,33,30,5,,,,,
Portugal,Operator Holding Account,"Revigrés - Indústria de Revestimentos de Grés, Lda",500674035,2005-11-25,closed,Barrô - Apartado 1,3754-001,Barrô - AGD,13026,13026,13026,,,,,,,,,,,,,,13271,14236,14885,,Not Reported,Not Reported,,,,,,,,,,,13271,14236,14885,,,,,,,,,,,,,
Portugal,Operator Holding Account,"Revigrés - Indústria de Revestimentos de Grés, Lda",500674035,2005-11-25,closed,Barrô - Apartado 1,3754-001,Barrô - AGD,24829,24829,24829,,,,,,,,,,,,,,12207,9349,9982,,Not Reported,Not Reported,,,,,,,,,,,12207,9349,9982,,,,,,,,,,,,,
Portugal,Operator Holding Account,"SCC-Sociedade Central de Cervejas e Bebidas, S.A.",511147236,2005-11-25,open,Estrada da Alfarrobeira,2625-244,Vialonga,38831,38831,38831,47192,47192,47192,47192,47192,22384,20601,12565,11666,10792,9942,9117,8317,38809,42556,41084,39419,35100,33552,36810,33891,33207,34118,32921,32521,,,,,38809,42556,41084,39419,72078,33552,,33723,33207,34118,32921,32521,,,,
Portugal,Operator Holding Account,"GALP POWER, SGPS, SA",504630644,2005-11-25,open,"R. Tomás da Fonseca, Torre C",1600-209,Lisboa,139284,139284,139284,161539,161539,161539,161539,161539,65341,64204,63067,15483,15198,14914,14630,14346,112656,122894,125526,113021,120987,112929,135870,136022,144567,80797,28049,Not Reported,,,,,112656,122894,125526,113021,120987,112929,135870,136022,144567,80797,28049,,,,,
Portugal,Operator Holding Account,"Sonae Indústria - Produção e Comercialização de Derivados de Madeira, S. A.",500058580,2005-11-25,closed,"Lugar de Água Levada, freguesia de Espinho, Concelho de Mangualde",3534-956,Mangualde,31678,31678,31678,28953,28953,28953,28953,28953,,,,,,,,,25971,23953,24825,18822,15706,11432,1373,5,,,,,,,,,25971,23953,45110,18822,15706,11432,1373,5,,,,,,,,
Portugal,Operator Holding Account,"SN Seixal Siderurgia Nacional,SA",507150147,2005-11-25,open,"Paio Pires, Seixal",2840-996,Paio Pires,175953,175953,175953,197292,197292,197292,197292,197292,112353,110402,108426,106431,104415,102380,100318,98249,113101,124025,122717,109801,77880,75883,85233,95036,96611,96564,117058,83189,,,,,113101,124025,122717,109801,77880,75883,85233,95036,96611,96564,117058,55280,,,,
Portugal,Operator Holding Account,"Natural - Industria de Papel, S.A.",507952626,2005-11-25,open,Vila Meã - Povolide,3505-252,Viseu,5889,5889,5889,5274,5274,5274,5274,5274,1814,3383,3322,3261,3200,3138,3074,3011,6476,6362,6978,7263,7230,6934,1468,1555,4029,3911,7304,7304,,,,,6476,6362,6978,7263,7230,6934,1468,1555,4029,3911,,,,,,
Portugal,Operator Holding Account,Renova - Fábrica de Papel do Almonda S.A,500348723,2005-11-25,open,Renova,2354-001,Torres Novas,34539,34539,34539,36239,60578,60578,60578,60578,17375,17072,16768,16459,16147,15832,15513,15194,25129,27622,27081,33747,43631,44311,43048,42509,47587,47723,47286,44820,,,,,25129,54703,,33747,43631,44311,43048,42509,47587,47723,47286,44820,,,,
Portugal,Operator Holding Account,Renova - Fábrica de Papel do Almonda S.A,500348723,2005-11-25,open,Renova,2354-001,Torres Novas,13336,13336,13336,11561,11561,11561,11561,11561,4569,4490,4409,2842,2788,2733,2678,2623,9526,8865,8773,8641,8167,7677,7117,6342,7056,6894,5142,5272,,,,,9526,8865,8773,8641,8167,7677,7117,6342,7056,6894,5142,5272,,,,
Portugal,Operator Holding Account,"Inducerâmica - Indústrias Cerâmicas, S.A",501397485,2005-11-25,closed,"Zona Industrial, São Miguel de Poiares",3350,Vila Nova de Poiares,10535,10535,10535,,,,,,,,,,,,,,6507,8113,10256,,Not Reported,Not Reported,,,,,,,,,,,6507,8113,10256,,,,,,,,,,,,,
Portugal,Operator Holding Account,"Caima - Energia, Empresa de Gestão e Exploração de",504037633,2005-11-25,closed,"Avenida Conde Valbom, n.º 30 - 5.º",1050-068,Lisboa,7837,7837,7837,13476,13476,13476,13476,13476,,,,,,,,,1745,2019,1545,1435,1849,3356,3072,2418,,,,,,,,,1745,2019,1545,1435,1849,3356,3072,2418,,,,,,,,
Portugal,Operator Holding Account,"Tinturaria e Acabamentos de Tecidos, Vale de Tábua",500284474,2005-11-25,open,"Rua do Vau, n.º 9, Apartado 45",4784-909,Santo Tirso,10094,10094,10094,8143,8143,8143,8143,8143,,,,,,,,,6828,7086,6736,5911,5499,5324,4562,Not Reported,11398,11046,Not Reported,Not Reported,,,,,6828,7086,13472,5911,5499,5324,4562,,,,,,,,,
Portugal,Operator Holding Account,"F. S. e Cerâmica Amaro de Macedo, S.A",500107718,2005-11-25,open,"Lugar de Cruto, freguesia de Cervães, concelho de Vila Verde",4730-100,Cervães,6068,6068,6068,3306,3306,3306,3306,3306,15239,14975,14707,14436,14162,13887,13607,13327,3055,3607,2971,1622,3207,3020,1003,768,5912,1505,1633,1590,,,,,3055,3607,2971,1622,3207,3020,1003,768,5912,1505,1633,1590,,,,
Portugal,Operator Holding Account,"DAI -Sociedade de Desenvolvimento Agro-Industrial, S.A",503018449,2005-11-25,open,Monte da Barca,2104-909,Coruche,53069,53069,53069,84008,84008,84008,84008,84008,20502,20145,9895,4858,0,0,0,0,48714,30664,67175,33133,27639,32383,26324,16127,18124,7305,4631,11,,,,,48714,30664,67175,33133,27639,32383,26324,16127,18124,7305,4631,11,,,,
Portugal,Operator Holding Account,"Cerâmica do Rodeio, Lda",500756490,2005-11-25,closed,"Largo 25 de Abril, n.º 27 - 1º",2540,Bombarral,4401,4401,4401,,,,,,,,,,,,,,2083,1524,4,,Not Reported,Not Reported,,,,,,,,,,,2083,1524,4,,,,,,,,,,,,,
Portugal,Operator Holding Account,"Cerâmica Vicente e Filhos, Lda",500062315,2005-11-25,closed,Casal da Figueiras - Zambujal  Apartado 1020,2979-908,Sesimbra,6848,6848,6848,5446,5446,5446,5446,5446,0,0,0,0,0,0,0,0,3855,2880,2380,2466,2326,384,0,0,0,Not Reported,Not Reported,Not Reported,,,,,3855,2880,2380,2466,2326,384,,,,,,,,,,
Portugal,Operator Holding Account,"Campos- Fábricas Cerâmicas, SA",501493484,2005-11-25,closed,Zona Industrial Taboeira,3801,Esgueira,19522,19522,19522,18019,18019,0,0,0,,,,,,,,,5357,5357,3449,0,0,0,0,,,,,,,,,,5357,5357,3449,,,,,,,,,,,,,
Portugal,Operator Holding Account,"Cerâmica Sotelha, SA",500062153,2005-11-25,open,Apartado 20,3770-904,Bustos,12630,12630,12630,12987,12987,12987,12987,12987,6934,6814,3843,3772,3700,3628,3556,3482,12377,10084,8508,11546,8327,8207,7922,7583,8570,8208,6822,4940,,,,,12377,10084,8508,11546,8327,8207,7922,7583,8570,8208,6822,4940,,,,
Portugal,Operator Holding Account,"Gresco - Grés de Coimbra, S.A.",502339969,2005-11-25,closed,Morais,3040,Taveiro,15514,15514,15514,,,,,,,,,,,,,,14896,13161,14872,,Not Reported,Not Reported,,,,,,,,,,,14896,13161,14872,,,,,,,,,,,,,
Portugal,Operator Holding Account,"Cerâmica Barragem Castelo de Bode, Lda",500985936,2005-11-25,closed,Rua da Cerâmica,2200,Martinchel,5655,5655,5655,,,,,,,,,,,,,,1575,1655,1627,,Not Reported,Not Reported,,,,,,,,,,,1575,1655,1627,,,,,,,,,,,,,
Portugal,Operator Holding Account,"A Tijoleira Central de Estarreja, Lda",500304734,2005-11-25,closed,Arrotinha,3860,Estarreja,5613,5613,5613,0,0,0,0,0,,,,,,,,,3495,1,0,7,0,0,0,,,,,,,,,,3495,1,,7,,,,,,,,,,,,
Portugal,Operator Holding Account,"Fábrica de Papel de Medros, Lda.",500574545,2005-11-25,open,"Travessa de Bento Antas da Cruz, n.º 81, Barcelinhos",4755-064,Barcelinhos,3239,3239,3239,2090,2090,2090,2090,2090,1899,1866,1832,0,0,0,0,0,147,66,29,0,0,0,0,0,4028,4028,4028,Not Reported,,,,,176,66,,,,,,,,,,,,,,
Portugal,Operator Holding Account,"CERAVE - Cerâmica Avelense, S.A.",500062382,2005-11-25,closed,Zona Industrial Norte - Apartado 4,3780,Avelãs de Caminho,3166,3166,3166,0,0,0,0,0,,,,,,,,,0,0,0,0,0,0,0,,,,,,,,,,,,,,,,,,,,,,,,,
Portugal,Operator Holding Account,Cerdomus - Indústrias Cerâmicas SA,504152424,2005-11-25,closed,Apartado 23,3781,Avelãs de Caminho,7322,7322,7322,,,,,,,,,,,,,,5350,5457,5857,,Not Reported,Not Reported,,,,,,,,,,,5350,5457,5857,,,,,,,,,,,,,
Portugal,Operator Holding Account,"ALELUIA - Cerâmica , Comércio e Indústria S. A",500721831,2005-11-25,closed,"Quinta do Simão, Apartado 13",3811,Esgueira,8520,8520,8520,,,,,,,,,,,,,,6918,7220,7323,,Not Reported,Not Reported,,,,,,,,,,,6918,7220,7323,,,,,,,,,,,,,
Portugal,Operator Holding Account,"ALELUIA - Cerâmica , Comércio e Indústria S. A",500721831,2005-11-25,closed,"Quinta do Simão, Apartado 13",3811,Esgueira,15611,15611,15611,,,,,,,,,,,,,,10904,11059,10971,,Not Reported,Not Reported,,,,,,,,,,,10904,11059,10971,,,,,,,,,,,,,
Portugal,Operator Holding Account,"ALELUIA - Cerâmica , Comércio e Indústria S. A",500721831,2005-11-25,closed,"Quinta do Simão, Apartado 13",3811,Esgueira,14576,14576,14576,,,,,,,,,,,,,,13906,13278,11732,,Not Reported,Not Reported,,,,,,,,,,,13906,13278,11732,,,,,,,,,,,,,
Portugal,Operator Holding Account,"Cerâmica Tabuense, Lda.",500062188,2005-11-25,closed,Bairro dos Milagres,3424,Tábua,5579,5579,5579,,,,,,,,,,,,,,3,0,0,,Not Reported,Not Reported,,,,,,,,,,,3,,,,,,,,,,,,,,,
Portugal,Operator Holding Account,"GRESART - Industria Cerâmica, S.A.",501197630,2005-11-25,closed,"Zona Industrial Vila Verde, Apartado 39",3770,Oliveira do Bairro,15774,15774,15774,,,,,,,,,,,,,,13457,13402,18060,,Not Reported,Not Reported,,,,,,,,,,,13457,13402,18060,,,,,,,,,,,,,
Portugal,Operator Holding Account,Grestejo - Industrias Cerâmicas SA,500972880,2005-11-25,open,"Zona Industrial das Mós, Lote 12",2350-483,Torres Novas,4626,4626,4626,6201,6201,6201,6201,4947,6374,6262,6151,6037,5923,5807,5691,5573,4302,6258,7032,4662,3380,3298,3119,2848,3025,2646,2127,2175,,,,,4302,6258,7032,4662,6710,,3087,2848,3025,2646,2127,2175,,,,
Portugal,Operator Holding Account,"Grés Panaria Portugal, S.A. (ex - Novagrés - Indústria Cerâmica, S.A.)",504073788,2005-11-25,closed,"Zona Industrial de Aveiro, Apartado 3002",3801-101,Aveiro,15564,15564,15564,,,,,,,,,,,,,,16599,16729,19344,,Not Reported,Not Reported,,,,,,,,,,,16599,16729,19344,,,,,,,,,,,,,
Portugal,Operator Holding Account,"Cerâmica Condestável, Lda",500061696,2005-11-25,closed,"Rua Principal, n.º 18, Cumeira de Cima",2470,Juncal,7338,7338,7338,7179,0,0,0,0,,,,,,,,,5818,1130,2711,0,0,0,Not Reported,,Not Reported,Not Reported,Not Reported,,,,,,5818,1130,2711,,,,,,,,,,,,,
Portugal,Operator Holding Account,"Dominó, Industrias Cerâmicas S.A",502079215,2005-11-25,closed,Zona Industrial de Condeixa - Apartado 27,3150,Sebal,21181,21181,21181,,,,,,,,,,,,,,20197,20074,20725,,Not Reported,Not Reported,,,,,,,,,,,20197,20074,20725,,,,,,,,,,,,,
Portugal,Operator Holding Account,"Cerâmica das Alhadas, SA",500061467,2005-11-25,open,Apartado 31 - Travasso Pombal,3101-901,Pombal,9508,9508,9508,7775,7775,7775,7775,7775,,,,,,,,,3286,1378,0,539,93,0,0,0,0,Not Reported,Not Reported,Not Reported,,,,,3286,1378,,539,93,,,,,,,,,,,
Portugal,Operator Holding Account,"Empresa de Cerâmica da Carriça, S.A.",500095981,2005-11-25,closed,R. Francisco de Almeida Filipe - Apartado 1,3305-909,Coja,5793,5793,5793,5546,5546,5546,0,0,0,0,0,0,0,0,0,0,4544,4318,4036,3882,3426,2726,Not Reported,Not Reported,Not Reported,Not Reported,Not Reported,,,,,,4544,4318,4036,3882,3426,2726,,,,,,,,,,
Portugal,Operator Holding Account,"Crisal - Cristalaria Automática, S.A.",505210150,2005-11-25,open,"Rua de Portugal, Lote 1 - Apartado 233",2431-903,Marinha Grande,37017,37017,37017,37746,37746,37746,37746,62954,34514,33914,33307,32696,32075,31450,30817,30181,32553,34284,35855,35768,35466,37810,38199,38290,38604,39820,37857,38004,,,,,34566,34284,35855,35768,35466,37810,38199,38290,38604,39820,37857,38004,,,,
Portugal,Operator Holding Account,"SN Maia - Siderurgia Nacional, SA",507150074,2005-11-25,open,"S. Pedro de Fins, Ermesinde",4425-514,S. Pedro de Fins,132831,132831,132831,138144,138144,138144,138144,138144,91091,89509,87908,86291,84656,83005,81334,79656,107383,113037,112015,94503,76714,51682,56959,58638,57715,59873,74153,64292,,,,,107383,113037,112015,94503,76714,51682,56959,58638,57715,59873,74153,64292,,,,
Portugal,Operator Holding Account,"SULCERAM - Cerâmica do Sul, S.A.",500337454,2005-11-25,closed,Sítio dos Vales - Apartado 41,8365-907,Algoz,7809,7809,7809,7065,7065,7065,7065,7065,0,0,0,0,0,0,0,0,4575,1867,0,0,0,0,0,0,0,0,Not Reported,Not Reported,,,,,4600,1842,,,,,,,,,,,,,,
Portugal,Operator Holding Account,SIAF - Energia S.A,503580759,2005-11-25,closed,"Lugar de Água Levada, Espinho, Apartado 76",3530-954,Mangualde,23122,23122,23122,19480,19480,19480,19480,19480,,,,,,,,,18419,20308,18481,12634,18159,11974,3906,115,,,,,,,,,18419,20308,30639,12634,18159,11974,3906,115,,,,,,,,
Portugal,Operator Holding Account,"Abilio Duarte da Mota & Filhos, Lda",501328408,2005-11-25,closed,Est. Nac. Nº 109 - Vieirinhos,3105-069,Carriço,11346,11346,11346,12799,0,0,0,0,,,,,,,,,10895,13198,11346,989,0,0,0,Not Reported,Not Reported,Not Reported,Not Reported,,,,,,10895,13198,11009,1326,,,,,,,,,,,,
Portugal,Operator Holding Account,"Abilio Duarte da Mota, Lda",500006563,2005-11-25,closed,"Rua da Bidoeira, 215 - Barracão",2420,Colmeias,6233,6233,6233,0,0,0,0,0,,,,,,,,,1406,0,0,0,0,0,0,,,,,,,,,,1406,,,,,,,,,,,,,,,
Portugal,Operator Holding Account,"Cerâmica do Planalto, Lda",500594090,2005-11-25,closed,Variz,5200,Mogadouro,12155,12155,12155,0,0,0,0,0,,,,,,,,,6762,7386,6086,70,Not Reported,0,0,,,,,,,,,,6762,7386,6086,70,,,,,,,,,,,,
Portugal,Operator Holding Account,"Grés Panaria Portugal, S.A. (ex - Novagrés - Indústria Cerâmica, S.A.)",504073788,2005-11-25,closed,"Zona Industrial de Aveiro, Apartado 3002",3801-101,Aveiro,27586,27586,27586,,,,,,,,,,,,,,26663,26864,27526,,Not Reported,Not Reported,,,,,,,,,,,26663,26864,27526,,,,,,,,,,,,,
Portugal,Operator Holding Account,"Cerâmica Vale da Gândara, S.A",500062242,2005-11-25,open,Gândara - Apartado 22,3450-954,Mortágua,6241,6241,6241,6210,6210,6210,6210,6210,844,1748,815,800,785,769,754,738,5909,4917,4054,5243,2641,2338,2586,956,1106,963,617,728,,,,,5909,4917,4054,5243,2641,2338,2586,956,1106,963,617,728,,,,
Portugal,Operator Holding Account,Lameirinho Recursos Energéticos S.A.,503232874,2005-11-25,closed,Rua do Lameirinho - Selho S. Jorge,4836-852,Guimarães,46851,46851,46851,38617,38617,38617,38617,40870,,,,,,,,,31191,30735,34231,33640,34144,29029,21994,5553,,,,,,,,,31191,30735,34231,33640,34144,29029,21994,5553,,,,,,,,
Portugal,Operator Holding Account,"CMP - Cimentos Maceira e Pataias, S.A",502802995,2005-11-25,open,Maceira-Liz,2405-019,Maceira,778033,778033,778033,762823,762823,762823,762823,762823,634372,623354,612206,600942,589556,578060,566420,554740,728687,749161,769594,739798,664735,628419,565224,462340,358295,400530,365741,375708,,,,,728687,749161,769594,739798,664735,628419,565224,462340,358295,400530,365741,375708,,,,
Portugal,Operator Holding Account,"CMP - Cimentos Maceira e Pataias, S.A",502802995,2005-11-25,open,Maceira-Liz,2405-019,Maceira,479892,479892,479892,421805,421805,421805,421805,421805,367543,361159,354700,348174,341577,334916,328172,321405,421716,428887,460803,436945,389008,390795,321439,271162,234471,294362,251742,240510,,,,,421716,428887,460803,436945,389008,390795,321439,271162,234471,294362,251742,240510,,,,
Portugal,Operator Holding Account,"SECIL - Companhia Geral de Cal e Cimento, S.A",500243590,2005-11-25,open,Apartado 71 - Outão,2901-864,Setúbal,1541495,1541495,1541495,1489648,1489648,1489648,1489648,1489648,1228984,1207637,1186040,1164217,1142160,1119888,1097338,1074710,1404105,1410564,1385241,1437446,1338973,1296394,1209809,999049,955408,1231648,1049995,900476,,,,,1404105,1410564,1385241,1437446,1338973,1296394,1209809,999049,955408,1231648,1049995,900476,,,,
Portugal,Operator Holding Account,"BA Vidro, S.A.",500041393,2005-11-25,open,"Av. Vasco da Gama, n.º 8001",4434-508,Avintes,95716,95716,95716,147401,147401,147401,147401,147401,78244,76885,75510,74120,72716,71299,69863,68422,85540,94047,95811,89269,99422,96027,99615,99837,99280,105520,106114,99222,,,,,85540,94047,95811,89269,99422,96027,99615,99837,99280,105520,106114,99222,,,,
Portugal,Operator Holding Account,"BA Vidro, S.A.",500041393,2005-11-25,open,"Av. Vasco da Gama, n.º 8001",4434-508,Avintes,69684,69684,69684,79213,79213,79213,79213,105098,70893,69661,68415,67157,65884,64600,63299,61994,70846,68993,93153,93699,93263,89907,88263,102357,104429,98647,99392,98911,,,,,70846,68993,93153,93699,93263,89907,88263,102357,104429,98647,99392,98911,,,,
Portugal,Operator Holding Account,"Lusosider - Aços Planos, S.A.",503204447,2005-11-25,open,Aldeia de Paio Pires,2840-075,Aldeia de Paio Pires,15928,15928,15928,29849,29849,29849,29849,29849,26585,20322,19959,25185,19220,18846,18465,18085,15486,16187,13174,16014,13080,17859,15701,14316,18120,19210,20752,19392,,,,,15486,16187,13174,16014,13080,17859,15701,14316,18120,19210,20752,19392,,,,
Portugal,Operator Holding Account,"SECIL Martingança, S.A.",500096040,2005-11-25,open,Maceira - Apartado 2,2406-909,Maceira LRA,13002,13002,13002,15718,15718,15718,15718,15718,9138,8980,8819,8657,8493,8327,8159,7991,12501,10252,11444,12228,7533,6051,6053,8655,10952,12218,13595,13384,,,,,12501,10252,11444,12228,7533,6051,6053,8655,10952,12218,13595,13384,,,,
Portugal,Operator Holding Account,"Celtejo - Empresa de Celulose do Tejo, S.A",503058203,2005-11-25,open,Vila Velha de Rodão,6030-223,Vila Velha de Rodão,26196,26196,26196,34079,34079,34079,34079,34079,13563,13328,13089,12848,12605,12359,12110,11861,37336,25103,26873,56007,54463,35873,30086,29065,51875,48932,46851,39140,,,,,37336,25103,26873,56007,54463,35873,30086,29065,51875,48932,46851,39140,,,,
Portugal,Operator Holding Account,"Martelha, Lda.",501175660,2005-11-25,closed,"Av. N.ª Sra de  Fátima, Martingança , n.º 58",2445-762,Martingança,5009,5009,5009,6107,6107,6107,0,0,,,,,,,,,3507,4189,5200,5800,1991,0,Not Reported,Not Reported,Not Reported,Not Reported,Not Reported,,,,,,3507,4189,5200,5800,1991,,,,,,,,,,,
Portugal,Operator Holding Account,"Europa&c Kraft Viana, S.A.",503097055,2005-11-25,open,"Estrada 23 de Fevereiro, n.º 372, Deocriste",4905-261,Deocriste,23388,23388,23388,20673,20673,20673,20673,20673,103719,101917,100094,98252,96390,94511,92609,90698,20880,21399,21043,19809,18246,23440,23045,23107,23618,23890,26438,27103,,,,,20880,21399,21043,19809,18246,23440,23045,23107,23618,23890,26438,27103,,,,
Portugal,Operator Holding Account,"Europa&c Energia Viana, S.A.",504891006,2005-11-25,open,"Estrada 23 de Fevereiro, n.º 372, Deocriste",4905-261,Deocriste,89817,89817,89817,206091,206091,206091,392045,326812,,,,,,,,,151259,169621,137953,135105,136863,219012,265712,265526,288981,292521,286935,287099,,,,,151259,169621,137953,135105,136863,219012,265712,265526,288981,292521,286935,287099,,,,
Portugal,Operator Holding Account,"Cerâmica de Pegões - J. G. Silva, S.A.",500020698,2005-11-25,open,Foros do Trapo - Santo Isidro de Pegões,2985-133,Santo Isidro de Pegões,6897,6897,6897,6339,6339,6339,6339,6339,4398,8536,8384,8229,8074,7916,7757,7597,5127,4150,378,156,85,86,88,38,3693,4397,1211,639,,,,,5505,4150,,156,85,86,88,38,3693,4397,1211,639,,,,
Portugal,Operator Holding Account,"Empresa de Electricidade da Madeira, S.A",511010435,2005-11-25,open,"Avenida do Mar e das Comunidades Madeirenses,n.º  32",9064-501,Funchal,26793,26793,26793,40036,40036,40036,40036,40036,,,,,,,,,27854,27490,27702,29160,28205,25198,23220,22166,22603,22565,24702,24382,,,,,27854,27490,27702,29160,28205,25198,23220,22166,22603,22565,24702,24382,,,,
Portugal,Operator Holding Account,"Empresa de Electricidade da Madeira, S.A",511010435,2005-11-25,open,"Avenida do Mar e das Comunidades Madeirenses,n.º  32",9064-501,Funchal,324052,324052,324052,537383,537383,537383,537383,537383,,,,,,,,,373733,377585,412707,429749,374775,338945,312051,310007,288347,240832,258613,240624,,,,,373733,377585,412707,429749,374775,338945,312051,310007,288347,240832,258613,240624,,,,
Portugal,Operator Holding Account,"António Simões & Filhos, Lda",500026610,2005-11-25,closed,Cabeço da Barca,3220,Miranda do Corvo,5055,5055,5055,,,,,,,,,,,,,,2528,2124,1533,,Not Reported,Not Reported,,,,,,,,,,,2528,2124,1533,,,,,,,,,,,,,
Portugal,Operator Holding Account,"Maxit - Argilas Expandidas, SA",502208546,2005-11-25,closed,Apartado 16,3240,Avelar,69650,69650,69650,,,,,,,,,,,,,,51612,54377,60372,,Not Reported,Not Reported,,,,,,,,,,,51612,54377,60372,,,,,,,,,,,,,
Portugal,Operator Holding Account,"BA Vidro, SA",500041393,2005-11-25,open,Avenida Vasco da Gama 8001,4434-508,Avintes,59348,59348,59348,58476,58476,58476,58476,137443,49369,48512,47644,46767,45882,44987,44081,43172,59528,61560,60557,60230,54631,56936,67335,68582,73385,77404,78670,80010,,,,,59528,61560,60557,60230,54631,56936,67335,68582,73385,77404,78670,80010,,,,
Portugal,Operator Holding Account,Luso Finsa - Indústria e Comercio de Madeiras S.A.,501133747,2005-11-25,open,"Est. Nac. nº 234, km 92,7",3524-952,Nelas,6240,6240,6240,4426,4426,4426,4426,4426,65080,31975,20635,18054,31106,26265,21581,17073,1631,1038,883,1942,1441,40,105,32,43,57,2876,6561,,,,,1631,1038,883,1942,1441,40,105,32,43,57,2876,6561,,,,
Portugal,Operator Holding Account,Luso Finsa - Indústria e Comercio de Madeiras S.A.,501133747,2005-11-25,open,"Est. Nac. nº 234, km 92,7",3524-952,Nelas,48262,48262,48262,41028,41028,41028,41028,41028,,,,,,,,,41648,43305,41638,42892,44447,39404,40698,30024,74,0,Not Reported,Not Reported,,,,,41648,43305,41638,42892,44447,39404,40698,30024,74,,,,,,,
Portugal,Operator Holding Account,"CIMPOR – Indústria de Cimentos, S.A.",500782946,2005-11-25,open,"Rua Alexandre Herculano, n.º 35",1250-009,Lisboa,1736995,1736995,1736995,1748681,1748681,1748681,1748681,1748681,1557823,1530765,1503389,1475727,1447768,1419536,1390953,1362270,1841897,1716593,1808504,1619196,1247628,1321203,966917,893911,1484124,1471308,1307922,976183,,,,,1841897,1716593,1808504,1619196,1247628,1321203,966917,893911,1484124,1471308,1307922,976183,,,,
Portugal,Operator Holding Account,"CIMPOR – Indústria de Cimentos, S.A.",500782946,2005-11-25,open,"Rua Alexandre Herculano, n.º 35",1250-009,Lisboa,509112,509112,509112,503429,503429,503429,503429,503429,419402,412117,404747,397300,389772,382172,374476,366754,510379,486721,516607,476804,341219,342016,169932,316732,362956,320764,370624,251641,,,,,510379,486721,516607,476804,341219,342016,169932,316732,362956,320764,370624,251641,,,,
Portugal,Operator Holding Account,"CIMPOR – Indústria de Cimentos, S.A.",500782946,2005-11-25,open,"Rua Alexandre Herculano, n.º 35",1250-009,Lisboa,1719333,1719333,1719333,1750901,1750901,1750901,1750901,1750901,1470383,1444844,1419005,1392896,1366506,1339859,1312880,1285807,1702804,1713254,1771817,1665408,1123212,1384602,1212411,1033319,938139,1127193,1248989,878798,,,,,1702804,1713254,1771817,1665408,1123212,1384602,1212411,1033319,938139,1127193,1248989,878798,,,,
Portugal,Operator Holding Account,"CIMPOR – Indústria de Cimentos, S.A.",500782946,2005-11-25,closed,"Rua Alexandre Herculano, n.º 35",1250-009,Lisboa,49839,49839,49839,50886,50886,50886,50886,50886,20536,0,0,0,0,0,0,0,51312,45708,37912,33904,23621,21255,16247,11537,1527,Not Reported,Not Reported,,,,,,51312,45708,37912,33904,23621,21255,16247,11537,1527,,,,,,,
Portugal,Operator Holding Account,"CERPOL - Empresa Cerâmica Portugal, S.A.",500062463,2005-11-25,closed,"Rua Industrial, n.º 22",3770,Oliveira do Bairro,5532,5532,5532,0,0,0,0,0,,,,,,,,,6012,5930,6308,5449,Not Reported,0,0,,,,,,,,,,6012,5930,6308,5449,,,,,,,,,,,,
Portugal,Operator Holding Account,"Repsol Produção de Electricidade e Calor, ACE",503001970,2005-11-25,open,Monte Feio - Apartado 41,7520-954,Sines,429710,429710,429710,411058,411058,411058,411058,411058,121406,108646,0,0,0,0,0,0,383980,371921,407172,332244,237091,305340,292250,167974,168794,149141,Not Reported,Not Reported,,,,,383980,371921,407172,332244,237091,305340,292250,167974,168794,149141,,,,,,
Portugal,Operator Holding Account,"Cinca - Companhia Industrial de Cerâmica, SA",500064040,2005-11-25,closed,"Rua Principal, n.º 39",4509,Fiães,19964,19964,19964,,,,,,,,,,,,,,18930,18728,19929,,Not Reported,Not Reported,,,,,,,,,,,18930,18728,19929,,,,,,,,,,,,,
Portugal,Operator Holding Account,"Cinca - Companhia Industrial de Cerâmica, SA",500064040,2005-11-25,closed,"Rua Principal, n.º 39",4509,Fiães,24215,24215,24215,,,,,,,,,,,,,,20020,19954,19903,,Not Reported,Not Reported,,,,,,,,,,,20020,19954,19903,,,,,,,,,,,,,
Portugal,Operator Holding Account,"MARGON, S.A.",500182701,2005-11-25,closed,Cruz da Légua,2480,Pedreiras,20180,20180,20180,,,,,,,,,,,,,,10510,10365,10061,,Not Reported,Not Reported,,,,,,,,,,,10510,10365,10061,,,,,,,,,,,,,
Portugal,Operator Holding Account,"Climaespaço-Soc. Prod Distr.Urbana Energia Térmica, S.A.",503609064,2005-11-25,open,"Rua do Mar Vermelho, n.º 2 F",1990-152,Lisboa,28429,28429,28429,29259,29259,29259,29259,29259,16289,14122,12109,10247,8528,7194,5917,4687,27546,27978,28187,27521,28328,28907,28312,28835,28648,30252,30456,28697,,,,,27546,27978,28187,27521,28328,28907,28312,28835,28648,30252,30456,28697,,,,
Portugal,Operator Holding Account,"Coelima Indústrias Texteis, S.A.",500268886,2005-11-25,closed,"Rua do Trabalhador Têxtil, n.º 436, Pevidém",4835-360,Guimarães,17395,17395,17395,13624,13624,13624,13624,0,,,,,,,,,11329,11348,8955,9280,5626,7632,2409,Not Reported,,,,,,,,,11329,11348,8955,9280,5626,7632,2409,,,,,,,,,
Portugal,Operator Holding Account,Iberoceram,504980017,2005-11-25,closed,"EN. 3 Km 18,8 – Cruz do Campo",2070,Cartaxo,10235,10235,10235,8623,8623,8623,0,0,,,,,,,,,5043,5067,5247,2218,917,0,0,Not Reported,Not Reported,Not Reported,Not Reported,,,,,,5043,5067,5247,2218,917,1,,,,,,,,,,
Portugal,Operator Holding Account,"Sumol+Compal, Marcas, S.A.",505042037,2005-11-25,open,"Rua Dr. António João Eusébio, n.º24",2790-179,Carnaxide,11529,11529,11529,13374,13374,13374,13374,13374,6022,5496,4984,4486,4003,3534,3080,2642,11733,11733,11975,10590,10622,11941,9384,7060,7003,6729,6243,6140,,,,,11733,11733,11975,10590,10622,11941,9384,7060,7003,6729,6243,6140,,,,
Portugal,Operator Holding Account,"Cerâmica Central do Algoz, Lda",500330913,2005-11-25,closed,Sítio dos Vales,8365,Algoz,5480,5480,5480,4206,4206,4206,4206,0,,,,,,,,,1609,291,0,0,48,0,0,Not Reported,Not Reported,Not Reported,Not Reported,,,,,,1609,291,,,48,,,,,,,,,,,
Portugal,Operator Holding Account,"Electricidade dos Açores, S.A.",512012032,2005-11-25,open,"Rua Dr. Francisco Pereira Ataíde, n.º 1",9504-535,Ponta Delgada,34582,34582,34582,41638,41638,41638,41638,41638,,,,,,,,,32853,32815,34162,34417,34512,33628,32154,31937,30910,29237,29048,30957,,,,,32853,32815,34162,34417,34512,33628,32154,31937,30910,29237,29048,30957,,,,
Portugal,Operator Holding Account,"Electricidade dos Açores, S.A.",512012032,2005-11-25,open,"Rua Dr. Francisco Pereira Ataíde, n.º 1",9504-535,Ponta Delgada,129061,129061,129061,153040,153040,153040,153040,153040,,,,,,,,,124249,130416,133977,136263,132640,131169,128475,119930,118792,114692,114990,106676,,,,,124249,130416,133977,136263,132640,131169,128475,119930,118792,114692,114990,106676,,,,
Portugal,Operator Holding Account,"Electricidade dos Açores, S.A.",512012032,2005-11-25,open,"Rua Dr. Francisco Pereira Ataíde, n.º 1",9504-535,Ponta Delgada,185152,185152,185152,245432,245432,245432,245432,245432,,,,,,,,,194986,195794,146103,161141,168101,161446,148294,156291,127837,126203,131707,150974,,,,,194986,195794,146103,161141,168101,161446,148294,156291,127837,126203,131707,150974,,,,
Portugal,Operator Holding Account,"Electricidade dos Açores, S.A.",512012032,2005-11-25,open,"Rua Dr. Francisco Pereira Ataíde, n.º 1",9504-535,Ponta Delgada,30013,30013,30013,37773,37773,37773,37773,37773,,,,,,,,,24863,25919,26668,27194,27673,28574,28358,27495,27389,26599,26590,27334,,,,,24863,25919,26668,27194,27673,28574,28358,27495,27389,26599,26590,27334,,,,
Portugal,Operator Holding Account,"Fábrica de Papel da Lapa, Lda",500107238,2005-11-25,open,"Rua Comendador de Sá Couto, n.º 902",4535-439,S. Paio de Oleiros,3764,3764,3764,3424,3424,8062,11068,11068,3698,3620,3542,3464,3386,3308,3229,3152,3710,3714,4039,3706,3605,4256,3982,3020,2692,2891,3003,2996,,,,,3710,3714,4039,3706,3605,4256,3982,3020,2692,2891,3003,2996,,,,
Portugal,Operator Holding Account,"Papeleira Coreboard, S.A.",500188297,2005-11-25,open,Apartado 6 - S.Paio Oleiros,4536-907,S.Paio Oleiros,10959,10959,10959,9624,9624,9624,9624,20504,5935,5832,5727,5622,5516,5408,5298,5190,6855,6100,6883,6201,6130,6199,6263,8609,10236,10846,10617,9560,,,,,6855,6100,6883,6201,6130,6199,6263,8609,10236,10846,10617,9560,,,,
Portugal,Operator Holding Account,Grésil,500130795,2005-11-25,closed,"Apartado 2, Mourisca do Vouga",3754,Mourisca do Vouga,2475,2475,2475,0,0,0,0,0,,,,,,,,,1196,368,0,0,0,0,0,,,,,,,,,,1196,368,,,,,,,,,,,,,,
Portugal,Operator Holding Account,"Luso Telha, Cerâmica de Telhas e Tijolos de Águeda, Lda.",500874328,2005-11-25,open,Vale do Grou- Aguada de Cima,3750-064,Águeda,6590,6590,6590,6200,6200,6200,6200,6200,3186,3130,3074,3018,2960,2903,2844,2786,3207,3278,3176,3152,2758,2027,2005,2631,3701,2553,Not Reported,Not Reported,,,,,3207,3278,3176,3152,2758,2027,2005,2631,3701,2553,,,,,,
Portugal,Operator Holding Account,"ATB-Acabamentos Têxteis de Barcelos, Lda",501638733,2005-11-25,closed,Lugar  de Mariz,4754,Mariz-Barcelos,7020,7020,7020,6484,6484,0,0,0,,,,,,,,,6551,6701,7418,8309,5018,0,,,,,,,,,,,13969,6701,7418,8309,5018,,,,,,,,,,,
Portugal,Operator Holding Account,"Cerâmica Ulmense, Lda",503714615,2005-11-25,closed,Zona Industrial Ulme,2140,Ulme,5782,5782,5782,7310,7310,7310,7310,7310,,,,,,,,,5460,5234,6343,4955,0,0,0,,,,,,,,,,5460,5234,6652,4955,,,,,,,,,,,,
Portugal,Operator Holding Account,"Pavigrés Cerâmicas, S.A.",500810265,2005-11-25,closed,Almas Domingas,3781,Almas Domingas,15861,15861,15861,,,,,,,,,,,,,,13103,15840,16743,,Not Reported,Not Reported,,,,,,,,,,,13103,15840,16743,,,,,,,,,,,,,
Portugal,Operator Holding Account,"Pavigrés Cerâmicas, S.A.",500810265,2005-11-25,closed,Almas Domingas,3781,Almas Domingas,13040,13040,13040,,,,,,,,,,,,,,13080,12984,13182,,Not Reported,Not Reported,,,,,,,,,,,13080,12984,13182,,,,,,,,,,,,,
Portugal,Operator Holding Account,"Pavigrés Cerâmicas, S.A.",500810265,2005-11-25,closed,Almas Domingas,3781,Almas Domingas,10900,10900,10900,,,,,,,,,,,,,,12098,12267,12217,,Not Reported,Not Reported,,,,,,,,,,,12098,12267,12217,,,,,,,,,,,,,
Portugal,Operator Holding Account,"Tabaqueira - Empresa Industrial de Tabacos, S.A.",500834784,2005-11-25,closed,"Albarraque, Av. Alfredo da Silva, n.º 35",2635-101,Rio de Mouro,4795,4795,4795,5833,5833,5833,5833,5833,4653,4164,3688,0,0,0,0,0,3735,3891,3927,6886,7874,7922,8063,8073,7950,7009,38,Not Reported,,,,,3735,3891,3927,6886,7874,7922,8063,8073,7950,7009,38,,,,,
Portugal,Operator Holding Account,"Abrigada, Companhia Nacional de Refractários, S.A.",500007233,2005-11-25,closed,Rua Francisco Pinheiro Gorjão,2580,Abrigada,3058,3058,3058,,,,,,,,,,,,,,2471,2485,2585,,Not Reported,Not Reported,,,,,,,,,,,2471,2485,2585,,,,,,,,,,,,,
Portugal,Operator Holding Account,"Rogério Leal & Filhos, SA",501960295,2005-11-25,closed,Santo Estevão - Arrifana - Feira - Apartado 471,3701-914,S.João da Madeira,16672,16672,16672,14765,14765,14765,14765,0,,,,,,,,,13959,5939,10598,13236,14798,14694,5632,Not Reported,,,,,,,,,13959,5939,10598,13236,14798,14694,5632,,,,,,,,,
Portugal,Operator Holding Account,"Malhas Eical - Empresa Industrial do Cávado, Lda.",500176205,2005-11-25,open,Lugar da Calçada,4750-571,Mariz,6278,6278,6278,5274,5274,5274,5274,5274,4701,4619,0,0,0,0,0,0,5327,4932,4882,4834,4543,4433,3809,9972,1223,1472,Not Reported,Not Reported,,,,,5327,4932,4882,4834,4543,4433,3809,,1223,1472,,,,,,
Portugal,Operator Holding Account,"ECC - Empresa Cerâmica de Candosa, Lda",501341315,2005-11-25,closed,Apartado 9 - Candosa,3420-021,Candosa -  Tábua,4903,4903,4903,703,703,748,1559,1559,0,0,0,0,0,0,0,0,0,0,0,0,0,15,1,0,Not Reported,Not Reported,Not Reported,,,,,,,,,,,15,1,,,,,,,,,
Portugal,Operator Holding Account,"Preceram - Indústrias de Construção, SA",502841591,2005-11-25,open,Apartado 31 - Travasso - Pombal,3101-901,Pombal,21224,21224,21224,20299,20299,20299,20299,20299,21906,21526,21140,20752,20359,19961,19560,19156,18752,11282,10994,7716,10607,10222,8073,10391,25543,9672,11733,11345,,,,,18752,11282,10994,7716,10607,10222,8073,10391,25543,9672,11733,11345,,,,
Portugal,Operator Holding Account,"Preceram - Indústrias de Construção, SA",502841591,2005-11-25,open,Apartado 31 - Travasso - Pombal,3101-901,Pombal,14663,14663,14663,14264,14264,14264,14264,14264,11959,11752,11542,11329,11114,10898,10678,10459,11202,8865,9167,6328,7613,7448,7232,5840,10048,5563,7099,6686,,,,,11202,8865,9167,6328,7613,7448,7232,5840,10048,5563,7099,6686,,,,
Portugal,Operator Holding Account,"Fábrica Jerónimo Pereira Campos, Filhos, SA",500108277,2005-11-25,closed,Apartado 47 - Alvarães,4905,Barroselas,8067,8067,8067,,,,,,,,,,,,,,478,388,173,,Not Reported,Not Reported,,,,,,,,,,,478,388,173,,,,,,,,,,,,,
Portugal,Operator Holding Account,Avilafões - Aviários de Lafões Lda.,503147923,2005-11-25,closed,Carregal,3670-170,Queirã,4167,4167,4167,4195,4195,4195,4195,4195,,,,,,,,,3828,3168,784,20,1075,0,0,0,0,0,,,,,,,7995,,784,20,1075,,,,,,,,,,,
Portugal,Operator Holding Account,"Argex - Argila Expandida, S.A",506028461,2005-11-25,closed,"Zona Industrial de Bustos, Apartado 36",3770,Oliveira do Bairro,28483,28483,28483,,,,,,,,,,,,,,25686,18348,20518,,Not Reported,Not Reported,,,,,,,,,,,25686,18348,20518,,,,,,,,,,,,,
Portugal,Operator Holding Account,"Preceram - Norte, Cerâmicas, SA",500601836,2005-11-25,open,Apartado 56 - Vale do Grou- Águeda,3754-906,Aguada de Baixo,10430,10430,10430,12801,12801,12801,12801,16528,19504,19163,18822,18475,18125,17772,17414,17055,9634,9254,15040,11418,13606,13828,11746,6874,14149,7417,8626,8790,,,,,9634,9254,15040,11418,13606,13828,11746,6874,14149,7417,8626,8790,,,,
Portugal,Operator Holding Account,"SUGAL - Alimentos, S.A.",500277230,2005-11-25,open,"Estrada Nacional nº 3, Apartado 1, Azambuja",2054-909,Azambuja,8965,8965,8965,15678,15678,15678,15678,15678,9360,9198,9033,8867,8699,8529,8358,8185,13578,10203,10272,8765,9014,11167,9608,10104,9482,10894,13719,12394,,,,,13578,10203,10272,8765,9014,11167,9608,10104,9482,10894,13719,12394,,,,
Portugal,Operator Holding Account,"MABERA - Acabamentos Têxteis, S.A.",500389217,2005-11-25,closed,"Av. da Boavista, n.º 233",4770-350,Mogege,12440,12440,12440,13569,13569,13569,13569,0,,,,,,,,,9169,8306,7756,9308,9547,10126,5679,Not Reported,,,,,,,,,9169,8306,7756,9308,9547,10126,5679,,,,,,,,,
Portugal,Operator Holding Account,Tijolágueda - Cerâmica de Águeda - Lda,504594540,2005-11-25,open,"Baixa da Neta, Alagôa",3754-901,Águeda,5785,5785,5785,16547,16547,16547,16547,16547,9382,6017,5909,5800,5691,5580,5467,5355,7768,6741,7731,7347,7491,5803,4277,2235,2524,141,246,256,,,,,7768,6741,7731,7347,7491,5803,4277,2235,2524,141,246,256,,,,
Portugal,Operator Holding Account,A.F.G.E.R. - Cogeração S.A,503306654,2005-11-25,closed,"Av. Comendador Joaquim de Almeida Freitas,n.º  3",4815,Moreira de Cónegos,27000,27000,27000,,,,,,,,,,,,,,18723,17500,,,Not Reported,Not Reported,,,,,,,,,,,18723,17500,,,,,,,,,,,,,,
Portugal,Operator Holding Account,"Conesa Portugal, S.A. (Ex-SOPRAGOL, S.A.)",500259160,2006-05-23,open,Montinho de Baixo,7490-909,Mora,,,,8732,8732,8732,8732,8732,6567,6413,6259,6105,5951,5798,5644,5492,,7636,10132,9756,10221,10883,9876,6682,6127,6958,7774,8088,,,,,,7636,10132,9756,10221,10883,9876,6682,6127,6958,7774,8089,,,,
Portugal,Operator Holding Account,TOMSIL- Sociedade Industrial de Concentrado de Tomate. S.A.,502348216,2006-06-21,open,Fortes,7900-131,Ferreira Alentejo,,,,2112,2112,2112,2112,2112,0,0,0,0,0,0,0,0,,1323,2397,808,136,0,0,0,0,0,Not Reported,Not Reported,,,,,,1323,2397,808,136,,,,,,,,,,,
Portugal,Operator Holding Account,"Ilhavense, Soc.Ind. de Papel, Lda",501190139,2006-05-10,open,"Praceta S. Vicente Ferrer, n.º 59 - 2º esq Frente",4410-104,S.Felix da Marinha,,,,0,0,0,0,0,,,,,,,,,,1778,2750,0,0,0,0,Not Reported,Not Reported,Not Reported,Not Reported,Not Reported,,,,,,,,,,,,,,,,,,,,
Portugal,Operator Holding Account,"F.I.T. - Fomento da Indústria do Tomate, S.A.",500116830,2006-05-10,open,Herdade da Pernada Marateca,2965-671,Águas de Moura,,,,9667,9667,9667,9667,9667,7868,7731,7593,7453,7312,7170,7025,6880,,8187,11363,9772,11688,11439,10846,12434,7668,8691,10548,10071,,,,,,8187,11363,9772,11688,11439,10846,4590,15512,8691,10548,10071,,,,
Portugal,Operator Holding Account,Luso Finsa - Indústria e Comercio de Madeiras S.A.,501133747,2006-05-10,open,"Est. Nac. nº 234, km 92,7",3524-952,Nelas,,,,14945,14945,14945,14945,14945,50136,49265,31793,27817,23964,20234,16626,13153,,3687,6057,4879,1708,5613,6975,8498,10306,9443,6687,2735,,,,,,3687,6057,4879,1708,5613,6975,8498,10306,9443,6687,2735,,,,
Portugal,Operator Holding Account,"Italagro-Ind.Transf.Prod.Alimentares, SA",502825014,2006-05-10,open,Apartado 13 - Leziria das Cortes,2601-906,Castanheira do Ribatejo,,,,12175,12175,12175,12175,12175,10969,10778,10585,10391,10194,9995,9794,9592,,9138,11465,11067,11804,12003,12462,13364,11781,13475,16183,15827,,,,,,9138,11465,11067,11804,12003,12462,10039,15106,13475,16183,15827,,,,
Portugal,Operator Holding Account,"Lactogal - Produtos Alimentares, S.A.",503183997,2006-03-01,open,"Rua do Campo Alegre, n.º 830 - 5.º Andar",4150-171,Porto,,,,11829,11829,11829,11829,11829,10292,9209,8158,7137,6149,5192,4266,3375,,11576,13396,13168,11646,11746,11869,12442,12143,12222,11607,11159,,,,,,11576,13396,13168,11646,11746,11869,12442,12143,12222,11607,11159,,,,
Portugal,Operator Holding Account,"Enerlousado, Recursos Energéticos Lda",507240340,2006-09-18,open,Lugar do Espido,4470-177,Maia,,,,42469,42469,42469,42469,42469,20115,19765,19415,19065,18715,18365,18015,17665,,8242,33742,32243,31274,34499,35802,36817,36530,36448,36780,37121,,,,,,8242,33742,32243,31274,34499,35802,36817,36530,36448,36780,37121,,,,
Portugal,Operator Holding Account,"Fromageries Bel Portugal, S.A.",503130630,2006-10-31,closed,"Fromageries Bel Portugal, S.A. Estrada Regional",9600-549,Ribeira Grande,,,,14717,14717,14717,14717,14717,6872,6225,0,0,0,0,0,0,,1591,12698,13407,12664,12182,12354,11718,11839,8249,,,,,,,,1591,12698,13407,12664,12182,12354,11718,11839,8249,,,,,,
Portugal,Operator Holding Account,Sanitana,500887268,2006-09-22,closed,Almas das Domingas - Apartado 45,3781-907,Anadia,,,,,,,,,,,,,,,,,,8025,26240,,Not Reported,Not Reported,,,,,,,,,,,,8025,26240,,,,,,,,,,,,,
Portugal,Operator Holding Account,"I.F.M. - Indústria de Fibras de Madeira, S.A",502043067,2007-07-02,closed,"Av. Praia da Vitória, 48 - 4.º Dtº",1050-184,Lisboa,,,,10097,10097,10097,10097,10097,,,,,,,,,,,2026,584,309,0,111,113,Not Reported,Not Reported,Not Reported,,,,,,,,2026,584,309,,111,113,,,,,,,,
Portugal,Operator Holding Account,"Fatijolo - Fábrica de Tijolo, Lda",501051368,2007-08-07,closed,Silveirinha Grande,3105-065,Carriço,,,,,,,,,,,,,,,,,,,89,Not Reported,Not Reported,Not Reported,,,,,,,,,,,,,,,,,,,,,,,,,,
Portugal,Operator Holding Account,"Icercal - Indústria Cerâmica Albergariense, Lda",500136084,2007-10-23,closed,Vidoeira - Albergaria dos Doze,3100-097,Albergaria dos Doze,,,,,,,,,,,,,,,,,,,1107,,Not Reported,Not Reported,,,,,,,,,,,,,1107,,,,,,,,,,,,,
Portugal,Operator Holding Account,"Campil - Agro Industrial do Campo do Tejo, Lda.",500051739,2007-02-20,open,"Vale da Pedra, Cartaxo",2070-719,Vale da Pedra,,,,5376,5376,5376,16504,10023,5114,5025,4936,4845,4753,4660,4566,4472,Not Reported,,6710,6680,7682,8251,7310,8066,8355,9460,12842,13074,,,,,,,6710,6680,7682,8251,7310,8066,8355,9460,12842,13074,,,,
Portugal,Operator Holding Account,"Cipan, Comp. Ind. Prod. Antib. S.A.",500508291,2007-04-24,closed,"Rua da Estação, n.º 42, Vala do Carregado",2600-726,Castanheira do Ribatejo,,,,0,0,0,0,0,,,,,,,,,,,3939,Not Reported,Not Reported,,Not Reported,,,,,,,,,,,,3939,,,,,,,,,,,,,
Portugal,Operator Holding Account,"ROCA, S.A.",500203466,2007-10-19,closed,Ponte da Madalena,2420-422,Colmeias,,,,,,,,,,,,,,,,,,,20401,,Not Reported,Not Reported,,,,,,,,,,,,,20401,,,,,,,,,,,,,
Portugal,Operator Holding Account,"Poceram - Produtos Cerâmicos, S.A.",500219923,2005-11-25,closed,E.N. 1 - Apartado 1,3041-551,Cernache,22683,22683,22683,,,,,,,,,,,,,,16259,18809,13621,,Not Reported,Not Reported,,,,,,,,,,,16259,18809,13621,,,,,,,,,,,,,
Portugal,Operator Holding Account,"Faceril - Fábrica de Cerâmica do Ribatejo, S.A.",508278449,2005-11-25,closed,Casal do Pereiro - Ulme -Apartado 56,2144-909,Chamusca,4829,4829,4829,4348,4348,4348,4348,4348,0,0,0,0,0,0,0,0,2812,2287,1829,1695,658,180,0,0,0,0,Not Reported,,,,,,2812,2287,1829,1695,658,180,,,,,,,,,,
Portugal,Operator Holding Account,"Termolan - Isolamentos Termo-Acústicos, S.A.",500423580,2008-04-24,open,"Av. de Poldrães, n.º 10, Apartado 11",4796-908,Vila das Aves,,,,14504,14504,14504,14504,14504,7555,7424,7291,7157,7021,6884,6746,6607,,,,15892,12929,11377,8886,8864,8896,10103,10044,12922,,,,,,,,15892,12929,11377,8886,8864,8896,10103,10044,12922,,,,
Portugal,Operator Holding Account,"Termolan - Isolamentos Termo-Acústicos, S.A.",500423580,2008-06-01,open,"Av. de Poldrães, n.º 10, Apartado 11",4796-908,Vila das Aves,,,,19065,19065,19065,19065,19065,13951,13709,13464,13216,12966,12713,12457,12200,,,,23556,17852,14757,12182,13816,14252,14455,13090,15637,,,,,,,,23556,17852,14757,12182,13816,14252,14455,13090,15637,,,,
Portugal,Operator Holding Account,"Carbogal Engineered Carbons, S.A.",500952930,2008-06-09,closed,"Av. Fontes Pereira de Melo, n.º 3 - 9.º Drt.",1050-115,Lisboa,,,,119804,119804,119804,119804,119804,67969,0,0,0,0,0,0,0,,,,94070,72330,88120,90219,64334,57414,Not Reported,Not Reported,,,,,,,,,94070,72330,88120,90219,64334,57414,,,,,,,
Portugal,Operator Holding Account,"Copam - Companhia Portuguesa de Amidos, S.A.",500076138,2008-07-14,open,Estrada Nacional 10,2695-718,São João da Talha,,,,13997,13997,13997,13997,13997,13304,13072,12839,12602,12363,12122,11878,11634,,,,14545,13905,14564,15763,16294,16412,15435,15092,16116,,,,,,,,14545,13905,14564,15763,16294,16412,15435,15092,16116,,,,
Portugal,Operator Holding Account,"Repsol Polímeros, Lda.",500600643,2008-07-25,open,Monte Feio - Apartado 41,7520-954,Sines,,,,620936,620936,620936,620936,620936,428300,420860,509583,489973,470658,451645,432900,414517,,,,422487,327684,470243,434795,308058,371705,519539,700793,715788,,,,,,,,422487,327684,470243,434795,308058,371705,519539,700793,715788,,,,
Portugal,Operator Holding Account,"Valbopan - Fibras de Madeira, S.A.",502043059,2008-09-01,closed,"Av. Praia da Vitória, 48 - 4.º Dtº",1050-184,Lisboa,,,,,2469,3301,3301,3301,,,,,,,,,,,,0,1,1,1,0,,,,,,,,,,,,,1,1,1,,,,,,,,,
Portugal,Operator Holding Account,Rodão Power - Energia e Biomassa do Rodão S.A.,507029135,2008-10-10,closed,Instalações Industriais da Celtejo S.A.,6030-223,Constância,,,,895,3934,3934,3934,3934,,,,,,,,,,,,439,1133,1184,1109,954,,,,,,,,,,,,439,1133,1184,1109,954,,,,,,,,
Portugal,Operator Holding Account,SPCG - Sociedade Portuguesa Cogeração Eléctrica,503218359,2009-01-01,open,Polo Industrial da Portucel Mitrena,2901-861,Setúbal,,,,0,96402,293431,293431,293431,,,,,,,,,,,,,91896,243059,268287,274848,281119,288139,291647,275953,,,,,,,,,91896,243059,268287,274848,281119,288139,291647,275953,,,,
Portugal,Operator Holding Account,"Unipasta, Pastas Cerâmicas, S.A.",504551680,2009-08-11,closed,"Parque Industrial Manuel da Mota, Lt. E",3101-901,Pombal,,,,0,12790,48520,48520,48520,8916,8761,0,0,0,0,0,0,,,,,9323,24460,28437,29642,30748,18642,Not Reported,,,,,,,,,,9323,24460,28437,29642,30748,18642,,,,,,
Portugal,Operator Holding Account,"Lameirinho Indústria Têxtil, S.A.",500151539,2009-09-14,closed,"Rua do Lameirinho - Selho, S.Jorge",4835-326,Guimarães,,,,0,1512,5062,5062,5062,,,,,,,,,,,,,2744,9563,7106,5528,,,,,,,,,,,,,2744,9563,7106,5528,,,,,,,,
Portugal,Operator Holding Account,About The Future-Empresa Produtora de Papel S.A.,507685903,2009-03-31,open,"Polo Industrial da Portucel, Mitrena",2901-861,Setúbal,,,,0,16976,68147,68147,68147,132760,130454,128121,125763,123381,120975,118539,116094,,,,,4911,25988,26884,23837,25055,28449,28173,28986,,,,,,,,,4911,25988,26884,23837,25055,28449,28173,28986,,,,
Portugal,Operator Holding Account,NAVIGATOR FINE PAPER,509074715,2009-03-23,open,Estrada Nacional 241,6030-245,Vila Velha de Ródão,,,,0,0,27375,21422,21422,7497,7367,7235,7102,6968,6832,6694,6556,,,,,3656,9574,9949,10319,10719,10623,12487,16637,,,,,,,,,3656,9574,9949,10319,10719,10623,12487,16637,,,,
Portugal,Operator Holding Account,"ENERPULP - Cogeração Energética de Pasta, S.A.",504650963,2009-01-01,closed,"Pólo Industrial da Portucel, Mitrena",2901-861,Setúbal,,,,0,0,4793,5006,5006,,,,,,,,,,,,,377,2705,787,599,,,,,,,,,,,,,377,2705,787,599,,,,,,,,
Portugal,Operator Holding Account,"ENERPULP - Cogeração Energética de Pasta, S.A.",504650963,2009-03-31,closed,"Pólo Industrial da Portucel, Mitrena",2901-861,Setúbal,,,,0,0,5287,5006,5006,,,,,,,,,,,,,610,2842,704,718,,,,,,,,,,,,,610,2842,704,718,,,,,,,,
Portugal,Operator Holding Account,"EDP Produção - Bioeléctrica, S.A.",506042715,2005-11-25,closed,"Av. José Malhoa, Lote A-13",1070-157,Lisboa,1510,1510,1510,1153,1153,1153,1153,1153,,,,,,,,,1730,1726,1309,923,1281,1439,586,285,,,,,,,,,1730,1726,1309,923,1281,1439,586,285,,,,,,,,
Portugal,Operator Holding Account,"EDP Produção - Bioeléctrica, S.A.",506042715,2009-09-07,closed,"Av. José Malhoa, Lote A-13",1070-157,Lisboa,,,,0,1782,3944,3944,3944,,,,,,,,,,,,,504,506,2132,320,,,,,,,,,,,,,504,506,2132,320,,,,,,,,
Portugal,Operator Holding Account,"EDP Produção - Bioeléctrica, S.A.",506042715,2009-01-01,closed,"Av. José Malhoa, Lote A-13",1070-157,Lisboa,,,,0,7162,9559,9559,9559,,,,,,,,,,,,,4405,515,519,262,,,,,,,,,,,,,4405,515,519,262,,,,,,,,
Portugal,Operator Holding Account,"Fisigen - Empresa de Cogeração, S.A.",508745713,2009-12-28,open,"Avenida 24 de Julho, n.º 12",1249-300,Lisboa,,,,0,0,158294,170401,170401,79337,77957,76576,75196,73815,72435,71054,69674,,,,,1410,113810,124722,127352,126940,125873,123032,115971,,,,,,,,,1410,113810,124722,127352,126940,125873,123032,115971,,,,
Portugal,Operator Holding Account,"ElecGás, S.A.",506423190,2010-07-01,open,Central Termoeléctrica do Pego Estrada Nacional 118 km 142.1,2205-380,Pego,,,,0,0,0,888865,682885,,,,,,,,,,,,,,229365,596104,567523,50525,2681,221916,417620,,,,,,,,,,229365,596104,567523,50525,2681,221916,417620,,,,
Portugal,Operator Holding Account,"CT - Cobert Telhas, S.A.",500171262,2005-11-25,closed,"EN 361-1, Km 10, Outeiro da Cabeça",2565-594,Outeiro da Cabeça,19195,19195,19195,23703,23703,23703,23703,23703,0,0,0,0,0,0,0,0,7369,3393,4574,4043,1659,0,0,0,0,0,,,,,,,7369,3393,4574,4043,1659,,,,,,,,,,,
Portugal,Operator Holding Account,"AMFIRI, S.A.",510390536,2005-11-25,closed,"Av. dos Bombeiros de Algés, nº 73, 8º dto",1495-027,Algés,11811,11811,11811,10501,10501,10501,10501,10501,7463,7333,7202,7070,6936,0,0,0,5497,0,582,8239,5595,6918,3713,2998,0,0,0,0,,,,,5497,1,582,8239,5595,6918,3713,2998,,,,,,,,
Portugal,Operator Holding Account,"CT - Cobert Telhas, S.A.",500171262,2005-11-25,open,"EN 361-1, Km 10, Outeiro da Cabeça",2565-594,Outeiro da Cabeça,53063,53063,53063,46112,46112,46112,46112,46112,24919,24486,24048,23606,23159,22707,22250,21791,35098,41163,42138,23257,21179,24375,27474,25043,21083,17990,15505,17040,,,,,35098,41163,42138,23257,21179,24375,27474,25043,21083,17990,15505,17040,,,,
Portugal,Operator Holding Account,"Lactogal - Produtos Alimentares, S.A.",503183997,2010-03-24,closed,"Rua do Campo Alegre, n.º 830 - 5.º Andar",4150-171,Porto,,,,0,0,0,31575,18008,8377,7560,6764,5994,5246,4524,3824,3149,,,,,,11901,18082,17629,15484,,,,,,,,,,,,,11901,18082,17629,15484,,,,,,,
Portugal,Operator Holding Account,"Navigator Paper Setúbal, S.A.",508928117,2011-10-12,open,Pólo Industrial da Portucel,2910-738,Setúbal,,,,,,,,,94334,92696,91038,89363,87670,85960,84230,82493,,,,,,,0,0,0,0,0,0,,,,,,,,,,,,,,,,,,,,
Portugal,Operator Holding Account,"Soporcel Pulp - Sociedade Portuguesa de Celulose, S.A.",509377092,2011-05-30,open,Pólo Industrial da Soporcel,3090-351,Figueira da Foz,,,,,,,,,853,838,823,808,793,777,762,746,,,,,,,23741,58654,61316,63960,90998,125026,,,,,,,,,,,23741,58654,61316,63960,90998,125026,,,,
Portugal,Operator Holding Account,"SINAGA Sociedade de Indústrias Agrícolas Açoreanas, S.A.",512004137,2010-11-25,open,"Rua de Lisboa, 75",9500-216,Ponta Delgada,,,,0,0,0,17561,17561,3400,3342,3282,2094,1500,1473,1445,1416,,,,,,,5350,5710,3449,4436,1574,1596,,,,,,,,,,,5350,5710,,7885,1574,1596,,,,
Portugal,Operator Holding Account,"Artelia Ambiente,S.A.",508329540,2011-09-26,open,"Zona Industrial e Logística de Sines, Zona 2, Lote 2E1",7520-064,Sines,,,,,,,,94214,,,,,,,,,,,,,,,2948,120546,132080,17617,18674,2,,,,,,,,,,,2948,120546,132080,17617,18674,2,,,,
Portugal,Operator Holding Account,"Horticilha, Agro - Industria, S.A.",506420612,2011-02-04,open,"Estrada Nacional n.º 5, km 10, Cilha Queimada",2890-189,Alcochete,,,,0,0,0,8938,9856,6032,5399,4782,2092,1802,1522,1251,990,,,,,,,7867,7984,9784,6756,3498,3774,,,,,,,,,,,7867,7984,9784,6756,3498,3774,,,,
Portugal,Operator Holding Account,"Gopaca - Fábrica de Papel e Cartão, S.A.",502863200,2005-11-25,closed,Lugar da Azenha,4536,Paços de Brandão,0,0,0,0,0,0,0,0,,,,,,,,,0,0,0,0,Not Reported,,Not Reported,,,,,,,,,,,,,,,,,,,,,,,,,
Portugal,Operator Holding Account,"Cerâmica Outeiro do Seixo, S.A.",500062013,2005-11-25,open,Cabeça Gorda,2565-001,Campelos,10326,10326,10326,10689,10689,10689,10689,10689,13053,9121,8958,12365,12131,11894,11655,11414,8605,7776,6615,6888,5894,5966,3144,845,3330,3893,4670,6514,,,,,8605,7776,6615,6888,5894,5966,3144,845,3330,3893,4670,6514,,,,
Portugal,Operator Holding Account,"Sovena Oilseeds Portugal, S.A.",500278571,2005-11-25,open,"Rua Dr. António Loureiro Borges, nº2, 3º",1495–131,Algés,11667,11667,11667,24328,24328,24328,24328,24328,38752,37912,37854,37158,36454,35743,35023,34301,8178,10806,9326,14276,19892,13579,11232,10870,18272,17832,15343,11207,,,,,8178,10806,9326,14276,19892,13579,11232,10870,18272,17832,15343,11207,,,,
Portugal,Operator Holding Account,"Cerâmica de São Paulo, S.A",500062137,2005-11-25,closed,"IC2, Km 32 - Apartado 7",2584,Carregado,6496,6496,6496,,,,,,,,,,,,,,4939,4400,6527,,Not Reported,Not Reported,,,,,,,,,,,4939,4400,6527,,,,,,,,,,,,,
Portugal,Operator Holding Account,"MICROLIME - Produtos de Cal e Derivados, S.A.",504866362,2005-11-25,open,Apartado 17,2841-906,Aldeia de Paio Pires,31948,31948,31948,37767,37767,37767,37767,46912,33187,32611,32028,31439,30843,30242,29632,29022,30822,32105,40270,39458,30811,35196,41311,35808,42487,37973,35449,37290,,,,,30822,32105,40270,39458,30811,35196,41311,35808,42487,37973,35499,37240,,,,
Portugal,Operator Holding Account,"Prado-Cartolinas da Lousã, S.A",505853825,2005-11-25,open,Lugar do Penedo - Lousã,3200-901,Lousã,0,0,0,0,0,0,0,0,0,0,0,0,0,0,0,0,0,0,0,0,0,0,0,0,1,7347,7233,7500,,,,,,,,,,,,,1,7347,7233,7500,,,,
Portugal,Operator Holding Account,"UCHERÂMICA - Cerâmica da Ucha, Lda",500291357,2005-11-25,closed,Lugar do Rego,4750,Barcelos,4696,4696,4696,,,,,,,,,,,,,,901,1265,356,,Not Reported,Not Reported,,,,,,,,,,,901,1265,356,,,,,,,,,,,,,
Portugal,Operator Holding Account,"Fábrica de Papel de Ponte Redonda, S.A.",508513928,2005-11-25,open,"Rua de Ponte Redonda, n.º 2700",4501-851,Espinho,2049,2049,2049,4881,4881,4881,4881,4881,883,867,1353,1327,1303,1277,1252,1226,2322,2089,2370,2049,1324,1680,1764,910,858,936,1382,1742,,,,,2322,2089,2370,2049,1324,1680,1764,910,858,936,1382,1742,,,,
Portugal,Operator Holding Account,"Saramagos - Soc.Prod.Energia, S.A",504497553,2005-11-25,closed,"Avenida Riopele, n.º 946, Pousada de Saramagos",4770-405,Vila Nova de Famalicão,47751,47751,47751,56675,56675,56675,56675,0,,,,,,,,,34382,37833,43164,36727,40811,36243,23328,Not Reported,,,,,,,,,34382,37833,43164,36727,40811,36244,23328,,,,,,,,,
Portugal,Operator Holding Account,"CONSTRUCER - Cerâmica de Construção, S.A",501814442,2005-11-25,closed,Apartado 12 - Avelãs de Caminho,3781-901,Avelãs de Caminho,3326,3326,3326,408,408,408,408,408,6231,0,0,0,0,0,0,0,0,24,0,0,0,0,0,0,957,Not Reported,Not Reported,Not Reported,,,,,,24,,,,,,,957,,,,,,,
Portugal,Operator Holding Account,"Certelha  Industria de Ceramica, Lda",500752184,2005-11-25,closed,Bicaranho,3780,Anadia,3186,3186,3186,,,,,,,,,,,,,,1875,1574,341,Not Reported,Not Reported,Not Reported,,,,,,,,,,,1875,1574,,,,,,,,,,,,,,
Portugal,Operator Holding Account,"Adelino Duarte da Mota, S.A",500306087,2005-11-25,open,Apartado 8,3105,Meirinhas- Pombal,42346,42346,42346,54309,57265,67372,67372,67372,14076,13831,26892,26408,25923,25438,24953,24469,36919,36371,37256,43002,35947,43820,41516,28425,27411,28724,26445,29775,,,,,36919,36371,37256,43002,35947,43820,41516,28425,27411,28724,26445,29775,,,,
Portugal,Operator Holding Account,"NISA-Indústria Transformadora de Celulose e Papel,",500658625,2005-11-25,closed,"Estrada Nacional 118, Km 38",2130,Benavente,3059,3059,3059,,,,,,,,,,,,,,1423,1158,,,Not Reported,Not Reported,,,,,,,,,,,1423,1158,,,,,,,,,,,,,,
Portugal,Operator Holding Account,"CEPABIL - Cerâmica de Tijolos e Pavimentos, S.A.",502154730,2005-11-25,closed,Apartado 34,3780,Avelãs de Caminho,8539,8539,8539,9489,9489,9489,9489,9489,,,,,,,,,9624,7804,8059,6675,5902,7172,5014,0,,,,,,,,,9624,7804,8059,6675,5902,7172,5014,,,,,,,,,
Portugal,Operator Holding Account,Calcidrata,501188509,2005-11-25,open,"Estrada 5 de Outubro, Pé da Pedreira",2025-161,Alcanede,26702,26702,26702,87982,87982,87982,87982,87982,45688,44894,44092,43280,42460,41632,40794,39953,23800,25320,26829,32004,32728,33324,35646,34020,30787,27888,26980,26460,,,,,23800,25320,26829,32004,32728,33324,35646,34020,30787,27888,26980,26460,,,,
Portugal,Operator Holding Account,"Sobralcer - Cerâmica do Sobral, Lda",500252483,2005-11-25,closed,"R. Melos e Cunha, Apartado 51",3884,Sobral - Ovar,3801,3801,3801,,,,,,,,,,,,,,0,0,0,,Not Reported,Not Reported,,,,,,,,,,,,,,,,,,,,,,,,,,
Portugal,Operator Holding Account,"Cetipal - Cerâmica de Tijolos e Pavimentos, S.A",500636877,2005-11-25,open,"Apartado 10, Aguada de Baixo, Águeda",3754-906,Aguada de Baixo,5998,5998,5998,7471,7471,7471,7471,7471,9319,9157,8993,8827,8660,8492,8321,8149,6454,6044,3259,15,3,6,4,3,3416,156,144,214,,,,,6454,6044,3259,15,3,6,4,3,3416,156,144,214,,,,
Portugal,Operator Holding Account,"Cerâmica F. Santiago, Lda.",500601429,2005-11-25,open,Cumeira de Cima - Juncal,2480-801,Juncal - Porto de Mós,7352,7352,7352,10062,10062,10062,10062,10062,6124,7598,7462,7325,7186,7045,6904,6760,8275,7073,6582,6130,4440,3875,3223,1437,2910,854,432,406,,,,,8275,7073,6582,6130,4440,3875,3223,1437,2910,854,432,406,,,,
Portugal,Operator Holding Account,"Cersan 2 - Cerâmica de Coruche, lda",500636850,2005-11-25,closed,Santo André,2100,Coruche,2321,2321,2321,0,0,0,0,0,,,,,,,,,0,0,0,0,0,0,0,,,,,,,,,,,,,,,,,,,,,,,,,
Portugal,Operator Holding Account,"Manuel Piedade Batista e Irmão, Lda",501352392,2005-11-25,closed,"Rua 12 de Janeiro, Viegas , n.º 75/77",2025-251,Alcanede,19716,19716,19716,0,0,0,0,0,,,,,,,,,17070,15634,17060,11400,0,0,0,,,,,,,,,,17070,15634,17060,11400,,,,,,,,,,,,
Portugal,Operator Holding Account,"A. Silva & Silva - Cerâmica, S.A.",502888555,2005-11-25,open,"Quinta do Outeiro, Apartado 7",2841-905,Seixal,6373,6373,6373,6528,7494,9010,9010,9010,3694,3631,3566,3500,3434,3366,3299,3231,7021,6034,4471,3816,4280,5193,3959,1080,Not Reported,Not Reported,Not Reported,Not Reported,,,,,7021,6034,4471,3816,4280,5193,3959,1080,,,,,,,,
Portugal,Operator Holding Account,"Cerâmica Vala, Lda",500062226,2005-11-25,closed,"Avenida Estados Unidos da América, n.º 97 - 1 Dto",1700-167,Lisboa,5582,5582,5582,3714,3714,3714,3714,3714,0,0,0,0,0,0,0,0,2517,1534,1951,1116,1515,849,0,0,Not Reported,Not Reported,Not Reported,Not Reported,,,,,2517,1534,1951,1116,1515,849,,,,,,,,,,
Portugal,Operator Holding Account,"Tejo Energia, S.A",502869674,2005-11-25,open,"Central Termoeléctrica do Pego EN 118, Km 142,1",2205-380,Pego,3801434,3801434,3801434,2727371,2746044,2747507,2747507,2747507,,,,,,,,,4185468,3956852,3266563,3217938,2835753,1619544,2136959,3188162,2767994,2700890,3615854,3260878,,,,,4185468,3956852,3266563,3217938,2835753,1619544,2136959,3188162,2767994,2700890,3615854,3260878,,,,
Portugal,Operator Holding Account,"PortucelSoporcel Cogeração de Energia, S.A.",508101174,2005-11-25,open,"Pólo Industrial da Portucel, Mitrena",2901-861,Setúbal,239942,239942,239942,239306,239306,239306,239306,239306,,,,,,,,,232418,240139,244480,232912,240755,192477,236798,260734,271101,283507,253496,81429,,,,,232418,240139,244480,232912,240755,192477,236798,260734,271101,283507,253496,81429,,,,
Portugal,Operator Holding Account,ENERGIN - Sociedade de Produção de Electriidade e,504872397,2005-11-25,open,"Av. 24 de Julho, n.º12",1249-300,Lisboa,205256,205256,205256,225955,225955,225955,225955,225955,9221,8252,7310,6399,5515,4661,3834,3037,193404,207945,212065,194466,194889,200665,198556,201523,198592,13373,Not Reported,Not Reported,,,,,193404,207945,212065,194466,194889,200665,198556,201523,198592,13373,,,,,,
Portugal,Operator Holding Account,"J. Umbelino Silva Monteiro, S.A.",500443025,2005-11-25,closed,Rua do Areeiro,3100,Meirinhas,9625,9625,9625,,,,,,,,,,,,,,15080,14231,14383,,Not Reported,Not Reported,,,,,,,,,,,15080,14231,14383,,,,,,,,,,,,,
Portugal,Operator Holding Account,"Cerâmica Certrês, Lda.",500061823,2005-11-25,closed,Rua da Cerâmica,3070-082,Mira,1782,1782,1782,218,218,0,0,0,,,,,,,,,0,0,0,0,0,0,0,Not Reported,Not Reported,Not Reported,Not Reported,,,,,,2,,,,218,,,,,,,,,,,
Portugal,Operator Holding Account,Cerâmica Rosário S.A.,500062099,2005-11-25,closed,"Rua José do Pisão, lote 54 - 3º P",2560,Santa Cruz,9032,9032,9032,8913,8913,0,0,0,,,,,,,,,6240,6267,8863,6448,2554,0,0,,,,,,,,,,6240,6267,8863,6448,2554,,,,,,,,,,,
Portugal,Operator Holding Account,"Cerâmica do Prado Infante, Lda.",500330972,2005-11-25,closed,Estrada do Pesinho,6230,Telhado,4347,4347,4347,,,,,,,,,,,,,,872,219,0,,Not Reported,Not Reported,,,,,,,,,,,872,219,,,,,,,,,,,,,,
Portugal,Operator Holding Account,"SEVA - Sociedade Energética de Valdante, S.A.",502159774,2005-11-25,closed,Valdante - Ronfe - Guimarães,4801-909,Guimarães,38789,38789,38789,29835,29835,29835,29835,0,,,,,,,,,29236,24945,25481,24560,25616,24936,9506,Not Reported,,,,,,,,,29236,24945,25481,24560,25616,24936,9506,,,,,,,,,
Portugal,Operator Holding Account,"CEMOPOL  -  Celuloses Moldadas Portuguesas, SA.",502163020,2005-11-25,open,Parque Industrial Manuel da Mota,3100-354,Pombal,7442,7442,7442,10529,16336,17051,17051,17051,6053,5460,4883,4324,3781,3257,2747,2257,7408,7873,7627,8120,10377,10973,10890,10059,8400,8475,10218,13674,,,,,7408,7873,7627,8120,10377,10973,10890,10059,8400,8475,10218,13674,,,,
Portugal,Operator Holding Account,"GOLDCER - Indústria Cerâmica, S.A.",504340433,2005-11-25,closed,Apartado 198 Malaposta,3780,Anadia,5543,5543,5543,,,,,,,,,,,,,,6983,6746,10744,,Not Reported,Not Reported,,,,,,,,,,,6983,6746,10746,,,,,,,,,,,,,
Portugal,Operator Holding Account,"Companhia de Cartões do Cávado,S.A.",500068542,2005-11-25,closed,Apartado 460,4711,Braga,3432,3432,3432,0,0,0,0,0,,,,,,,,,3648,3447,0,0,0,0,0,,,,,,,,,,3648,3447,,,,,,,,,,,,,,
Portugal,Operator Holding Account,"INACER – Industria Nacional de Cerâmicas, Lda.",502108568,2005-11-25,open,Rua Alto Vale do Grou,3750-064,Águeda,8900,8900,8900,8976,10431,10431,10431,10431,11123,10930,10734,10537,6250,6128,6004,5881,8892,8963,7884,7722,11233,9385,8521,7968,10776,7661,7929,7540,,,,,8892,8963,7884,7722,11233,9385,8521,7968,10776,7661,7929,7540,,,,
Portugal,Operator Holding Account,"Cerâmica das Quintãs, Lda.",500343187,2005-11-25,open,Quintãs - Costa do Valado - Aveiro,3810-829,Oliveirinha,13372,13372,13372,11127,12655,12655,12655,12655,19088,18757,18420,18082,17739,17394,17044,16692,8991,9550,10885,10247,13593,13669,12041,10577,16255,10876,10223,10402,,,,,8991,9550,10885,10247,13593,13669,12041,10577,16255,10876,10223,10402,,,,
Portugal,Operator Holding Account,Iberol-Sociedade Ibérica de Biocombustíveis e Olea,500135959,2005-11-25,open,Quinta da Hortinha - Alhandra,2600-531,Alhandra,27655,27655,27655,39488,39488,39488,39488,39488,23445,23037,22625,22209,21788,21363,20933,20502,5307,23591,27928,19675,23236,31362,26769,24308,19809,17371,18598,19269,,,,,5307,23591,27928,19675,23236,31362,26769,24308,19809,17371,18598,19269,,,,
Portugal,Operator Holding Account,"BARVEL - Empresa Cerâmica de Barro Vermelho, S. A.",500042373,2005-11-25,closed,Apartado 5,3770,Oliveira do Bairro,10283,10283,10283,,,,,,,,,,,,,,9675,9192,8159,,Not Reported,Not Reported,,,,,,,,,,,9675,9192,8159,,,,,,,,,,,,,
Portugal,Operator Holding Account,Lusical - Companhia Lusitana de Cal S.A,502146370,2005-11-25,open,Valverde,2025-201,Alcanede,229426,229426,229426,321234,321234,321234,428525,415876,297958,292783,287547,282257,276908,271509,266042,260556,237671,228118,262113,277672,252529,276771,325726,317723,322084,353529,375873,353280,,,,,237671,228118,262113,277672,252529,276771,325726,317723,322084,353529,375873,353280,,,,
Portugal,Operator Holding Account,Petróleos de Portugal - Petrogal S.A,500697370,2005-11-25,open,"Rua Tomás da Fonseca,Torre C",1600-209,Lisboa,2313908,2313908,2313908,2137550,2379185,2307285,2181798,2181798,1187801,1167170,1146296,1125205,1103886,1082361,1060567,1038697,2063717,2116194,2095404,1828181,1728219,2050717,1769213,1899794,2687770,2219081,2547397,2516364,,,,,2063717,2116194,2095404,1828181,1728219,2050718,1769213,1899794,2687770,2219081,2547397,2516364,,,,
Portugal,Operator Holding Account,Petróleos de Portugal - Petrogal S.A,500697370,2005-11-25,open,"Rua Tomás da Fonseca,Torre C",1600-209,Lisboa,951969,951969,951969,1098025,1098025,1098025,1098025,1289545,494967,486370,477672,468883,460000,451030,441948,432834,945313,902186,842969,1121765,887856,781425,842969,822236,1008617,883209,920632,907767,,,,,945313,902186,842969,1121765,887856,781425,842969,822236,1008617,883209,920632,907767,,,,
Portugal,Operator Holding Account,"Cerâmica Primor, Lda.",500062056,2005-11-25,closed,Zona Industrial de Barró,3750,Barró,4348,4348,4348,,,,,,,,,,,,,,4196,1830,1383,,Not Reported,Not Reported,,,,,,,,,,,4196,1830,1383,,,,,,,,,,,,,
Portugal,Operator Holding Account,"Cerâmica Domingos F. Anacleto, S.A.",503123897,2005-11-25,closed,EN 8 - Ameal,2565-641,Ramalhal,3362,3362,3362,3402,0,0,0,0,,,,,,,,,4701,3445,0,0,0,0,0,,,,,,,,,,4701,3445,,,,,,,,,,,,,,
Portugal,Operator Holding Account,"CUF Quimicos Industriais, SA",500832234,2005-11-25,open,Quinta da Industria,3860 - 680,Estarreja,36081,36081,36081,32856,32856,32856,32856,32856,72799,71534,70255,68962,67656,66336,65001,63660,31475,26323,22294,29828,33310,42448,27743,27493,38008,42190,29812,31913,,,,,31475,26323,22294,29828,,75758,27743,27493,38008,42190,29812,31913,,,,
Portugal,Operator Holding Account,"Cerâmica de Ferreirós, Lda",500061742,2005-11-25,closed,Rua das Novas Rompidas S/N - Ferreirós,3754,Recardães,6819,6819,6819,0,0,0,0,0,,,,,,,,,255,0,0,Not Reported,Not Reported,,Not Reported,,,,,,,,,,255,,,,,,,,,,,,,,,
Portugal,Operator Holding Account,"Sociedade Transformadora de Papéis Vouga, Lda",500262683,2005-11-25,open,"Rua Nova Fial, n.º 155, Apartado 8",4536-907,S. Paio Oleiros,3669,3669,3669,3470,3470,3470,3470,3470,3214,3091,2970,2852,2736,2620,2506,2397,4152,4489,3924,4423,3545,3324,3325,3293,3421,3517,3689,3554,,,,,4152,4489,3924,4423,3545,3470,3325,2587,4127,3517,3689,3554,,,,
Portugal,Operator Holding Account,"A Telheira de Chaves, Lda",500005532,2005-11-25,closed,Rua Gualdim Pais - Campo da Roda,5400,Chaves,6390,6390,6390,0,0,0,0,0,,,,,,,,,0,0,0,0,Not Reported,0,0,,,,,,,,,,,,,,,,,,,,,,,,,
Portugal,Operator Holding Account,"CeltiCerâmica - Indústria Cerâmica Portuguesa, S.A",500060223,2005-11-25,closed,Vale do Grou,3750,Aguada de Cima,6781,6781,6781,,,,,,,,,,,,,,11524,13536,9138,,Not Reported,Not Reported,,,,,,,,,,,11524,13536,9138,,,,,,,,,,,,,
Portugal,Operator Holding Account,"CeltiCerâmica - Indústria Cerâmica Portuguesa, S.A",500060223,2005-11-25,closed,Vale do Grou,3750,Aguada de Cima,6671,6671,6671,,,,,,,,,,,,,,0,0,0,,Not Reported,Not Reported,,,,,,,,,,,,,,,,,,,,,,,,,,
Portugal,Operator Holding Account,"Unicer, Energia e Ambiente, S.A.",503197742,2005-11-25,open,"Via Norte, Leça do Balio-Matosinhos Apartado 1044",4466-955,S. Mamede de  Infesta,41154,41154,41154,33560,33560,33560,33560,33560,12671,11339,10046,8793,7579,6405,5269,4173,33663,34329,34453,33633,31748,24628,17519,17549,17628,17634,16714,16024,,,,,33663,34329,34453,33633,31748,24628,17519,17549,17628,17634,16714,16024,,,,
Portugal,Operator Holding Account,"Unicer, Energia e Ambiente, S.A.",503197742,2005-11-25,closed,"Via Norte, Leça do Balio-Matosinhos Apartado 1044",4466-955,S. Mamede de  Infesta,12096,12096,12096,10982,10982,10982,10982,10982,7573,0,0,0,0,0,0,0,12360,12675,12467,12213,10514,10505,8831,8520,2283,Not Reported,Not Reported,,,,,,12360,12675,12467,12213,10514,10505,8831,8520,2283,,,,,,,
Portugal,Operator Holding Account,"Saint-Gobain Glass Portugal, Vidro Plano, S.A.",500079897,2005-11-25,closed,"Lugar de D. Pedro, EN 10, Santa Iria de Azoia",2691-652,Santa Iria de Azoia,96755,96755,96755,96177,96177,96177,0,0,,,,,,,,,101263,97172,91986,92094,8256,0,0,0,Not Reported,Not Reported,Not Reported,,,,,,101263,97172,91986,92094,8256,,,,,,,,,,,
Portugal,Operator Holding Account,"Sociedade Cerâmica Silmar, S.A.",500264406,2005-11-25,closed,Cruz da Légua,2480,Pedreiras,4691,4691,4691,0,0,0,0,0,,,,,,,,,4197,4035,2087,0,Not Reported,Not Reported,0,,,,,,,,,,4197,4035,2087,,,,,,,,,,,,,
Portugal,Operator Holding Account,"Cerâmica do Centro, Lda",500061688,2005-11-25,closed,Apartado 8,3100-842,Meirinhas,9990,9990,9990,8605,8605,8605,8605,8605,0,0,0,0,0,0,0,0,7923,6831,8106,5271,1333,479,0,0,0,0,Not Reported,,,,,,7923,6831,8106,5271,1333,479,,,,,,,,,,
Portugal,Operator Holding Account,"Saint-Gobain Mondego, S.A.",501793160,2005-11-25,open,Fontela - Apartado 2030,3081-901,Figueira da Foz,79989,79989,79989,84342,84342,84342,101042,100257,63820,62711,61591,60458,59312,58154,56983,55810,78511,75277,90959,80642,74637,76348,74466,78373,77107,75931,83264,82196,,,,,78511,75277,90959,80642,74637,76348,74466,78373,77107,75931,83264,82196,,,,
Portugal,Operator Holding Account,Faceal - Fábrica de Cerâmica do Algarve,500108463,2005-11-25,closed,Mem Moniz,8200,Paderne,6746,6746,6746,0,0,0,0,0,,,,,,,,,5945,0,0,0,0,0,0,,,,,,,,,,5945,,,,,,,,,,,,,,,
Portugal,Operator Holding Account,Celbi,500060266,2005-11-25,open,"Leirosa, Marinha das Ondas",3081-853,Figueira da Foz,69553,69553,69553,62580,62580,130893,138973,138973,81388,79974,78544,77099,75638,74163,72670,71171,47947,53916,49052,72500,79644,75132,65560,63596,74202,72429,65259,64020,,,,,47947,53916,49052,72500,79644,75132,65560,63596,74202,72429,65259,64020,,,,
Portugal,Operator Holding Account,"Fapovar - Fábrica de Papel de Ovar, S.A.",500109249,2005-11-25,closed,"Ponte Reada, Apartado 3",3884-909,Ovar,3508,3508,3508,3371,0,0,0,0,,,,,,,,,3879,3487,3508,0,0,0,0,,,,,,,,,,3879,3487,3508,3371,,,,,,,,,,,,
Portugal,Operator Holding Account,Fabrica de Papel e Cartão da Zarrinha S.A,500107220,2005-11-25,open,"Rua da Lavoura, n.º 314, Apartado 19",4536-906,Paços de Brandão,9304,9304,9304,8769,8769,8769,8769,8769,5752,5558,5365,5175,4987,4801,4617,4437,8950,5710,8579,6487,6609,6150,5763,5500,5528,6453,6791,6986,,,,,8950,5710,8579,6487,6609,6150,5763,5500,5528,6453,6791,6986,,,,
Portugal,Operator Holding Account,"Continental Mabor, Indústria de Pneus S.A.",502322004,2005-11-25,closed,"Rua Adelino Leitão, n.º 330",4760,Lousado,13203,13203,13203,,,,,,,,,,,,,,15536,11738,,,Not Reported,Not Reported,,,,,,,,,,,15536,11738,,,,,,,,,,,,,,
Portugal,Operator Holding Account,"Cerâmica Liz, S.A.",500061866,2005-11-25,closed,Rua Manuel Simões Maia,2415,Leiria,6249,6249,6249,,,,,,,,,,,,,,4480,4356,4533,,Not Reported,Not Reported,,,,,,,,,,,4480,4356,4533,,,,,,,,,,,,,
Portugal,Operator Holding Account,"GALLOVIDRO, S.A.",501665706,2005-11-25,open,"Rua Vieira de Leiria, n.º 1",2430-300,Marinha Grande,86716,86716,86716,96530,96530,96530,96530,96530,54519,53571,52613,51645,50667,49679,48679,47675,89606,89958,89848,82215,80475,75465,68125,77943,78235,79794,70526,78686,,,,,89606,89958,89848,82215,80475,75465,68125,77943,78235,79794,70526,78686,,,,
Portugal,Operator Holding Account,"Sidul Açucares, Unipessoal, Lda",500274460,2005-11-25,open,Quinta do Ferral,2695-364,Santa Iria de Azóia,38990,38990,38990,38654,38654,38654,38654,38654,35002,34393,33784,33175,32566,31957,31348,30739,24817,26517,30667,36381,45324,38224,34233,30413,32244,24840,19829,21454,,,,,24817,26517,30667,36382,45324,38224,34233,30412,32244,24840,19829,21454,,,,
Portugal,Operator Holding Account,"Prado Karton - Companhia de Cartão, S.A.",505524562,2005-11-25,open,Lugar do Prado - Apartado 1 - Pedreira,2304-909,Tomar,558,558,558,16382,16382,16382,16382,16382,7750,7615,7479,3965,2233,2190,2146,2102,393,136,133,9257,8667,10834,11874,8998,8665,6449,4331,2854,,,,,393,136,133,9257,8667,10834,11874,8998,8665,6449,4331,2854,,,,
Portugal,Operator Holding Account,Prado Energia - Sociedade Unipessoal Lda,505217023,2005-11-25,closed,Lugar do Prado,2305-556,Pedreira - Tomar,14375,14375,14375,,,,,,,,,,,,,,9361,10472,10818,,Not Reported,Not Reported,,,,,,,,,,,9361,10472,10818,,,,,,,,,,,,,
Portugal,Operator Holding Account,"Oliveira Santos & Irmão, Lda",500207216,2005-11-25,open,"Calçada de  Rio Maior, n.º 228, Apartado 16",4536-906,Paços de Brandão,2512,2512,2512,2414,2414,2414,2414,2414,2749,2699,2648,2598,2547,2494,2441,2388,3005,3410,3161,2853,2978,2419,2348,2379,2437,2070,1663,2517,,,,,3005,3410,3161,2853,2978,2419,2348,1911,2905,2070,1663,2517,,,,
Portugal,Operator Holding Account,"ADP - Fertilizantes, S.A.",502473525,2005-11-25,open,E. N. 10 - Apartado 88,2616-907,Alverca,9830,9830,9830,8264,8264,8264,8264,8264,40144,39447,38741,38028,37308,36580,35844,35105,8695,7435,6175,6005,4270,5370,5384,5691,34428,22226,26842,16869,,,,,8695,7435,6175,6005,4270,5370,5384,5691,34428,22226,26842,16869,,,,
Portugal,Operator Holding Account,"Nestlé Portugal, S.A.",500201307,2005-11-25,open,"Rua Alexandre Herculano, n.º8 - 8 - 8A",2799-554,Linda-a-Velha,21514,21514,21514,18861,18861,18861,18861,18861,10465,2601,306,268,230,195,160,127,16261,13656,14743,13815,14153,13563,13925,10936,1967,1404,1445,1325,,,,,16261,13656,14743,13815,14153,13563,13925,10936,1967,1404,1445,1325,,,,
Portugal,Operator Holding Account,"Enercaima - Produção de Energia, S.A.",502931868,2005-11-25,open,Apartado 5003 Freixieiro,4456-901,Perafita,60827,60827,60827,53147,53147,53147,53147,53147,,,,,,,,,54498,60385,62151,52124,65344,64515,56300,46984,32301,33025,42087,13924,,,,,54498,60385,62151,52124,65344,64515,56300,45030,34255,33025,42087,13924,,,,
Portugal,Operator Holding Account,"Cerâmica de Boialvo, Lda.",500061548,2005-11-25,closed,Rua da Tapada,3780,Boialvo,11464,11464,11464,7045,7045,0,0,0,,,,,,,,,4562,5843,6124,2944,656,0,0,0,Not Reported,Not Reported,Not Reported,Not Reported,,,,,4562,5843,6124,2944,5346,,,,,,,,,,,
Portugal,Operator Holding Account,"CS - Coelho da Silva, S. A.",500144109,2005-11-25,open,Albergaria,2480-071,Juncal,15600,15600,15600,15211,15211,15211,15211,17865,13379,21159,20781,20399,20012,19622,19229,18831,14467,14099,14168,12219,11855,13438,13559,15232,24866,29411,27453,24681,,,,,14467,14099,14168,12219,11855,13438,13559,15232,24866,29411,27453,24681,,,,
Portugal,Operator Holding Account,"Sociedade Cerâmica do Alto, Lda",500264376,2005-11-25,open,Apartado 44 - Vale do Grou,3754-909,Águeda,4937,4937,4937,9218,9218,9218,9218,9218,7838,9978,7564,9619,9437,9253,9066,8880,6626,8034,8041,7500,6903,6049,5773,3892,7737,6439,7824,4516,,,,,6626,8034,8041,7500,6903,6049,5773,3892,7737,6439,7824,4516,,,,
Portugal,Operator Holding Account,"Cerâmica Castros, S.A",500152748,2005-11-25,closed,Apartado 17 - Miragaia,3754-908,Aguada de Cima,8026,8026,8026,8079,8079,8079,8079,8079,,,,,,,,,6404,6439,8003,5989,6413,4863,2903,873,Not Reported,Not Reported,Not Reported,Not Reported,,,,,6404,6439,8003,5989,6413,4863,2903,873,,,,,,,,
Portugal,Operator Holding Account,"Cerâmica Flaviense, SA",500061769,2005-11-25,open,Campo da Roda,5400-909,Chaves,3855,3855,3855,3857,3857,3857,3857,3857,5326,5234,3928,3856,3783,3708,3635,3559,4325,3399,5641,3502,3147,3295,3090,2941,4158,3610,1486,296,,,,,4325,3399,5641,3502,3147,3295,3090,2941,4158,3610,1486,296,,,,
Portugal,Operator Holding Account,Atlantic Islands Electricity,511109563,2005-11-25,open,"Zona Franca Industrial da Madeira, Plataforma 12-A",9200-047,Caniçal,127000,127000,127000,128328,200967,261893,261893,261893,1851,1657,1468,1284,1107,936,769,609,127298,123518,132587,121935,122899,130056,127383,127295,130408,130982,132145,132406,,,,,127298,123518,132587,121935,122899,130056,127383,127295,130408,130982,132145,132406,,,,
Portugal,Operator Holding Account,"Cerâmica Coelho da Silva IV, S.A.",505468131,2005-11-25,closed,Albergaria,2480,Juncal,8768,8768,8768,,,,,,,,,,,,,,8829,8852,8219,,Not Reported,Not Reported,,,,,,,,,,,8829,8852,8219,,,,,,,,,,,,,
Portugal,Operator Holding Account,"BAMISO, S.A",503368032,2005-11-25,open,"Apartado 20, Samouqueiro, Avanca",3864-752,Estarreja,63778,63778,63778,53613,53613,53613,53613,53613,,,,,,,,,55134,56304,57945,54107,47341,51020,58928,46178,30153,24853,21978,21661,,,,,113079,56304,,54107,47341,51027,58928,46171,30153,24853,21978,21661,,,,
Portugal,Operator Holding Account,"Empresa Cerâmica Cervar, S.A.",500642141,2005-11-25,closed,Lugar de Cruto - Cervães - Vila Verde,4730-100,Cervães,9185,9185,9185,9314,0,0,0,0,,,,,,,,,9329,7875,8969,6984,Not Reported,Not Reported,0,,,,,,,,,,9329,7875,8969,,,,,,,,,,,,,
Portugal,Aircraft Operator Account,Flight Management Corporation,65-0336591,2012-01-01,open,8010 15th Street East,34243,Sarasota,,,,,,,,5,2,2,2,2,2,2,2,2,,,,,,,,312,Excluded,216,177,Excluded,,,,,,,,,,,,312,,216,177,,,,,
Portugal,Aircraft Operator Account,Channellock,f10117,2012-01-01,open,145 Hangar Drive,16323,Franklin,,,,,,,,,,,,,,,,,,,,,,,,20,Excluded,Excluded,Excluded,Excluded,,,,,,,,,,,,,,,,,,,,
Portugal,Aircraft Operator Account,morganflight,,2010-01-01,open,300 Airport Rd,55105,Saint Paul,,,,,,,,1,0,0,0,0,0,0,0,0,,,,,,,,34,Excluded,Excluded,Excluded,Excluded,,,,,,,,,,,,34,,,,,,,,
Portugal,Operator Holding Account,"Riopele-Têxteis, S.A.",500108064,2012-11-27,open,"Avenida Riopele, 946",4770-405,Pousada de Saramagos,,,,,,,,2010,3541,3489,3427,3366,3304,3242,3180,3118,,,,,,,,890,11398,11046,10220,9952,,,,,,,,,,,,890,11398,11046,10220,9952,,,,
Portugal,Aircraft Operator Account,Rich Products Corporation,7732,2012-01-01,open,One Robert Rich Way,14213,Buffalo,,,,,,,,,,,,,,,,,,,,,,,,0,Excluded,Excluded,Excluded,Excluded,,,,,,,,,,,,,,,,,,,,
Portugal,Aircraft Operator Account,Netjets Transportes Aereos SA,504709461,2012-01-01,open,"Rua Calvet Magalhaes, 245 Bloco B",2774-550,Paco de Arcos,,,,,,,,5432,3967,3967,3967,3967,3967,3967,3967,3967,,,,,,,,133511,102972,101270,107318,113640,,,,,,,,,,,,133511,,204242,107318,113640,,,,
Portugal,Aircraft Operator Account,"Clos de Berry Managment, Ltd",24811,2010-01-01,open,P.O. Box 277,45377,Vandalia,,,,,,,,1,0,0,0,0,0,0,0,0,,,,,,,,63,Excluded,Excluded,Excluded,Excluded,,,,,,,,,,,,1,,,,,,,,
Portugal,Aircraft Operator Account,JMI Services LLC,800208695,2012-01-01,open,4309 Emma Browning Avenue STE 120,78719,Austin,,,,,,,,,,,,,,,,,,,,,,,,32,121,114,85,202,,,,,,,,,,,,,,267,85,202,,,,
Portugal,Aircraft Operator Account,Banco Pine SA,35174,2012-01-01,open,Avenida das Nações 8501 / 30 floor,05425-070,Sao Paulo,,,,,,,,1,0,0,0,0,0,0,0,0,,,,,,,,11,Excluded,Excluded,Excluded,Excluded,,,,,,,,,,,,1,,,,,,,,
Portugal,Aircraft Operator Account,GLOBAL MISSION LLC,264544113,2011-01-01,open,3511 SILVERSIDE ROAD,19810-4902,WILMINGTON,,,,,,,,,,,,,,,,,,,,,,,,127,Excluded,Excluded,Excluded,Excluded,,,,,,,,,,,,127,,,,,,,,
Portugal,Aircraft Operator Account,"SATA Internacional, S.A.",512029393,2012-01-01,open,"Avenida Infante D. Henrique, 55 - 6º andar",9504 - 528,Ponta Delgada,,,,,,,,80243,580,580,580,580,580,580,580,580,,,,,,,,99322,6676,5970,5223,2369,,,,,,,,,,,,99322,,12646,5223,2369,,,,
Portugal,Aircraft Operator Account,"Broad River Aviation, Inc.",0391445,2010-01-01,open,8100 SW 10th Street,33324,Plantation,,,,,,,,,,,,,,,,,,,,,,,,24,Excluded,Excluded,Excluded,Excluded,,,,,,,,,,,,,,,,,,,,
Portugal,Operator Holding Account,"Volkswagen Autoeuropa,Lda",502616695,2011-06-06,open,Quinta da Marquesa,2954-024,Quinta do Anjo,,,,,,,,,8997,8051,10853,10653,10452,10248,10041,9834,,,,,,,,,9597,10153,10100,9504,,,,,,,,,,,,,9597,10153,10100,9504,,,,
Portugal,Aircraft Operator Account,Igreja Universal do Reino de Deus,29744778000197,2012-01-01,open,Av. Santos Dumont SN - Hangares 7 e 8 - Aeroporto,18065-290,Sorocaba,,,,,,,,,,,,,,,,,,,,,,,,Not Reported,Excluded,Excluded,Excluded,Excluded,,,,,,,,,,,,,,,,,,,,
Portugal,Aircraft Operator Account,PLANAIR Enterprises Ltd,20092426182,2010-01-01,open,AERO MANAGEMENT SERVICES,2007,Beadfordview,,,,,,,,,,,,,,,,,,,,,,,,231,296,409,501,255,,,,,,,,,,,,,231,705,501,255,,,,
Portugal,Aircraft Operator Account,Air Bear,9568,2010-01-01,open,PO box 17328,33416,West Palm Beach,,,,,,,,53,7,7,7,7,7,7,7,7,,,,,,,,70,Excluded,Excluded,Excluded,Excluded,,,,,,,,,,,,70,,,,,,,,
Portugal,Aircraft Operator Account,Ibis Participações e Serviços Ltda,04018720000135,2010-01-01,open,"Rua Henrique Shaumann, 270 SLJ Parte",05413-010,São Paulo,,,,,,,,6,2,2,2,2,2,2,2,2,,,,,,,,59,Excluded,Excluded,Excluded,Excluded,,,,,,,,,,,,6,,,,,,,,
Portugal,Aircraft Operator Account,Mente LLC,25266,2010-01-01,open,6771B Perimeter Road,98108,Seattle,,,,,,,,1,0,0,0,0,0,0,0,0,,,,,,,,60,94,159,Excluded,40,,,,,,,,,,,,1,,,,,,,,
Portugal,Aircraft Operator Account,"Transportes Aéreos de Cabo Verde, SA",980036518,2010-01-01,open,"Av. Amilcar Cabral Nº 4, P. Box Nº 1 Praia",7600,Praia,,,,,,,,1275,15,15,15,15,15,15,15,15,,,,,,,,2346,383,1121,1871,1145,,,,,,,,,,,,1275,,,4446,1145,,,,
Portugal,Aircraft Operator Account,Air Bravo LLC,1234567,2012-01-01,open,Rua XXX,1000-000,Lisboa,,,,,,,,,,,,,,,,,,,,,,,,39,Excluded,Excluded,Excluded,Excluded,,,,,,,,,,,,,,,,,,,,
Portugal,Aircraft Operator Account,Basurven Servicios Sanitarios CA,1234567,2012-01-01,open,Rua XXX,1000-000,Lisboa,,,,,,,,,,,,,,,,,,,,,,,,135,Excluded,Excluded,Excluded,Excluded,,,,,,,,,,,,,,,,,,,,
Portugal,Aircraft Operator Account,TAAG - LINHAS AÉREAS DE ANGOLA - ANGOLA AIRLINES,5410002830,2010-01-01,open,"Av. do Brasil, n.º 31 A",1700-062,Lisboa,,,,,,,,2,1,1,1,1,1,1,1,1,,,,,,,,902,587,106,112,57,,,,,,,,,,,,2,,,1705,57,,,,
Portugal,Aircraft Operator Account,Construtora Andrade Gutierrez SA,BR XXXX,2012-01-01,open,"Avenida do Contorno, 8123",30110-910,Belo Horizonte,,,,,,,,,,,,,,,,,,,,,,,,8,Excluded,Excluded,Excluded,Excluded,,,,,,,,,,,,,,,,,,,,
Portugal,Operator Holding Account,"Sociedade Portuguesa do Ar Líquido ""ARLIQUIDO"" LDA",500261512,2013-01-01,open,"Rua Dr. António Loureiro Borges, nº4 - 2º",1495-131,Algés,,,,,,,,,36891,36250,35602,34946,34284,33616,32939,32260,,,,,,,,,62985,64523,63737,63342,,,,,,,,,,,,,62985,64523,63737,63342,,,,
Portugal,Operator Holding Account,"ADP - Fertilizantes, S.A.",502473525,2013-01-01,open,E. N. 10 - Apartado 88,2616-907,Alverca,,,,,,,,,33591,33008,32417,31821,31218,30609,29992,29375,,,,,,,,,17053,32521,13879,9189,,,,,,,,,,,,,17053,32521,13879,9189,,,,
Portugal,Operator Holding Account,"Paulo de Oliveira, S.A.",500213348,2013-01-01,open,Quinta das Mineiras,6200-275,Covilhã,,,,,,,,,4609,4528,4448,4366,4283,4199,4116,4030,,,,,,,,,3916,4047,4347,4393,,,,,,,,,,,,,3916,4047,4347,4393,,,,
Portugal,Operator Holding Account,Aleluia Cerâmicas SA,500721831,2013-01-01,open,Quinta do Simão,3801-101,Esgueira - Quinta do Simão,,,,,,,,,14213,13966,6483,6364,6242,6121,5998,5873,,,,,,,,,7029,5737,4806,5392,,,,,,,,,,,,,7029,5737,4806,5392,,,,
Portugal,Operator Holding Account,Goldcer - Indústria Cerâmica SA,504340433,2013-01-01,open,Apartado 198,3781-909 Malaposta,Malaposta,,,,,,,,,,,,,,,,,,,,,,,,,2467,826,Not Reported,Not Reported,,,,,,,,,,,,,2467,826,,,,,,
Portugal,Operator Holding Account,Aleluia Cerâmicas SA,500721831,2013-01-01,open,Quinta do Simão - Esgueira,3801-101 Aveiro,Aveiro,,,,,,,,,14269,14022,13771,8532,13261,13002,12741,12478,,,,,,,,,8653,7926,7192,9456,,,,,,,,,,,,,8653,7926,7192,9456,,,,
Portugal,Operator Holding Account,"Revigrés - Indústria de revestimentos de Grés, Lda",500674035,2013-01-01,open,Lugar de Barrô,3750-351,Barrô AGD,,,,,,,,,11694,10580,10391,10200,10006,9811,9614,9415,,,,,,,,,7812,5731,6142,5368,,,,,,,,,,,,,7812,5731,6142,5368,,,,
Portugal,Operator Holding Account,"Revigrés - Indústria de revestimentos de Grés, Lda",500674035,2013-01-01,open,Lugar de Barrô,3750-351,Barrô AGD,,,,,,,,,17197,16898,16596,16291,15982,15671,15355,15039,,,,,,,,,16213,14970,14689,12290,,,,,,,,,,,,,16213,14970,14689,12290,,,,
Portugal,Operator Holding Account,"Primus Vitória - Azulejos, S.A.",500222398,2013-01-01,open,"Rua João Gonçalves Neto n.º 66, Apartado 2 Aradas",3811-801,Aveiro,,,,,,,,,7745,7611,7475,7337,7198,7058,6916,6773,,,,,,,,,5825,4422,5329,5744,,,,,,,,,,,,,5825,4422,5329,5744,,,,
Portugal,Operator Holding Account,"Sanitana - Fabrica de Sanitarios de Anadia, SA",PT 500887268,2013-01-01,open,Almas Domingas,3780-244,Anadia,,,,,,,,,23492,23084,22672,22254,21833,21407,20977,20544,,,,,,,,,15545,21109,21964,20844,,,,,,,,,,,,,15545,21109,21964,20844,,,,
Portugal,Operator Holding Account,"Ucherâmica - Cerâmica da Ucha, Lda.",500291357,2013-01-01,open,Rua do Rego,4750-765,Ucha,,,,,,,,,6598,6484,6368,6251,6132,6012,5891,5770,,,,,,,,,1662,263,153,237,,,,,,,,,,,,,1662,263,153,237,,,,
Portugal,Operator Holding Account,"UMBELINO MONTEIRO, SA",500443025,2013-01-01,open,Rua do Areeiro s/. nº,3105-218,Meirinhas,,,,,,,,,10868,10678,10488,10295,10101,9903,9703,9503,,,,,,,,,12253,13017,13677,12076,,,,,,,,,,,,,12253,13017,13677,12076,,,,
Portugal,Operator Holding Account,"Cerdomus - Indústrias Cerâmicas, SA",504152424,2013-01-01,open,R Pe Estêvão Cabral,3000-307,Coimbra,,,,,,,,,7100,6976,6852,6725,6598,6470,6339,6208,,,,,,,,,6897,6178,3381,4755,,,,,,,,,,,,,6897,6178,3381,4755,,,,
Portugal,Operator Holding Account,"Sanindusa - Indústria de Sanitários, S.A.",502615982,2013-01-01,open,zona industrial de Aveiro Sul,3811-901,Mamodeiro,,,,,,,,,9204,9045,8883,8719,8554,8387,8219,8049,,,,,,,,,6600,6998,7773,7872,,,,,,,,,,,,,6600,6998,7773,7872,,,,
Portugal,Operator Holding Account,GRES PANARIA PORTUGAL,504073788,2013-01-01,open,CHOUSA NOVA,3830-133,ÍLHAVO,,,,,,,,,16857,16564,16268,15968,15666,15360,15051,14741,,,,,,,,,14023,15101,18126,19350,,,,,,,,,,,,,14023,15101,18126,19350,,,,
Portugal,Operator Holding Account,GRES PANARIA PORTUGAL,504073788,2013-01-01,open,CHOUSA NOVA,3830-133,ÍLHAVO,,,,,,,,,27673,27192,26705,26214,25718,25216,24709,24199,,,,,,,,,18209,17215,22841,26086,,,,,,,,,,,,,18209,17215,22841,26086,,,,
Portugal,Operator Holding Account,"Argex - Argila Expandida, S.A.",506028461,2013-01-01,open,"Rua D. Pedro V, 60 1º D",1250-094,Lisboa,,,,,,,,,20470,20115,19755,19392,19024,18654,18277,17900,,,,,,,,,16823,22069,23334,22927,,,,,,,,,,,,,16823,22069,23334,22927,,,,
Portugal,Operator Holding Account,"Gyptec Ibérica - Gessos Técnicos, S.A.",508174813,2013-01-01,open,Pq Industrial e Empres. Fig. Foz - Lt 3 - S. Pedro,3090-380,Figueira da Foz,,,,,,,,,9763,11991,11776,11559,11340,11120,10896,10671,,,,,,,,,15732,12994,14504,14253,,,,,,,,,,,,,15732,12994,14504,14253,,,,
Portugal,Operator Holding Account,"CINCA - Companhia Industrial de Cerâmica, S.A.",500064040,2013-01-01,open,"Rua Principal, 39",4509-908,Fiães,,,,,,,,,18324,18007,17684,12666,17030,16697,16362,16025,,,,,,,,,12508,13012,8310,10260,,,,,,,,,,,,,12508,13012,8310,10260,,,,
Portugal,Operator Holding Account,"CINCA - Companhia Industrial de Cerâmica, S.A.",500064040,2013-01-01,open,"Rua Principal, 39",4509-908,Fiães,,,,,,,,,19756,19412,19066,18714,18360,18001,17639,17276,,,,,,,,,14625,14609,12747,11928,,,,,,,,,,,,,14625,14609,12747,11928,,,,
Portugal,Operator Holding Account,Cerâmica Torreense,500331014,2013-01-01,open,"Rua da Fábrica - Outeiro da Cabeça, n.º  1",2565-601,Outeiro da Cabeça,,,,,,,,,2782,646,635,623,611,599,588,576,,,,,,,,,574,826,128,867,,,,,,,,,,,,,574,826,128,867,,,,
Portugal,Operator Holding Account,"Solcer - Empresa Cerâmica, S.A.",500679770,2013-01-01,open,Vila Verde,3770-909,Oliveira do Bairro,,,,,,,,,11615,11415,11210,11004,10795,10585,10372,10158,,,,,,,,,11969,9311,9189,9981,,,,,,,,,,,,,11969,9311,9189,9981,,,,
Portugal,Operator Holding Account,"Gresco, Grés de Coimbra; S.A.",502 339 969,2013-01-01,open,Apartado 19,3771-909,Oliveira do Bairro,,,,,,,,,14709,14453,14194,13933,10058,9863,9663,9465,,,,,,,,,10402,7277,6967,4050,,,,,,,,,,,,,10402,7277,6967,4050,,,,
Portugal,Operator Holding Account,ROCA SA,500203466,2013-01-01,open,"Apartado 575, Ponte da Madalena",2416 - 905,Leiria,,,,,,,,,19926,19579,19229,18875,18518,18157,17791,17424,,,,,,,,,13301,16867,18304,19966,,,,,,,,,,,,,13301,16867,18304,19966,,,,
Portugal,Operator Holding Account,Modicer - Moda Cerâmica S.A.,504481690,2013-01-01,open,Zona Industrial Vila Verde,3770-305,Oliveira do Bairro,,,,,,,,,6581,6466,6351,6234,6116,5997,5876,5755,,,,,,,,,4831,8029,6384,4863,,,,,,,,,,,,,4831,8029,6384,4863,,,,
Portugal,Operator Holding Account,Pavigrés Cerâmicas SA,500810265,2013-01-01,open,Zona Industrial Almas das Domingas,3780-244 ANADIA,Anadia,,,,,,,,,12195,11983,11769,11553,11334,11112,10889,10664,,,,,,,,,13877,14501,13879,13837,,,,,,,,,,,,,13877,14501,13879,13837,,,,
Portugal,Operator Holding Account,Pavigrés Cerâmicas SA,500810265,2013-01-01,open,Zona Industrial Almas das Domingas,3780-244 ANADIA,Anadia,,,,,,,,,12621,12401,12180,11956,11730,11501,11269,11036,,,,,,,,,13420,13243,14169,13630,,,,,,,,,,,,,13420,13243,14169,13630,,,,
Portugal,Operator Holding Account,Pavigrés Cerâmicas SA,500810265,2013-01-01,open,Zona Industrial Almas das Domingas,3780-244,Anadia,,,,,,,,,18042,17728,17411,17091,16768,16440,16110,15777,,,,,,,,,17451,17011,19634,19446,,,,,,,,,,,,,17451,17011,19634,19446,,,,
Portugal,Operator Holding Account,"GRESART - Cerâmica Industrial, S.A.",501197630,2013-10-01,open,Zona Industrial de Vila Verde - Ap.39,3770-954,OLIVEIRA DO BAIRRO,,,,,,,,,17201,16902,16600,16295,15986,15673,15359,15042,,,,,,,,,14581,14527,13728,13745,,,,,,,,,,,,,14581,14527,13728,13745,,,,
Portugal,Operator Holding Account,"Margon - Materais e Revestimentos Modernos para edificações, S.A.",500182701,2013-01-01,open,Pedreiras,2480-854,Cruz da Légua,,,,,,,,,11930,11723,11513,11301,3731,3658,3585,3511,,,,,,,,,8246,8870,8813,4514,,,,,,,,,,,,,8246,8870,8813,4514,,,,
Portugal,Operator Holding Account,"Barbosa Coimbra, S.A.",500041601,2013-01-01,open,Estrela D'Alva - S. Paio Mondego,3360-223,Estrela D'Alva,,,,,,,,,3823,3757,3690,1342,1316,1290,1264,1238,,,,,,,,,1964,1670,413,Not Reported,,,,,,,,,,,,,1964,1670,413,,,,,
Portugal,Operator Holding Account,"BRESFOR, INDÚSTRIA DO FORMOL, S.A.",500047944,2013-01-01,open,"Avª dos Bacalhoeiros, Apartado 13",3830-908,Gafanha da Nazaré,,,,,,,,,14183,13935,13687,13435,13180,12924,12663,12402,,,,,,,,,3907,3729,4699,4725,,,,,,,,,,,,,3907,3729,4699,4725,,,,
Portugal,Operator Holding Account,CLiPER Cerâmica SA,508189314,2013-01-01,open,"Rua das Olaias, 119",3090-463,Lavos- Figueira da Foz,,,,,,,,,7682,7548,7413,7277,7139,7000,6859,6717,,,,,,,,,5789,5874,5694,6436,,,,,,,,,,,,,5789,5874,5694,6436,,,,
Portugal,Operator Holding Account,"Solvay Portugal, Produtos Químicos S.A.",500270562,2013-01-01,closed,Rua Engenheiro Clément Dumoulin,2625-106,Póvoa de Santa Iria,,,,,,,,,237149,233029,0,0,0,0,0,0,,,,,,,,,85452,5651,Not Reported,Not Reported,,,,,,,,,,,,,85452,5651,,,,,,
Portugal,Operator Holding Account,Euroresinas Indústrias Químicas S.A.,503090484,2013-01-01,open,"Espido, Via Norte, Maia",4470-177,Maia,,,,,,,,,10457,10275,10091,9905,9718,9529,9337,9144,,,,,,,,,6153,5677,5478,6719,,,,,,,,,,,,,6153,5677,5478,6719,,,,
Portugal,Operator Holding Account,"CS- Coelho da Silva, SA",500144109,2013-01-01,open,Albergaria,2480-071,Juncal,,,,,,,,,8156,0,0,0,0,0,0,0,,,,,,,,,0,Not Reported,Not Reported,Not Reported,,,,,,,,,,,,,,,,,,,,
Portugal,Operator Holding Account,"Recer - Indústria de Revestimentos Cerâmicos, S.A.",500707472,2013-10-23,open,Apartado 20,3771-953,Oliveira do Bairro,,,,,,,,,18335,13540,11099,17369,17040,16708,16372,16034,,,,,,,,,16208,14328,19738,23138,,,,,,,,,,,,,16208,14328,19738,23138,,,,
Portugal,Operator Holding Account,"ArtlantPTA, SA",507865448,2013-01-01,open,"Rua D.João V, nº 24",1250-091,Lisboa,,,,,,,,,142022,139551,0,0,0,0,0,0,,,,,,,,,32137,4196,4972,13,,,,,,,,,,,,,32137,4196,4972,13,,,,
Portugal,Operator Holding Account,"dst-Domingos da Silva Teixeira, SA",501489126,2013-09-06,open,"Rua de Pitancinhos, Palmeira",4711-911 Braga,Braga,,,,,,,,,949,1345,1191,1042,898,758,624,493,,,,,,,,,986,1186,1358,1567,,,,,,,,,,,,,993,1186,1351,1567,,,,
Portugal,Operator Holding Account,"SAINT-GOBAIN WEBER PORTUGAL, S.A.",502208546,2005-06-01,open,TOJEIRA - AVELAR,3240-908 AVELAR,AVELAR,,,,,,,,,27692,27211,26724,52464,38407,37658,36899,36138,,,,,,,,,13757,19796,27349,26314,,,,,,,,,,,,,13757,19796,27349,26314,,,,
Portugal,Operator Holding Account,"CIRES, Lda",500068887,2013-01-01,open,"CIRES, Lda.",3864-752 Estarreja,Estarreja,,,,,,,,,16954,16660,16361,16060,15756,15448,15138,14826,,,,,,,,,3281,3392,3324,3033,,,,,,,,,,,,,3281,3392,3324,3033,,,,
Portugal,Operator Holding Account,"FERI&MASI,SA",510781276,2014-02-28,open,Rua das Industrias - apartado 31,3770-994,Bustos,,,,,,,,,1232,101,99,2236,4291,4208,4123,4038,,,,,,,,,599,863,2020,3881,,,,,,,,,,,,,599,863,2020,3881,,,,
Portugal,Operator Holding Account,"Celticerâmica - Indústria Cerâmica Portuguesa, SA",500060223,2013-10-17,open,Estrada Barriolo 838,3750-353,Barrô e Aguada de Baixo,,,,,,,,,16693,16404,16111,15814,15514,15212,14906,14598,,,,,,,,,7896,0,Not Reported,Not Reported,,,,,,,,,,,,,7896,,,,,,,
Portugal,Operator Holding Account,"Dominó Industrias Cerâmicas, S.A.",502079215,2013-10-04,open,Condeixa a Nova,3150-194 CONDEIXA A NOVA,Condeixa-a-nova,,,,,,,,,20980,20616,20247,19875,19498,19118,18733,18346,,,,,,,,,13249,15108,13764,14150,,,,,,,,,,,,,13249,15108,13764,14150,,,,
Portugal,Operator Holding Account,FONT SALEM PORTUGAL,509298842,2013-08-30,open,QUINTA DA MAFARRA-VÁRZEA,2009-003,SANTARÉM,,,,,,,,,744,2007,1778,1557,1342,1134,933,739,,,,,,,,,1052,3159,3848,5584,,,,,,,,,,,,,1052,3159,3848,5584,,,,
Portugal,Aircraft Operator Account,ORBEST SA,507911202,2013-01-01,open,"RUA DUQUE DE PALMELA,23",1250-097,LISBOA,,,,,,,,,,,,,,,,,,,,,,,,,16878,Excluded,4663,5661,,,,,,,,,,,,,,16878,4663,5661,,,,
Portugal,Operator Holding Account,"UNIGERAÇÃO, Lda.",510463908,2015-03-09,open,"Parque Industrial Manuel da Mota, Lote E",3100-354,Pombal,,,,,,,,,,4132,15273,14998,14723,14447,14172,13897,,,,,,,,,,7803,26504,27013,,,,,,,,,,,,,,7803,26504,27013,,,,
Portugal,Operator Holding Account,FORTISSUE-PRODUÇÃO DE PAPEL SA,508092264,2015-01-12,open,ZONA INDUSTRIAL DE ALVARÃES,4935-232,VIANA DO CASTELO,,,,,,,,,,,5469,8720,8560,8400,8240,8079,,,,,,,,,,,5806,8165,,,,,,,,,,,,,,,5806,8165,,,,
Portugal,Aircraft Operator Account,Waylawn Ltd,IBC 606285,2012-01-01,open,ANNA FRANK STR. 2 APT 7,43399,RAANANA,,,,,,,,,,,,,,,,,,,,,,,,175,Excluded,Excluded,Excluded,82,,,,,,,,,,,,,,,,257,,,,
Portugal,Operator Holding Account,"SUTOL – Indústrias Alimentares, Lda",503617288,2016-12-07,open,Herdade Moinho Ordem Cima,7580-316,Alcácer do Sal,,,,,,,,,,,,,,,,,,,,,,,,,,,,6235,,,,,,,,,,,,,,,,6235,,,,
