Country,Account Type,Account Holder Name,Company Registration No,Permit/Plan Date,Account status,Main Address Line,Postal Code,City,Allowance In Allocation In 2005,Allowance In Allocation In 2006,Allowance In Allocation In 2007,Allowance In Allocation In 2008,Allowance In Allocation In 2009,Allowance In Allocation In 2010,Allowance In Allocation In 2011,Allowance In Allocation In 2012,Allowance In Allocation In 2013,Allowance In Allocation In 2014,Allowance In Allocation In 2015,Allowance In Allocation In 2016,Allowance In Allocation In 2017,Allowance In Allocation In 2018,Allowance In Allocation In 2019,Allowance In Allocation In 2020,Verified Emissions In 2005,Verified Emissions In 2006,Verified Emissions In 2007,Verified Emissions In 2008,Verified Emissions In 2009,Verified Emissions In 2010,Verified Emissions In 2011,Verified Emissions In 2012,Verified Emissions In 2013,Verified Emissions In 2014,Verified Emissions In 2015,Verified Emissions In 2016,Verified Emissions In 2017,Verified Emissions In 2018,Verified Emissions In 2019,Verified Emissions In 2020,Units Surrendered In 2005,Units Surrendered In 2006,Units Surrendered In 2007,Units Surrendered In 2008,Units Surrendered In 2009,Units Surrendered In 2010,Units Surrendered In 2011,Units Surrendered In 2012,Units Surrendered In 2013,Units Surrendered In 2014,Units Surrendered In 2015,Units Surrendered In 2016,Units Surrendered In 2017,Units Surrendered In 2018,Units Surrendered In 2019,Units Surrendered In 2020
Romania,Aircraft Operator Account,S.C. BLUE AIR - AIRLINE MANAGEMENT SOLUTIONS S.R.L.,J40/5103/17.04.2013,2012-01-01,open,"Sos. Bucuresti-Ploiesti, nr. 42-44, complex BB&TP",013696,Bucuresti,,,,,,,,163908,153915,153915,153915,153915,153915,153915,153915,153915,,,,,,,,208971,186292,192816,269194,434073,,,,,,,,,,,,208971,,379108,269194,434073,,,,
Romania,Aircraft Operator Account,CARPATAIR S.A.,J35/777/2003,2012-01-01,open,"Str.Ion Ionescu de la Brad,Nr.15,Timisoara,Timis",307210,Timisoara,,,,,,,,30892,24618,24618,24618,24618,24618,24618,24618,24618,,,,,,,,38029,19536,8820,5339,4605,,,,,,,,,,,,38029,,28356,5339,4605,,,,
Romania,Aircraft Operator Account,S.C. TAROM S.A.,J23/1298/2003,2012-01-01,open,"Calea Bucurestilor, nr.224 F",075150,Otopeni,,,,,,,,185458,135528,135528,135528,135528,135528,135528,135528,135528,,,,,,,,260886,267022,288705,295621,313251,,,,,,,,,,,,260886,,555727,295621,313251,,,,
Romania,Aircraft Operator Account,Autoritatea Aeronautica Civila Romana,J40/9079/2003,2009-01-01,open,"Str. Bucuresti-Ploiesti nr. 38-40, sec.1 Bucuresti",013695,Bucuresti,,,,,,,,,,,,,,,,,,,,,,,,5,Excluded,Excluded,Excluded,Excluded,,,,,,,,,,,,5,,,,,,,,
Romania,Operator Holding Account,SC LASSELBERGER SA,RO446209,2008-04-18,closed,"Str. Zarii, Nr.12, Sector 5",0,Bucuresti,0,0,10292,9107,9107,0,0,0,,,,,,,,,,,10894,9059,0,0,Not Reported,,,,,,,,,,,,10894,9059,,,,,,,,,,,,
Romania,Operator Holding Account,United Romanian Breweries Bereprod SRL,5857302,2008-04-18,open,"B-dul Unirii, nr.27, Bl 15, Sc. 2, et 1,  Ap. 24",040103,BUCURESTI,0,0,6999,9797,15258,15258,15258,15257,6953,6222,5511,4822,4154,3507,2882,2280,,,9397,11168,10150,11719,11062,10536,9236,10406,11932,11137,,,,,,,9397,11168,10150,11719,11062,10536,9236,10406,11932,11137,,,,
Romania,Operator Holding Account,S Complexul Energetic Oltenia SA,RO30267310,2008-04-18,open,"Str.Alexandru Ioan Cuza, nr.5",210227,Tg. Jiu,0,0,1641882,1445035,1445034,1445034,1445034,1445034,315646,257082,205255,159966,120917,87841,60461,46444,,,2022746,2257591,1797740,1495325,1962612,1619393,1120185,1164735,1241520,1303931,,,,,,,2022746,2257591,1797740,1495325,1962612,1619393,1120185,1164735,1241520,1303931,,,,
Romania,Operator Holding Account,CUPROM SA Bucuresti - Sucursala Baia Mare,15521953,2008-04-18,open,"Str. Monetariei Nr. 8 , Corp B , Etaj II, Sector 2",430334,Baia Mare,0,0,19186,19245,19245,19245,19245,19244,,,,,,,,,,,12335,9933,212,62,18,15,Excluded,Excluded,Excluded,Excluded,,,,,,,12335,9933,212,62,18,15,,,,,,,,
Romania,Operator Holding Account,Directia de Termoficare a Municipiului Bistrita,19124328,2008-04-18,closed,Str. Parcului nr.1,545300,Bistrita Nasaud,0,0,5597,,,,,,,,,,,,,,,,4920,Not Reported,Not Reported,Not Reported,Not Reported,Not Reported,,,,,,,,,,,5597,,,,,,,,,,,,,
Romania,Operator Holding Account,CRH Ciment (Romania) SA,RO328750,2008-04-18,open,"Piata Charles de Gaulle nr.15, etaj 2, sector 1",011857,Bucuresti,0,0,1078285,1306086,1306085,1306085,1306085,1306085,695527,683446,671223,658873,646390,633785,621024,608218,,,797476,920649,684340,598530,635868,693187,610714,633988,844876,754153,,,,,,,797476,920649,684340,598530,635868,693187,610714,633988,844876,754153,,,,
Romania,Operator Holding Account,CRH Ciment (Romania) SA,RO328750,2008-04-18,open,"Piata Charles de Gaulle nr.15, etaj 2, sector 1",011857,Bucuresti,0,0,2027562,2352270,2352270,2352270,2352270,2352269,1438273,706646,694009,1362478,1336664,1310599,1284209,1257728,,,1863859,1702616,730566,519648,625930,859722,528138,650560,848776,862394,,,,,,,1863859,1702616,730566,519648,625930,859722,528138,650560,848776,862394,,,,
Romania,Operator Holding Account,OMV PETROM SA,1590082,2008-04-18,closed,"Strada Coralilor nr. 22, Sector 1",013329,Bucuresti,0,0,24654,21686,21686,0,0,0,,,,,,,,,,,11489,10548,0,0,0,,,,,,,,,,,,11489,10548,,,,,,,,,,,,
Romania,Operator Holding Account,OMV PETROM SA,1590082,2008-04-18,open,"Strada Coralilor nr. 22, Sector 1",013329,Bucuresti,0,0,18680,15897,15897,106973,106972,54854,13566,13330,13092,12851,12608,12362,12113,11863,,,22769,22552,34991,31412,36446,30416,39358,36081,38389,37104,,,,,,,22769,22552,34991,31412,36446,30416,39358,36081,38389,37104,,,,
Romania,Operator Holding Account,OMV PETROM SA,1590082,2008-04-18,closed,"Strada Coralilor nr. 22, Sector 1",013329,Bucuresti,0,0,80844,62607,62607,62607,62607,62606,,,,,,,,,,,204939,123130,112299,116581,111085,93596,,,,,,,,,,,204939,123130,112299,116581,111085,93596,,,,,,,,
Romania,Operator Holding Account,OMV PETROM SA,1590082,2008-04-18,closed,"Strada Coralilor nr. 22, Sector 1",013329,Bucuresti,0,0,20296,17674,17674,17674,0,0,,,,,,,,,,,13554,10510,12109,5331,,,,,,,,,,,,,13554,10510,12109,5331,,,,,,,,,,
Romania,Operator Holding Account,OMV PETROM SA,1590082,2008-04-18,closed,"Strada Coralilor nr. 22, Sector 1",013329,Bucuresti,0,0,9876,8356,8355,8355,0,0,,,,,,,,,,,1548,2715,2267,0,,,,,,,,,,,,,1548,2715,2267,,,,,,,,,,,
Romania,Operator Holding Account,OMV PETROM SA,1590082,2008-04-18,closed,"Strada Coralilor nr. 22, Sector 1",013329,Bucuresti,0,0,9514,8034,8034,8034,8034,8033,,,,,,,,,,,10418,10241,10731,14604,16268,15326,,,,,,,,,,,10418,10241,10731,14604,16268,15326,,,,,,,,
Romania,Operator Holding Account,OMV PETROM SA,1590082,2011-06-08,closed,"Strada Coralilor nr. 22, Sector 1",013329,Bucuresti,0,0,565766,497850,497849,497849,497849,497849,,,,,,,,,,,643781,531115,316540,130492,14523,6147,,,,,,,,,,,643781,531115,316540,130492,14523,6147,,,,,,,,
Romania,Operator Holding Account,OMV PETROM SA,1590082,2008-04-18,closed,"Strada Coralilor nr. 22, Sector 1",013329,Bucuresti,0,0,15649,13624,13624,13624,13624,13624,,,,,,,,,,,11266,10683,10958,11393,2220,Not Reported,,,,,,,,,,,11266,10683,10958,11393,2220,,,,,,,,,
Romania,Operator Holding Account,OMV PETROM SA,1590082,2008-04-18,closed,"Strada Coralilor nr. 22, Sector 1",013329,Bucuresti,0,0,36281,31878,31878,31878,31878,31877,,,,,,,,,,,15185,11533,11285,12359,13505,9243,,,,,,,,,,,15185,11533,11285,0,25864,9243,,,,,,,,
Romania,Operator Holding Account,OMV PETROM SA,1590082,2008-04-18,open,"Strada Coralilor nr. 22, Sector 1",013329,Bucuresti,0,0,28595,25226,25226,25225,25225,25225,12669,12449,12227,12002,11774,11545,11312,11079,,,13201,10249,10069,10730,13536,23783,32911,28492,22543,6503,,,,,,,13201,10249,10069,0,24266,23783,32911,28492,22543,6503,,,,
Romania,Operator Holding Account,OMV PETROM SA,1590082,2008-04-18,closed,"Strada Coralilor nr. 22, Sector 1",013329,Bucuresti,0,0,2642,2575,2575,2575,2575,2574,,,,,,,,,,,7212,6948,10851,12512,8128,6746,,,,,,,,,,,7212,6948,10851,12512,8128,6746,,,,,,,,
Romania,Operator Holding Account,OMV PETROM SA,1590082,2008-04-18,open,"Strada Coralilor nr. 22, Sector 1",013329,Bucuresti,0,0,28718,25214,25214,25214,25214,25214,32845,32275,31698,31114,15263,14965,14664,14361,,,35116,31084,31527,28135,28420,37251,38064,31255,21165,9949,,,,,,,35116,31084,31527,28135,28420,37251,38064,31255,21165,9949,,,,
Romania,Operator Holding Account,OMV PETROM SA,1590082,2008-04-18,open,"Strada Coralilor nr. 22, Sector 1",013329,Bucuresti,0,0,35590,31291,31291,31291,31291,31291,31540,30992,20952,20566,20177,19783,19385,18986,,,55994,40801,39893,45663,34921,20486,12630,8419,8897,8693,,,,,,,55994,40801,39893,45663,34921,20486,12630,8419,8897,8693,,,,
Romania,Operator Holding Account,OMV PETROM SA,1590082,2008-04-18,open,"Strada Coralilor nr. 22, Sector 1",013329,Bucuresti,0,0,45245,39686,39686,39686,39686,39685,33055,32481,11370,17826,17488,17147,16802,16455,,,32948,33296,23600,26007,31398,37154,35832,40953,45544,46637,,,,,,,32948,33296,23600,26007,31398,37154,35832,40953,45544,46637,,,,
Romania,Operator Holding Account,OMV PETROM SA,1590082,2008-04-18,closed,"Strada Coralilor nr. 22, Sector 1",013329,Bucuresti,0,0,7280,6415,6414,6414,6414,6414,,,,,,,,,,,5507,5550,0,Not Reported,,,,,,,,,,,,,5507,5550,,,,,,,,,,,,
Romania,Operator Holding Account,OMV PETROM SA,1590082,2008-04-18,closed,"Strada Coralilor nr. 22, Sector 1",013329,Bucuresti,0,0,19027,16068,16067,16067,16067,16067,10813,10625,10435,10243,10049,9853,9655,9456,,,14458,19864,20278,18944,15973,14292,3153,,,,,,,,,,14458,19864,20278,18944,15973,14292,3153,,,,,,,
Romania,Operator Holding Account,OMV PETROM SA,1590082,2008-04-18,closed,"Strada Coralilor nr. 22, Sector 1",013329,Bucuresti,0,0,29172,23835,23835,23835,23834,23834,10957,21532,10574,0,0,0,0,0,,,24345,17596,16058,16569,13778,12179,14696,14417,3279,,,,,,,,24345,17596,16058,16569,13778,12179,14696,14417,3279,,,,,
Romania,Operator Holding Account,OMV PETROM SA,1590082,2008-04-18,open,"Strada Coralilor nr. 22, Sector 1",013329,Bucuresti,0,0,1694055,1847880,1847879,1847878,1847878,1847877,0,0,0,0,0,0,0,0,,,1826514,1536295,738419,356281,82536,27479,0,0,16677,65,,,,,,,1826514,1536295,738419,356281,82536,27479,,,16677,65,,,,
Romania,Operator Holding Account,OMV PETROM SA,1590082,2008-04-18,open,"Strada Coralilor nr. 22, Sector 1",013329,Bucuresti,0,0,1672607,1620540,1620540,1620539,1620539,1620539,514651,505712,496668,487530,478293,468966,459523,450047,,,1041774,1217884,1174658,1121194,1171953,1018289,1191040,1015444,1011926,985749,,,,,,,1041774,1217884,1174658,1121194,1171953,1018289,1191040,1015444,1011926,985749,,,,
Romania,Operator Holding Account,OMV PETROM SA,1590082,2009-06-11,open,"Strada Coralilor nr. 22, Sector 1",013329,Bucuresti,,,,,,,,,,,,,,,,,,,,,Not Reported,Not Reported,Not Reported,Not Reported,Excluded,Excluded,Excluded,Excluded,,,,,,,,,,,,,,,,,,,,
Romania,Operator Holding Account,OMV PETROM SA,1590082,2011-06-27,open,"Strada Coralilor nr. 22, Sector 1",013329,Bucuresti,,,,0,0,0,0,0,2311487,1981275,1651062,1320850,,,,,,,,,,,0,502075,1021941,472717,976156,1069561,,,,,,,,,,,,502075,1021941,472717,976156,1069561,,,,
Romania,Operator Holding Account,OMV PETROM SA,1590082,2010-12-30,open,"Strada Coralilor nr. 22, Sector 1",013329,Bucuresti,,,,0,0,0,0,0,35223,34611,33992,33367,32735,32096,31450,30801,,,,,,,51449,57002,50918,55302,60648,65171,,,,,,,,,,,51449,57002,50918,55302,60648,65171,,,,
Romania,Operator Holding Account,R.A.D.E.T. BUCURESTI,RO361218,2008-04-18,open,"Str. Cavafi Vechi nr.15, sect. 3",30254,Bucuresti,0,0,34383,30261,30261,30261,30261,30260,39023,34922,30933,27064,23314,19687,16176,12797,,,29283,36140,33516,61163,54624,45479,48929,46759,42763,39590,,,,,,,29283,36140,33516,61163,54624,45479,48929,46759,42763,39590,,,,
Romania,Operator Holding Account,R.A.A.N. Sucursala ROMAG TERMO,12623789,2008-04-18,open,"sat HALANGA,com IZVORUL BARZII,jud MEHEDINTI",227297,"sat HALANGA,com IZVORUL BARZII,jud MEHEDINTI",0,0,2600112,2638285,2638285,2638284,2638284,2680437,433177,380472,330698,147877,64051,0,0,0,,,3310489,3293554,1783173,1796517,2050777,1850569,1754505,1651905,978674,261038,,,,,,,3310489,3293544,1783183,1796517,2050777,1850569,1754505,330698,147877,64051,,,,
Romania,Operator Holding Account,Regia Autonoma de Termoficare Cluj Napoca,RO201330,2008-04-18,open,Bd. 21 Decembrie 1989 nr. 79,400394,Cluj,0,0,21650,18899,18899,18898,18898,18898,0,0,0,0,0,0,0,0,,,19205,17723,15178,12873,6757,781,0,0,0,Excluded,,,,,,,19205,17723,15178,12873,6757,781,,,,,,,,
Romania,Operator Holding Account,S.C ECOGEN ENERGY S.A.,J10/191/11.02.2008,2008-04-18,open,"Buzau, Aleea Industriei nr. 7",120224,Buzau,0,0,62517,54980,54979,54979,54979,54979,,,,,,,,,,,53070,45650,44132,22664,0,0,Excluded,Excluded,Excluded,Excluded,,,,,,,53070,45650,44132,22664,,,,,,,,,,
Romania,Operator Holding Account,SC TERMICA BRAD SA,RO27396250,2008-02-18,open,"Brad, str. Libertatii, nr. 8",337200,Hunedoara,0,0,17382,15413,15412,15412,15412,15412,9420,8430,7468,6537,5634,4761,3917,3102,,,14653,12988,13951,11432,7373,10003,7223,8814,9461,9738,,,,,,,14653,12988,13951,11432,7373,10003,7223,8814,9461,9738,,,,
Romania,Operator Holding Account,SC AEROSTAR SA BACAU,950531,2008-04-18,open,"Str. Condorilor, nr.9",600302,Bacau,0,0,5569,5200,5200,5200,5200,5199,5027,4940,4852,4762,4673,4581,4489,4396,,,5747,4540,4015,4642,5365,6069,3924,2848,2636,2937,,,,,,,5747,,8555,4642,5365,6069,,6772,2636,2937,,,,
Romania,Operator Holding Account,SC AGRANA ROMANIA SA - SUCURSALA BUZAU,RO 2083754,2008-04-18,open,"Aleea Industriei, 7",120068,Buzau,0,0,76578,65309,65309,65308,65308,65308,23702,23290,22874,22452,11779,11549,11316,11083,,,26587,19577,12860,12752,34744,39791,29024,25366,32611,17464,,,,,,,26587,19577,12860,12752,34744,39791,29024,25366,32611,17464,,,,
Romania,Operator Holding Account,SC AGRANA ROMANIA SA - SUCURSALA ROMAN,RO 2083754,2008-04-18,open,"str. Energiei, nr. 6",611047,Roman,0,0,125693,109674,109674,109674,109673,109673,29730,29213,28691,28163,27630,27090,26546,25998,,,39130,35948,27542,33224,27076,35552,32165,41843,37215,32038,,,,,,,39130,35948,27542,33224,27076,35552,32165,41843,37215,32038,,,,
Romania,Operator Holding Account,S.C. ALRO S.A.,J28/8/1991,2010-12-23,open,"Str. Pitesti, Nr. 116",230048,Slatina,0,0,104539,94389,94389,94388,94388,94388,30146,29622,29093,19689,16958,16628,16292,15956,,,18965,16699,18479,23977,19858,20790,20176,21903,21877,20719,,,,,,,18965,16699,18479,23977,19858,20790,20176,21903,21877,20719,,,,
Romania,Operator Holding Account,S.C. ALRO S.A.,J28/8/1991,2012-01-27,open,"Str. Pitesti, Nr. 116",230048,Slatina,0,0,79642,71964,71964,71964,71964,71964,458099,450143,442092,433958,425737,417435,409029,400594,,,68392,66548,48760,47901,52526,48863,373954,377880,392448,393433,,,,,,,68392,66548,48760,47901,52526,48863,373954,377880,392448,393433,,,,
Romania,Operator Holding Account,SC ALUM SA TULCEA,RO2360405,2008-04-18,open,Str. Isaccei nr.82,820228,Tulcea,0,0,854989,751190,751190,751190,751190,751190,442105,434426,426657,418806,410871,402860,394749,386608,,,41104,36,42893,337037,374125,299222,261995,245662,259808,270634,,,,,,,41104,36,42893,337037,374125,299222,261995,245662,259808,270634,,,,
Romania,Operator Holding Account,SC AMBRO SA,2691530,2008-04-18,open,Calea Unirii 24,720019,Suceava,0,0,144273,157469,157469,157468,157468,157468,16854,16561,16265,15965,15663,15359,15048,14738,,,68563,13229,12221,16994,14506,13800,14990,19642,20107,21326,,,,,,,68563,13229,12221,16994,14506,13800,14990,19642,20107,21326,,,,
Romania,Operator Holding Account,SC CHEMGAS HOLDING CORPORATION SRL,RO 24978785,2008-04-18,open,"Soseaua Cãlãraºi, km 4",920120,Slobozia,0,0,178729,377205,377204,377204,377204,377204,578959,568903,558729,293823,163355,160168,156944,153708,,,56416,302946,460177,562543,457160,461184,890194,903650,216598,167100,,,,,,,178729,302946,460177,562543,457160,461184,890194,903650,,96968,,,,
Romania,Operator Holding Account,SC AMURCO SRL Bacau,17488233,2008-04-18,open,Str. Chimiei Nr. 1,600289,Bacau,0,0,845374,744288,744288,744288,744288,744287,460577,226289,111121,0,0,0,0,0,,,613326,471541,467505,502919,561342,536469,246205,149491,0,,,,,,,,613326,471541,467505,502919,561342,536469,246205,149491,,,,,,
Romania,Operator Holding Account,SC CET ARAD SA,J02/336/2002,2008-04-18,open,"STR.6 VANATORI, FN",310162,Arad,0,0,39828,35037,35036,35036,35036,35036,16522,20459,16567,7377,10151,8394,6905,5469,,,25749,34214,37555,31397,18052,9174,9762,11869,8144,9903,,,,,,,25749,34214,37555,31397,18052,9174,9762,11869,8144,9903,,,,
Romania,Operator Holding Account,SC CET ARAD SA,J02/336/2002,2008-04-18,open,"STR.6 VANATORI, FN",310162,Arad,0,0,488896,428502,428502,428502,428501,428501,186230,153462,124263,98532,76113,59260,48747,38610,,,606781,613667,399491,353987,375470,364671,314260,268833,139897,167253,,,,,,,606781,613667,399491,353987,375470,364671,314260,268833,139897,167253,,,,
Romania,Operator Holding Account,SC ARCELORMITTAL TUBULAR PRODUCTS Roman SA,RO 2057240,2008-04-18,open,"Str. Stefan cel Mare, Bl 15A/1",611040,Roman,0,0,92364,80586,80586,80586,80586,80585,104304,102493,100660,51880,50897,49904,48899,47891,,,118299,107321,47639,81416,88968,88886,87095,88614,46750,36254,,,,,,,118299,107321,47639,81416,88968,88886,87095,88614,46750,36254,,,,
Romania,Operator Holding Account,SC ARCELORMITTAL GALATI SA,1639739,2008-04-18,open,Smardan1,800698,Galati,0,0,10740796,11335574,11335573,11335573,11335573,11335573,3504190,3443304,3337833,6346174,6172722,6052335,5930448,5808138,,,9750598,7586062,3799190,4583475,4248582,3727343,3808207,3628982,4288727,4237696,,,,,,,9750598,7586062,3799190,4583475,4248582,3727343,3808207,3628982,4288727,4237696,,,,
Romania,Operator Holding Account,SC ARCELORMITTAL HUNEDOARA SA,RO2126855,2008-04-18,open,"DJ 687, Nr. 4",331111,Hunedoara,0,0,210315,238098,238098,238098,238098,238098,41705,40981,61535,60403,59258,58102,56933,55759,,,96994,55193,22289,35171,33348,43278,43808,51549,50533,53448,,,,,,,96994,55193,22289,35171,33348,43278,43808,51549,50533,53448,,,,
Romania,Operator Holding Account,S.C. ARDEALUL S.A.,RO646347,2008-04-18,open,Str. AL. I. CUZA NR. 24,445100,CAREI,0,0,6076,5388,5388,5388,5388,5388,6428,6071,4612,4409,5046,4719,4401,4092,,,1720,2186,1332,1665,1970,545,851,803,520,918,,,,,,,1720,2186,1332,1665,1970,545,851,803,520,918,,,,
Romania,Operator Holding Account,SC Lapp Insulators SA,RO254947,2008-04-18,open,"Str. 22 Decembrie 1989, nr 31",401113,Cluj,0,0,27607,24165,24165,24164,24164,24164,7390,7262,7131,7001,6868,6734,6598,6462,,,7682,7468,4593,6010,7119,7766,6785,6786,8645,6991,,,,,,,7682,7468,4593,6010,7119,7766,6785,6786,8645,6991,,,,
Romania,Operator Holding Account,S.C.Automobile Dacia S.A.,160796,2008-04-18,open,Str. Uzinei nr.1-3,115400,Mioveni,0,0,197206,174857,174857,174857,174856,174856,52201,47224,42379,37678,33116,28696,24417,20293,,,66234,58849,63319,72537,68255,64220,62544,63711,65190,68795,,,,,,,66234,58849,63319,72537,68255,64220,62544,63711,65190,68795,,,,
Romania,Operator Holding Account,SC AZOMURES SA,1200490,2008-04-18,open,"Str. Ghe. Doja, nr 300",540237,Targu-Mures,0,0,1223751,1069609,1069609,1069609,1069609,1069609,1188061,1167426,1146547,1125451,1104129,1082598,1060799,1038924,,,1155121,1127005,973434,1197811,1342662,1232852,1854955,1743061,1807951,1792963,,,,,,,1155121,1127005,973434,1197811,1342662,1232852,1854955,1743061,1807951,1792963,,,,
Romania,Operator Holding Account,SC Calor Serv SRL,RO10124316,2008-04-18,closed,Str. Stadionului nr. 12,145200,Teleorman,0,0,9136,,,,,,,,,,,,,,,,958,Not Reported,Not Reported,Not Reported,Not Reported,Not Reported,,,,,,,,,,,958,,,,,,,,,,,,,
Romania,Operator Holding Account,SC CARBID FOX SA,RO1247115,2008-04-18,closed,"Str. Avram Iancu, nr 144",545600,Mures,0,0,72714,,,,,,,,,,,,,,,,,Not Reported,Not Reported,Not Reported,Not Reported,Not Reported,,,,,,,,,,,,,,,,,,,,,,,,
Romania,Operator Holding Account,SC Carbochim SA,RO201535,2008-04-18,open,"Str. Piata 1 Mai, nr 3",400058,Cluj-Napoca,0,0,3681,3224,3224,3224,3224,3223,,,,,,,,,,,3021,2289,1180,1505,1422,1327,Excluded,Excluded,Excluded,Excluded,,,,,,,3021,2289,1180,1505,1422,1327,,,,,,,,
Romania,Operator Holding Account,SC CARGILL OILS SA,2280969,2008-04-18,open,"Str Fabricii,  Nr 1, Podari",207465,Podari,0,0,42593,40168,40168,40167,40167,40167,9416,9029,8649,8275,7908,7548,7192,6847,,,1756,2006,821,809,539,777,877,Excluded,Excluded,Excluded,,,,,,,1756,2006,821,809,539,777,877,,,,,,,
Romania,Operator Holding Account,Istoc Alina Cristina,J08/2938/13.12.2004,2008-04-18,open,"Bd. Garii, nr.38, bl.227,sc.A,ap.24",500227,Brasov,0,0,193412,197175,197175,197174,197174,197174,179111,176000,172853,169672,166458,163212,159925,156628,,,185497,180390,81213,68579,79013,97611,97501,101135,125097,128983,,,,,,,185497,180390,81213,68579,79013,97611,97501,101135,125097,128983,,,,
Romania,Operator Holding Account,Istoc Alina Cristina,J08/2938/13.12.2004,2008-04-18,open,"Bd. Garii, nr.38, bl.227,sc.A,ap.24",500227,Brasov,0,0,193057,197409,197409,197408,197408,197408,153280,150618,147924,145202,142451,139673,136861,134039,,,185087,140919,102450,89032,82931,89918,97624,92742,106240,149239,,,,,,,185087,140919,102450,89032,82931,89918,97624,92742,106240,149239,,,,
Romania,Operator Holding Account,Istoc Alina Cristina,J08/2938/13.12.2004,2008-04-18,open,"Bd. Garii, nr.38, bl.227,sc.A,ap.24",500227,Brasov,0,0,163693,144840,144839,144839,144839,144839,92115,90515,88896,87261,85608,83938,82248,80552,,,108340,121555,77256,113278,121666,52572,52610,66418,71016,80383,,,,,,,108340,121555,77256,113278,121666,52572,52610,66418,71016,80383,,,,
Romania,Operator Holding Account,HEIDELBERGCEMENT ROMANIA SA,10640589,2012-01-06,open,"Sos Bucuresti Ploiesti 1A, Bucharest Business Park",135100,Bucuresti,0,0,880624,904131,904131,904131,904131,904130,636033,624986,613809,602515,591100,579573,567903,556192,,,785514,747307,742167,677711,631950,641274,477814,566039,500776,549003,,,,,,,785514,747307,742167,677711,631950,641274,477814,566039,500776,549003,,,,
Romania,Operator Holding Account,HEIDELBERGCEMENT ROMANIA SA,10640589,2011-12-08,open,"Sos Bucuresti Ploiesti 1A, Bucharest Business Park",135100,Bucuresti,0,0,613583,717800,717800,717800,717800,717800,529297,520103,510801,501404,491903,482311,472600,462854,,,641097,676027,457994,515316,531397,504079,468558,480322,484934,514043,,,,,,,641097,676027,457994,515316,531397,504079,468558,480322,484934,514043,,,,
Romania,Operator Holding Account,HEIDELBERGCEMENT ROMANIA SA,10640589,2011-11-22,open,"Sos Bucuresti Ploiesti 1A, Bucharest Business Park",135100,Bucuresti,0,0,628211,734653,1189413,1644174,1644174,1644173,1003600,986168,968531,950711,932699,914510,896097,877618,,,709938,680109,580507,553986,638982,586411,585921,598126,568359,562257,,,,,,,709938,680109,580507,553986,638982,586411,585921,598126,568359,562257,,,,
Romania,Operator Holding Account,SC Cars SA,RO 1246411,2008-04-18,open,Strada Avram Iancu numarul 270,545600,Mures,0,0,8712,8709,8709,8709,8709,8708,,,,,,,,,,,Not Reported,6702,3441,1919,80,Not Reported,Excluded,Excluded,Excluded,Excluded,,,,,,,4001,6702,3441,1919,80,,,,,,,,,
Romania,Operator Holding Account,SC Cars SA,RO 1246411,2008-04-18,open,Strada Avram Iancu numarul 270,545600,Mures,0,0,10409,9210,32868,34061,34060,34060,4950,3698,3631,3565,3497,3429,3360,3291,,,Not Reported,7607,8341,10351,4057,3696,2824,0,Excluded,Excluded,,,,,,,5632,7607,8341,10351,4057,3696,2824,,,,,,,
Romania,Operator Holding Account,SC CCCF SA Bucuresti,RO1568522,2008-04-18,closed,"Piata Pache Protopopescu, nr 9",80016,Giurgiu,0,0,2680,2306,0,0,0,0,,,,,,,,,,,201,2140,0,0,,,,,,,,,,,,,201,2140,,,,,,,,,,,,
Romania,Operator Holding Account,SC Celhart Donaris SA,2253999,2008-04-18,open,"Sos. Viziru, km 10",810440,Braila,0,0,63879,72704,72704,72704,72704,72704,,,,,,,,,,,12959,5616,0,0,0,0,Excluded,Excluded,Excluded,Excluded,,,,,,,12959,5616,,,,,,,,,,,,
Romania,Operator Holding Account,SC ROMWELLE PM SA,J/25/895/1994,2008-04-18,open,"Bd. N. Iorga, nr 2",220236,Mehedinti,0,0,58806,52092,52092,52092,52092,52091,,,,,,,,,,,44712,23097,0,0,0,0,Excluded,Excluded,Excluded,Excluded,,,,,,,44712,23097,,,,,,,,,,,,
Romania,Operator Holding Account,SC CEMACON SA,RO677858,2008-04-18,open,"Calea Dorobanților nr. 48, Silver Business Center,",400117,Cluj-Napoca,0,0,24265,24818,24818,24818,24818,24817,,,,,,,,,,,21774,21111,10683,10592,2875,5,Excluded,Excluded,Excluded,Excluded,,,,,,,21774,21111,10683,10592,2875,5,,,,,,,,
Romania,Operator Holding Account,SC CEMACON SA,RO677858,2010-07-28,open,"Calea Dorobanților nr. 48, Silver Business Center,",400117,Cluj-Napoca,,,,0,0,56740,56740,56739,18583,18260,17934,17603,17270,16933,16592,16251,,,,,,7089,16421,14312,16473,23019,24595,25018,,,,,,,,,,7089,16421,14312,16473,23019,24595,25018,,,,
Romania,Operator Holding Account,SC CERAM MATERIAL CONSTRUCT SRL,RO13088919,2008-04-18,open,"Str. Narciselor , nr 6",925200,Ialomita,0,0,312,276,276,276,275,275,,,,,,,,,,,297,Not Reported,Not Reported,Not Reported,Not Reported,Not Reported,Excluded,Excluded,Excluded,Excluded,,,,,,,297,,,,,,,,,,,,,
Romania,Operator Holding Account,BRIKSTON CONSTRUCTION SOLUTIONS S.A.,1989343,2008-04-18,open,Calea Chisinaului nr. 176,700180,Iasi,0,0,43305,38318,67673,67672,67671,67671,28355,27862,27365,26861,26352,25838,25317,24796,,,24207,24793,23223,30038,30427,28440,24761,26112,25344,32933,,,,,,,24207,24793,23223,30038,30427,28440,24761,26112,25344,32933,,,,
Romania,Operator Holding Account,SC CERCON ARIESUL SA,RO201462,2008-04-18,open,Str.Ialomitei nr.1,405100,Cluj,0,0,12952,11461,11461,11460,11460,11460,,,,,,,,,,,Not Reported,12639,0,0,0,Not Reported,Excluded,Excluded,Excluded,Excluded,,,,,,,18191,12639,,,,,,,,,,,,
Romania,Operator Holding Account,SC CET Brasov SA,5798567,2008-04-18,open,"Str. Timis Triaj, nr 6",500240,Brasov,0,0,394773,347302,347302,347301,347301,347301,,,,,,,,,,,424271,377670,369763,314766,104340,0,Excluded,Excluded,Excluded,Excluded,,,,,,,424311,377670,369763,314766,104340,,,,,,,,,
Romania,Operator Holding Account,SC CET Brasov SA,5798567,2008-04-18,open,"Str. Timis Triaj, nr 6",500240,Brasov,0,0,32232,24507,24507,24506,24506,24506,,,,,,,,,,,34142,28527,18460,11358,0,0,Excluded,Excluded,Excluded,Excluded,,,,,,,34142,28527,18460,11358,,,,,,,,,,
Romania,Operator Holding Account,SC CET ENERGOTERM RESITA SA,RO14217817,2008-04-18,open,"Bd Revolutia din Decembrie, nr1",320086,Resita,0,0,76456,77739,77739,77739,77739,77738,,,,,,,,,,,35620,37615,25879,25020,10759,0,Excluded,Excluded,Excluded,Excluded,,,,,,,35620,37615,25879,25020,10759,,,,,,,,,
Romania,Operator Holding Account,SC CET Govora SA,RO10102377,2008-04-18,open,"str. Industriilor, nr.1, jud. Valcea",240050,Ramnicu Valcea,0,0,1636678,1730238,1877476,1877476,1877476,1877476,265425,231342,199465,169787,146149,123505,101593,80468,,,1585185,1370284,1080914,1137513,1130641,1109237,1081365,1178473,1126695,1386466,,,,,,,1585185,1370284,1080914,1137513,1130641,1109237,1081365,1178473,1126695,1386466,,,,
Romania,Operator Holding Account,S.C. CET GRIVITA S.R.L.,RO 15811175,2008-04-18,open,"Calea Grivitei nr. 357, sector 1",10717,Bucuresti,0,0,51063,101303,101305,101305,101305,101305,39174,35057,31057,27184,23431,19801,16288,12901,,,58598,33386,41385,32071,33114,41823,42458,40365,40880,45563,,,,,,,58598,33386,41385,32071,33114,41823,42458,40365,40880,45563,,,,
Romania,Operator Holding Account,Veolia Energie Iasi SA,J22/1399/2012,2011-12-21,open,"Soseaua Nationala, nr. 43, camera 19, etj. 1",700634,Iasi,0,0,296383,258270,258270,258270,258269,258269,57219,45045,34450,13971,9831,8308,6834,5413,,,263070,263584,180300,178203,117415,44975,33282,24825,17271,15987,,,,,,,263070,263584,180300,178203,117415,44975,33282,24825,17271,15987,,,,
Romania,Operator Holding Account,Veolia Energie Iasi SA,J22/1399/2012,2011-12-21,open,"Soseaua Nationala, nr. 43, camera 19, etj. 1",700634,Iasi,0,0,496359,441177,441177,441177,441176,468181,86613,71567,58136,46277,36943,31219,25680,20341,,,347472,267032,281112,252258,245196,286798,316092,332646,334883,333849,,,,,,,347472,267032,281112,252258,245196,286798,316092,332646,334883,333849,,,,
Romania,Operator Holding Account,THERMOENERGY GROUP SA Bacau,RO 33620670,2008-04-18,open,Str. Chimiei nr.6,600286,Bacau,0,0,338064,336379,353827,353827,353827,353826,88826,73187,59251,46972,39230,33153,27271,21600,,,193560,185930,206566,212537,231591,204562,140323,55550,70567,69426,,,,,,,193560,185930,206566,212537,231591,204562,140323,55550,70567,69426,,,,
Romania,Operator Holding Account,THERMOENERGY GROUP SA Bacau,RO 33620670,2008-04-18,open,Str. Chimiei nr.6,600286,Bacau,0,0,12193,7419,7419,7419,7418,7418,3071,5134,9094,7957,6855,5787,4756,3762,,,24056,16316,15912,6382,3552,2174,6644,17622,12566,14699,,,,,,,24056,16316,15912,6382,3552,2174,6644,17622,12566,14699,,,,
Romania,Operator Holding Account,SC CET SA Braila,RO3106589,2008-04-18,open,"B-dul Alexandru Ioan Cuza, Nr. 3",810019,Braila,0,0,158548,139292,139291,139291,139291,139291,38120,5923,0,0,0,0,0,0,,,151787,92256,69910,58454,44518,25006,11,0,Excluded,Excluded,,,,,,,151787,92256,69910,58454,44518,25006,11,,,,,,,
Romania,Operator Holding Account,SC Chimcomplex SA Borzesti,960322,2008-04-18,open,"Str. Industriilor, nr. 3",601124,Bacau,0,0,40438,35856,89410,89409,89409,89408,29792,29275,28751,28222,27687,27147,26601,26052,,,32407,28847,40578,44249,43475,39472,39736,41064,51234,58701,,,,,,,32407,28847,40578,44249,43475,39472,39736,41064,51234,58701,,,,
Romania,Operator Holding Account,SC CILDRO SERVICE SRL,RO 18241141,2008-04-18,open,"Str. Traian, nr 295",220183,Mehedinti,0,0,2833,2912,2912,2912,2912,2912,23021,22443,21866,21291,20719,20148,19580,19018,,,235,471,17,8,146,103,0,3,1,2,,,,,,,235,471,17,8,146,103,,3,1,2,,,,
Romania,Operator Holding Account,MIRON EMIL,RO10169628,2008-04-18,open,"Str. TRAMBITASULUI, nr. 20",400213,Cluj-Napoca,0,0,35142,31160,31159,31159,31159,31159,23574,21096,18689,16358,14100,11916,9801,7763,,,37597,38635,37925,36321,36003,35990,35762,32609,33139,33106,,,,,,,37597,38635,37925,36321,36003,35990,35762,32609,33139,33106,,,,
Romania,Operator Holding Account,COMPANIA LOCALA DE TERMOFICARE COLTERM SA,RO16063013,2008-04-18,open,"Str. Episcop Joseph Lonovici, nr 4",300100,Timis,0,0,147729,143585,143584,143584,143584,336024,127703,56486,25021,43800,75508,63810,52488,41574,,,152684,158328,148591,124445,133615,89483,57984,35524,61950,93532,,,,,,,152684,158328,148591,124445,133615,89483,57984,35524,61950,93532,,,,
Romania,Operator Holding Account,COMPANIA LOCALA DE TERMOFICARE COLTERM SA,RO16063013,2008-04-18,open,"Str. Episcop Joseph Lonovici, nr 4",300100,Timis,0,0,208957,189215,189215,189215,189215,189215,133094,108201,86193,66988,52497,44364,36492,28904,,,182090,186623,197851,222201,181119,297874,261242,216266,238589,176885,,,,,,,182090,186623,197851,222201,181119,297874,261242,216266,238589,176885,,,,
Romania,Operator Holding Account,SOFIDEL ROMANIA SA,1921968,2008-04-18,open,"Str. Bucuresti, nr 358",910058,Calarasi,0,0,21502,22205,22204,22204,22204,22204,10776,10588,10399,10208,10014,9819,9621,9422,,,22114,19173,14517,14613,11639,13057,14294,13526,13140,12970,,,,,,,22114,19173,14517,14613,11639,13057,14294,13526,13140,12970,,,,
Romania,Operator Holding Account,S Complexul Energetic Oltenia SA,RO30267310,2008-04-18,open,"Str.Alexandru Ioan Cuza, nr.5",210227,Tg. Jiu,0,0,3085897,2705339,2705339,2705339,2705338,2705338,1687749,723321,1205535,964428,,,,,,,3756033,3264421,3121875,3409838,3448612,2520067,1652543,2378893,2608863,1760749,,,,,,,3756033,3264421,3121875,3409838,3448612,2520067,1652543,2378893,2608863,1760749,,,,
Romania,Operator Holding Account,S Complexul Energetic Oltenia SA,RO30267310,2008-04-18,open,"Str.Alexandru Ioan Cuza, nr.5",210227,Gorj,0,0,5457841,4844508,4844508,4844507,4844507,4844507,2776556,2379905,1983254,1586603,,,,,,,6103822,5853872,5112073,4742492,5259194,5803856,4291363,4469942,5412542,5460945,,,,,,,6103822,5853872,5112073,4742492,5259194,5803856,4291363,4469942,5412542,5460945,,,,
Romania,Operator Holding Account,S Complexul Energetic Oltenia SA,RO30267310,2008-04-18,open,"Str.Alexandru Ioan Cuza, nr.5",210227,Gorj,0,0,6393199,5636700,5636699,5636699,5636699,5636699,2830257,1212967,2021612,1617290,,,,,,,6837217,7449622,6074492,5816735,7277369,6409365,4169782,4476006,4454326,4159951,,,,,,,6837217,7449622,6074492,5816735,1250000,12436734,4169782,4476006,4454326,4159951,,,,
Romania,Operator Holding Account,SC Continental AP SRL,11269196,2008-04-18,open,"Str. Avram Imbroane, nr 9",300129,Timis,0,0,20562,18117,18117,18117,18117,18116,16608,16319,16028,15733,15435,15134,14829,14523,,,15511,16669,17575,16496,16491,16900,18453,19374,18999,21525,,,,,,,15511,16669,17575,16496,16491,16900,18453,19374,18999,21525,,,,
Romania,Operator Holding Account,VEOLIA ENERGIE PRAHOVA SRL,J29/888/2004,2010-04-23,open,"Str. Gheorghe Doja, nr. 154A",107071,Ploiesti,0,0,514797,456455,456455,559597,559597,559595,138780,124195,110023,96300,83008,70148,57703,45704,,,340204,336866,329592,330262,369541,352701,328961,327840,333399,328447,,,,,,,340204,336866,329592,330262,369541,352701,328961,327840,333399,328447,,,,
Romania,Operator Holding Account,SC DANUBIANA SA,RO478081,2008-04-18,closed,Sos.Oltenitei nr. 181,77160,Ilfov,0,0,33923,,,,,,,,,,,,,,,,,Not Reported,Not Reported,Not Reported,Not Reported,Not Reported,,,,,,,,,,,,,,,,,,,,,,,,
Romania,Operator Holding Account,SC DE PRODUSE CERAMICE SA,RO202018,2008-04-18,open,"Str. Fizesului, nr 20",405300,Cluj,0,0,3899,3450,3450,3449,3449,3449,0,0,0,0,0,0,0,0,,,3850,3468,1649,1656,1680,0,0,0,Excluded,Excluded,,,,,,,3850,3468,1649,1656,1680,,,,,,,,,
Romania,Operator Holding Account,SC BARLINEK ROMANIA SA BACAU,RO5444241,2008-04-18,closed,"Calea Moinesti, nr 30H",600281,Bacau,0,0,0,0,0,0,0,0,,,,,,,,,,,0,0,Not Reported,Not Reported,,,,,,,,,,,,,,,,,,,,,,,,,,
Romania,Operator Holding Account,SC BARLINEK ROMANIA SA BACAU,RO5444241,2008-04-18,closed,"Calea Moinesti, nr 30H",600281,Bacau,0,0,0,,,,,,,,,,,,,,,,0,Not Reported,Not Reported,Not Reported,Not Reported,Not Reported,,,,,,,,,,,,,,,,,,,,,,,,
Romania,Operator Holding Account,SC SILCOTUB SA,RO15117182,2008-04-18,open,"Str. Prelungirea Bucuresti, nr 162",910153,Calarasi,0,0,38021,39220,39220,39219,39219,39219,25237,24798,24355,23907,23454,22996,22533,22069,,,32870,24191,8083,30528,34500,32924,26271,34045,28126,27237,,,,,,,32870,24191,8083,30528,34500,32924,26271,34045,28126,27237,,,,
Romania,Operator Holding Account,SC DONAU CHEM SRL,RO16958124,2008-04-18,open,"Str.Portului, nr 1",145200,Turnu Magurele,0,0,436651,384473,384473,384473,384473,384473,573732,563765,553683,163944,36717,36001,35276,34549,,,435085,299094,317425,433910,472168,454122,726753,866279,119667,0,,,,,,,435085,299094,317425,433910,472168,454122,726753,866279,,,,,,
Romania,Operator Holding Account,SC DOOSAN IMGB SA,380430,2008-04-18,open,"Sos. Berceni, nr 104",41919,Bucuresti,0,0,130017,122107,122107,122107,122107,122107,75411,74101,40375,71438,70083,68716,67333,65944,,,70022,84853,80762,79887,82162,66216,42666,45893,46912,51018,,,,,,,70022,84853,80762,79887,164306,,42666,45893,46912,51018,,,,
Romania,Operator Holding Account,SC Ductil Steel SA punctul de lucru Otelu Rosu,RO11845183,2008-04-18,open,"Mihai Eminescu, NR 10",325700,Caras Severin,0,0,25404,39336,39336,39336,39336,39335,14139,0,0,0,0,0,0,0,,,18912,14567,16387,20473,39965,26814,966,385,280,317,,,,,,,18912,14567,16387,20473,39965,26814,966,385,280,317,,,,
Romania,Operator Holding Account,SC DUNAV INTERNATIONAL CONSTRUCT SRL,12844577,2008-04-18,closed,"Str. Herendesti, nr 10",305500,Timis,0,0,3947,,,,,,,,,,,,,,,,,Not Reported,Not Reported,Not Reported,Not Reported,Not Reported,,,,,,,,,,,,,,,,,,,,,,,,
Romania,Operator Holding Account,S.C. ECOPAPER S.A.,J08/164/1991,2008-04-18,open,"Str. 13 Decembrie, Nr 18",505800,Zarnesti,0,0,20429,18746,35190,35190,35189,35189,16352,16067,15780,15490,15196,14900,14600,14299,,,24591,19368,14539,18088,22637,19564,23864,25071,27229,26690,,,,,,,24591,19368,14539,18088,22637,19564,23864,25071,27229,26690,,,,
Romania,Operator Holding Account,SC Electroprecizia SA,RO1128645,2008-04-18,closed,Str. Parcului nr.18,505600,Brasov,0,0,4650,4124,4124,4123,4123,4123,,,,,,,,,,,918,830,600,787,967,653,Excluded,,Not Reported,Not Reported,,,,,,,918,830,600,787,967,653,,,,,,,,
Romania,Operator Holding Account,SC ELECTROCARBON SA,1515382,2008-04-18,open,"Str. Nufarului nr.15H, Vila 11, parter, camera 6,",077165,SNAGOV,0,0,20002,21954,21954,21954,21954,21954,14906,7695,14227,7263,7049,6837,6625,6417,,,15848,15290,10216,12788,10479,10614,6329,11635,5577,3748,,,,,,,15848,15290,10216,12788,10479,10614,6329,11635,5577,3748,,,,
Romania,Operator Holding Account,ELECTROCENTRALE BUCURESTI S.A,RO15189596,2008-04-18,open,Splaiul iNDEPENDENTEI NR.227,060041,Bucuresti,0,0,558568,510323,510323,510323,510323,510323,260893,233474,206834,181035,156048,131871,108474,85919,,,678890,519785,430812,399275,558395,465551,379647,367635,357747,421767,,,,,,,678890,519785,430812,399275,558395,465551,379647,367635,357747,421767,,,,
Romania,Operator Holding Account,ELECTROCENTRALE BUCURESTI S.A,RO15189596,2008-04-18,open,Splaiul iNDEPENDENTEI NR.227,060041,Bucuresti,0,0,689306,618663,1284858,1284857,1284857,1284857,249926,223659,198139,173426,149488,126327,103915,82307,,,645957,641898,698686,651314,675682,632328,571350,453171,492172,595248,,,,,,,645957,641898,698686,651314,675682,632328,571350,453171,492172,595248,,,,
Romania,Operator Holding Account,ELECTROCENTRALE BUCURESTI S.A,RO15189596,2008-04-18,open,Splaiul iNDEPENDENTEI NR.227,060041,Bucuresti,0,0,85202,76977,76976,76976,76976,76976,9930,0,0,0,0,0,0,0,,,67338,50219,23361,16318,11878,10452,6490,0,0,Excluded,,,,,,,67338,50219,23361,16318,11878,10452,6490,,,,,,,
Romania,Operator Holding Account,ELECTROCENTRALE BUCURESTI S.A,RO15189596,2008-04-18,open,Splaiul iNDEPENDENTEI NR.227,060041,Bucuresti,0,0,322230,294398,294398,294398,294398,294397,129068,115504,102324,89561,77200,65238,53664,42506,,,304473,259922,253603,260295,251282,293821,232872,233201,259737,277532,,,,,,,304473,259922,253603,260295,251282,293821,232872,233201,259737,277532,,,,
Romania,Operator Holding Account,ELECTROCENTRALE BUCURESTI S.A,RO15189596,2008-04-18,open,Splaiul iNDEPENDENTEI NR.227,060041,Bucuresti,0,0,1598760,1460671,1460671,1460670,1460670,1460670,598217,532157,471436,412634,355680,300573,247247,195834,,,1489860,1386335,1282282,1204921,1036586,1017135,842720,868382,883239,781258,,,,,,,1489860,1386335,1282282,1204921,1036586,1017135,842720,868382,883239,781258,,,,
Romania,Operator Holding Account,ELECTROCENTRALE BUCURESTI S.A,RO15189596,2008-04-18,open,Splaiul iNDEPENDENTEI NR.227,060041,Bucuresti,0,0,1180699,1031955,1031955,1031954,1031954,1031954,962085,824645,687204,549763,,,,,,,1468335,1140974,453716,350335,565958,255920,507620,828793,984053,895835,,,,,,,1468335,1140974,453716,350335,565958,255920,507620,828793,984053,895835,,,,
Romania,Operator Holding Account,ELECTROCENTRALE BUCURESTI S.A,RO15189596,2008-04-18,open,Splaiul iNDEPENDENTEI NR.227,060041,Bucuresti,0,0,652470,570834,570834,570834,570833,570833,245888,207891,184169,161198,138949,117421,96589,76504,,,421580,398422,417987,374114,367196,351096,278772,241847,192474,184598,,,,,,,421580,398422,417987,374114,367196,351096,278772,241847,192474,184598,,,,
Romania,Operator Holding Account,COMPLEXUL ENERGETIC HUNEDOARA,RO30855230,2008-04-18,open,"Str. Timisoara, nr.2, Petrosani",332015,Petrosani,0,0,4201074,3687650,3687650,3687649,3687649,3687649,69353,57672,47200,37906,30119,25453,20936,16583,,,3908394,3536943,2428853,1700979,2369059,2099494,1902411,1581571,918725,928028,,,,,,,3908394,3536943,2428853,1700979,2369059,2099494,1902411,1145988,473490,80119,,,,
Romania,Operator Holding Account,Societatea ELECTROCENTRALE GALATI SA,RO16044852,2008-04-18,open,Soseaua Smardan nr 3,800700,Galati,0,0,1085307,959877,959877,959876,959876,959876,213685,173633,138236,59467,51259,43318,35632,28223,,,1260101,884482,626227,633805,535103,479927,337882,382663,171399,170730,,,,,,,1260101,884482,626227,633805,535103,479927,337882,382663,171399,170730,,,,
Romania,Operator Holding Account,S.C. Electrocentrale Oradea S.A.,RO14790708,2008-04-18,open,Sos. Borsului; nr. 23,410605,Bihor,0,0,1231431,1091873,1091873,1091872,1091872,1091872,374080,309284,251420,200305,0,0,0,0,,,913000,995313,956342,922313,1034037,939802,959694,762135,987568,426310,,,,,,,913000,995313,956342,922313,1034037,604936,1294560,762135,200305,,,,,
Romania,Operator Holding Account,Compa SA,J32/129/1991,2008-04-18,open,"Str. H. Coanda, nr 8",550234,Sibiu,0,0,13440,11917,11917,11917,11916,11916,5061,4529,4012,3512,3027,2558,2104,1667,,,12186,8696,4172,7495,9870,7495,6782,6158,Excluded,Excluded,,,,,,,12186,8696,4172,7495,9870,7495,6782,6158,,,,,,
Romania,Operator Holding Account,S.C. E-STAR Mures Energy S.A.,RO 27307628,2011-12-15,open,Str. Revolutiei nr. 1,540043,Mures,0,0,6357,5562,5562,5562,5562,5561,,,,,,,,,,,4263,4648,4909,3738,4111,2727,Excluded,Excluded,Excluded,Excluded,,,,,,,4263,4648,4909,3738,4111,2727,,,,,,,,
Romania,Operator Holding Account,S.C. E-STAR Mures Energy S.A.,RO 27307628,2008-04-18,closed,Str. Revolutiei nr. 1,540043,Mures,0,0,3911,,,,,,,,,,,,,,,,7565,Not Reported,Not Reported,Not Reported,Not Reported,Not Reported,,,,,,,,,,,7565,,,,,,,,,,,,,
Romania,Operator Holding Account,S.C. E-STAR Mures Energy S.A.,RO 27307628,2008-04-18,closed,Str. Revolutiei nr. 1,540043,Mures,0,0,4118,,,,,,,,,,,,,,,,1973,Not Reported,Not Reported,Not Reported,Not Reported,Not Reported,,,,,,,,,,,1973,,,,,,,,,,,,,
Romania,Operator Holding Account,S.C. E-STAR Mures Energy S.A.,RO 27307628,2008-04-18,closed,Str. Revolutiei nr. 1,540043,Mures,0,0,2837,,,,,,,,,,,,,,,,1280,Not Reported,Not Reported,Not Reported,Not Reported,Not Reported,,,,,,,,,,,1280,,,,,,,,,,,,,
Romania,Operator Holding Account,S.C. E-STAR Mures Energy S.A.,RO 27307628,2008-04-18,closed,Str. Revolutiei nr. 1,540043,Mures,0,0,3946,,,,,,,,,,,,,,,,2016,Not Reported,Not Reported,Not Reported,Not Reported,Not Reported,,,,,,,,,,,2016,,,,,,,,,,,,,
Romania,Operator Holding Account,SC ENERGOTERM SA TULCEA,17747931,2008-04-18,open,"Str. Isaccei, nr 73",820207,Tulcea,0,0,17430,15311,15310,15310,15310,15310,16596,14057,12451,10894,9385,7925,6512,5151,,,20449,18743,18690,18217,19284,17844,15046,15484,15807,15261,,,,,,,20449,18743,18690,18217,19284,17844,15046,15484,15807,15261,,,,
Romania,Operator Holding Account,SC ENET SA Focsani,J 39 / 93 / 1996,2008-04-18,open,"Bd. Bucuresti, nr4",620144,Vrancea,0,0,115689,102578,102578,102578,102578,102578,66613,55526,45571,38604,33276,28120,23132,18321,,,84961,70554,77730,75372,68693,53687,47178,52996,59039,56391,,,,,,,84961,70554,77730,,144065,53687,47178,52996,59039,56391,,,,
Romania,Operator Holding Account,SC EURO CARAMIDA SA,RO16131690,2008-04-18,open,"Str. Caramizii, nr 1",417050,Bihor,0,0,5436,7587,8512,8512,8511,8511,6829,6710,6591,6469,6346,6223,6098,5972,,,6757,7586,7581,6749,7271,7509,7016,6646,7214,7541,,,,,,,6757,7586,7581,6749,7271,7509,7016,6646,7214,7541,,,,
Romania,Operator Holding Account,SC SCANDIC DISTILLERIES S.A,12601233,2008-04-18,open,"sat Pantasesti, nr. 41",417256,comuna Draganesti,0,0,73816,64664,64664,64664,64663,64663,4450,4151,3859,1826,1792,1757,1721,1686,,,122863,37346,28044,16757,8079,4427,5799,3807,5338,7030,,,,,,,122863,37346,28044,16757,8079,4427,5799,3807,5338,7030,,,,
Romania,Operator Holding Account,EXPUR SA,2091480,2008-04-18,open,"Str. Amarei, nr 3",920049,Slobozia,0,0,9391,8273,8273,8273,8273,8273,0,0,0,0,0,0,0,0,,,9435,8565,1749,35,21,6,0,0,0,Excluded,,,,,,,9435,8565,1749,35,21,6,,,,,,,,
Romania,Operator Holding Account,EXPUR SA,2091480,2008-04-18,open,"Str. Amarei, nr 3",920049,Slobozia,0,0,14190,12477,34573,34572,34571,34571,20237,19641,19049,18463,17881,17306,16735,16172,,,9960,8039,8796,9802,6664,436,4126,7964,1238,588,,,,,,,9960,8039,8796,9802,6664,436,4126,7964,1238,588,,,,
Romania,Operator Holding Account,SC Fabrica de caramizi SRL Vaslui,R6332556,2008-04-18,open,"Str. Metalurgiei, nr 2",730233,Vaslui,0,0,695,679,679,678,678,678,0,0,0,0,0,0,0,0,,,191,5,97,5,5,10,0,0,0,Excluded,,,,,,,191,5,,102,5,10,,,,,,,,
Romania,Operator Holding Account,SC FACOS SA Suceava,J33/17/1991,2008-04-18,open,Str HUMORULUI Nr 100  Loc.  SCHEIA,727525,Suceava,0,0,23121,20502,20501,20501,20501,20501,4624,4138,3666,3207,2762,2332,1917,1516,,,5887,4611,4113,3573,3505,3153,2004,Excluded,Excluded,Excluded,,,,,,,5887,4611,4113,3573,3505,3153,2004,,,,,,,
Romania,Operator Holding Account,SC FIROS SA,RO434492,2008-04-18,closed,"Bd. Timisoara, nr 100, sector 6",61334,Bucuresti,0,0,14157,,,,,,,,,,,,,,,,3895,Not Reported,Not Reported,Not Reported,Not Reported,Not Reported,,,,,,,,,,,3895,,,,,,,,,,,,,
Romania,Operator Holding Account,SC GECSAT SA,RO1245394,2008-04-18,closed,"Str. Armatei, nr 82",545600,Mures,0,0,22386,,,,,,,,,,,,,,,,9800,0,0,0,0,Not Reported,,,,,,,,,,,9800,,,,,,,,,,,,,
Romania,Operator Holding Account,SC GEROMED SA,RO803107,2008-04-18,closed,Sos. Sibiului nr 38,551129,Sibiu,0,0,35339,,,,,,,,,,,,,,,,,Not Reported,Not Reported,Not Reported,Not Reported,Not Reported,,,,,,,,,,,,,,,,,,,,,,,,
Romania,Operator Holding Account,SC ECO PIF INVEST SRL,J40/7022/2010,2008-04-18,open,"Sos. Oltenitei, nr. 103, Pavilion Cercetare -",041303,Bucuresti,0,0,51031,46836,46836,46835,46835,46835,,,,,,,,,,,39081,38165,10859,0,0,0,Excluded,Excluded,Excluded,Excluded,,,,,,,39081,38165,10859,,,,,,,,,,,
Romania,Operator Holding Account,SC GHCL UPSOM ROMANIA SA,J01/52/1991,2008-04-18,open,"Str. M. EMINESCU, nr 1",515700,Ocna Mures,0,0,149760,130564,130564,130564,130564,130564,,,,,,,,,,,176492,172708,132933,10231,0,0,Excluded,Excluded,Excluded,Excluded,,,,,,,176492,172708,132933,,10231,,,,,,,,,
Romania,Operator Holding Account,SC Helios SA,RO 98716,2008-04-18,open,"loc. Astileu,  nr 236, jud. BIHOR",417020,ASTILEU,0,0,11271,8312,8312,8311,8311,8311,8740,8587,8433,8279,8122,7963,7802,7642,,,11250,13427,10521,10983,10007,7470,7791,7211,8322,8165,,,,,,,11250,13427,10521,10983,10007,7470,7791,7211,8322,8165,,,,
Romania,Operator Holding Account,SC Holcim (Romania) SA,12253732,2008-04-18,open,"Calea Floreasca 169A, corp B, et 7",014459,Bucuresti,0,0,706764,1021621,1248483,1248483,1248483,1248483,897229,881644,865877,849946,833843,817582,801120,784600,,,721781,802237,918709,719419,814525,807094,743922,836338,968028,917535,,,,,,,721781,802237,918709,719419,814525,807094,743922,836338,968028,917535,,,,
Romania,Operator Holding Account,SC Holcim (Romania) SA,12253732,2008-04-18,open,"Calea Floreasca 169A, corp B, et 7",014459,Bucuresti,0,0,959974,1406422,1406421,1406421,1406421,1487181,917694,901755,885628,869333,852862,836231,819393,802496,,,996229,1065263,756221,754596,874420,791539,788301,814070,941840,799084,,,,,,,996229,1065263,756221,754596,874420,791539,788301,814070,941840,799084,,,,
Romania,Operator Holding Account,SC HOLZINDUSTRIE SCHWEIGHOFER SRL,RO14554103,2008-04-18,open,"Str. Industriilor, nr1",515800,Alba,0,0,0,0,0,0,0,0,,,,,,,,,,,,Not Reported,Not Reported,Not Reported,Not Reported,Not Reported,Excluded,Excluded,Excluded,Excluded,,,,,,,,,,,,,,,,,,,,
Romania,Operator Holding Account,SC IAR SA,1132930,2008-04-18,open,Str.Aeroportului nr.1,507075,Brasov,0,0,5132,4517,4517,4517,4516,4516,1869,1837,593,1037,893,754,620,491,,,3943,3451,2046,1574,1395,1310,928,932,1085,1294,,,,,,,3943,3451,2046,1574,1395,1310,928,932,1085,1294,,,,
Romania,Operator Holding Account,SC IGO SA CARACAL,RO 1533192,2008-04-18,open,1 Decembrie 1918 nr. 146,235200,Olt,0,0,17920,16375,16375,16375,16374,16374,3453,0,0,0,0,0,0,0,,,17034,14066,14262,12138,6748,3831,0,0,0,Excluded,,,,,,,17034,14066,14262,12138,6748,3831,,,,,,,,
Romania,Operator Holding Account,SC IZO TEC SRL,RO15723170,2008-04-18,closed,"1 Mai, 134, Dej 405200",405200,Cluj,0,0,588,,,,,,,,,,,,,,,,0,Not Reported,Not Reported,Not Reported,Not Reported,Not Reported,,,,,,,,,,,,,,,,,,,,,,,,
Romania,Operator Holding Account,SC KRONBERGER GRUP SA SASTUC SUCURSALA TARGU MURES,1181444,2008-04-18,closed,"Str. Ghe. Doja, nr 193",540225,Mures,0,0,18911,17779,17779,17779,17779,17778,,,,,,,,,,,12379,8212,1158,1308,302,0,,,,,,,,,,,12379,8212,1158,1308,302,,,,,,,,,
Romania,Operator Holding Account,SC KOYO Romania SA,RO2695621,2008-04-18,closed,"Str Turnu Magurele, nr 1",140003,Teleorman,0,0,22998,12090,12090,12090,0,0,,,,,,,,,,,13148,6374,2958,2799,,,,,,,,,,,,,13148,6374,2958,2799,,,,,,,,,,
Romania,Operator Holding Account,SC Wienerberger Sisteme de Caramizi SRL,10941727,2008-04-18,open,"sos. Bucuresti Ploiesti nr. 42-44, CL.A1, et.1",013696,Bucuresti,0,0,7548,6913,21469,21468,21468,21467,1779,1748,4552,3076,7113,6975,6834,6694,,,11922,8632,4472,4467,4172,0,38,2609,1868,5585,,,,,,,11922,8632,4472,4467,4172,,38,2609,1868,5585,,,,
Romania,Operator Holding Account,SC KRONOSPAN SEBES SA,RO11358544,2008-04-18,open,Str. Mihail Kogalniceanu nr.59,515800,Sebes,0,0,28704,28742,28741,28741,28741,28741,122659,120529,79235,104407,90440,76921,63837,51238,,,10029,7443,4017,2696,4067,4145,10865,9309,18157,25611,,,,,,,10029,7443,4017,2696,4067,4145,10865,9309,18157,25611,,,,
Romania,Operator Holding Account,BANDI BOTOND,RO10416752,2008-04-18,open,"Str. Harmanului, nr.25, bl.32, sc.A, ap.15",500222,Brasov,0,0,59022,63134,63134,63134,63133,63133,62414,61330,39579,0,0,0,0,0,,,48289,35833,21802,38037,40760,26692,22228,13345,6212,Excluded,,,,,,,48289,35833,21802,38037,40760,26692,22228,13345,6212,,,,,
Romania,Operator Holding Account,SC POWER STEEL COMPANY SRL,RO 35365220,2008-04-18,open,"Bd. Bucuresti, nr.80, Focsani",620145,Focsani,0,0,9179,8085,8085,8085,8085,8084,5558,6529,6412,6297,6182,6066,5950,5835,,,10343,7230,709,0,0,2431,8700,10085,4904,4455,,,,,,,10343,7230,709,,,2431,8700,10085,4904,4455,,,,
Romania,Operator Holding Account,SC Lasselsberger SA,RO446209,2008-04-18,closed,"Str. Zarii, Nr.12, Sector 5",0,Bucuresti,0,0,29877,27828,27828,0,0,0,,,,,,,,,,,22827,20385,6674,Not Reported,Not Reported,,,,,,,,,,,,22827,20385,6674,,,,,,,,,,,
Romania,Operator Holding Account,SC Letea SA Bacau,RO 948019,2008-04-18,open,Str. Letea nr 17,600122,Bacau,0,0,35894,43463,43462,43462,43462,43462,,,,,,,,,,,14655,13974,9046,2274,0,0,Not Reported,Excluded,Excluded,Excluded,,,,,,,35894,13974,9046,2274,,,,,,,,,,
Romania,Operator Holding Account,SC Macofil SA,RO 2157789,2008-04-18,open,"Str.  Birsest, nr . 217",210001,Gorj,0,0,7263,6427,20449,20449,20449,20448,6288,6178,6068,5957,5843,5730,5615,5499,,,5793,5504,3619,10020,7237,5525,5860,5326,6441,7572,,,,,,,5793,5504,3619,10020,7237,5525,5860,5326,6441,7572,,,,
Romania,Operator Holding Account,SC LEMARCO CRISTAL SRL,14507381,2008-04-18,open,Soseaua Urziceni-Ploiesti km 3,925300,Urziceni,0,0,19862,17611,52030,101234,101232,101232,14173,26263,1562,25318,24839,24355,23864,23372,,,10410,42,40606,18202,27290,11300,29731,125,17083,14701,,,,,,,10410,42,40606,18202,27290,11300,29731,125,17083,14701,,,,
Romania,Operator Holding Account,COS  Targoviste SA,J15/284/1991,2008-04-18,open,"Sos. Gaiesti, nr 9-11",130087,Targoviste,0,0,199015,183785,183785,183785,183785,183785,110812,60483,59401,73863,72464,71050,69620,68185,,,131296,111778,66374,79347,94924,74610,41069,49723,50167,51543,,,,,,,131296,111778,66374,79347,94924,74610,41069,49723,50167,51543,,,,
Romania,Operator Holding Account,SC INDUSTRIA SARMEI CAMPIA TURZII SA,RO-199710,2008-04-18,open,STR. LAMINORISTILOR NR.145,405100,CAMPIA TURZII,0,0,161896,140726,140726,140726,140726,140726,22314,7981,7839,7694,7549,7401,7252,7103,,,55573,46086,29937,37656,44137,13462,2986,4084,4603,4460,,,,,,,55573,46086,29937,37656,44137,13462,2986,4084,4603,4460,,,,
Romania,Operator Holding Account,SC METALURGICA SA,RO8069600,2008-04-18,open,"Str. S. Vulcan, nr 2-10",515200,Aiud,0,0,12131,12657,12657,12657,12657,12657,,,,,,,,,,,12715,12199,6346,2889,4539,3921,,,,,,,,,,,12715,12199,6346,2889,4539,,3921,,,,,,,
Romania,Operator Holding Account,SC MOBEX SA,RO1222544,2008-04-18,closed,"Str. Caprioarei, nr 2",540314,Targu-Mures,0,0,1978,,,,,,,,,,,,,,,,364,Not Reported,Not Reported,Not Reported,Not Reported,Not Reported,,,,,,,,,,,364,,,,,,,,,,,,,
Romania,Operator Holding Account,SC Mobila SA,RO1138452,2008-04-18,closed,Str. Volovatului nr.82,725400,Suceava,0,0,2899,,,,,,,,,,,,,,,,1150,Not Reported,Not Reported,Not Reported,Not Reported,Not Reported,,,,,,,,,,,1150,,,,,,,,,,,,,
Romania,Operator Holding Account,SC Mondial SA,1844334,2008-04-18,open,"Str. Timisorii, nr. 149-151",305500,Timis,0,0,23023,23649,23649,23649,23648,23648,22163,21778,21389,20995,20597,20196,19790,19381,,,23623,21952,20691,21303,22642,20202,19512,19859,20146,18951,,,,,,,23623,21952,20691,21303,22642,20202,19512,19859,20146,18951,,,,
Romania,Operator Holding Account,SC NITROPOROS SRL,RO 23415082/03.03.2008,2008-04-18,open,Soseaua Combinatului Nr. 14,505200,Fagaras - Brasov,0,0,18272,66060,66059,66058,66058,66058,21587,21212,20833,20450,0,0,0,0,,,0,0,8356,40355,32960,67029,118063,8506,0,Not Reported,,,,,,,,,8356,40355,32960,67029,118063,8506,,,,,,
Romania,Operator Holding Account,SC NITROSERVICE SA,16283515,2008-04-18,closed,"Str. Ileni, Nr. 1",505200,Brasov,0,0,64659,,,,,,,,,,,,,,,,0,Not Reported,Not Reported,Not Reported,Not Reported,Not Reported,,,,,,,,,,,,,,,,,,,,,,,,
Romania,Operator Holding Account,SC Nusco Imobiliara SRL,RO10061498,2008-04-18,open,"Sos. Pipera  nr. 48, sector 2",020112,Bucuresti,0,0,87537,77620,77620,77620,77620,77620,0,0,0,0,0,0,0,0,,,56836,28133,28878,0,0,0,0,0,Excluded,Excluded,,,,,,,56836,28133,28878,,,,,,,,,,,
Romania,Operator Holding Account,Oltchim SA,RO 1475261,2008-04-18,open,"Str. uzinei , nr.1",240050,Ramnicu Valcea,0,0,203087,191954,191954,191954,191954,191954,182545,179374,176167,172927,259426,254366,249246,244106,,,131597,127414,143437,133676,146798,77146,78281,92043,104576,88026,,,,,,,131597,127414,,277113,146798,77146,78281,92043,104576,88026,,,,
Romania,Operator Holding Account,Oltchim SA,RO 1475261,2010-12-23,open,"Str. uzinei , nr.1",240050,Ramnicu Valcea,,,,0,0,0,0,0,9534,9368,9201,9032,8860,0,0,0,,,,,,550,1037,610,421,414,265,0,,,,,,,,,,550,1037,610,421,414,265,,,,,
Romania,Operator Holding Account,SC OMEGA PRODCOM SA,RO 3387670,2008-04-18,open,"Str. Armatei, nr 85",545600,Mures,0,0,9326,7909,7909,7909,7909,7908,2121,0,0,0,0,0,0,0,,,12960,9575,6615,2498,4168,1250,34,19,11,8,,,,,,,12960,9575,6615,2498,4168,1250,34,19,11,8,,,,
Romania,Operator Holding Account,SC OMNIMPEX HARTIA SA BUSTENI,RO1321157,2007-04-18,closed,"Str. Libertatii, nr 90",105500,Prahova,0,0,6425,,,,,,,,,,,,,,,,0,,Not Reported,Not Reported,,,,,,,,,,,,,,,,,,,,,,,,,,
Romania,Operator Holding Account,SC Otelinox SA,921641,2008-04-18,open,"Str. Soseaua Gaesti, Nr. 16",130087,Dambovita,0,0,25502,25609,37739,37740,37739,37739,22836,22439,22037,21632,21222,20809,20389,19969,,,25119,25479,17474,29427,26861,27425,27352,24056,25173,25167,,,,,,,25119,25479,17474,29427,26861,27425,27352,24056,25173,25167,,,,
Romania,Operator Holding Account,SC PEHART TEC SA,J01/645/2005,2008-04-18,open,"Str. 1 Mai, nr 1",515850,Petresti,0,0,12073,15257,20441,25626,25625,25623,8795,8546,8297,8052,7808,7567,7325,7089,,,10689,11027,16370,21930,20802,20900,11522,11252,18368,18090,,,,,,,10689,11027,16370,21930,20802,20900,11522,11252,18368,18090,,,,
Romania,Operator Holding Account,SC PETROCART SA,RO 2046136,2008-04-18,open,"Bd. Decebal, nr 171",610052,Neamt,0,0,13468,21752,29564,29564,29563,29563,7307,7181,5178,5082,4987,4889,4791,4692,,,6618,9236,12095,11839,10775,10317,9381,6818,7319,8138,,,,,,,6618,9236,12095,11839,10775,10317,9381,6818,7319,8138,,,,
Romania,Operator Holding Account,SC PETROCHEMICAL TRADING SRL,RO18120247,2008-04-18,open,"str.Industriilor, nr.3",601124,Onesti,0,0,221935,198749,198749,198749,198749,198748,,,,,,,,,,,15709,9541,0,9,10,9,0,0,Excluded,Excluded,,,,,,,15709,9541,,9,10,9,,,,,,,,
Romania,Operator Holding Account,S.C. PETROTEL-LUKOIL S.A.,1350659,2008-04-18,open,"Str. Mihai Bravu, nr. 235",100410,Ploiesti,0,0,882171,791634,791634,791634,791634,791633,424953,417572,410104,402559,394932,387231,379433,371609,,,850224,804814,719211,612214,439006,384802,326655,368967,343082,424002,,,,,,,850224,804814,719211,612214,439006,384802,326655,368967,343082,424002,,,,
Romania,Operator Holding Account,SC Pirelli Tyres Romania SRL,17060414,2011-08-03,open,"Str. Draganesti, Nr. 35",230119,Olt,0,0,27390,34405,34405,34404,34404,34404,17819,17510,17197,16880,16560,16238,15911,15582,,,11844,16219,17982,20621,25030,23233,30078,32933,34587,40542,,,,,,,11844,16219,17982,20621,25030,23233,30078,32933,34587,40542,,,,
Romania,Operator Holding Account,SC Prefab Construct SRL,16974286,2008-04-18,open,Sos. Constantei nr.37,907065,Cobadin,0,0,2737,2583,2583,2583,2583,2582,2053,2018,991,1945,1908,1871,1833,1796,,,2604,2567,1900,2120,2137,2139,2497,1318,1622,1590,,,,,,,2604,2567,,4020,2137,2139,2497,1318,1622,1590,,,,
Romania,Operator Holding Account,SC Prescon Group Development SRL,RO11223199,2008-04-18,open,"Str. Poienelor, nr 5",500419,Brasov,0,0,142617,126191,126190,126190,126190,126190,28911,28408,27900,27387,26868,26344,25814,25281,,,118396,88082,69963,53404,40876,27610,19243,17458,19498,23589,,,,,,,118396,88082,,123367,40876,27610,19243,17458,19498,23589,,,,
Romania,Operator Holding Account,SC PROLEMN SA,RO1235668,2008-04-18,open,Str. Ierbus nr. 37,545300,Mures,0,0,0,0,0,0,0,0,,,,,,,,,,,0,0,0,0,0,0,Excluded,Excluded,Excluded,Excluded,,,,,,,,,,,,,,,,,,,,
Romania,Operator Holding Account,S.C. PROMEX S.A.,RO2265683,2008-04-18,open,"Str. Industriei, Nr. 17",810391,Braila,0,0,6454,5651,5651,5651,5650,5650,2990,2938,2885,2832,2779,2725,2670,2615,,,7620,6789,4447,4703,4321,3639,2353,2693,2587,2626,,,,,,,7620,6789,4447,4703,4321,3639,2353,2693,2587,2626,,,,
Romania,Operator Holding Account,SC Rafinaria Astra Romana SA,RO1346828,2008-04-18,open,"Bd. Petrolului, Nr. 59",100521,Prahova,0,0,166965,149639,149639,149639,149639,149639,,,,,,,,,,,379,0,0,0,0,0,0,0,0,Excluded,,,,,,,379,,,,,,,,,,,,,
Romania,Operator Holding Account,Nicolae Bucur,R1322632,2008-04-18,open,"Str. Pictor Nicolae Grigorescu, nr. 1",105600,Prahova,0,0,55306,49807,49807,49807,49807,49806,0,0,0,0,0,0,0,0,,,48121,32770,4422,172,339,184,147,121,106,43,,,,,,,48121,32770,,4594,339,184,147,121,106,43,,,,
Romania,Operator Holding Account,RAFO SA,RO958772,2008-04-18,open,"Str. Industriilor, Nr. 3",601124,Bacau,0,0,785915,704474,704474,704473,704473,704473,0,0,0,0,0,0,0,0,,,259636,74999,8385,6074,6479,4606,1587,380,228,113,,,,,,,259636,74999,8385,6074,6479,4606,1587,380,228,113,,,,
Romania,Operator Holding Account,SC REFRACERAM SRL,15776493,2008-04-18,open,"Str. Principala, nr. 314",337035,Hunedoara,0,0,2216,1511,1511,1511,1511,1511,,,,,,,,,,,892,472,0,Not Reported,Not Reported,Not Reported,Excluded,Excluded,Excluded,Excluded,,,,,,,892,472,,,,,,,,,,,,
Romania,Operator Holding Account,SC REFRACERAM SRL,15776493,2008-04-18,open,"Str. Principala, nr. 314",337035,Hunedoara,0,0,2919,2093,2092,2092,2092,2092,716,0,0,0,0,0,0,0,,,3503,1668,1568,590,996,456,171,95,68,0,,,,,,,3503,1668,1568,590,996,456,171,95,68,,,,,
Romania,Operator Holding Account,SC REMAR SA Pascani,1996928,2008-04-18,open,"Str. Garii, Nr. 18",705200,Pascani,0,0,5391,4780,4780,4780,4780,4780,,,,,,,,,,,4141,4231,0,0,0,Not Reported,Excluded,Excluded,Excluded,Excluded,,,,,,,4141,4231,,,,,,,,,,,,
Romania,Operator Holding Account,S.C. ROMPETROL RAFINARE S.A.,1860712,2008-04-18,open,"Bdul Navodari, nr. 215",905700,Navodari,0,0,111443,98814,98814,98814,98813,98813,71833,70585,69322,68047,66757,65456,64138,62815,,,98308,81773,68900,80715,110144,75645,44688,41514,33870,44145,,,,,,,98308,81773,68900,80715,110144,75645,44688,41514,33870,44145,,,,
Romania,Operator Holding Account,S.C. ROMPETROL RAFINARE S.A.,1860712,2008-04-18,open,"Bdul Navodari, nr. 215, Pavilion administrativ",905700,Navodari,0,0,750910,801694,801694,813025,813025,813024,648768,637499,626098,614578,602934,591177,579273,567328,,,776480,764658,668371,632162,660727,782742,747198,883963,813286,984821,,,,,,,776480,764658,668371,632162,660727,782742,747198,883963,813286,984821,,,,
Romania,Operator Holding Account,S.C. ROMPETROL RAFINARE S.A.,1860712,2008-04-18,open,"Bdul Navodari, nr. 215, Pavilion administrativ",905700,Navodari,0,0,56887,54126,54126,54126,54125,54125,33771,33159,32542,31918,31290,30656,30014,29374,,,40680,38866,41631,38054,39528,45819,41013,43419,44532,46170,,,,,,,40680,38866,41631,38054,39528,45819,41013,43419,44532,46170,,,,
Romania,Operator Holding Account,SC RULMENTI SA,RO 2808089,2008-04-18,open,"Str. Republicii, Nr. 320",731108,Vaslui,0,0,62347,54902,54902,54902,54902,54901,11295,10970,10665,10377,10106,9851,9612,9386,,,42544,41544,35782,40593,41285,42262,37161,32539,35262,35623,,,,,,,42544,41544,35782,40593,41285,42262,37161,32539,35262,35623,,,,
Romania,Operator Holding Account,SC SAINT GOBAIN GLASS ROMANIA SRL,RO 11882475,2008-04-18,open,"Str. Varianta Nord, nr 61",910053,Calarasi,0,0,141140,125713,126960,126960,126960,126960,100668,98919,97150,95362,93556,91731,89884,88031,,,118890,111271,98990,122980,112225,110806,115453,112534,112367,113198,,,,,,,118890,111271,98990,122980,112225,110806,115453,112534,112367,113198,,,,
Romania,Operator Holding Account,SC SANEX SA,RO199028,2008-04-18,open,"Str. Beiusului, nr 1",400394,Cluj,0,0,58421,51692,51692,51692,51692,51692,27100,26628,26153,25671,25185,24694,24197,23698,,,30651,29540,19443,34845,34003,36303,33019,33984,35488,36632,,,,,,,30651,29540,19443,34845,34003,36303,33019,33984,35488,36632,,,,
Romania,Operator Holding Account,SC SATURN SA,RO1750957,2008-04-18,open,"Cabanei, nr 57",510185,Alba,0,0,4586,4172,4171,4171,4171,4171,3405,3346,3286,2148,2107,2066,2025,1983,,,3540,3565,2763,3105,4214,4023,3295,3585,3605,2941,,,,,,,3540,3565,2763,3105,4214,4023,3295,3585,3605,2941,,,,
Romania,Operator Holding Account,SC Semifabricate SA,R14787559,2008-04-18,open,"Str. Poienelor, nr 5",500419,Brasov,0,0,46141,40826,40826,40825,40825,40825,,,,,,,,,,,7463,6686,3051,512,2084,487,Excluded,Excluded,Excluded,Excluded,,,,,,,7463,6686,,3563,2084,487,,,,,,,,
Romania,Operator Holding Account,SC SERVICII COMUNALE SA RADAUTI,RO2563140,2008-04-18,open,Str. 1 Mai nr.4-6,725400,Suceava,0,0,15534,13774,13774,22892,22891,22890,13050,10599,8598,7526,6487,5482,4509,3572,,,15268,13668,13662,13835,21312,22399,22448,20605,21657,21816,,,,,,,15268,13668,13662,13835,21312,22399,22448,20605,21657,21816,,,,
Romania,Operator Holding Account,SC SICERAM SA,RO 1224553,2008-04-18,open,"Str. Viilor, 123",545400,Mures,0,0,23998,38339,40759,40758,40757,40757,35534,34917,34292,33662,33024,32380,31727,31074,,,38106,38338,31842,31903,36678,34389,34500,51360,49926,50342,,,,,,,38106,38338,31842,31903,36678,34389,34500,51360,49926,50342,,,,
Romania,Operator Holding Account,SC SILCOTUB SA Zalau,RO15117182,2008-04-18,open,"Bd. Mihai Viteazu, Nr. 93",450131,Zalau,0,0,34364,30159,30159,45386,45386,45386,36027,35402,34769,34129,33482,32829,32168,31504,,,31008,31411,19145,34071,39440,42768,44929,51998,51317,50261,,,,,,,31008,31411,19145,34071,39440,42768,44929,51998,51317,50261,,,,
Romania,Operator Holding Account,SC MICHELIN Romania SA,13663684,2008-04-18,open,"Soseaua Bucuresti Nord nr.10,",077190,Voluntari,0,0,17691,15558,15558,15557,15557,15557,15139,14876,14610,14341,14070,13795,13517,13239,,,17140,15814,10492,13932,15458,12570,11293,12311,12112,12320,,,,,,,17140,15814,,24424,15458,12570,11293,12311,12112,12320,,,,
Romania,Operator Holding Account,Simcor Var SA,13532689,2008-04-18,closed,"Sediu Str.Santuhalm nr 1,cam.03,Deva",330190,Deva,0,0,69557,65123,65123,0,0,0,,,,,,,,,,,50518,77356,4756,,,,,,,,,,,,,,50518,77356,4756,,,,,,,,,,,
Romania,Operator Holding Account,Simcor Var SA,13532689,2008-04-18,open,"Sediu Str.Santuhalm nr 1,cam.03,Deva",330190,Deva,0,0,84083,84993,84993,84992,84992,84992,87512,85992,84454,82900,81329,79744,78138,76527,,,102582,91140,82359,72890,73955,89966,76400,71083,69940,61851,,,,,,,102582,91140,82359,72890,73955,89966,76400,71083,69940,61851,,,,
Romania,Operator Holding Account,SC SITINDUSTRIE ROMANIA SA,9362497,2008-04-18,closed,"Str. Vulcan, nr 2-10",515200,Alba,0,0,4577,,,,,,,,,,,,,,,,,Not Reported,Not Reported,Not Reported,Not Reported,Not Reported,,,,,,,,,,,,,,,,,,,,,,,,
Romania,Operator Holding Account,SC SMR SA Bals,1523512,2008-04-18,open,"Str. Nicolae Balcescu, nr 208",235100,Olt,0,0,66527,53015,53014,53014,53014,53014,22043,21660,12847,0,0,0,0,0,,,46993,35120,12963,23738,19765,17958,21193,5326,21,7,,,,,,,46993,35120,12963,23738,19765,17958,21193,5326,21,7,,,,
Romania,Operator Holding Account,Soceram SA,346757,2008-04-18,open,"Drumul Taberei, nr. 46",105600,Campina,0,0,9979,10360,25797,25797,25797,25796,11043,10851,10657,20921,20525,20125,19719,19313,,,7613,9799,17168,14673,12015,13047,7310,6263,23117,25040,,,,,,,7613,9799,17168,14673,12015,13047,7310,6263,23117,25040,,,,
Romania,Operator Holding Account,Soceram SA,346757,2008-04-18,open,"Drumul Taberei, nr. 46",105600,Campina,0,0,14851,13141,13141,13140,13140,13140,0,0,0,0,0,0,0,0,,,10198,10147,0,0,0,0,0,0,0,Excluded,,,,,,,10198,10147,,,,,,,,,,,,
Romania,Operator Holding Account,SC SOMES SA Dej,RO 199800,2008-04-18,open,"Str. Bistritei, nr 63",405200,Dej,0,0,69239,70295,70295,70295,70295,70295,2281,2241,2201,2161,2120,2079,2037,1995,,,52242,51880,766,481,0,0,0,Excluded,Excluded,Excluded,,,,,,,52242,51880,766,481,,,,,,,,,,
Romania,Operator Holding Account,SC STIMET SA,RO1224855,2008-04-18,open,Str. Mihai Viteazul nr. 96,545400,Mures,0,0,26230,30413,30413,30413,30413,30412,,,,,,,,,,,0,0,0,0,0,0,Excluded,Excluded,Excluded,Excluded,,,,,,,,,,,,,,,,,,,,
Romania,Operator Holding Account,SC STIROM SA,RO 335588,2008-04-18,open,"Bd. Th. Pallady, nr 45, sector 3",032258,Bucuresti,0,0,93365,81679,81679,81678,81678,81678,45710,44915,44113,43301,42481,41652,40813,39972,,,79007,74893,66410,67275,66580,64867,61481,57493,69385,73622,,,,,,,79007,74893,66410,67275,66580,64867,61481,57493,69385,73622,,,,
Romania,Operator Holding Account,SC Terapia SA,RO15357398,2008-04-18,closed,"Str. Fabricii, Nr. 124",400632,Cluj,0,0,9282,,,,,,,,,,,,,,,,2727,Not Reported,Not Reported,Not Reported,Not Reported,Not Reported,,,,,,,,,,,2727,,,,,,,,,,,,,
Romania,Operator Holding Account,SC TERACOTA BISTRITA SRL,J06/658/2011,2012-03-06,open,Strada Drumul Cetatii FN,420129,Bistrita,0,0,1954,1729,1729,1729,1728,1728,,,,,,,,,,,1610,1485,1500,1330,1249,1187,Excluded,Excluded,Excluded,Excluded,,,,,,,1610,1485,,2830,1249,1187,,,,,,,,
Romania,Operator Holding Account,SC Terma-Serv SRL,RO15691826,2008-04-18,closed,"Str.  Alexandru Ghica, bl. 715A, Alexandria",140057,Teleorman,0,0,12732,11073,11073,11073,11073,11073,,,,,,,,,,,11571,11544,9932,8468,4678,0,,,,,,,,,,,11571,11544,9932,8468,4678,,,,,,,,,
Romania,Operator Holding Account,SANDU FLORIN,26892574,2008-04-18,open,"str. Octav Onicescu, nr. 8, sc. B, ap. 19",710107,Botosani,0,0,100195,84898,84898,84898,84898,84898,67349,55111,45139,19754,17028,14390,11837,9375,,,78752,61738,53961,50502,43854,46351,46337,43443,39490,37592,,,,,,,78752,61738,53961,50502,43854,46351,46337,43443,39490,37592,,,,
Romania,Operator Holding Account,SC TERMICA SA Suceava,RO14682110,2008-04-18,closed,Str.Energeticianului  nr.1,720166,Suceava,0,0,456932,402761,402761,402761,402761,402761,113177,60876,0,0,0,0,0,0,,,455961,417748,351798,305786,287477,299022,166049,0,0,,,,,,,,455961,417748,351798,305786,287477,299022,166049,1,,,,,,
Romania,Operator Holding Account,SC TERMICA SA Suceava,RO14682110,2008-04-18,closed,Str.Energeticianului  nr.1,720166,Suceava,0,0,35818,33390,33390,33390,33389,33389,12276,16223,0,0,0,0,0,0,,,19511,18901,12641,8231,8403,7436,10502,0,0,,,,,,,,19511,18901,12641,8231,8403,7436,10502,1,,,,,,
Romania,Operator Holding Account,SC TERMICA SA TARGOVISTE,RO10497005,2008-04-18,open,Str. I.C. Bratianu nr.50,130089,Dambovita,0,0,58227,59879,59878,59878,59878,204084,16328,13420,0,0,0,0,0,0,,,47510,42039,34122,30049,29452,19500,11070,0,0,Not Reported,,,,,,,47510,42039,34122,30049,29452,19500,11070,,,,,,,
Romania,Operator Holding Account,SC TERMICA VASLUI SA,RO14330262,2008-04-18,open,"Str. PODUL INALT, nr. 3",730232,Vaslui,0,0,38497,35993,35993,35993,35993,35993,0,0,0,0,0,0,0,0,,,14223,8233,3158,0,0,0,0,0,0,Excluded,,,,,,,14223,8233,3158,,,,,,,,,,,
Romania,Operator Holding Account,SC TERMOELECTRICA SA,13293638,2008-04-18,open,"Bld. Lacul Tei, nr. 1-3",020371,Bucuresti,0,0,284691,249904,249904,249904,249903,249903,,,,,,,,,,,264738,69951,12126,364,14107,0,0,0,0,Excluded,,,,,,,264738,69951,12126,364,14107,,,,,,,,,
Romania,Operator Holding Account,SC TERMOELECTRICA SA,13293638,2008-04-18,open,"Bld. Lacul Tei, nr. 1-3",020371,Bucuresti,0,0,474476,531837,531836,531836,531836,531836,298057,127739,212898,0,,,,,,,491821,244312,412787,145223,259271,57742,0,0,0,Excluded,,,,,,,491821,244312,412787,145223,259271,57742,,,,,,,,
Romania,Operator Holding Account,SC TERMOELECTRICA SA,13293638,2008-04-18,open,"Bld. Lacul Tei, nr. 1-3",020371,Bucuresti,0,0,446332,395750,395749,395749,395749,395749,,,,,,,,,,,192023,98240,3065,2659,5487,0,Excluded,Excluded,Excluded,Excluded,,,,,,,192023,98240,3065,2659,5487,,,,,,,,,
Romania,Operator Holding Account,SC TERMOELECTRICA SA,13293638,2011-09-01,open,"Bld. Lacul Tei, nr. 1-3",020371,Bucuresti,0,0,895537,787035,787035,787034,787034,787034,64865,55331,46612,38692,31535,25115,19398,14787,,,979051,970935,1046521,909456,960128,969180,917448,884101,832470,420620,,,,,,,979051,970935,1046521,909456,960128,969180,917448,101944,820849,131535,,,,
Romania,Operator Holding Account,SC TERMO CALOR CONFORT SA,RO27374805,2008-04-18,open,"Pitesti, Calea Bucuresti, bl.U4",110134,Pitesti,0,0,231193,203751,203751,203751,203751,203751,,,,,,,,,,,190210,137541,83214,0,0,0,Excluded,Excluded,Excluded,Excluded,,,,,,,190210,137541,83214,,,,,,,,,,,
Romania,Operator Holding Account,SC TERMO CALOR CONFORT SA,RO27374805,2008-04-18,open,"Pitesti, Calea Bucuresti, bl.U4",110134,Pitesti,0,0,157757,139186,139185,139185,139185,139185,81292,66929,18754,11903,8899,7520,6186,4900,,,106124,46695,86797,139087,100578,70974,47019,20551,0,Not Reported,,,,,,,106124,46695,86797,139087,100578,70974,47019,20551,,,,,,
Romania,Operator Holding Account,SC TERMON SRL,RO14785140,2008-04-18,closed,"Oneºti, str. Jupiter, nr. 3",601103,Bacau,0,0,129499,,,,,,,,,,,,,,,,,Not Reported,Not Reported,Not Reported,Not Reported,Not Reported,,,,,,,,,,,,,,,,,,,,,,,,
Romania,Operator Holding Account,TMK - ARTROM S.A.,1510210,2008-04-18,open,"Str. Draganesti, nr 30",230119,Slatina,0,0,61209,54273,54272,54272,54272,54272,51255,50365,49464,48554,47634,46705,45765,44821,,,59841,58590,43365,55883,60223,62993,60500,63706,61214,62579,,,,,,,59841,58590,43365,55883,60223,62993,60500,63706,61214,62579,,,,
Romania,Operator Holding Account,TMK-Resita SA,RO1064207,2008-04-18,open,"Str. Traian Lalescu, nr 36",320050,RESITA,0,0,88731,103320,103319,103319,103319,103319,20746,20386,20022,19653,19281,18905,18524,18142,,,85898,21663,15913,26192,30169,31848,29871,28511,25493,21950,,,,,,,85898,21663,,42105,30169,31848,29871,28511,25493,21950,,,,
Romania,Operator Holding Account,TMK-Resita SA,RO1064207,2008-04-18,closed,"Str. Traian Lalescu, nr 36",320050,RESITA,0,0,21337,,,,,,,,,,,,,,,,19388,Not Reported,Not Reported,Not Reported,Not Reported,Not Reported,,,,,,,,,,,19388,,,,,,,,,,,,,
Romania,Operator Holding Account,SC TRACTORUL UTB SA,RO1109465,2008-04-18,closed,"Str. Turnului, nr 5",500152,Brasov,0,0,44141,,,,,,,,,,,,,,,,,Not Reported,Not Reported,Not Reported,Not Reported,Not Reported,,,,,,,,,,,,,,,,,,,,,,,,
Romania,Operator Holding Account,SC TREMAG SA,RO2361559,2008-04-18,closed,str. Taberei nr.49,820937,Tulcea,0,0,13297,,,,,,,,,,,,,,,,9070,Not Reported,Not Reported,Not Reported,Not Reported,Not Reported,,,,,,,,,,,9070,,,,,,,,,,,,,
Romania,Operator Holding Account,SC Turnatoria Centrala Orion,RO3195284,2008-04-18,open,"Str. Ecaterina Teodoroiu, nr 29",105600,Prahova,0,0,6575,5251,5251,5250,5250,5250,3405,2023,1987,1951,1913,1877,1838,1801,,,4997,4488,3385,2415,2290,2488,1553,955,873,283,,,,,,,4997,4488,3385,2415,2290,2488,1553,955,873,283,,,,
Romania,Operator Holding Account,SC UCM Resita SA,RO1056654,2008-04-18,open,"Str. Golului, nr. 1",320053,Caras-Severin,0,0,5481,5217,5217,5217,5217,5216,4122,1525,749,1471,1443,1415,1386,1358,,,7115,7851,6904,3797,2871,2805,1211,760,1107,1187,,,,,,,7115,7851,6904,3797,2871,2805,1211,760,1107,1187,,,,
Romania,Operator Holding Account,SC UCM Resita SA,RO1056654,2008-04-18,open,"Str. Golului, nr. 1",320053,Caras-Severin,0,0,3756,3368,3368,3368,3368,3367,1953,1359,1335,1310,643,630,618,605,,,3096,3514,4213,2631,2419,2159,937,777,808,686,,,,,,,3096,3514,4213,2631,2419,2159,937,777,808,686,,,,
Romania,Operator Holding Account,SC UCM Turnate SRL,J11/175/2007,2008-04-18,open,Str. Mociur nr. 50,320062,Resita,0,0,5125,5963,5963,5963,5963,5963,443,123,121,119,117,114,112,110,,,4108,4431,4260,1597,653,340,50,0,Excluded,Excluded,,,,,,,4108,4431,4260,1597,653,340,50,,,,,,,
Romania,Operator Holding Account,SC FLOAREA INTERNATIONAL SRL,33306090,2008-04-18,open,"Strada Teilor, nr. 51",925200,"Tandarei, Ialomita",0,0,17229,15063,15063,15063,15062,15062,5938,5752,10211,9941,2960,2825,2691,2559,,,5004,2058,283,248,403,121,100,117,2,43,,,,,,,5004,2058,283,248,403,121,100,117,2,43,,,,
Romania,Operator Holding Account,SC UNIO SA,RO645899,2008-04-18,open,Aleea Expozitiei nr.1,440227,Satu Mare,0,0,31952,28116,28115,28115,28115,28115,3035,2818,2606,0,0,0,0,0,,,7010,5444,4881,4942,3988,3672,2611,1939,1747,,,,,,,,7010,5444,4881,4942,3988,3672,2611,1939,1747,,,,,
Romania,Operator Holding Account,SC UPETROM 1 MAI SA,RO1350365,2008-04-18,open,"P-ta 1 Dec 1918, nr 1",100543,Ploiesti,0,0,7386,6819,6819,6819,6819,6819,3009,2119,2081,2043,0,0,0,0,,,7781,6672,2248,2712,3747,2364,1240,1562,887,134,,,,,,,7781,6672,2248,2712,3747,2364,1240,1562,887,134,,,,
Romania,Operator Holding Account,Harabagiu Sorin Cristinel,RO3195284,2008-04-18,open,"Bulevardul Unirii, bl. 41, et. 1, ap. 3",120242,Buzau,0,0,9043,7956,7956,7956,7956,7955,7290,6524,5779,5056,4355,3678,3022,2391,,,10694,10116,10103,10174,8441,7011,6072,5555,5738,9454,,,,,,,10694,10116,10103,10174,8441,7012,6072,5555,5738,9454,,,,
Romania,Operator Holding Account,SC UVCP SA,14745235,2008-04-18,closed,"Str. Libertaii, nr 209",145200,Teleorman,0,0,44228,,,,,,,,,,,,,,,,0,Not Reported,Not Reported,Not Reported,Not Reported,Not Reported,,,,,,,,,,,,,,,,,,,,,,,,
Romania,Operator Holding Account,SC Uzina de Agent Termic si Alimentare cu Apa,RO13914972,2008-04-18,open,"Str.Severinului, nr.25",215200,Gorj,0,0,39371,34523,34522,34522,34522,34522,29772,24379,19591,15392,11754,8654,6567,5202,,,44711,43221,47875,27205,26732,26788,24545,29186,28196,27197,,,,,,,44711,43221,47875,27205,26732,26788,24545,29186,28196,27197,,,,
Romania,Operator Holding Account,SC UZINA ELECTRICA ZALAU SA,RO14397920,2008-04-18,open,Str. Valea Mitei nr.2,450210,Zalau,0,0,121478,106754,106754,106754,106753,106753,,,,,,,,,,,19657,18976,13732,10593,9084,7949,6674,3084,5,,,,,,,,19657,18976,13732,10593,9084,7949,6674,3084,5,,,,,
Romania,Operator Holding Account,SC Uzina Termica Calafat SA,RO14395814,2008-04-18,open,"Str. Termocentralei, Nr.1",205200,Dolj,0,0,14946,11226,11226,11226,11226,11226,,,,,,,,,,,11662,12424,8188,3806,0,Not Reported,Excluded,Excluded,Excluded,Excluded,,,,,,,11662,12424,8188,3806,,,,,,,,,,
Romania,Operator Holding Account,SC UZINA TERMICA COMANESTI SA,RO14382601,2008-04-18,open,"Str. Moldovei, nr. 18",605200,Bacau,0,0,13645,,,,,,,,,,,,,,,,,Not Reported,Not Reported,Not Reported,Not Reported,Not Reported,Excluded,Excluded,Excluded,Excluded,,,,,,,,,,,,,,,,,,,,
Romania,Operator Holding Account,GLOBAL ENERGY PRODUCTION SA,RO28423620,2008-04-18,open,Sos. Sloboziei nr. 194,080334,Giurgiu,0,0,252507,222418,222418,222418,222418,222417,64345,52240,31948,19622,13343,8258,4311,1994,,,222385,176927,112781,33498,29351,23115,13249,7068,4920,5340,,,,,,,222385,176927,112781,33498,29351,,36364,7068,4920,5340,,,,
Romania,Operator Holding Account,Chemal Turgay,J13/2072/2001,2008-04-18,open,"Str. Nicolae Iorga, nr. 43",900622,Constanta,0,0,284113,251915,251915,251915,251915,251914,23811,19317,15345,11882,10216,8626,7088,5607,,,149435,151847,163334,99081,89513,138522,97340,105139,107691,112884,,,,,,,149435,151847,163334,99081,89513,138522,97340,105139,107691,112884,,,,
Romania,Operator Holding Account,SC Vest Energo SA,RO7324764,2008-04-18,open,"Str. Preciziei, nr.12A, sector 6",62203,Bucuresti,0,0,39072,34332,34331,57177,57176,57176,41453,33717,27027,23655,20391,17231,14174,11227,,,52370,52594,55738,56365,54337,61540,62791,75474,100035,94633,,,,,,,52370,52594,55738,56365,54337,61540,62791,75474,100035,94633,,,,
Romania,Operator Holding Account,Michelin Romania SA,13663684,2008-04-18,open,"Soseaua Bucuresti Nord nr. 10, cladirea O1",077190,Voluntari,0,0,32042,29372,29372,29371,29371,29371,15692,15420,15144,14865,14584,14299,14011,13723,,,34661,26467,20524,15684,15560,12994,11986,12510,12454,12892,,,,,,,34661,26467,20524,15684,15560,12994,11986,12510,12454,12892,,,,
Romania,Operator Holding Account,SC Wienerberger Sisteme de caramizi SRL,10941727,2008-04-18,open,"Sos. Bucuresti Ploiesti, nr. 42-44, Cl. A1, et.1",013696,Bucuresti,0,0,23707,20977,30564,30564,30564,30564,16482,16196,15906,15614,15318,15019,14717,14413,,,19858,16309,15164,15770,14132,11848,14627,15974,16242,15290,,,,,,,19858,16309,15164,15770,14132,11848,14627,15974,16242,15290,,,,
Romania,Operator Holding Account,SC Wienerberger Sisteme de caramizi SRL,10941727,2008-04-18,open,"Sos. Bucuresti Ploiesti, nr. 42-44, Cl. A1, et.1",013696,Bucuresti,0,0,43863,38811,38811,38811,38811,38810,21909,21529,21144,20755,20362,19965,19563,19159,,,33133,30369,21523,13797,16965,23184,19539,27213,29723,21928,,,,,,,33133,30369,21523,13797,16965,23184,19539,27213,29723,21928,,,,
Romania,Operator Holding Account,SC VIROMET SA,RO 1126350,2008-04-18,open,Aleea  Uzinei; Nr.8,505700,Victoria,0,0,77744,68864,68864,68864,68864,68864,98527,24873,24429,23979,23525,23066,22602,22135,,,71254,51495,52965,71797,53659,59650,46527,53591,24930,10711,,,,,,,71254,51495,52965,71797,53659,59650,46527,53591,24930,10711,,,,
Romania,Operator Holding Account,VRANCART SA,RO1454846,2008-04-18,open,"Str. Ec. Teodoroiu, nr 17",625100,Adjud,0,0,16778,20098,20098,33432,33430,33430,24773,24342,23907,23467,23023,22574,22120,21664,,,16732,19724,21474,26007,21444,21914,21182,27948,29350,24514,,,,,,,16732,19724,21474,26007,21444,21914,21182,27948,29350,24514,,,,
Romania,Operator Holding Account,SC VULTURUL SA,RO1327303,2008-04-18,open,Str. Republicii nr.4,105700,Prahova,0,0,2890,2557,2557,2557,2556,2556,,,,,,,,,,,3192,1532,143,107,115,81,Excluded,Excluded,Excluded,Excluded,,,,,,,3192,1532,143,107,115,81,,,,,,,,
Romania,Operator Holding Account,SC YARNEA SRL,13849866,2008-04-18,open,Str. Gheorghe Caranfil nr. 5,617410,Neamt,0,0,41108,36053,36053,36052,36052,36052,3839,3772,3705,3637,3568,3498,3428,3357,,,6454,3529,2090,2583,2112,2432,2329,2114,1941,1826,,,,,,,6454,3529,2090,2583,2112,2432,2329,2114,1941,1826,,,,
Romania,Operator Holding Account,SC Zahar Calarasi SA,RO1928737,2008-04-18,closed,"Str. Varianta Nord, Nr. 4",910053,Calarasi,0,0,22534,,,,,,,,,,,,,,,,,Not Reported,Not Reported,Not Reported,Not Reported,Not Reported,,,,,,,,,,,,,,,,,,,,,,,,
Romania,Operator Holding Account,SC ZAHAR CORABIA SA,RO1516981,2008-04-18,open,"Str. Traian, nr 1",235300,Olt,0,0,32694,28786,28786,28786,28786,28786,0,0,0,0,0,0,0,0,,,18861,22651,23240,0,80,0,0,0,0,Excluded,,,,,,,18861,22651,23240,,80,,,,,,,,,
Romania,Operator Holding Account,TEREOS ROMANIA SA,1233870,2008-04-18,open,Str.Fabricii  Nr.3,545200,LUDUS,0,0,26565,23361,23360,23360,23360,23360,10681,10495,10308,10118,9926,9733,9537,9341,,,12926,12243,11733,11733,9483,10858,13904,23240,16067,19525,,,,,,,12926,12243,11733,11733,9483,10858,13904,23240,16067,19525,,,,
Romania,Operator Holding Account,S.N.N. S.A - Sucursala CNE Cernavoda,10874881,2008-04-18,open,"Str. Polona, nr 65, sector 1",010494,BUCURESTI,0,0,12335,10857,10857,10857,10857,10856,,,,,,,,,,,3348,1548,1884,1144,1142,1024,1319,1576,1079,881,,,,,,,3348,1548,1884,1144,1142,1024,1319,1576,1079,881,,,,
Romania,Operator Holding Account,EGGER Romania SRL,RO16136689,2009-03-23,open,Austriei 2,725400,Radauti,,,,63128,63128,63128,63128,63128,75729,74118,47833,41850,36052,30442,25013,19788,,,,27095,34254,39986,42721,40568,35226,28503,28526,27747,,,,,,,,,27095,74240,42721,40568,35226,28503,28526,27747,,,,
Romania,Operator Holding Account,BELTRAME CARLO,RO18277250,2011-09-28,open,PIAZZALE REPUBBLICA 10/A,47841,CATTOLICA,,,,11532,35250,35250,35251,35251,6370,6258,6146,6034,5919,5804,5687,5569,,,,12476,2572,11135,13703,11463,15959,19076,20017,12001,,,,,,,,,12476,13707,13703,11463,15959,19076,20017,12001,,,,
Romania,Operator Holding Account,S.C. CELCO S.A.,RO1891328,2009-03-25,open,STR. INDUSTRIALA NR. 5,900147,CONSTANTA,,,,0,65442,65442,65442,65442,62182,61102,60009,58905,57789,56662,55521,54376,,,,Not Reported,63186,60702,67594,73058,64676,77382,99189,120447,,,,,,,,,63186,60702,67594,73058,64676,77382,99189,120447,,,,
Romania,Operator Holding Account,SC Wienerberger Sisteme de Caramizi SRL,10941727,2009-03-25,open,"sos. Bucuresti Ploiesti nr. 42-44, CL.A1, et.1",013696,Bucuresti,,,,16437,37177,37177,37177,37176,19770,19426,19079,18728,18373,18015,17652,17288,,,,16437,19881,22067,23078,21059,21095,22732,31128,24046,,,,,,,,16437,19881,22067,23078,21059,21095,22732,31128,24046,,,,
Romania,Operator Holding Account,S.C. URSUS BREWERIES S.A. BUCURESTI-Sucursala Timisoara,14720249,2009-03-26,open,28 Stefan cel Mare,300116,Timisoara,,,,12775,12776,12776,12775,12775,5036,4508,3992,3493,3009,2541,2088,1651,,,,3123,6580,5011,4369,4266,4756,3722,4262,4918,,,,,,,,,9703,5011,4369,4266,4756,3722,4262,4918,,,,
Romania,Operator Holding Account,SC SAINT GOBAIN CONSTRUCTION PRODUCTS ROMANIA SRL,J40/16947/1994,2009-03-30,open,"Strada Rapsodiei, nr 7, bl S, scA, et3, ap9",401001,Turda,,,,17918,17918,17918,17918,17918,12188,11976,11762,11545,2832,2777,2721,2665,,,,15897,8205,9568,9652,10916,17320,17067,17578,3632,,,,,,,,,24102,9568,9652,10916,17320,17067,17578,3632,,,,
Romania,Operator Holding Account,SC  CERAMUS  SA,J03/14/1991,2009-04-02,open,Str. Fundatura Gruiului nr.2,115100,CAMPULUNG,,,,0,2300,2300,2300,2300,1000,983,965,948,930,911,893,875,,,,Not Reported,877,619,33,453,179,230,233,332,,,,,,,,,,1496,33,453,179,230,233,332,,,,
Romania,Operator Holding Account,ENERGY BIO CHEMICALS S.A.,22609447,2009-04-02,open,TRAIAN,020643,BUCURESTI,,,,108207,108206,108206,108206,108206,60182,29568,0,0,0,0,0,0,,,,4530,4754,9623,20539,52610,22837,7,3,Excluded,,,,,,,,,9284,9623,20539,52610,22837,7,3,,,,,
Romania,Operator Holding Account,SC SORGSIR SRL,J17/628/2016,2009-04-16,open,STR FABRICII NR 10,807180,LIESTI,,,,61786,61787,61787,61786,61786,1217,1196,1175,1153,1131,1109,1087,1064,,,,27902,2322,3362,38,16,11,0,0,4,,,,,,,,,30224,3362,38,16,11,,,4,,,,
Romania,Operator Holding Account,FOREVER PIPE SRL,13754677,2009-06-01,open,"STR. HERENDESTI, NR. 10",305500,LUGOJ,,,,0,1024,1023,1023,1023,,,,,,,,,,,,,1171,837,637,34,Excluded,Excluded,Excluded,Excluded,,,,,,,,,,2008,637,34,,,,,,,,
Romania,Operator Holding Account,S.C. PRODMAROM S.R.L.,10323947,2009-05-29,open,"STR.DEZROBORII,NR.18/A",547515,SARMASU,,,,0,301,301,301,300,,,,,,,,,,,,,255,254,278,229,Excluded,Excluded,Excluded,Excluded,,,,,,,,,255,254,278,229,,,,,,,,
Romania,Operator Holding Account,Monsanto Romania SRL,J23/1959/02.09.2009,2009-06-04,open,DN2 Bucuresti-Urziceni nr. 600-611/1,9277220,"Comuna Sinesti, Judetul Ialomita",,,,0,41272,41272,41271,41271,2737,2449,2170,1898,1636,1381,1135,897,,,,,4388,2882,2678,2017,4424,4576,2309,2173,,,,,,,,,,7270,2678,2017,4424,4576,2309,2173,,,,
Romania,Operator Holding Account,SC Zaharul Oradea SA,RO65484,2009-06-22,open,Sos.Borsului Nr.3,410605,Oradea,,,,0,106550,116092,116092,116092,24863,24432,23995,23553,23107,22657,22200,21742,,,,,2616,2388,2170,46923,49967,57280,53443,58160,,,,,,,,,,5004,2170,46923,49967,57280,53443,58160,,,,
Romania,Operator Holding Account,SC FABRICA DE ZAHAR BOD SA,J08/179/1991,2010-01-22,open,"Strada Fabricii, nr. 1,",507020,BOD,,,,0,65331,65331,65331,65330,12036,11827,11615,11401,11185,10967,10746,10525,,,,,17075,10692,8398,10925,17062,22795,27814,19447,,,,,,,,,17075,10692,8398,10925,17062,22795,27814,19447,,,,
Romania,Operator Holding Account,SC LAZAR SRL,RO123602,2010-01-26,open,"str.SALCAMILOR ,nr.37",545300,REGHIN,,,,0,3407,3407,3407,3407,,,,,,,,,,,,,395,230,186,0,Excluded,Excluded,Excluded,Excluded,,,,,,,,,395,230,186,,,,,,,,,
Romania,Operator Holding Account,SC KRONOSPAN ROMANIA SRL,RO6646680,2010-01-28,open,Str. Strunga Mieilor nr.1,500482,Brasov,,,,0,35013,35013,35012,35012,35420,34805,22461,19652,16929,14295,11747,9292,,,,,5292,25680,23054,25403,34171,27102,9580,6176,,,,,,,,,5292,25680,23054,25403,34171,27102,9580,6176,,,,
Romania,Operator Holding Account,SC URANUS JUNIOR 2003 SRL,RO 15866596,2008-04-18,open,"Cristur nr 1D,",330003,"Hunedoara, Deva",0,0,57844,60218,60218,60218,60218,60218,,,,,,,,,,,30590,0,0,0,0,0,Excluded,Excluded,Excluded,Excluded,,,,,,,30590,,,,,,,,,,,,,
Romania,Operator Holding Account,S.C. ENERGY COGENERATION GROUP S.A.,RO26368074,2011-12-29,open,"Str.Portului, nr.38",145400,Zimnicea,,,,0,0,130640,130640,130640,81971,36678,16247,14220,0,0,0,0,,,,,0,75315,67312,90516,49680,39973,33366,11295,,,,,,,,,,75315,67312,90516,49680,39973,33366,,,,,
Romania,Operator Holding Account,S.C. KERACHIT S.R.L.,RO13448520,2010-08-13,closed,"STR. NOJORIDULUI, NR. 25",410542,ORADEA,,,,0,0,0,0,0,,,,,,,,,,,,,,,Not Reported,,,,,,,,,,,,,,,,,,,,,,,,,
Romania,Operator Holding Account,SC LAMINORUL SA BRAILA,R 2266948,2010-10-04,open,Str. Industria Sarmei nr.2;localitatea Braila,810461,Braila,,,,0,0,39196,39197,39196,12627,255,250,6104,5988,5871,5753,5635,,,,,,18584,24456,8577,21,1592,3977,4246,,,,,,,,,,18584,24456,8577,21,1592,3977,4246,,,,
Romania,Operator Holding Account,SC Kerachit SRL,13448520,2010-12-31,open,"str Nojoridului,  nr 25",410542,Oradea,,,,0,0,9075,9074,9074,0,0,0,0,0,0,0,0,,,,,,4631,3041,0,Not Reported,Not Reported,Excluded,Excluded,,,,,,,,,,4631,3041,,,,,,,,,
Romania,Operator Holding Account,SC ERDEMIR ROMANIA SRL,13428573,2010-12-03,open,SOS GAESTI NR 18,130087,TARGOVISTE,,,,0,0,0,0,0,13596,13360,13120,12879,12636,12389,12140,11890,,,,,,1337,15873,14072,14334,13110,12916,12725,,,,,,,,,,1337,15873,14072,14334,13110,12916,12725,,,,
Romania,Operator Holding Account,SC LUKOIL ENERGY&GAS ROMANIA SRL,18868036,2010-06-22,open,"STRADA MIHAI BRAVU NUMAR 235, CLADIREA CET-2",100410,PLOIESTI,,,,0,0,0,0,0,2522,2257,2000,1751,1509,1275,1049,831,,,,,,148304,414635,510505,434501,414539,395408,405375,,,,,,,,,,148304,414635,510505,434501,414539,395408,405375,,,,
Romania,Operator Holding Account,S.C. ECOGEN ENERGY S.A.,RO23241660,2010-12-08,open,"BUZAU, ALEEA INDUSTRIEI, NR. 7",120224,BUZAU,,,,0,0,0,0,0,53522,47898,42432,18570,16007,13527,11127,8813,,,,,,5434,49998,50124,46262,47855,45306,45121,,,,,,,,,,5434,49998,50124,46262,47855,45306,45121,,,,
Romania,Operator Holding Account,S.C. GA-PRO-CO CHEMICALS S.A.,R1772869,2010-09-06,open,"str.Gheorghe Caranfil, nr.11",617410,Savinesti,,,,0,0,160727,21833,0,528900,157769,169464,35785,35107,34422,33729,33034,,,,,,175123,368741,346704,165988,233380,0,0,,,,,,,,,,175123,368741,346704,165988,233380,,,,,,
Romania,Operator Holding Account,SC DUCTIL STEEL SA,11845183,2011-06-29,open,"ALEEA INDUSTRIILOR NR. 1,",120224,BUZAU,,,,0,0,0,0,0,25226,24789,24345,23897,23444,22987,22524,22060,,,,,,,32228,28273,13957,14308,15801,15596,,,,,,,,,,,32228,28273,13957,14308,15801,15596,,,,
Romania,Operator Holding Account,S.C. AGFD Tandarei S.R.L.,RO208317,2011-06-27,closed,Str. Teilor nr.1,925200,Tandarei,,,,0,0,0,0,0,,,,,,,,,,,,,,,,Not Reported,,,,,,,,,,,,,,,,,,,,,,,,
Romania,Operator Holding Account,S.C. BEPCO S.R.L.,26512802,2011-01-17,open,"DN 1, KM 174+507",507075,GHIMBAV,,,,0,0,0,0,0,19342,17308,15334,13421,11569,9776,8042,6370,,,,,,,71144,62715,50756,49041,47407,28186,,,,,,,,,,,71144,62715,50756,49041,47407,28186,,,,
Romania,Operator Holding Account,SC TRANSMIR SRL,10400632,2011-06-20,open,"DE 581, KM. 87",737635,ZORLENI,,,,0,0,0,0,0,,,,,,,,,,,,,,,1157,1368,Excluded,Excluded,Excluded,Excluded,,,,,,,,,,,1157,1368,,,,,,,,
Romania,Operator Holding Account,S.C. BERGENBIER S.A.,6608725,2011-02-17,open,Str. Gh. Gr. Cantacuzino nr. 287,100291,Ploiesti,,,,0,0,0,0,0,9867,8830,7821,6843,5895,4977,4090,3236,,,,,,,6865,9734,10196,9744,9496,9377,,,,,,,,,,,6865,9734,10196,9744,9496,9377,,,,
Romania,Operator Holding Account,SC HAMMERER ALUMINIUM INDUSTRIES SANTANA SRL,18992904,2011-06-30,open,CALEA HAMMERER; NR.5,317280,SANTANA,,,,0,0,0,0,0,11767,11561,11355,11146,10935,10722,10506,10290,,,,,,,7590,15743,17183,17078,18877,19012,,,,,,,,,,,7590,15746,17183,17078,18877,19012,,,,
Romania,Operator Holding Account,S.C. HOEGANAES CORPORATION EUROPE S.A.,RO 13117640,2011-07-29,open,"Str. Urziceni, Nr. 33",120226,Buzau,,,,0,0,0,0,0,5939,5836,5732,5626,5520,5412,5303,5194,,,,,,,4382,9061,11393,11802,12776,16297,,,,,,,,,,,4382,9061,11393,11802,12776,16297,,,,
Romania,Operator Holding Account,Egger Energia SRL,RO18552890,2012-04-27,open,"Austriei 2, Room 2 Municipality",725400,Radauti Suceava,,,,,,,,,39915,59618,38696,29230,25195,21292,17515,13872,,,,,,,,30799,39065,16740,12580,10165,,,,,,,,,,,,30799,39065,16740,12580,10165,,,,
Romania,Aircraft Operator Account,S.C. AIR BUCHAREST,J40/11972/08,2012-01-01,open,"Bdul Iancu de Hunedoara, nr 36",011744,Bucharest,,,,,,,,,,,,,,,,,,,,,,,,3269,4968,877,1210,Excluded,,,,,,,,,,,,3269,,5845,1210,,,,,
Romania,Aircraft Operator Account,RIATA MANAGEMENT LLC,20-8023416,2012-01-01,open,"LEMMON AVENUE, nr. 8611",75209,DALLAS,,,,,,,,,,,,,,,,,,,,,,,,44,Excluded,Excluded,Excluded,Excluded,,,,,,,,,,,,44,,,,,,,,
Romania,Operator Holding Account,Ciech Soda Romania SA,1467188,2013-05-09,open,"Str. Uzinei, nr. 2",240050,Ramnicu Valcea,,,,,,,,,318130,312298,306409,300477,294492,288463,282374,276278,,,,,,,,,188109,182137,188113,181996,,,,,,,,,,,,,188109,182137,188113,181996,,,,
Romania,Operator Holding Account,SC ENERGY COGENERATION GROUP SA,J34/2/2010,2013-12-09,open,Str. Portului Nr. 38,145400,Zimnicea,,,,,,,,,,,,,,,,,,,,,,,,,6011,87990,12076,0,,,,,,,,,,,,,6011,87990,12076,,,,,
Romania,Operator Holding Account,SC LINDE GAZ ROMANIA SRL,J35/1149/09.08.1996,2014-10-08,open,Str. A. Imbroane nr. 9,300136,TIMISOARA,,,,,,,,,,11034,43003,42227,41452,40677,39902,39126,,,,,,,,,,11961,58317,61410,,,,,,,,,,,,,,11961,58317,61410,,,,
Romania,Operator Holding Account,SC Termo Calor Confort SA,j03/880/2010,2014-10-30,open,Str. Calea Bucuresti Bl U4,110134,Pitesti,,,,,,,,,,3608,19124,16739,7214,6097,5015,3972,,,,,,,,,,6402,19155,11819,,,,,,,,,,,,,,6402,19155,11819,,,,
Romania,Operator Holding Account,S.C.BIOENERGY SUCEAVA SRL,J 40/3780/02.04.2012,2015-03-09,open,"Str. Energeticianului,nr.1, Suceava",720166,Suceava,,,,,,,,,,,5956,20681,17827,15065,12392,9815,,,,,,,,,,,8,2429,,,,,,,,,,,,,,,8,2429,,,,
Romania,Operator Holding Account,METALICPLAS IMPEX SA,J12/4293/1994,2015-06-08,open,"str. 1 Mai, nr.113, Dej",405200,DEJ,,,,,,,,,,,4009,6714,6591,6468,6344,6221,,,,,,,,,,,6092,9879,,,,,,,,,,,,,,,6092,9879,,,,
Romania,Operator Holding Account,Etex Building Performance S.A.,J40/6083/1999,2015-12-18,open,"Drumul Leordeni, nr. 106",042186,Bucuresti,,,,,,,,,,,,17069,16208,15905,15602,15299,,,,,,,,,,,176,18958,,,,,,,,,,,,,,,176,18958,,,,
Romania,Operator Holding Account,S.C. EURO TYRES MANUFACTURING S.R.L.,J40/7556/25.06.2014,2015-12-21,open,"Str. Dr. Louis Pasteur, nr. 38, et. 1, ap, 45",050534,Bucuresti,,,,,,,,,,,,,,,,,,,,,,,,,,,36,5026,,,,,,,,,,,,,,,36,5026,,,,
Romania,Operator Holding Account,EGGER TECHNOLOGIA S.R.L.,J33/407/2009,2015-12-21,open,"Str. Austriei, nr. 2, cam 03",725400,Radauti,,,,,,,,,,,,6235,6357,6239,6120,6001,,,,,,,,,,,122,6369,,,,,,,,,,,,,,,122,6369,,,,
Romania,Operator Holding Account,S.C. CEMACON S.A.,J12/2466/13.09.2012,2015-09-10,open,"Str. Fabricii, nr. 1, loc. Zalau, jud. Salaj",400117,Cluj-Napoca,,,,,,,,,,,,,,,,,,,,,,,,,,,3735,9115,,,,,,,,,,,,,,,3735,9115,,,,
Romania,Operator Holding Account,SC PEHART TEC GRUP SA,J12/2443/2005,2017-01-19,open,"Str 1 MAI, Nr 113",405200,Dej,,,,,,,,,,,,,7149,7219,7082,6944,,,,,,,,,,,,,,,,,,,,,,,,,,,,,,,,
Romania,Operator Holding Account,S.C. GAS ENERGY ECOTHERM S.A.,J8/787/2014,2017-01-10,open,"STR. NICOLAE TITULESCU, NR. 4",500010,BRASOV,,,,,,,,,,,,,,,,,,,,,,,,,,,,,,,,,,,,,,,,,,,,,,,,
Romania,Operator Holding Account,S.C. PRIO EXTRACTIE S.R.L.,J40/12428/21.09.2016,2017-09-01,open,"STR. LISABONA, NR. 5",915300,LEHLIU GARA,,,,,,,,,,,,,,,,,,,,,,,,,,,,,,,,,,,,,,,,,,,,,,,,
