Country,Account Type,Account Holder Name,Company Registration No,Permit/Plan Date,Account status,Main Address Line,Postal Code,City,Allowance In Allocation In 2005,Allowance In Allocation In 2006,Allowance In Allocation In 2007,Allowance In Allocation In 2008,Allowance In Allocation In 2009,Allowance In Allocation In 2010,Allowance In Allocation In 2011,Allowance In Allocation In 2012,Allowance In Allocation In 2013,Allowance In Allocation In 2014,Allowance In Allocation In 2015,Allowance In Allocation In 2016,Allowance In Allocation In 2017,Allowance In Allocation In 2018,Allowance In Allocation In 2019,Allowance In Allocation In 2020,Verified Emissions In 2005,Verified Emissions In 2006,Verified Emissions In 2007,Verified Emissions In 2008,Verified Emissions In 2009,Verified Emissions In 2010,Verified Emissions In 2011,Verified Emissions In 2012,Verified Emissions In 2013,Verified Emissions In 2014,Verified Emissions In 2015,Verified Emissions In 2016,Verified Emissions In 2017,Verified Emissions In 2018,Verified Emissions In 2019,Verified Emissions In 2020,Units Surrendered In 2005,Units Surrendered In 2006,Units Surrendered In 2007,Units Surrendered In 2008,Units Surrendered In 2009,Units Surrendered In 2010,Units Surrendered In 2011,Units Surrendered In 2012,Units Surrendered In 2013,Units Surrendered In 2014,Units Surrendered In 2015,Units Surrendered In 2016,Units Surrendered In 2017,Units Surrendered In 2018,Units Surrendered In 2019,Units Surrendered In 2020
Slovakia,Aircraft Operator Account,"VIP WINGS, a.s.",35788631,2012-01-01,closed,Ivánska cesta 30/B,82104,Bratislava,,,,,,,,4005,,,,,,,,,,,,,,,,6678,,,,,,,,,,,,,,,,6678,,,,,,,,
Slovakia,Operator Holding Account,"STEFE Banská Bystrica, a.s.",36024473,2008-01-01,open,Zvolenská cesta 1,97405,Banská Bystrica,37541,37541,37540,32600,32600,32600,32600,32600,9725,8673,7684,6725,5797,4899,4030,3192,23371,24191,25895,23516,23280,23094,20340,13057,12305,12435,12701,13386,,,,,,47562,25895,23516,23280,23094,20340,13057,12305,12435,12701,13386,,,,
Slovakia,Operator Holding Account,"Tate & Lyle Boleraz, s.r.o.",31411011,2008-01-01,open,Boleráz,91908,Boleráz,39045,39045,39045,44200,44200,66500,73200,73200,42263,41528,40793,40056,39321,38586,37851,37116,39586,46781,44950,55380,49229,51840,58929,57082,52288,59480,60606,59805,,,,,541,85826,44950,55380,49229,51840,58929,57082,52288,59480,60606,59805,,,,
Slovakia,Operator Holding Account,A.N.B. a.s.,35732032,2006-02-10,closed,Bystrická 657/7,96681,Žarnovica,1892,1892,1891,,,,,,,,,,,,,,12,55,21,,,Not Reported,,,,,,,,,,,,67,21,,,,,,,,,,,,,
Slovakia,Operator Holding Account,"AVC, a.s.",31561306,2005-12-21,closed,Slobody 1360,02211,Čadca,5197,5196,5196,,,,,,,,,,,,,,1997,941,0,,,Not Reported,,,,,,,,,,,1,2937,,,,,,,,,,,,,,
Slovakia,Operator Holding Account,Bekaert Hlohovec a. s.,36234052,2008-01-01,closed,Mierová 2317,92028,Hlohovec,18792,18792,18792,7480,7480,7480,7480,0,,,,,,,,,7531,7417,7253,8134,6744,250,0,,,,,,,,,,,14948,7253,8134,6744,250,,,,,,,,,,
Slovakia,Operator Holding Account,Biotika a.s.,31561900,2008-01-01,open,Slovenská Ľupča 566,97613,Slovenská Ľupča,58417,58416,58416,52561,52561,52561,52561,52561,15874,15598,15319,15037,14752,14464,14173,13881,28193,20198,23173,23420,18828,19221,20652,17818,19849,15464,15097,14738,,,,,4977,43414,23173,23420,18828,19221,20652,17818,19849,15464,15097,14738,,,,
Slovakia,Operator Holding Account,TIMMA s.r.o.,36624985,2008-01-01,closed,Námestie A. Hlinka 3/816,01011,Žilina,34286,34285,34285,39433,39433,39433,39433,0,,,,,,,,,27146,21330,15495,10550,2994,57,5,Not Reported,,,,,,,,,9162,39314,15495,10550,2994,57,5,,,,,,,,,
Slovakia,Operator Holding Account,"Bratislavská teplárenská, a.s.",35823542,2008-01-01,open,Bajkalská 21/A,82905,Bratislava,132530,132530,132530,103390,103390,103390,103390,103390,34740,31598,51480,45658,40014,34551,29260,24157,119341,87439,38762,39938,39339,41099,26282,28619,30641,136535,136695,137191,,,,,,206780,38762,39938,39339,41099,26282,28619,30641,136535,136695,137191,,,,
Slovakia,Operator Holding Account,"Bratislavská teplárenská, a.s.",35823542,2008-01-01,open,Bajkalská 21/A,82905,Bratislava,121764,121764,121764,97884,97884,97884,97884,97884,62358,55804,49437,43271,37298,31519,25928,20536,101300,94469,85028,84369,83582,87459,78038,69910,61274,49413,54288,55730,,,,,,195769,85028,84369,83582,87459,78038,69910,61274,49413,54288,55730,,,,
Slovakia,Operator Holding Account,"Bratislavská teplárenská, a.s.",35823542,2008-01-01,open,Bajkalská 21/A,82905,Bratislava,14000,14000,14000,8571,8571,8571,8571,8571,4058,3565,3189,2825,2471,2129,1797,1478,7778,8571,1535,2811,4054,6006,1145,3823,2990,26143,26089,22667,,,,,,16349,1535,2811,4054,6006,1145,3823,2990,26143,26089,22667,,,,
Slovakia,Operator Holding Account,"Bučina DDD, spol. s r.o.",36059323,2008-01-01,open,Lučenecká cesta 1335/21,96096,Zvolen,15089,15089,15089,9700,9700,9700,9700,9700,32787,32218,20792,18191,15671,13232,10871,8602,7003,8332,8403,13617,8315,7502,6917,7650,8025,8034,8744,8721,,,,,,15335,8403,13617,8315,7502,6917,7650,8025,8034,8744,8721,,,,
Slovakia,Operator Holding Account,"BUČINA ZVOLEN, a.s.",36029815,2008-01-01,closed,Lučenecká cesta 2266/6,96096,Zvolen,2484,2484,2484,700,700,700,700,700,,,,,,,,,110,410,35,17,2,1,173,60,,,,,,,,,,520,35,17,2,1,173,60,,,,,,,,
Slovakia,Operator Holding Account,"BUKOCEL, a.s.",36445461,2008-01-01,open,Hencovská 2073,09302,Hencovce,193200,193200,193200,329208,485500,485500,485500,485500,124925,122755,120559,118341,116099,113836,111543,109243,181099,180768,182322,237852,258632,258960,236197,196087,19667,18728,18498,18540,,,,,300221,243968,,237852,258632,258960,236197,196087,19667,18728,18498,18540,,,,
Slovakia,Operator Holding Account,"Bytkomfort, s.r.o.",36555193,2008-01-01,open,SNP 9,94002,Nové Zámky,43186,43186,43185,35427,35427,35427,35427,35427,21931,18145,16040,14039,12102,10227,8412,6663,36106,34747,32275,32414,31867,33840,28572,25627,23010,19853,19846,20589,,,,,4920,65933,32275,32414,31867,33840,28572,25627,23010,19853,19846,20589,,,,
Slovakia,Operator Holding Account,"Calmit, spol. s r.o.",36172162,2008-01-01,closed,Gaštanová 15,81104,Bratislava,22924,22924,22924,28386,28386,28386,28386,28386,0,0,0,0,0,0,0,0,33455,4722,7735,16989,2681,4355,0,0,0,0,0,0,,,,,10531,27646,7735,16989,2681,4355,,,,,,,,,,
Slovakia,Operator Holding Account,"Calmit, spol. s r.o.",36172162,2008-01-01,open,Gaštanová 15,81104,Bratislava,110165,110165,110165,128655,128655,128655,128655,128655,71228,34996,68739,67475,66196,64905,63598,62287,83121,75940,62210,85902,47340,44243,40227,49065,34096,62739,60086,48306,,,,,,159061,62210,85902,47340,44243,40227,49065,34096,62739,60086,48306,,,,
Slovakia,Operator Holding Account,"Calmit, spol. s r.o.",36172162,2008-01-01,open,Gaštanová 15,81104,Bratislava,92317,92317,92317,109995,109995,224028,224028,224028,91191,89607,88005,86386,84749,83096,81423,79744,80387,76948,90011,119301,101271,119731,96936,110548,98187,97382,89290,100200,,,,,,157335,90011,119301,101271,119731,96936,110548,98187,97382,89290,100200,,,,
Slovakia,Operator Holding Account,"Carmeuse Slovakia, s.r.o.",36198749,2008-01-01,open,Slavec 179,04911,Slavec,509277,509277,509276,244825,244825,244825,244825,721925,406953,399885,392733,385507,378204,370828,363361,355869,417569,480063,469154,504122,424171,507238,458377,451374,424616,393619,402664,386010,,,,,,897632,469154,504122,424171,507238,458377,451374,424616,393619,402664,386010,,,,
Slovakia,Operator Holding Account,"Carmeuse Slovakia, s.r.o.",36198749,2008-01-01,open,Slavec 179,04911,Slavec,200177,200177,200177,721925,721925,721925,721925,244825,192914,189563,186173,182747,179285,175789,172249,168697,214139,200900,207483,201117,180298,181382,211107,172249,114441,131109,115275,105930,,,,,13962,401077,207483,201117,180298,181382,211107,172249,114441,131109,115275,105930,,,,
Slovakia,Operator Holding Account,CEMMAC a.s.,31412106,2008-01-01,open,Cementárska 14/14,91442,Horné Srnie,376444,376444,376444,386725,386725,386725,386725,386725,299135,293939,288682,283371,278002,272581,267092,261585,352460,352701,354888,355008,331114,323249,331596,285163,314749,332244,299683,291400,,,,,,705161,354888,355008,331114,323249,331596,285163,314749,332244,299683,291400,,,,
Slovakia,Operator Holding Account,"Veolia Energia Slovensko, a. s.",35702257,2008-01-01,closed,Einsteinova 25,85101,Bratislava,6397,6397,6396,5680,5680,5680,5680,5680,4042,0,0,0,0,0,0,0,5974,5386,4759,4659,4560,4788,4164,3940,4095,,,,,,,,,11360,4759,4659,4560,4788,4164,3940,4095,,,,,,,
Slovakia,Operator Holding Account,"Veolia Energia Slovensko, a. s.",35702257,2008-01-01,closed,Einsteinova 25,85101,Bratislava,6425,6425,6424,5663,5663,5663,5663,5663,4054,0,0,0,0,0,0,0,5889,5438,4694,4567,4374,4437,3841,3663,3945,,,,,,,,,11327,4694,4567,4374,4437,3841,3663,3945,,,,,,,
Slovakia,Operator Holding Account,"Veolia Energia Slovensko, a. s.",35702257,2008-01-01,closed,Einsteinova 25,85101,Bratislava,5744,5744,5744,5072,5072,5072,5072,5072,3471,0,0,0,0,0,0,0,5293,4851,4266,4133,4011,4262,3661,3406,3594,,,,,,,,,10144,4266,4133,4011,4262,3661,3406,3594,,,,,,,
Slovakia,Operator Holding Account,"Veolia Energia Slovensko, a. s.",35702257,2008-01-01,closed,Einsteinova 25,85101,Bratislava,4117,4116,4116,3316,3316,3316,3316,3316,2296,0,0,0,0,0,0,0,3499,3132,2854,2736,2651,2691,2351,2268,2269,,,,,,,,,6631,2854,2736,2651,2691,2351,2268,2269,,,,,,,
Slovakia,Operator Holding Account,"Veolia Energia Slovensko, a. s.",35702257,2008-01-01,closed,Einsteinova 25,85101,Bratislava,6743,6743,6742,4473,4473,4473,4473,4473,,,,,,,,,4585,4360,3283,2994,3185,3200,2709,2378,,,,,,,,,,8945,3283,2994,3185,3200,2709,2378,,,,,,,,
Slovakia,Operator Holding Account,"Veolia Energia Slovensko, a. s.",35702257,2008-01-01,closed,Einsteinova 25,85101,Bratislava,5124,5124,5124,635,635,635,635,635,,,,,,,,,890,380,193,122,258,255,57,14,,,,,,,,,0,1270,193,122,258,255,57,14,,,,,,,,
Slovakia,Operator Holding Account,"Veolia Energia Slovensko, a. s.",35702257,2008-01-01,closed,Einsteinova 25,85101,Bratislava,7251,7251,7251,6106,6106,6106,6106,6106,4384,0,0,0,0,0,0,0,6358,5854,5094,5000,4856,4903,4063,3797,3972,,,,,,,,,12212,5094,5000,4856,4903,4063,3797,3972,,,,,,,
Slovakia,Operator Holding Account,"Veolia Energia Slovensko, a. s.",35702257,2008-01-01,closed,Einsteinova 25,85101,Bratislava,4715,4715,4715,4756,4756,4756,4756,4756,,,,,,,,,5219,4293,3631,3402,3427,3330,2997,3145,,,,,,,,,504,9008,3631,3402,3427,3330,2997,3145,,,,,,,,
Slovakia,Operator Holding Account,"Veolia Energia Slovensko, a. s.",35702257,2008-01-01,closed,Einsteinova 25,85101,Bratislava,6788,6788,6788,6402,6402,6402,6402,6402,4590,0,0,0,0,0,0,0,6646,6159,5436,5282,5044,5213,4441,4185,4462,,,,,,,,,12805,5436,5282,5044,5213,4441,4185,4462,,,,,,,
Slovakia,Operator Holding Account,"Veolia Energia Slovensko, a. s.",35702257,2008-01-01,closed,Einsteinova 25,85101,Bratislava,5520,5520,5520,5186,5186,5186,5186,5186,3794,0,0,0,0,0,0,0,5372,5001,4457,4605,4698,4977,4276,4122,4297,,,,,,,,,10373,4457,4605,4698,4977,4276,4122,4297,,,,,,,
Slovakia,Operator Holding Account,"Veolia Energia Slovensko, a. s.",35702257,2008-01-01,closed,Einsteinova 25,85101,Bratislava,7881,7880,7880,6857,6857,6857,6857,6857,7826,0,0,0,0,0,0,0,7317,6376,5726,5538,5146,5322,4607,4625,7679,,,,,,,,,13693,5726,5538,5146,5322,4607,4625,7679,,,,,,,
Slovakia,Operator Holding Account,"Veolia Energia Slovensko, a. s.",35702257,2008-01-01,closed,Einsteinova 25,85101,Bratislava,4964,4964,4963,4406,4406,4406,4406,4406,,,,,,,,,4551,4260,3857,3916,3562,4007,3674,3096,,,,,,,,,,8811,3857,3916,3562,4007,3674,3096,,,,,,,,
Slovakia,Operator Holding Account,"Veolia Energia Slovensko, a. s.",35702257,2008-01-01,closed,Einsteinova 25,85101,Bratislava,6479,6478,6478,6113,6113,6113,6113,6113,7417,0,0,0,0,0,0,0,6415,5810,5037,4885,5010,4907,4107,4325,7838,,,,,,,,,12225,5037,4885,5010,4907,4107,4325,7838,,,,,,,
Slovakia,Operator Holding Account,"Veolia Energia Slovensko, a. s.",35702257,2008-01-01,closed,Einsteinova 25,85101,Bratislava,7865,7865,7864,6918,6918,6918,6918,6918,8657,0,0,0,0,0,0,0,7049,6787,5735,5688,5776,5817,5246,5110,8928,,,,,,,,,13836,5735,5688,5776,5817,5246,5110,8928,,,,,,,
Slovakia,Operator Holding Account,"Veolia Energia Slovensko, a. s.",35702257,2008-01-01,closed,Einsteinova 25,85101,Bratislava,13556,13556,13556,12375,12375,12375,12375,12375,9697,8678,0,0,0,0,0,0,12696,12053,10797,10466,9966,10496,8842,8215,8348,10055,,,,,,,8462,16287,10797,10466,9966,10496,8842,8215,8348,10055,,,,,,
Slovakia,Operator Holding Account,"Veolia Energia Slovensko, a. s.",35702257,2008-01-01,closed,Einsteinova 25,85101,Bratislava,7396,7395,7395,5889,5889,5889,5889,5889,7507,6718,0,0,0,0,0,0,5968,5810,5080,4932,4473,4654,3888,3426,6720,6926,,,,,,,,11778,5080,4932,4473,4654,3888,3426,6720,6926,,,,,,
Slovakia,Operator Holding Account,"Veolia Energia Slovensko, a. s.",35702257,2008-01-01,closed,Einsteinova 25,85101,Bratislava,7165,7165,7165,5979,5979,5979,5979,5979,4182,0,0,0,0,0,0,0,6288,5669,4927,4800,4648,4785,4132,3943,4154,,,,,,,,,11957,4927,4800,4648,4785,4132,3943,4154,,,,,,,
Slovakia,Operator Holding Account,"Veolia Energia Slovensko, a. s.",35702257,2008-01-01,closed,Einsteinova 25,85101,Bratislava,5044,5044,5044,4302,4302,4302,4302,4302,3092,0,0,0,0,0,0,0,4451,4152,3748,3644,3493,3688,3134,2906,2812,,,,,,,,,8603,3748,3644,3493,3688,3134,2906,2812,,,,,,,
Slovakia,Operator Holding Account,"Veolia Energia Slovensko, a. s.",35702257,2008-01-01,closed,Einsteinova 25,85101,Bratislava,6781,6780,6780,6100,6100,6100,6100,6100,4361,0,0,0,0,0,0,0,6477,5853,5218,5035,4922,5034,4158,4010,4141,,,,,,,,,12330,5218,5035,4922,5034,4158,4010,4141,,,,,,,
Slovakia,Operator Holding Account,"Veolia Energia Slovensko, a. s.",35702257,2008-01-01,closed,Einsteinova 25,85101,Bratislava,7912,7912,7911,7150,7150,7150,7150,7150,5091,0,0,0,0,0,0,0,7452,6862,6015,5952,5821,5955,5199,5060,5400,,,,,,,,,14314,6015,5952,5821,5955,5199,5060,5400,,,,,,,
Slovakia,Operator Holding Account,"DNV ENERGO, a.s.",36317918,2008-01-01,closed,Areál ZTS 924,01841,Dubnica nad Váhom,147670,147670,147670,4085,4085,4085,0,0,,,,,,,,,5716,2454,25,55,48,61,,,,,,,,,,,,8170,25,55,48,61,,,,,,,,,,
Slovakia,Operator Holding Account,"DOLVAP, s.r.o.",31594786,2008-01-01,open,Priemyselná,01303,Varín,188009,188008,188008,201776,201776,201776,201776,201776,164663,161803,158910,155986,153030,150046,147025,143993,114012,133776,192850,146041,115047,131048,149210,127199,121832,124022,88215,117416,,,,,46004,201784,192850,146041,115047,131048,149210,127199,121832,124022,88215,117416,,,,
Slovakia,Operator Holding Account,"Duslo, a.s.",35826487,2008-01-01,open,"Administratívna budova, ev. č. 1236",92703,Šaľa,259054,259053,259053,117834,117834,117834,117834,117834,762555,749309,735909,722369,708684,694863,680873,666831,133671,101997,71886,85795,73855,79964,80068,78948,1093905,861598,1098236,984059,,,,,,235668,71886,85795,73855,79964,80068,78948,1093905,861598,1098236,984059,,,,
Slovakia,Operator Holding Account,Eastern Sugar Slovensko a.s.,31411878,2006-02-21,closed,Bratislavská cesta 1246/9,92912,Dunajská Streda,56589,56589,56589,,,,,,,,,,,,,,43286,42488,1740,,,Not Reported,,,,,,,,,,,,85774,1740,,,,,,,,,,,,,
Slovakia,Operator Holding Account,"STEFE Banská Bystrica, a.s.",36024473,2008-01-01,closed,Zvolenská cesta 1,97405,Banská Bystrica,4358,4358,4358,3855,3855,3855,3855,3855,,,,,,,,,3851,3858,0,99,552,0,938,34,,,,,,,,,,7709,,99,552,,938,34,,,,,,,,
Slovakia,Operator Holding Account,"TP 2, s.r.o.",36766763,2008-01-01,open,Priemyselná 720,07222,Strážske,240533,240533,240533,42921,42921,42921,42921,42921,29055,28511,14158,13860,6913,6742,6570,6401,26974,27300,25567,25969,17663,4299,2685,3702,38381,23676,22650,16628,,,,,26974,27300,25567,25969,17663,4299,2685,3702,38381,23676,22650,16628,,,,
Slovakia,Operator Holding Account,"STEFE Rimavská Sobota, s.r.o.",31585752,2008-01-01,open,Gorkého ul. č. 8a,97901,Rimavská Sobota,17270,17270,17270,15188,15188,15188,15188,15188,5023,4012,1777,1555,1339,1131,929,735,14937,13188,11726,11582,10890,11151,5958,3123,3511,1837,1409,2017,,,,,,28125,11726,11582,10890,11151,5958,3123,3511,1837,1409,2017,,,,
Slovakia,Operator Holding Account,ENERGOTRENS s.r.o.,36300870,2005-12-21,closed,Súvoz 1,91132,Trenčín,12654,12654,12653,6357,0,0,0,0,,,,,,,,,7576,5137,3153,2047,Not Reported,,Not Reported,,,,,,,,,,,12713,3153,2047,,,,,,,,,,,,
Slovakia,Operator Holding Account,Univerzitná nemocnica Bratislava,31813861,2005-12-21,closed,Pažitková 4,82101,Bratislava,9353,9353,9353,5731,0,0,0,0,,,,,,,,,7962,7500,4982,4438,Not Reported,Not Reported,,,,,,,,,,,,15462,4982,4438,,,,,,,,,,,,
Slovakia,Operator Holding Account,Univerzitná nemocnica Bratislava,31813861,2005-12-21,closed,Pažitková 4,82101,Bratislava,3904,3904,3904,,,,,,,,,,,,,,4158,4223,4057,,,Not Reported,,,,,,,,,,,4158,4223,4057,,,,,,,,,,,,,
Slovakia,Operator Holding Account,Fakultná nemocnica s poliklinikou F.D.Roosevelta Banská Bystrica,00165549,2008-01-01,closed,Námestie  L. Svobodu 1,97517,Banská Bystrica,10317,10317,10317,10247,10247,10247,10247,10247,7178,6423,2845,0,0,0,0,0,10727,9766,8726,8886,8636,7487,6855,6257,5627,4738,2528,,,,,,10727,9766,8726,8886,8636,7487,6855,6257,5627,4738,2528,,,,,
Slovakia,Operator Holding Account,Evonik Fermas s.r.o.,31578896,2008-01-01,open,Slovenská Ľupča 938,97613,Slovenská Ľupča,23103,23103,23103,17717,17717,17717,17717,17717,21601,21225,20846,20462,20075,19683,19287,18889,18480,16953,18415,20771,20284,22512,21287,23133,24580,25171,25239,18335,,,,,,35433,18415,20771,20284,22512,21287,23133,24580,25171,25239,18335,,,,
Slovakia,Operator Holding Account,"SLOVINTEGRA ENERGY, a.s.",35968486,2008-01-01,closed,Kutlíkova 17,85250,Bratislava,19943,19943,19943,15313,15313,15313,15313,15313,,,,,,,,,21533,20092,19693,19193,18990,16339,652,381,,,,,,,,,1590,40035,19693,19193,18990,16339,652,381,,,,,,,,
Slovakia,Operator Holding Account,"HANDLOVSKÁ ENERGETIKA, s.r.o.",36314439,2008-01-01,open,Štrajková 1,97251,Handlová,50233,50233,50233,28640,28640,28640,28640,28640,2745,2696,2645,2595,2544,2493,2441,2390,12107,289,5,10,6,23,31,11,3,21,45,57,,,,,,12396,5,10,6,23,31,11,3,21,45,57,,,,
Slovakia,Operator Holding Account,"Heineken Slovensko, a.s.",36528391,2008-01-01,closed,Novozámocká 2,94701,Hurbanovo,14286,14286,14286,12664,12664,12664,12664,12664,7075,6332,0,0,0,0,0,0,8316,7471,12664,9230,8930,1088,7658,6621,5731,5860,,,,,,,,28572,14286,9230,8930,1088,7658,6621,5731,5860,,,,,,
Slovakia,Operator Holding Account,CRH (Slovensko) a.s.,00214973,2008-01-01,open,Rohožník,90638,Rohožník,998948,998948,998948,976988,976988,976988,976988,976988,826385,812032,797509,782836,768004,753028,737865,722649,837025,930465,969975,962314,829313,718160,825129,748385,661678,820485,801642,949271,,,,,,1767490,969975,962314,829313,718160,825129,748385,661678,820485,801642,949271,,,,
Slovakia,Operator Holding Account,"HANDLOVSKÁ ENERGETIKA, s.r.o.",36314439,2008-01-01,open,Štrajková 1,97251,Handlová,14182,14182,14182,24574,24574,24574,24574,24574,2827,2733,2645,2561,1292,1251,1213,1175,13052,12499,5777,0,602,150,151,129,0,0,0,0,,,,,,25551,5777,,602,150,151,129,,,,,,,,
Slovakia,Operator Holding Account,"Hriňovská energetická, s.r.o.",36038822,2008-01-01,closed,Partizánska cesta 1465,96205,Hriňová,10491,10491,10490,5346,5346,5346,5346,5346,3148,2899,2202,0,0,0,0,0,6554,4137,1995,2113,2123,2282,344,5,4,0,1,,,,,,,10691,1995,2113,2123,2282,344,5,4,,1,,,,,
Slovakia,Operator Holding Account,"CHEMES, a.s. Humenné",31695426,2008-01-01,open,Lazaretská 24,81108,Bratislava,271621,271621,271621,244500,244500,244500,244500,244500,77958,68523,49136,41674,35047,30212,26477,22869,222234,237627,246934,173261,149762,100289,94360,87327,72795,56432,64809,62845,,,,,15613,444248,271621,173261,149762,100289,94360,87327,72795,56432,64809,62845,,,,
Slovakia,Operator Holding Account,"CHEMOSVIT ENERGOCHEM, a.s.",31737862,2008-01-01,open,Štúrova 101,05921,Svit,89459,89458,89458,62813,62813,62813,62813,62813,9022,8073,7152,6260,5396,4560,3751,2971,27337,22924,19994,17230,14811,18565,25494,29057,30184,27808,31183,31411,,,,,23879,26382,19994,17230,14811,18565,25494,29057,30184,27808,31183,31411,,,,
Slovakia,Operator Holding Account,IPEĽSKÉ TEHELNE a.s.,36008745,2008-01-01,open,M. Rázusa 29,98401,Lučenec,10100,10100,10100,9216,9216,9216,9216,9216,2096,2060,4045,4197,6065,5947,5827,5707,6036,9216,10956,11364,3122,2159,1684,2255,2197,2805,3516,4250,,,,,,15252,10956,11364,3122,2159,1684,2255,2197,2805,3516,4250,,,,
Slovakia,Operator Holding Account,IPEĽSKÉ TEHELNE a.s.,36008745,2008-01-01,open,M. Rázusa 29,98401,Lučenec,11700,11700,11700,9888,9888,9888,9888,9888,1043,1024,0,0,0,0,0,0,7487,9888,10258,9736,2169,1343,709,660,811,0,0,0,,,,,,17375,10258,9736,2169,1343,709,660,811,,,,,,,
Slovakia,Operator Holding Account,"Johns Manville Slovakia, a.s.",34126520,2008-01-01,open,Strojárenská 1,91799,Trnava,120907,120907,120906,71409,71409,71409,71409,71409,58520,57504,56475,55437,54386,53325,52252,51174,81409,80203,62349,63736,36739,42337,43962,39221,47395,44019,48960,49821,,,,,,161612,62349,63736,36739,42337,43962,39221,47395,44019,48960,49821,,,,
Slovakia,Operator Holding Account,"Priemyselný park Štúrovo, a.s.",31410146,2008-01-01,open,Továrenská 1,94303,Štúrovo,358253,358253,358253,263502,263502,263502,263502,263502,547,84,0,0,0,0,0,0,223363,240954,241479,208266,224334,48551,282,260,200,138,140,158,,,,,,464317,241479,208266,224334,48551,282,260,200,138,140,158,,,,
Slovakia,Operator Holding Account,"KERKO, a.s.",31685714,2008-01-01,closed,Tomášikova 35,04322,Košice,23000,22999,22999,44990,44990,44990,44990,0,,,,,,,,,25110,24666,22845,22604,16450,2585,124,Not Reported,,,,,,,,,2111,47665,22845,22604,16450,2585,,124,,,,,,,,
Slovakia,Operator Holding Account,"KLF-ENERGETIKA, a.s.",36400246,2008-01-01,open,Kukučínova 2346,02411,Kysucké Nové Mesto,12959,12959,12958,9877,9877,9877,9877,9877,2186,2119,1160,1111,1061,1013,966,919,5296,5057,3495,2569,2200,2662,2280,1893,1306,920,1078,1059,,,,,,10353,3495,2569,2200,2662,2280,1893,1306,920,1078,1059,,,,
Slovakia,Operator Holding Account,"POLYTRANS, s.r.o.",31733085,2008-01-01,closed,Bardejovská 24,08001,Prešov,33645,33644,33644,17500,17500,17500,17500,17500,,,,,,,,,6780,8349,7509,7633,3894,3042,1105,1,,,,,,,,,,15129,7509,7633,3894,3042,1105,1,,,,,,,,
Slovakia,Operator Holding Account,KYSUCA s.r.o.,31593488,2008-01-01,closed,Matice slovenskej 620,02401,Kysucké Nové Mesto,14320,14320,14319,8584,8584,8584,8584,0,,,,,,,,,12554,4613,4135,3527,3651,3281,1840,Not Reported,,,,,,,,,,17167,4135,3527,3651,3281,1840,,,,,,,,,
Slovakia,Operator Holding Account,"Letecké opravovne Trenčín, a.s.",36351156,2008-01-01,closed,Legionárska 160,91104,Trenčín,5068,5068,5067,4992,4992,4992,4992,0,,,,,,,,,3564,3152,545,0,0,0,0,,,,,,,,,,,6716,545,,,,,,,,,,,,,
Slovakia,Operator Holding Account,Letisko M.R.Štefánika-Airport Bratislava a.s.(BTS),35884916,2006-01-11,closed,Letisko M. R. Štefánika,82311,Bratislava 21,3920,3920,3919,,,,,,,,,,,,,,2985,,,,,Not Reported,,,,,,,,,,,,2985,,,,,,,,,,,,,,
Slovakia,Operator Holding Account,"SLOVINTEGRA ENERGY, a.s.",35968486,2008-01-01,closed,Kutlíkova 17,85250,Bratislava,52451,52451,52451,8791,8791,8791,8791,8791,,,,,,,,,14771,11811,3601,2260,1804,477,274,150,,,,,,,,,,26582,3601,2260,1804,477,274,150,,,,,,,,
Slovakia,Operator Holding Account,LOVINIT a. s. Lovinobaňa,36023612,2005-08-10,closed,Továrenská 282/9,98554,Lovinobaňa,13105,13104,13104,,,,,,,,,,,,,,8522,6224,0,,,Not Reported,,,,,,,,,,,,14746,,,,,,,,,,,,,,
Slovakia,Operator Holding Account,"Martinská teplárenská, a.s.",36403016,2008-01-01,open,Robotnícka 17,03680,Martin,235418,235418,235417,232791,232791,232791,232791,232791,80058,66699,54707,44047,34662,26498,21776,17248,188152,195618,172422,191353,181311,142111,139294,134809,124322,99146,118385,119240,,,,,,383770,172422,191353,181311,142111,139294,134809,124322,99146,118385,119240,,,,
Slovakia,Operator Holding Account,"Continental Matador Rubber, s.r.o.",36709557,2008-01-01,open,Terézie Vansovej 1054,02001,Púchov,107804,107804,107804,62141,62141,62141,62141,62141,45598,44604,43623,42659,41709,40771,39855,38976,64902,60206,47563,43116,33577,43765,45541,47444,49283,48589,49305,52963,,,,,,125108,47563,43116,33577,43765,45541,47444,49283,48589,49305,52963,,,,
Slovakia,Operator Holding Account,"OZETA NEO, a.s.",36329843,2008-01-01,closed,Dopravná 2098/9,95501,Topoľčany,69361,69360,69360,19535,19535,19535,19535,19535,17,0,0,0,0,0,0,0,10766,10445,7994,6604,122,24,10,8,0,,,,,,,,356,20855,7994,6604,122,24,10,8,,,,,,,,
Slovakia,Operator Holding Account,"TRENTEX Trenčín, spol. s r.o.",34097155,2008-01-01,open,M.R.Štefánika 379/19,91101,Trenčín,16483,16483,16483,6045,6045,6045,6045,6045,2009,2992,1785,1676,1571,1467,1367,1269,7612,6478,5108,4300,2370,1461,1287,1249,1250,811,818,846,,,,,,14090,5108,4300,2370,1461,1287,1249,1250,811,818,846,,,,
Slovakia,Operator Holding Account,"Mondi SCP, a.s.",31637051,2008-01-01,open,Tatranská cesta 3,03417,Ružomberok,132426,132426,132426,191392,191392,191392,191392,191392,185296,182078,178821,175531,172205,168847,165447,162036,27683,34713,38543,42720,42838,43129,33361,20677,45009,61498,70783,67598,,,,,,62396,38543,42720,42838,43129,33361,20677,45009,61498,70783,67598,,,,
Slovakia,Operator Holding Account,NAFTA a.s.,36286192,2008-01-01,open,Votrubova 1,82109,Bratislava,31839,31839,31838,29317,29317,29317,29317,29317,26318,23553,10774,9427,8121,6857,5635,4458,24047,31317,35831,26822,40220,28490,21647,19043,18882,12867,15564,15190,,,,,,55364,35831,26822,40220,28490,21647,19043,18882,12867,15564,15190,,,,
Slovakia,Operator Holding Account,Akadémia ozbrojených síl generála Milana Rastislava Štefánika,37910337,2008-01-01,open,Demänová 393,03101,Liptovský Mikuláš,6765,6765,6765,4738,4738,4738,4738,4738,3942,3528,3125,2734,2355,1989,1634,1293,6163,5313,4929,4725,4315,4943,4637,4459,4188,3796,4137,4334,,,,,,11476,4929,4725,4315,4943,4637,4459,4188,3796,4137,4334,,,,
Slovakia,Operator Holding Account,"OPM 2 SR, s.r.o.",36729809,2008-01-01,open,Nábrežie mládeže 89,94901,Nitra,17399,17399,17398,39000,39000,39000,39000,39000,16403,13380,10700,8354,6330,4840,3977,3146,4143,10152,23948,20684,19085,18560,16880,16046,15554,12878,13234,7589,,,,,4143,10152,23948,20684,19085,18560,16880,16046,15554,12878,13234,7589,,,,
Slovakia,Operator Holding Account,"Nitrianska teplárenská spoločnosť, a.s.",36550604,2008-01-01,open,Janka Kráľa 122,94901,Nitra,12650,12650,12650,9507,9507,9507,9507,9507,5618,4625,4080,3570,3076,2597,2134,1688,9558,8456,6786,6502,6165,6197,5537,5190,5193,6108,6496,6545,,,,,,18014,6786,6502,6165,6197,5537,5190,5193,6108,6496,6545,,,,
Slovakia,Operator Holding Account,TSinvest s.r.o.,36818062,2008-01-01,closed,Hlavná 94,91105,Trenčín,6916,6915,6915,5900,5900,5900,5900,5900,,,,,,,,,4777,3451,1090,0,0,0,0,Not Reported,,,,,,,,,4777,3451,1090,,,,,,,,,,,,,
Slovakia,Operator Holding Account,"SLAVIA CAPITAL Group, a.s.",31403387,2008-01-01,closed,Mostová 2,81102,Bratislava,25992,25992,25992,21534,21534,21534,21534,21534,8927,1796,0,0,0,0,0,0,22393,22674,20179,17281,15556,16970,14293,9560,1283,0,0,,,,,,,45067,20179,17281,15556,16970,14293,9560,1283,,,,,,,
Slovakia,Operator Holding Account,POĽNONÁKUP HONT a.s.,31562345,2008-01-01,closed,Hontianske Nemce 259,96265,Hontianske Nemce,8898,8898,8898,4584,4584,4584,4584,4584,778,696,0,0,0,0,0,0,4571,4597,3892,2994,1325,1353,1244,506,0,0,0,,,,,,,9168,3892,2994,1325,1353,1244,506,,,,,,,,
Slovakia,Operator Holding Account,"PPC Investments, a. s.",44044739,2008-01-01,open,Magnetová 12,83104,Bratislava,711271,711271,711270,691332,691332,691332,691332,691332,155146,132279,11210,8442,8287,8132,7977,7822,461350,457673,432927,444876,439875,452435,427041,422602,404860,579,1122,254,,,,,,919023,432927,444876,439875,452435,427041,422602,404860,579,1122,254,,,,
Slovakia,Operator Holding Account,"Pivovary Topvar, a.s.",31648479,2008-01-01,open,Pivovarská 9,08221,Veľký Šariš,11214,11214,11214,7568,7568,7568,7568,7568,7671,6955,6256,5581,4923,4287,3670,3074,7741,7394,5787,5034,4251,5437,5726,5735,7014,5758,5256,6047,,,,,,15135,5787,5034,4251,5437,5726,5735,7014,5758,5256,6047,,,,
Slovakia,Operator Holding Account,"Plastika, a.s.",00152781,2008-01-01,closed,Novozámocká 222,94905,Nitra,9680,9680,9679,6659,6659,6659,6659,6659,,,,,,,,,7682,5635,4709,4538,3184,2760,2011,1849,,,,,,,,,,13317,4709,4538,3184,2760,2011,1849,,,,,,,,
Slovakia,Operator Holding Account,Teplo GGE s. r. o.,36012424,2008-01-01,closed,Rozkvet 2058/125,01701,Považská Bystrica,9653,9653,9652,7787,7787,7787,7787,7787,,,,,,,,,8287,6001,5771,5611,251,0,0,0,,,,,,,,,,14288,5771,5611,251,,,,,,,,,,,
Slovakia,Operator Holding Account,Teplo GGE s. r. o.,36012424,2008-01-01,closed,Rozkvet 2058/125,01701,Považská Bystrica,10377,10377,10376,8908,8908,8908,8908,8908,,,,,,,,,9408,7588,7069,6859,6841,6028,2291,0,,,,,,,,,,16996,7069,6859,6841,6028,2291,,,,,,,,,
Slovakia,Operator Holding Account,"Považská cementáreň, a.s.",31615716,2008-01-01,open,J. Kráľa,01863,Ladce,542648,542648,542648,697567,697567,697567,697567,697567,507948,499125,490199,481179,472063,462858,453538,444185,470210,504263,515975,563256,456064,368804,468718,507730,509418,572658,566753,519922,,,,,,974473,515975,563256,456064,368804,468718,507730,509418,572658,566753,519922,,,,
Slovakia,Operator Holding Account,Považský cukor a.s.,35716266,2008-01-01,open,Cukrovarská 311/9,91401,Trenčianska Teplá,33180,33180,33180,59724,59724,59724,59724,59724,30184,29660,29129,28593,28051,27504,26951,26395,25005,38212,30325,26784,30248,29828,31129,26796,28715,32649,36118,31682,,,,,,63217,30325,26784,30248,29828,31129,26796,28715,32649,36118,31682,,,,
Slovakia,Operator Holding Account,Považský cukor a.s.,35716266,2005-12-21,closed,Cukrovarská 311/9,91401,Trenčianska Teplá,42225,0,0,,,,,,,,,,,,,,667,,,,,Not Reported,,,,,,,,,,,667,,,,,,,,,,,,,,,
Slovakia,Operator Holding Account,POZAGAS a.s.,31435688,2008-01-01,open,Malé námestie 1,90101,Malacky,5365,5365,5365,8137,8137,8137,8137,8137,5390,4823,4272,3737,3220,2719,2234,1767,5567,7137,7584,5754,7234,6837,7070,4687,5747,6772,4486,6580,,,,,202,12502,7584,5754,7234,6837,7070,4687,5747,6772,4486,6580,,,,
Slovakia,Operator Holding Account,PPS Group a.s.,36011509,2008-01-01,open,Tajovského 7,96212,Detva,7013,7013,7012,4415,4415,4415,4415,4415,4284,4205,4127,4049,3968,3888,3806,3724,4062,4415,219,200,31,72,358,312,76,5,918,888,,,,,,8477,219,200,31,72,358,312,76,5,918,888,,,,
Slovakia,Operator Holding Account,RAJO a. s.,31329519,2008-01-01,closed,Studená 35,82355,Bratislava,5478,5478,5478,5991,5991,5991,0,0,,,,,,,,,5413,5991,6059,6171,6624,6634,,,,,,,,,,,,11404,6059,6171,6624,6634,,,,,,,,,,
Slovakia,Operator Holding Account,"Rettenmeier Tatra Timber, s. r. o.",36387592,2008-01-01,closed,Pod lipami 68,03301,Liptovský Hrádok,11994,11994,11995,14582,14582,14582,14582,14582,,,,,,,,,18182,14982,1250,0,0,0,0,0,,,,,,,,,15782,17382,1250,,,,,,,,,,,,,
Slovakia,Operator Holding Account,"REVÚCKE KOBERCE SYNTETICKÉ, s.r.o.",36044610,2008-01-01,open,Priemyselná 306/9,05001,Revúca,3726,3725,3725,4897,4897,4897,4897,4897,4157,4085,4012,1969,1932,1894,1856,1818,4897,4455,3643,3549,1884,1732,1734,2277,2634,2256,1623,1499,,,,,1172,8180,5824,3549,1884,1732,1734,2277,2634,2256,1623,1499,,,,
Slovakia,Operator Holding Account,"RONA, a. s.",31642403,2008-01-01,open,Schreiberova 365,02061,Lednické Rovne,31745,31745,31745,28575,28575,28575,28575,28575,32984,32411,31831,31247,30655,30056,29452,28844,28085,28575,27775,25103,24038,21797,21364,21849,30625,30582,28830,29989,,,,,,56660,27775,25103,24038,21797,21364,21849,30625,30582,28830,29989,,,,
Slovakia,Operator Holding Account,"CZT Ružomberok, s. r. o.",36820300,2008-01-01,closed,Bystrická cesta 1,03401,Ružomberok,53080,53079,53079,36480,36480,36480,36480,0,,,,,,,,,47625,27335,18082,62,6,886,0,,,,,,,,,,,74960,18082,62,6,886,,,,,,,,,,
Slovakia,Operator Holding Account,"KORDSERVICE SK PLUS, s.r.o.",45480362,2008-01-01,open,Továrenská 532,90501,Senica,64937,64937,64936,27800,27800,27800,27800,27800,3596,3217,2849,2493,2148,1813,1490,1179,18620,14506,12842,8606,2552,0,0,0,0,0,0,0,,,,,,68126,12842,8606,2552,,,,,,,,,,,
Slovakia,Operator Holding Account,"SHP Harmanec, a.s.",00153052,2008-01-01,open,Harmanec,97603,Harmanec,25017,25017,25016,25016,25016,25016,25016,25016,15838,15549,15258,14965,14668,14369,14068,13766,4075,18709,18995,18564,17465,18031,16498,16460,15794,14942,14698,14240,,,,,,22784,18995,18564,17465,18031,16498,16460,15794,14942,14698,14240,,,,
Slovakia,Operator Holding Account,"Slovenská Grafia, a.s.",31321470,2008-01-01,closed,Pekná cesta 6,83403,Bratislava,5637,5637,5637,5600,5600,5600,0,0,,,,,,,,,4848,5202,5724,5264,3304,,,,,,,,,,,,,10050,5724,5264,3304,,,,,,,,,,,
Slovakia,Operator Holding Account,"Mondi SCP, a.s.",31637051,2008-01-01,open,Tatranská cesta 3,03417,Ružomberok,340916,340916,340915,199592,199592,199592,199592,199592,49598,24306,22264,42269,25556,23556,21613,19729,156592,142255,142460,142164,137270,138022,138823,127068,37304,29120,39696,45384,,,,,,298847,142460,142164,137270,138022,138823,127068,37304,29120,39696,45384,,,,
Slovakia,Operator Holding Account,Slovenská poľnohospodárska univerzita v Nitre,00397482,2008-01-01,open,Tr. Andreja Hlinku 2,94976,Nitra,6011,6011,6011,4420,4420,4420,4420,4420,3570,3195,2830,2476,1067,901,740,586,4456,4399,3970,4387,4286,4413,3909,3383,3322,2866,2505,2083,,,,,445,8410,3970,4387,4286,4413,3909,3383,3322,2866,2505,2083,,,,
Slovakia,Operator Holding Account,"SLOVENSKÉ CUKROVARY, s.r.o.",31568386,2005-12-21,closed,Cukrovarská 726,92601,Sereď,25566,25566,25566,,,,,,,,,,,,,,16167,536,218,,,Not Reported,,,,,,,,,,,,16703,218,,,,,,,,,,,,,
Slovakia,Operator Holding Account,"SLOVENSKÉ CUKROVARY, s.r.o.",31568386,2008-01-01,open,Cukrovarská 726,92601,Sereď,35700,35700,35700,31114,31114,31114,31114,31114,18781,18455,18125,17791,17454,17114,16769,16423,31239,30564,37355,37296,39824,47028,51363,42804,47741,56661,74033,57951,,,,,,61803,37355,37296,39824,47028,51363,42804,47741,56661,74033,57951,,,,
Slovakia,Operator Holding Account,"Slovenské elektrárne, a.s.",35829052,2008-01-01,open,Mlynské nivy 47,82109,Bratislava 2,2797653,2797653,2797653,2901200,2901200,2901200,2901200,2901200,3488,3122,2765,2421,2086,1763,1450,1149,2646143,2615611,2005236,1583830,898417,645958,573432,600273,375818,375483,390409,448783,,,,,,5261754,2005236,1583830,898417,645958,573432,600273,375818,375483,390409,448783,,,,
Slovakia,Operator Holding Account,"Slovenské elektrárne, a.s.",35829052,2008-01-01,open,Mlynské nivy 47,82109,Bratislava 2,2477701,2477701,2477701,2505320,2505320,2505320,2505320,2505320,124866,109387,95357,52778,42066,32653,26574,21048,2155316,2056171,2097420,2495193,2445307,2361963,2398722,2289752,2299035,2077299,2143125,1854213,,,,,,4211487,2097420,2495193,2445307,2361963,2398722,2289752,2299035,2077299,2143125,1854213,,,,
Slovakia,Operator Holding Account,SLOVENSKÉ ENERGETICKÉ STROJÁRNE a.s.,31411690,2008-01-01,closed,Továrenská 210,93528,Tlmače,7806,7806,7806,1500,1500,1500,1500,1500,,,,,,,,,1395,969,755,633,750,653,695,406,,,,,,,,,,2364,755,633,750,653,695,406,,,,,,,,
Slovakia,Operator Holding Account,"Kúpele Trenčianske Teplice, a.s.",34129316,2008-01-01,closed,T. G. Masaryka 21,91451,Trenčianske Teplice,6911,6911,6910,5670,5670,5670,5670,5670,3946,3532,3129,0,0,0,0,0,5832,5503,4753,4413,4873,4714,4206,4073,4102,3224,1591,,,,,,,11335,4753,4413,4873,4714,4206,4073,4102,3224,1591,,,,,
Slovakia,Operator Holding Account,Slovenské liečebné kúpele Piešťany a. s.,34144790,2008-01-01,closed,Winterova 29,92129,Piešťany,7964,7964,7964,6370,6370,0,0,0,,,,,,,,,7256,6491,6158,5791,129,,,,,,,,,,,,,13747,6158,5791,129,,,,,,,,,,,
Slovakia,Operator Holding Account,"Slovenské lodenice Komárno, a.s.",35796812,2005-12-21,closed,Poľná 3,81108,Bratislava,6822,6822,6822,2152,0,0,0,0,,,,,,,,,2896,2808,2846,2560,Not Reported,,Not Reported,,,,,,,,,,,5704,2860,2560,,,,,,,,,,,,
Slovakia,Operator Holding Account,"SMZ, a.s. Jelšava",31685340,2008-01-01,open,Teplá Voda 671,04916,Jelšava,14979,14979,14979,664668,648668,648668,648668,648668,498263,489607,480851,472004,234118,229553,224930,220293,8951,7368,4207,508331,336431,453069,447170,372546,339286,330204,304070,257250,,,,,,16319,4207,508331,336431,453069,447170,372546,339286,330204,304070,257250,,,,
Slovakia,Operator Holding Account,"Poltár Crystal & Steel, a.s.",44519559,2008-01-01,closed,13. januára,98701,Poltár,18738,18738,18738,13300,13300,13300,13300,13300,1572,1544,1517,1489,0,0,0,0,16204,15696,12390,12544,8598,9300,3516,0,0,0,0,0,,,,,15494,16406,12390,12544,8598,9300,3516,,,,,,,,,
Slovakia,Operator Holding Account,R-GLASS Trade s.r.o.,44936982,2008-01-01,open,Čajkovského 8,98401,Lučenec,9411,9411,9411,7500,7500,7500,7500,7500,784,771,757,743,6668,6538,6407,6274,7505,7449,7408,6740,5864,7856,4840,0,0,0,611,4512,,,,,7505,7449,7408,6740,5864,7856,4840,,,,611,4512,,,,
Slovakia,Operator Holding Account,"SLOVMAG, a.s. Lubeník",31686184,2008-01-01,open,Lubeník 236,04918,Lubeník,68715,68715,68715,287488,287488,287488,287488,287488,86817,85309,107966,78548,77060,75557,74036,72509,13181,14759,15678,150831,52065,67337,71769,60186,53396,53623,39922,46169,,,,,,27940,15678,150831,52065,67337,71769,60186,53396,53623,39922,46169,,,,
Slovakia,Operator Holding Account,"KOMTERM Slovensko, a.s.",35792604,2008-01-01,closed,Na stanicu 22,01009,Žilina,13500,13500,13500,2933,2933,2933,2933,2933,,,,,,,,,937,1090,953,915,833,811,733,698,,,,,,,,,,2027,953,915,833,811,733,698,,,,,,,,
Slovakia,Operator Holding Account,"SLOVNAFT, a.s.",31322832,2008-01-01,open,Vlčie hrdlo 1,82412,Bratislava,2290555,2290555,2290555,2450005,2450005,1300005,1300005,1300005,1203306,1182405,1161259,1139893,1118296,1096489,1074411,1052255,2292788,2190190,2250495,2249322,1375190,1012665,1086090,999190,1110700,991575,1145821,1097457,,,,,2233,4480745,2250495,2249322,1375190,1012665,1086090,999190,1110700,991575,1145821,1097457,,,,
Slovakia,Operator Holding Account,"Službyt, spol. s r.o.",34101772,2008-01-01,closed,Hviezdoslavova 473,90501,Senica,14128,14128,14127,9294,9294,9294,9294,9294,,,,,,,,,9628,8960,8353,8342,7752,3141,1537,732,,,,,,,,,,18588,8353,8342,7752,3141,1537,732,,,,,,,,
Slovakia,Operator Holding Account,SLZ NOVA a.s.,35719796,2008-01-01,closed,Hlavná 133,98111,Hnúšťa,9604,9603,9603,4795,4795,4795,4795,4795,716,704,691,0,0,0,0,0,4786,0,0,0,0,0,0,0,0,0,0,0,,,,,1683,3103,,,,,,,,,,,,,,
Slovakia,Operator Holding Account,"Smrečina Hofatex, a.s.",36224049,2008-01-01,closed,Cesta ku Smrečine 5,97545,Banská Bystrica,2400,2400,2400,0,0,0,0,0,,,,,,,,,0,0,0,0,0,0,0,,,,,,,,,,,,,,,,,,,,,,,,,
Slovakia,Operator Holding Account,SOTE s.r.o.,36372811,2008-01-01,open,Palárikova 88,02201,Čadca,25530,25530,25529,15394,15394,15394,15394,15394,11100,9002,7149,5532,4142,2972,2311,1828,15528,15260,13821,13553,12640,13034,12001,12513,11212,8245,9538,9629,,,,,,30788,13821,13553,12640,13034,12001,12513,11212,8245,9538,9629,,,,
Slovakia,Operator Holding Account,"TERMMING, a.s.",35972254,2008-01-01,closed,Mlynské Nivy 61,82711,Bratislava,7374,7374,7374,7656,7656,7656,7656,7656,,,,,,,,,7656,6699,6012,5697,5377,5091,644,14,,,,,,,,,282,14073,6012,5697,5377,5091,644,14,,,,,,,,
Slovakia,Operator Holding Account,"eustream, a.s.",35910712,2008-01-01,open,Votrubova 11/A,82109,Bratislava,448705,448705,448704,306818,306818,306818,306818,306818,624,559,495,433,373,315,259,204,274989,218647,115213,196523,133985,93962,147963,7016,7404,2133,2268,2760,,,,,,493636,115213,196523,133985,93962,147963,7016,7404,2133,2268,2760,,,,
Slovakia,Operator Holding Account,"eustream, a.s.",35910712,2008-01-01,open,Votrubova 11/A,82109,Bratislava,761990,761990,761989,348384,348384,348384,348384,348384,58128,832,737,645,555,469,386,305,386760,230008,277291,321030,236190,170224,209031,34877,4349,1832,1638,1661,,,,,,616768,277291,321030,236190,170224,209031,34877,4349,1832,1638,1661,,,,
Slovakia,Operator Holding Account,"eustream, a.s.",35910712,2008-01-01,open,Votrubova 11/A,82109,Bratislava,846263,846263,846263,449480,449480,449480,449480,449480,313752,280786,124616,109032,187454,158282,130056,102887,458935,316044,362595,453730,397382,405595,451004,320434,346884,150949,177924,284353,,,,,,774979,362595,453730,397382,405595,451004,320434,346884,150949,177924,284353,,,,
Slovakia,Operator Holding Account,"eustream, a.s.",35910712,2008-01-01,open,Votrubova 11/A,82109,Bratislava,520859,520859,520859,271926,271926,271926,271926,271926,92050,82380,272,238,205,174,142,113,242335,161516,254182,235707,148099,176716,173257,76883,102513,23166,3950,10148,,,,,,403851,254182,235707,148099,176716,173257,76883,102513,23166,3950,10148,,,,
Slovakia,Operator Holding Account,"SPRAVBYTKOMFORT, a.s. Prešov",31718523,2008-01-01,open,Volgogradská č. 88,08001,Prešov,23265,23265,23264,19560,19560,19560,19560,19560,11944,10689,9467,8284,7136,6025,4951,3917,16114,14988,13218,14559,7151,8516,7944,7675,7012,4519,6153,5478,,,,,,31102,13218,14559,7151,8516,7944,7675,7012,4519,6153,5478,,,,
Slovakia,Operator Holding Account,SYRÁREŇ BEL SLOVENSKO a.s.,31651321,2008-01-01,closed,Lastomírska 1,07101,Michalovce,8223,8223,8223,9935,9935,9935,9935,9935,,,,,,,,,8818,8452,8632,8054,7047,6279,6759,2410,,,,,,,,,595,16675,8632,8054,7047,6279,6759,2410,,,,,,,,
Slovakia,Operator Holding Account,"TANAX, a.s.",36302678,2008-01-01,closed,Partizánska 73,95711,Bánovce nad Bebravou,10362,10361,10361,4050,4050,4050,4050,0,,,,,,,,,4974,3373,2963,2844,2322,2439,1193,Not Reported,,,,,,,,,4974,3373,2963,2844,2322,2439,1193,,,,,,,,,
Slovakia,Operator Holding Account,Tatranská mliekareň a.s.,31654363,2008-01-01,closed,Nad traťou 26,06001,Kežmarok,6734,6734,6733,2724,2724,2724,2724,0,,,,,,,,,2653,2724,2106,1721,1451,478,0,,,,,,,,,,2653,2724,2106,1721,1451,478,,,,,,,,,,
Slovakia,Operator Holding Account,TATRAVAGÓNKA a.s.,31699847,2008-01-01,closed,Štefánikova 887/53,05801,Poprad,14583,14583,14582,10219,10219,10219,10219,10219,10468,0,0,0,0,0,0,0,9717,8783,9215,9227,7046,5544,4721,4695,9399,,,,,,,,,18500,9215,9227,7046,5544,4721,4695,9399,,,,,,,
Slovakia,Operator Holding Account,Tauris Danubius a. s.,36232157,2005-12-21,closed,Povodská cesta 14,92901,Dunajská Streda,1827,1827,1827,1990,0,0,0,0,,,,,,,,,2119,1934,1573,1326,Not Reported,,Not Reported,,,,,,,,,,292,3761,1573,1326,,,,,,,,,,,,
Slovakia,Operator Holding Account,"Výroba tepla, s. r. o.",47257202,2008-01-01,open,Česká 15,83103,Bratislava,9836,9836,9836,8014,8014,8014,8014,8014,5081,4501,3987,3488,3005,2538,2085,1650,8314,7252,6093,2986,1018,618,89,187,43,0,9,63,,,,,,15566,6093,2986,1018,618,89,187,43,,9,63,,,,
Slovakia,Operator Holding Account,Tehelňa Preseľany s.r.o.,36529737,2008-01-01,closed,Školská 470,95612,Preseľany,1403,1403,1403,1150,1150,1150,0,0,,,,,,,,,1086,1133,1249,1181,452,0,,,,,,,,,,,,2219,1249,1181,452,,,,,,,,,,,
Slovakia,Operator Holding Account,"TEHOS, s.r.o.",36389331,2005-12-21,closed,Námestie slobody 1269/3,02601,Dolný Kubín,9270,9269,9269,,,,,,,,,,,,,,4686,144,,,,Not Reported,,,,,,,,,,,4417,413,,,,,,,,,,,,,,
Slovakia,Operator Holding Account,"TEHOS, s.r.o.",36389331,2008-01-01,closed,Námestie slobody 1269/3,02601,Dolný Kubín,9472,9472,9472,8840,8840,8840,8840,8840,,,,,,,,,8834,5561,639,113,82,148,76,120,,,,,,,,,,14395,639,113,82,148,76,120,,,,,,,,
Slovakia,Operator Holding Account,"Technické Sklo, a.s.",00012670,2005-12-21,closed,Agátova 22,84403,Bratislava,7534,7534,7534,5467,0,0,0,0,,,,,,,,,6852,4081,3111,102,Not Reported,,Not Reported,,,,,,,,,,,10933,3111,102,,,,,,,,,,,,
Slovakia,Operator Holding Account,Tech. služby mesta Partizánske spol. s r.o.,36311693,2005-12-21,closed,Nemocničná 979/1,95830,Partizánske,8015,8015,8014,7532,0,0,0,0,,,,,,,,,7805,7258,7129,4748,Not Reported,Not Reported,,,,,,,,,,,,15063,7129,4748,,,,,,,,,,,,
Slovakia,Operator Holding Account,"TEPLÁREŇ Považská Bystrica, s.r.o.",36300683,2008-01-01,open,Robotnícka 2160,01734,Považská Bystrica,133365,133365,133364,49135,49135,49135,49135,49135,58459,52895,47671,43394,39391,35509,31743,28101,49241,49029,42040,41527,50726,61683,119210,115666,130047,119849,132002,132718,,,,,,98270,42040,41527,50726,61683,119210,115666,130047,119849,132002,132718,,,,
Slovakia,Operator Holding Account,"Tepláreň Košice, a. s. v skratke TEKO, a. s.",36211541,2008-01-01,open,Teplárenská 3,04292,Košice,638386,638386,638385,649650,649650,649650,649650,649650,262896,217740,177379,141815,122329,103472,85225,67633,521217,537022,544697,518650,497653,533007,523551,490424,505477,446297,429166,370382,,,,,,1058239,544697,518650,497653,533007,523551,490424,505477,446297,429166,370382,,,,
Slovakia,Operator Holding Account,"SPRAVBYTKOMFORT, a.s. Prešov",31718523,2008-01-01,closed,Volgogradská č. 88,08001,Prešov,8906,8906,8906,7320,7320,7320,7320,0,,,,,,,,,7644,6997,6262,6164,6118,6131,4143,Not Reported,,,,,,,,,,14641,6262,6164,6118,6131,4143,,,,,,,,,
Slovakia,Operator Holding Account,"TERMONOVA, a.s.",36322644,2008-01-01,closed,SNP 98,01851,Nová Dubnica,14499,14499,14498,3900,3900,3900,3900,3900,,,,,,,,,3337,225,36,4,2,0,0,0,,,,,,,,,3337,225,36,4,2,,,,,,,,,,,
Slovakia,Operator Holding Account,"TOMA, s. r. o.",31421695,2008-01-01,open,Gorkého 2019,95501,Topoľčany,22205,22204,22204,15938,15938,15938,15938,15938,854,0,0,0,0,0,0,0,17411,15938,14893,13962,13746,14496,7119,0,0,0,0,2,,,,,,33349,14893,13962,13746,14496,7119,,,,,2,,,,
Slovakia,Operator Holding Account,"Trnavská teplárenská, a.s.",36246034,2008-01-01,open,Coburgova 84,91742,Trnava,73645,73645,73644,53600,53600,53600,53600,53600,3103,2463,1905,1424,1706,1264,955,756,21881,12039,1766,651,2843,1787,1787,1500,1560,1037,1272,2908,,,,,,33920,1766,651,2843,1787,1787,1500,1560,1037,1272,2908,,,,
Slovakia,Operator Holding Account,"KOMTERM Slovensko, a.s.",35792604,2008-01-01,open,Na stanicu 22,01009,Žilina,12403,12403,12403,5304,5304,5304,5304,5304,3599,3182,2839,2506,2182,1869,1566,1275,5330,5279,4128,3770,2242,119,37,16,20,22,11,0,,,,,5330,5279,4128,3770,2242,119,37,16,20,22,11,,,,,
Slovakia,Operator Holding Account,"U. S. Steel Košice, s.r.o.",36199222,2008-01-01,open,Vstupný areál U. S. Steel,04454,Košice,9548848,9548847,9548847,10793886,10793886,10793886,10793886,10793886,6416358,6304029,6190422,6075671,5959728,5810856,5693849,5576436,9057557,10127702,9659314,8960471,7555668,8445826,8493163,8812732,8397752,8962739,8646638,8867366,,,,,1,19185258,9659314,8960471,7555668,8445826,8493163,8812732,8397752,8962739,8646638,8867366,,,,
Slovakia,Operator Holding Account,UNICORN - ESK s. r. o.,36619922,2005-12-21,closed,Poštová  58,98201,Tornaľa,5373,5373,5373,1633,0,0,0,0,,,,,,,,,1633,1500,1259,717,Not Reported,,Not Reported,,,,,,,,,,,3133,1259,717,,,,,,,,,,,,
Slovakia,Operator Holding Account,VETROPACK NEMŠOVÁ s.r.o.,35832517,2008-01-01,open,Železničná 207/9,91441,Nemšová,59716,59716,59715,50389,50389,65000,65000,65000,47167,46348,45519,44681,43835,42980,42114,41246,49832,50389,57482,59069,50058,53450,49599,51584,53660,52599,51364,55047,,,,,,100221,57482,59069,50058,53450,49599,51584,53660,52599,51364,55047,,,,
Slovakia,Operator Holding Account,"Energy Snina, a.s.",35940832,2008-01-01,closed,Strojárska 4435,06901,Snina,75618,75618,75617,40922,40922,40922,40922,40922,13985,11843,4109,1568,0,0,0,0,62999,36846,33068,34752,24303,15679,18586,15141,8893,0,0,0,,,,,,99845,39008,34752,24303,15679,18586,15141,8893,,,,,,,
Slovakia,Operator Holding Account,"VOLKSWAGEN SLOVAKIA, a.s.",35757442,2008-01-01,open,J. Jonáša 1,84302,Bratislava,57603,57603,57602,66874,66874,66874,66874,66874,46200,41346,55732,54707,53670,52624,51565,50501,45848,43838,39278,34799,31230,38475,38698,42673,64904,55854,58972,58066,,,,,,89686,39278,34799,31230,38475,38698,42673,64904,55854,58972,58066,,,,
Slovakia,Operator Holding Account,TEHELNE VRANOV s.r.o.,36492558,2008-01-01,closed,Laborecká 80,06601,Humenné,15000,15000,15000,14790,14790,14790,14790,14790,0,0,0,0,0,0,0,0,1386,1275,2254,2494,90,50,34,21,0,0,0,0,,,,,1386,1275,2254,2494,90,50,34,21,,,,,,,,
Slovakia,Operator Holding Account,CRH (Slovensko) a.s.,00214973,2008-01-01,open,Rohožník,90638,Rohožník,428529,428529,428529,640000,640000,640000,640000,640000,415689,408469,401164,393783,386322,378789,371162,363508,433082,350387,445729,476594,344293,238482,309226,199887,251798,232664,286099,323045,,,,,4553,778916,445729,476594,344293,238482,309226,199887,251798,232664,286099,323045,,,,
Slovakia,Operator Holding Account,"WAY INDUSTRIES, a.s.",44965257,2008-01-01,open,Priemyselná 937/4,96301,Krupina,5137,5137,5137,1706,1706,1706,1706,1706,1362,1339,658,645,1266,1241,1216,1191,1706,1585,1279,1030,850,1012,1030,988,866,626,673,817,,,,,1706,1585,1279,1030,850,1012,1030,988,866,626,673,817,,,,
Slovakia,Operator Holding Account,"Wienerberger slovenské tehelne, spol. s r. o.",31418821,2008-01-01,open,Tehelná,95301,Zlaté Moravce,30500,30500,30500,24165,24165,24165,24165,24165,24562,24134,23703,23268,22826,22381,21931,21479,24168,21535,30516,26456,17325,17416,14799,13739,15133,12993,14212,14053,,,,,,45703,30516,26456,17325,17416,14799,13739,15133,12993,14212,14053,,,,
Slovakia,Operator Holding Account,"Wienerberger slovenské tehelne, spol. s r. o.",31418821,2008-01-01,open,Tehelná,95301,Zlaté Moravce,18757,18757,18756,15215,15215,15215,15215,15215,12662,12443,12220,11995,11768,11539,11306,11073,12331,13518,14537,12849,9735,8302,11746,9641,10639,10444,9720,11939,,,,,,25849,14537,12849,9735,8302,11746,9641,10639,10444,9720,11939,,,,
Slovakia,Operator Holding Account,"Zentiva, a.s.",31411771,2008-01-01,closed,Nitrianska 100,92027,Hlohovec,16136,16136,16135,6529,6529,6529,6529,0,,,,,,,,,6529,5784,4735,3936,3835,3695,3065,Not Reported,,,,,,,,,6529,5784,4735,3936,3835,3695,3065,,,,,,,,,
Slovakia,Operator Holding Account,"Veolia Utilities Žiar nad Hronom, a.s.",44069472,2008-01-01,open,Priemyselná 12,96563,Žiar nad Hronom,179471,179471,179471,190642,190642,190642,190642,190642,39865,35199,30996,27244,23993,22029,20120,18271,98095,85366,80404,77615,78481,88002,124899,106606,101653,65227,40924,27202,,,,,,183461,80404,77615,78481,88002,124899,106606,101653,65227,40924,27202,,,,
Slovakia,Operator Holding Account,"Zvolenská teplárenská, a.s.",36052248,2006-01-27,open,Lučenecká cesta 25,96150,Zvolen,219182,219182,219182,277879,277879,277879,277879,277879,56903,47714,39430,32023,25461,21387,17593,13934,218378,205329,166829,161775,166286,184124,137547,125479,111196,95078,96610,98811,,,,,,423707,166829,161775,166286,184124,137547,125479,111196,95078,96610,98811,,,,
Slovakia,Operator Holding Account,Železiarne Podbrezová a.s. skrátene ŽP a.s.,31562141,2008-01-01,open,Kolkáreň 35,97681,Podbrezová,97957,97957,97957,87090,87090,87090,87090,87090,87207,85692,84160,82610,81046,79465,77865,76259,57053,56127,62371,61540,42116,59530,67747,63485,96419,94778,88542,86852,,,,,,113180,62371,61540,42116,59530,67747,63485,96419,94778,88542,86852,,,,
Slovakia,Operator Holding Account,"Železničná spoločnosť Cargo Slovakia, a.s.",35914921,2008-01-01,closed,Drieňová 24,82009,Bratislava,5077,5077,5077,2756,2756,2756,2756,2756,2103,1882,0,0,0,0,0,0,3032,2756,2564,2337,2366,2543,1641,1659,1750,1529,,,,,,,,5788,2564,2337,2366,2543,1641,1659,1750,1529,,,,,,
Slovakia,Operator Holding Account,"Železničná spoločnosť Cargo Slovakia, a.s.",35914921,2005-12-21,closed,Drieňová 24,82009,Bratislava,1100,1099,1099,,,,,,,,,,,,,,1575,1634,416,,,Not Reported,,,,,,,,,,,476,2733,416,,,,,,,,,,,,,
Slovakia,Operator Holding Account,"Železničná spoločnosť Cargo Slovakia, a.s.",35914921,2008-01-01,closed,Drieňová 24,82009,Bratislava,1190,1190,1189,2047,2047,2047,0,0,,,,,,,,,2086,2007,1607,658,0,,,,,,,,,,,,896,3197,1607,658,,,,,,,,,,,,
Slovakia,Operator Holding Account,"Žilinská teplárenská, a.s.",36403032,2008-01-01,open,Košická 11,01187,Žilina,260012,260012,260011,321605,321605,321605,321605,321605,121727,101571,83457,67336,53120,40731,32547,25780,251719,239437,235947,287050,266774,265983,233874,241732,229592,195785,240430,248398,,,,,,491156,235947,287050,266774,265983,233874,241732,229592,195785,240430,248398,,,,
Slovakia,Operator Holding Account,ŽOS Vrútky a.s.,31615619,2008-01-01,closed,Dielenská Kružná 2,03861,Vrútky,23477,23477,23476,14781,14781,14781,14781,14781,,,,,,,,,12781,10113,10023,9252,9093,7212,9962,7788,,,,,,,,,12781,10113,10023,9252,9093,7212,9962,7788,,,,,,,,
Slovakia,Operator Holding Account,SIDERIT s.r.o. Nižná Slaná,36191655,2005-12-21,closed,Dobšinská 72,04923,Nižná Slaná,5313,63762,63762,301714,0,0,0,0,,,,,,,,,5015,66340,65796,168151,Not Reported,,Not Reported,,,,,,,,,,5015,66340,65982,168151,,,,,,,,,,,,
Slovakia,Operator Holding Account,VEGUM a. s.,44141211,2008-01-01,open,Gumárenská 337,97223,Dolné Vestenice,9626,9626,9626,5333,5333,5333,5333,5333,4553,4243,4838,4749,4659,4568,4476,4384,6453,5212,5096,4742,4528,4274,3791,3356,3433,2918,3205,3486,,,,,,11665,5096,4742,4528,4274,3791,3356,3433,2918,3205,3486,,,,
Slovakia,Operator Holding Account,"STEFE Zvolen, s.r.o.",31612300,2008-01-01,closed,Unionka 54,96001,Zvolen,6225,6225,6225,5825,5825,5825,5825,5825,3610,0,0,0,0,0,0,0,5481,4929,4443,4351,4220,4372,4106,3849,3699,,,,,,,,,10410,4443,4351,4220,4372,4106,3849,3699,,,,,,,
Slovakia,Operator Holding Account,"KVARTET, a.s.",35813954,2008-01-01,closed,Nitrianska cesta 503/60,95801,Partizánske,54967,54967,54967,39292,39292,39292,39292,39292,7421,7044,6675,0,0,0,0,0,41377,37207,28316,12751,0,0,0,0,2200,1984,2162,,,,,,,78584,28316,12751,,,,,2200,1984,2162,,,,,
Slovakia,Operator Holding Account,PRAKOENERG spol. s r.o.,31663672,2006-04-28,closed,Prakovce 13,05562,Prakovce,3466,3466,3466,,,,,,,,,,,,,,3056,2665,,,,Not Reported,,,,,,,,,,,,5721,,,,,,,,,,,,,,
Slovakia,Operator Holding Account,"Vatter Slovakia, a.s.",36388602,2006-04-28,closed,Andreja Hlinku 3,02201,Čadca,12486,12486,12486,3562,0,0,0,0,,,,,,,,,3663,3460,3400,3491,Not Reported,,Not Reported,,,,,,,,,,,7123,3400,3491,,,,,,,,,,,,
Slovakia,Operator Holding Account,"Slovenergie SK, a.s.",44089406,2008-01-01,closed,Hroncova 3,04001,Košice,7868,7868,7868,6037,6037,6037,6037,0,,,,,,,,,7580,4493,4093,4017,3980,4190,4093,Not Reported,,,,,,,,,,12073,4093,4017,3980,4190,4093,,,,,,,,,
Slovakia,Operator Holding Account,"Pezinské tehelne - Paneláreň, a.s.",35757540,2008-01-01,open,Tehelná 9,90201,Pezinok,8098,8098,8098,8946,8946,8946,8946,8946,7183,3529,6932,6804,6675,6545,6413,6281,6091,7346,8453,7586,5463,3804,5266,3620,3362,4359,4512,5066,,,,,,13437,8453,7586,5463,3804,5266,3620,3362,4359,4512,5066,,,,
Slovakia,Operator Holding Account,N1243 s.r.o.,45622159,2008-01-01,closed,Nad Plážou 4419/27,97401,Banská Bystrica,5422,5422,5422,4872,4872,4872,4872,4872,,,,,,,,,5422,4321,3472,1017,31,0,0,0,,,,,,,,,,9743,3472,1017,31,,,,,,,,,,,
Slovakia,Operator Holding Account,"PETROCHEMA, a.s.",31626424,2008-01-01,closed,Boženy Němcovej 1,09301,Vranov nad Topľou,8599,8599,8599,53756,53756,0,0,0,,,,,,,,,6364,3758,4779,6304,2936,,,,,,,,,,,,6364,3758,4779,6304,2936,,,,,,,,,,,
Slovakia,Operator Holding Account,K2 Business s. r. o.,46583912,2008-01-01,closed,Klincová 37/B,82108,Bratislava,,,,51671,51671,51671,51671,51671,7813,0,0,0,0,0,0,0,,,15804,15911,7795,12279,7617,4691,2389,,,,,,,,,,15804,15911,7795,6955,7617,,,,,,,,,
Slovakia,Operator Holding Account,"ENVIRAL, a.s.",36259233,2008-01-01,open,Trnavská cesta,92041,Leopoldov,,,,94462,94462,94462,94462,94462,61897,60822,59734,58636,57525,56402,55267,54127,,,12259,50252,60006,61023,63686,61754,64261,67251,67864,71412,,,,,,,12259,50252,60006,61023,63686,61754,64261,67251,67864,71412,,,,
Slovakia,Operator Holding Account,"Knauf Insulation, s.r.o.",31628109,2008-01-01,open,Železničný rad 24,96814,Nová Baňa,,,,62956,62956,62956,62956,62956,46628,45818,44999,44171,43334,42489,41633,40775,,,,60315,59529,56547,56385,53726,47682,48037,50587,57710,,,,,,,,60315,59529,56547,56385,53726,47682,48037,50587,57710,,,,
Slovakia,Operator Holding Account,LEVICKÉ MLIEKÁRNE a.s.,31412271,2008-01-01,open,Júrska cesta  č. 2,93401,Levice,,,,4640,4640,4640,4640,4640,4171,3988,3808,3632,2106,1963,1823,1686,,,,3641,3690,3259,3490,4238,4046,4721,2824,2246,,,,,,,,3641,3690,3259,3490,4238,4046,4721,2824,2246,,,,
Slovakia,Operator Holding Account,"MESTSKÝ BYTOVÝ PODNIK, s.r.o.",31632157,2008-01-01,open,Sedlišťská 1446/7,02001,Púchov,,,,12038,12038,12038,12038,12038,8764,7843,6947,6078,5237,4421,3633,2874,,,,10533,10502,10916,9780,9821,9784,8106,9030,9186,,,,,,,,10533,10502,10916,9780,9821,9784,8106,9030,9186,,,,
Slovakia,Operator Holding Account,"MeT Šaľa, spol. s r.o.",34115161,2008-01-01,closed,Partizánska 20,92701,Šaľa,,,,6297,6297,6297,6297,6297,4011,3416,3026,0,0,0,0,0,,,,5446,5300,5425,3156,2872,3244,2689,749,,,,,,,,,5446,5300,5425,3156,2872,3244,2689,749,,,,,
Slovakia,Operator Holding Account,"Nemocnica Poprad, a.s.",36513458,2008-01-01,closed,Banícka 803/28,05845,Poprad,,,,2448,2448,0,0,0,,,,,,,,,,,,3187,1708,,,,,,,,,,,,,,,3187,1709,,,,,,,,,,,
Slovakia,Operator Holding Account,"Slovalco, a.s.",31587011,2008-01-01,open,Priemyselná 14,96548,Žiar nad Hronom,,,,32659,32659,32659,32659,32659,266976,262336,257639,252893,248100,243256,238355,233437,,,,26940,24562,27412,26793,25322,286546,289472,297246,291160,,,,,,,,26940,24562,27412,26793,25322,286546,289472,297246,291160,,,,
Slovakia,Operator Holding Account,"SLOVNAFT, a.s.",31322832,2008-01-01,open,Vlčie hrdlo 1,82412,Bratislava,,,,456760,456760,456760,456760,456760,280862,275963,271008,266003,260942,255836,250665,245478,,,,353915,373568,367453,389674,280646,313160,250126,327779,347951,,,,,,,,353915,373568,367453,389674,280646,313160,250126,327779,347951,,,,
Slovakia,Operator Holding Account,"IKEA Industry Slovakia s.r.o., odštepný závod Malacky Boards",31354572,2008-01-01,open,Továrenská 2614/19,90101,Malacky,,,,2900,2900,2900,2900,2900,5916,5637,4406,3960,3527,3105,2698,2306,,,,1005,946,1088,936,1056,1014,1635,535,580,,,,,,,,1005,946,1088,936,1056,1014,1635,535,580,,,,
Slovakia,Operator Holding Account,"Wienerberger slovenské tehelne, spol. s r. o.",31418821,2008-01-01,closed,Tehelná,95301,Zlaté Moravce,,,,16215,16215,16215,16215,0,,,,,,,,,,,,13772,0,0,0,,,,,,,,,,,,,13772,,,,,,,,,,,,
Slovakia,Operator Holding Account,ŽIAROMAT a.s.,31633803,2008-01-01,open,Továrenská 1,98501,Kalinovo,,,,4694,4694,4694,4694,4694,3609,3547,3484,3419,3354,3290,3223,3156,,,,3270,2789,3078,3162,3110,3055,3031,2970,3051,,,,,,,,3270,2789,3078,3162,3110,3055,3031,2970,3051,,,,
Slovakia,Operator Holding Account,"COM-therm, spol. s r.o.",36525782,2008-01-01,closed,Miletičova 55,82109,Bratislava,,,,900,900,0,0,0,,,,,,,,,,,,684,0,,,,,,,,,,,,,,,684,,,,,,,,,,,,
Slovakia,Operator Holding Account,VAS s.r.o.,31587666,2008-01-01,open,Mojšová Lúčka,01176,Žilina,,,,6971,6971,6971,6971,6971,4790,4286,3797,3322,2861,2416,1986,1570,,,,4172,2338,3822,5518,5282,5076,5559,5329,6165,,,,,,,,4172,2338,3822,5518,5282,5076,5559,5329,6165,,,,
Slovakia,Operator Holding Account,Metsa Tissue Slovakia s.r.o.,36381306,2008-01-01,open,Celulózka 3494,01161,Žilina,,,,12267,26200,26200,26200,26200,26860,26375,25886,25393,24893,24391,23884,23374,,,,13025,12698,13556,13140,12666,13038,12620,12220,11872,,,,,,,,13025,12698,13556,13140,12666,13038,12620,12220,11872,,,,
Slovakia,Operator Holding Account,"SLOVINTEGRA ENERGY, a.s.",35968486,2008-01-01,open,Kutlíkova 17,85250,Bratislava,,,,46800,187200,187200,187200,187200,33031,29560,26187,22921,19757,16696,13734,10878,,,,48839,175718,178000,187222,187451,171419,174941,174104,169273,,,,,,,,48839,175718,178000,187222,187451,171419,174941,174104,169273,,,,
Slovakia,Operator Holding Account,"SMZ, a.s. Jelšava",31685340,2009-01-01,open,Teplá Voda 671,04916,Jelšava,,,,0,16000,16000,16000,16000,13545,13309,13072,12830,9510,9324,9137,8948,,,,0,8014,12800,12485,9582,11171,10200,13204,6447,,,,,,,,,8014,12800,12485,9582,11171,10200,13204,6447,,,,
Slovakia,Operator Holding Account,"CM European Power Slovakia, s. r. o.",44354258,2009-01-01,open,Vlčie Hrdlo 1,82412,Bratislava,,,,0,0,1150000,1150000,1150000,38599,34441,30488,26675,22980,19403,15943,12613,,,,,731039,938845,862067,800815,738067,572846,660975,752803,,,,,,,,,731039,938845,862067,800815,738067,572846,660975,752803,,,,
Slovakia,Operator Holding Account,Leier Baustoffe SK s.r.o.,35890509,2009-01-01,open,Pribylinská 3,83104,Bratislava,,,,0,0,52496,37056,37056,3845,7538,3711,7267,7129,6990,6849,6708,,,,,4416,8007,5547,3982,4595,3132,5034,9999,,,,,,,,,4416,8007,5547,3982,4595,3132,5034,9999,,,,
Slovakia,Operator Holding Account,"TONDACH SLOVENSKO, s.r.o.",31354912,2009-01-01,open,Železničná 53,90031,Stupava,,,,0,0,24624,12312,12312,0,0,0,0,0,0,0,0,,,,,2742,0,0,0,0,0,0,0,,,,,,,,,2742,,,,,,,,,,,
Slovakia,Operator Holding Account,"SHP SLAVOŠOVCE, a.s.",36200166,2009-01-01,open,Slavošovce 298,04936,Slavošovce,,,,0,0,18836,9418,9418,5858,5756,5653,5549,5444,5338,5231,5123,,,,,8498,8246,7334,7157,7566,6767,6453,7105,,,,,,,,,8498,8246,7334,7157,7566,6767,6453,7105,,,,
Slovakia,Operator Holding Account,Univerzitná nemocnica Bratislava,31813861,2009-01-01,closed,Pažitková 4,82101,Bratislava,,,,0,0,9000,4500,4500,3438,3077,0,0,0,0,0,0,,,,,4296,4624,4648,5253,5280,3577,,,,,,,,,,,4296,4624,4648,5253,5280,3577,,,,,,
Slovakia,Operator Holding Account,"COM-therm, spol. s r.o.",36525782,2010-03-02,open,Miletičova 55,82109,Bratislava,,,,0,0,15000,20000,20000,15202,13605,12052,10549,9093,7684,6321,5007,,,,,,14155,17510,16203,16546,15156,15863,16347,,,,,,,,,,14155,17510,16203,16546,15156,15863,16347,,,,
Slovakia,Operator Holding Account,"Stredoslovenská energetika - Project Development, s.r.o.",44225733,2010-07-26,open,Pri Rajčianke 8591/4B,01047,Žilina,,,,0,0,0,0,0,,,,,,,,,,,,,,369,1560,1967,869,932,894,342,,,,,,,,,,369,1560,1967,869,932,894,342,,,,
Slovakia,Operator Holding Account,E.ON Elektrárne s.r.o.,36239593,2010-12-23,open,SPP Kompresorová stanica 3,91933,Trakovice,,,,0,0,8116,0,999928,,,,,,,,,,,,,,8116,309779,163433,33970,336,364,201,,,,,,,,,,8116,309779,163433,33970,336,364,201,,,,
Slovakia,Operator Holding Account,"PPC Energy, a.s.",36798436,2011-01-14,open,Magnetová 12,83104,Bratislava,,,,0,0,0,318000,318000,,,,,,,,,,,,,,,3773,1527,857,756,152,25088,,,,,,,,,,,3773,1527,857,756,152,25088,,,,
Slovakia,Operator Holding Account,"DG-energy, a. s.",44663382,2011-08-01,open,Prievozská 4/B,82109,Bratislava,,,,0,0,0,0,0,,,,,,,,,,,,,,,401,1273,779,483,615,331,,,,,,,,,,,401,1273,779,483,615,331,,,,
Slovakia,Operator Holding Account,"DG-energy, a. s.",44663382,2011-08-11,open,Prievozská 4/B,82109,Bratislava,,,,0,0,0,0,0,,,,,,,,,,,,,,,478,1065,611,238,403,278,,,,,,,,,,,478,1065,611,238,403,278,,,,
Slovakia,Operator Holding Account,"DG-energy, a. s.",44663382,2011-09-19,open,Prievozská 4/B,82109,Bratislava,,,,0,0,0,0,0,,,,,,,,,,,,,,,396,1375,688,498,575,296,,,,,,,,,,,396,1375,688,498,575,296,,,,
Slovakia,Aircraft Operator Account,Travel Service Slovensko s. r. o.,47880627,2012-01-01,open,Ivanská cesta 30/B,82104,Bratislava,,,,,,,,51046,12065,12065,12065,12065,12065,12065,12065,12065,,,,,,,,47709,22162,24652,21425,14524,,,,,,,,,,,,47709,,46814,21425,14524,,,,
Slovakia,Operator Holding Account,"Slovenské elektrárne, a.s.",35829052,2013-01-01,open,Mlynské nivy 47,82109,Bratislava 2,,,,,,,,,1362,1219,1080,945,814,687,565,447,,,,,,,,,1867,1716,1772,2151,,,,,,,,,,,,,1867,1716,1772,2151,,,,
Slovakia,Operator Holding Account,"Heineken Slovensko Sladovne, a.s.",36541991,2013-01-01,closed,Novozámocká 2,94701,Hurbanovo,,,,,,,,,18261,17943,0,0,0,0,0,0,,,,,,,,,14664,10806,,,,,,,,,,,,,,,14664,10806,,,,,,
Slovakia,Operator Holding Account,"BUKÓZA ENERGO, a. s.",43806643,2013-01-01,open,Hencovská 2073,09302,Hencovce,,,,,,,,,362376,356071,349765,343460,168578,165425,162272,159120,,,,,,,,,227630,229081,213140,200038,,,,,,,,,,,,,227630,229081,213140,200038,,,,
Slovakia,Operator Holding Account,"SLOVAKIA STEEL MILLS, a.s. v konkurze",36772623,2013-01-01,open,Priemyselná 720,07222,Strážske,,,,,,,,,64908,74053,43789,14569,14301,14034,13766,13499,,,,,,,,,65180,29385,208,0,,,,,,,,,,,,,65180,29385,208,,,,,
Slovakia,Operator Holding Account,KYSUCA s.r.o.,31593488,2013-01-01,open,Matice slovenskej 620,02401,Kysucké Nové Mesto,,,,,,,,,9282,8307,7358,6438,5546,4683,3848,3044,,,,,,,,,2984,2635,1670,2244,,,,,,,,,,,,,2984,2635,1670,2244,,,,
Slovakia,Operator Holding Account,"TERMONOVA, a.s.",36322644,2013-01-01,open,SNP 98,01851,Nová Dubnica,,,,,,,,,,,,,,,,,,,,,,,,,0,0,0,0,,,,,,,,,,,,,,,,,,,,
Slovakia,Operator Holding Account,"Duslo, a.s.",35826487,2013-01-01,open,"Administratívna budova, ev. č. 1236",92703,Šaľa,,,,,,,,,13170,12942,12711,12476,12241,12001,11760,11517,,,,,,,,,14574,21801,13519,11662,,,,,,,,,,,,,14574,21801,13519,11662,,,,
Slovakia,Operator Holding Account,Kia Motors Slovakia s.r.o.,35876832,2013-01-01,open,Sv. Jána Nepomuckého 1282/1,01301,Teplička nad Váhom,,,,,,,,,22433,20077,27062,26565,26061,25553,25038,24522,,,,,,,,,31251,28939,30831,31444,,,,,,,,,,,,,31251,28939,30831,31444,,,,
Slovakia,Operator Holding Account,"KOVOHUTY, a.s.",36200867,2013-01-01,open,ul. 29. augusta 586,05342,Krompachy,,,,,,,,,27259,26785,26306,25822,25333,24839,24339,23837,,,,,,,,,25790,24210,31752,33523,,,,,,,,,,,,,25790,24210,31752,33523,,,,
Slovakia,Operator Holding Account,FORTISCHEM a. s.,46693874,2013-01-01,open,M. R. Štefánika 1,97271,Nováky,,,,,,,,,115733,113350,110974,108609,106253,103909,101593,99298,,,,,,,,,87830,82793,80196,91854,,,,,,,,,,,,,87830,82793,80196,91854,,,,
Slovakia,Operator Holding Account,NAFTA a.s.,36286192,2013-01-01,open,Votrubova 1,82109,Bratislava,,,,,,,,,0,25001,17434,15260,13154,11116,9144,7242,,,,,,,,,16469,19592,13948,20264,,,,,,,,,,,,,16469,19592,13948,20264,,,,
Slovakia,Operator Holding Account,"Jadrová a vyraďovacia spoločnosť, a.s.",35946024,2013-01-01,open,Tomášikova 22,82102,Bratislava,,,,,,,,,0,0,0,0,452,381,314,248,,,,,,,,,14,34,59,2607,,,,,,,,,,,,,14,34,59,2607,,,,
Slovakia,Operator Holding Account,"ZTS METALURG, a. s.",46933913,2013-12-19,open,Továrenská 56,01841,Dubnica nad Váhom,,,,,,,,,,,,,,,,,,,,,,,,,64,1323,671,893,,,,,,,,,,,,,,1387,671,893,,,,
Slovakia,Operator Holding Account,"OFZ, a.s.",36389030,2013-01-01,open,Široká 381,02741,Oravský Podzámok,,,,,,,,,223001,219128,215208,211248,207247,203205,199114,195008,,,,,,,,,165381,223117,239924,237403,,,,,,,,,,,,,165381,223117,239924,237403,,,,
Slovakia,Operator Holding Account,"BYTES, s.r.o.",31596908,2013-01-01,open,Bottova 1,96212,Detva,,,,,,,,,3240,2899,2569,2248,1938,1638,1347,1067,,,,,,,,,64,264,241,121,,,,,,,,,,,,,64,264,241,121,,,,
Slovakia,Operator Holding Account,Ferroenergy s.r.o.,50720937,2017-01-03,open,Vstupný areál U. S. Steel,04454,Košice,,,,,,,,,,,,,,31839,30396,28985,,,,,,,,,,,,,,,,,,,,,,,,,,,,,,,,
